,icaoId,receiptTime,obsTime,reportTime,temp,dewp,wdir,wspd,visib,altim,qcField,metarType,rawOb,lat,lon,elev,name,cover,clouds,fltCat,wgst,wxString,slp,precip,minT,maxT24,minT24,maxT,vertVis,orig_name,letterCode2,country,wchill
3880,BGBW,2026-02-27 03:56:42.854000+00:00,1772164200,2026-02-27T04:00:00.000Z,-12.0,-22.0,70,5.0,,1007.0,2,METAR,METAR BGBW 270350Z AUTO 07005KT 010V110 9999NDV ///110/// ///120/// M12/M22 Q1007 RMK /// ///,61.164,-45.42,49,Narssarssuaq Arpt,,,,,,,,,,,,,"Narssarssuaq Arpt, KJ, GL",GL,Greenland,-17.339085198840532
1451,BGGH,2026-02-27 03:53:14.819000+00:00,1772164200,2026-02-27T04:00:00.000Z,-15.0,-24.0,70,21.0,6+,1007.0,2,METAR,METAR BGGH 270350Z AUTO 07021KT 9999 FEW250/// M15/M24 Q1007,64.191,-51.677,76,Godthab/Nuuk Arpt,FEW,"[{'cover': 'FEW', 'base': 25000}]",VFR,,,,,,,,,,"Godthab/Nuuk Arpt, SM, GL",GL,Greenland,-27.27683822842402
1857,BGJN,2026-02-27 03:56:42.885000+00:00,1772164200,2026-02-27T04:00:00.000Z,-29.0,-38.0,170,8.0,,1017.0,2,METAR,METAR BGJN 270350Z AUTO 17008KT 9999NDV NCD M29/M38 Q1017,69.24,-51.064,22,Ilulissat Arpt,CLR,[],,,,,,,,,,,"Ilulissat Arpt, AV, GL",GL,Greenland,-40.06701922783671
2042,BGKK,2026-02-27 03:56:42.915000+00:00,1772164200,2026-02-27T04:00:00.000Z,-20.0,-31.0,320,4.0,,990.0,2,METAR,METAR BGKK 270350Z AUTO 32004KT 300V010 9999NDV NCD M20/M31 Q0990,65.575,-37.133,37,Kulusuk Arpt,CLR,[],,,,,,,,,,,"Kulusuk Arpt, SM, GL",GL,Greenland,-25.869966620199047
3450,BGSF,2026-02-27 03:56:42.946000+00:00,1772164200,2026-02-27T04:00:00.000Z,-31.0,-36.0,40,4.0,,1015.0,2,METAR,METAR BGSF 270350Z AUTO 04004KT 9999NDV NCD M31/M36 Q1015,67.013,-50.718,75,Stroemfjord Arpt,CLR,[],,,,,,,,,,,"Stroemfjord Arpt, QQ, GL",GL,Greenland,-38.70949031098055
3663,BGTL,2026-02-27 03:59:05.787000+00:00,1772164500,2026-02-27T04:00:00.000Z,-22.9,-26.5,140,32.0,0.25,1010.2,44,METAR,METAR BGTL 270355Z 14032KT 0400 R08/0550V0600 BLSN SQ VV006 M23/M26 A2983 RMK AO2A PK WND 14049/0258 CIG 002 RWY26 SLP088 T12291265 412291291 PNO TSNO $,76.527,-68.758,79,Thule,OVX,"[{'cover': 'OVX', 'base': 600}]",LIFR,,BLSN SQ,1008.8,,,-22.9,-29.1,,6.0,"Thule, AV, GL",GL,Greenland,-40.366669563519494
1911,BIKF,2026-02-27 03:33:13.413000+00:00,1772163000,2026-02-27T03:30:00.000Z,-6.0,-9.0,240,25.0,0.99,985.0,0,METAR,METAR BIKF 270330Z 24025KT 1600 -SHSN BLSN SCT016CB BKN030 BKN070 M06/M09 Q0985,63.987,-22.614,49,Keflavik Intl,BKN,"[{'cover': 'SCT', 'base': 1600}, {'cover': 'BKN', 'base': 3000}, {'cover': 'BKN', 'base': 7000}]",LIFR,,-SHSN BLSN,,,,,,,,"Keflavik Intl, SP, IS",IS,Iceland,-15.977523543655776
3229,BIRK,2026-02-27 03:36:40.764000+00:00,1772163360,2026-02-27T03:36:00.000Z,-5.0,-7.0,260,19.0,6+,985.0,0,SPECI,SPECI BIRK 270336Z 26019G33KT 9999 VCSH BLSN FEW002 BKN026 M05/M07 Q0985,64.129,-21.941,12,Reykjavik Arpt,BKN,"[{'cover': 'FEW', 'base': 200}, {'cover': 'BKN', 'base': 2600}]",MVFR,33.0,VCSH BLSN,,,,,,,,"Reykjavik Arpt, HO, IS",IS,Iceland,-13.565667814937017
2871,BKPR,2026-02-27 03:55:54.602000+00:00,1772164800,2026-02-27T04:00:00.000Z,-2.0,-3.0,320,2.0,6+,1027.0,16,METAR,METAR BKPR 270400Z 32002KT CAVOK M02/M03 Q1027 NOSIG,42.576,21.03,545,Pristina Intl,CAVOK,[],VFR,,,,,,,,,,"Pristina Intl, PR, XK",XK,,-3.1021888403884685
4076,CYBX,2026-02-27 03:52:12.831000+00:00,1772163960,2026-02-27T03:46:00.000Z,-2.0,-3.0,250,11.0,10+,1002.5,0,SPECI,SPECI CYBX 270346Z 25011KT 10SM OVC009 M02/M03 A2960 RMK SC8 SLP029,51.442,-57.188,32,Blanc Sablon Arpt,OVC,"[{'cover': 'OVC', 'base': 900}]",IFR,,,1002.9,,,,,,,"Blanc Sablon Arpt, QC, CA",CA,Canada,-7.801521530628624
4110,CYCB,2026-02-27 03:35:12.692000+00:00,1772162940,2026-02-27T03:29:00.000Z,-34.0,-38.0,260,21.0,1.25,1014.6,0,SPECI,SPECI CYCB 270329Z 26021KT 1 1/4SM BLSN SCT240 M34/M38 A2996 RMK BLSN1CI3 SLP155,69.106,-105.116,19,Cambridge Bay Arpt,SCT,"[{'cover': 'SCT', 'base': 24000}]",IFR,,BLSN,1015.5,,,,,,,"Cambridge Bay Arpt, NU, CA",CA,Canada,-52.604708464754964
4081,CYDF,2026-02-27 03:41:38.903000+00:00,1772163480,2026-02-27T03:38:00.000Z,-2.0,-2.0,0,0.0,3,1005.5,0,SPECI,SPECI CYDF 270338Z 00000KT 3SM -SHSN BKN011 OVC018 M02/M02 A2969 RMK SC5SC3 CVCTV CLD EMBD SLP056,49.212,-57.394,15,Deer Lake Arpt,OVC,"[{'cover': 'BKN', 'base': 1100}, {'cover': 'OVC', 'base': 1800}]",MVFR,,-SHSN,1005.6,,,,,,,"Deer Lake Arpt, NL, CA",CA,Canada,11.88366666666667
4069,CYDL,2026-02-27 03:51:55.068000+00:00,1772164260,2026-02-27T03:51:00.000Z,-14.0,-16.0,360,5.0,9,1007.9,2,SPECI,SPECI CYDL 270351Z AUTO 36005KT 320V080 9SM BKN071 M14/M16 A2976 RMK SLP129,58.426,-130.025,804,Dease Lake Arpt,BKN,"[{'cover': 'BKN', 'base': 7100}]",VFR,,,1012.9,,,,,,,"Dease Lake Arpt, BC, CA",CA,Canada,-19.713216368052635
4136,CYDQ,2026-02-27 03:15:53.850000+00:00,1772161980,2026-02-27T03:13:00.000Z,-18.0,-22.0,280,3.0,9,1014.3,2,SPECI,SPECI CYDQ 270313Z AUTO 28003KT 260V330 9SM FEW019 SCT048 BKN120 M18/M22 A2995 RMK SLP207,55.741,-120.188,658,Dawson Creek Arpt,BKN,"[{'cover': 'FEW', 'base': 1900}, {'cover': 'SCT', 'base': 4800}, {'cover': 'BKN', 'base': 12000}]",VFR,,,1020.7,,,,,,,"Dawson Creek Arpt, BC, CA",CA,Canada,-22.389485154672872
4032,CYEK,2026-02-27 04:00:39.084000+00:00,1772164560,2026-02-27T03:56:00.000Z,-38.0,-42.0,340,17.0,2,1012.6,2,SPECI,SPECI CYEK 270356Z AUTO 34017KT 2SM HZ CLR M38/M42 A2990 RMK SLP129,61.098,-94.072,7,Arviat/Eskimo Pt Arpt,CLR,[],IFR,,HZ,1012.9,,,,,,,"Arviat/Eskimo Pt Arpt, NU, CA",CA,Canada,-56.359563937509385
4075,CYET,2026-02-27 03:52:12.859000+00:00,1772164020,2026-02-27T03:47:00.000Z,-9.0,-13.0,320,7.0,9,1008.5,2,SPECI,SPECI CYET 270347Z AUTO 32007G15KT 9SM -SN OVC043 M09/M13 A2978 RMK PRESRR SLP145,53.58,-116.455,925,Edson Arpt,OVC,"[{'cover': 'OVC', 'base': 4300}]",VFR,15.0,-SN,1014.5,,,,,,,"Edson Arpt, AB, CA",CA,Canada,-14.956625285776644
4138,CYEV,2026-02-27 03:15:53.994000+00:00,1772161920,2026-02-27T03:12:00.000Z,-33.0,-36.0,0,0.0,15,1037.0,0,SPECI,SPECI CYEV 270312Z 00000KT 15SM FEW030 FEW250 M33/M36 A3062 RMK SC1CI1 SLP385,68.309,-133.5,74,Inuvik/Zubko Arpt,FEW,"[{'cover': 'FEW', 'base': 3000}, {'cover': 'FEW', 'base': 25000}]",VFR,,,1038.5,,,,,,,"Inuvik/Zubko Arpt, NT, CA",CA,Canada,-7.382833333333331
4144,CYGV,2026-02-27 03:11:43.912000+00:00,1772161620,2026-02-27T03:07:00.000Z,-4.0,-8.0,240,10.0,9,1003.5,2,SPECI,SPECI CYGV 270307Z AUTO 24010G20KT 9SM BKN037 M04/M08 A2963 RMK SLP039,50.286,-63.606,32,Havre St Pierre Arpt,BKN,"[{'cover': 'BKN', 'base': 3700}]",VFR,20.0,,1003.9,,,,,,,"Havre St Pierre Arpt, QC, CA",CA,Canada,-10.010405341288562
4080,CYGX,2026-02-27 03:45:39.338000+00:00,1772163600,2026-02-27T03:40:00.000Z,-24.0,-27.0,50,8.0,14,1007.5,0,SPECI,SPECI CYGX 270340Z 05008KT 14SM -SN OVC071 M24/M27 A2975 RMK AS8 SLP098,56.359,-94.704,145,Gillam Arpt,OVC,"[{'cover': 'OVC', 'base': 7100}]",VFR,,-SN,1009.8,,,,,,,"Gillam Arpt, MB, CA",CA,Canada,-33.91083688272171
4068,CYHE,2026-02-27 03:57:01.010000+00:00,1772164260,2026-02-27T03:51:00.000Z,10.0,3.0,280,13.0,9,1019.7,2,SPECI,SPECI CYHE 270351Z AUTO 28013G34KT 9SM BKN041 OVC049 10/03 A3011 RMK SLP200,49.37,-121.493,43,Hope Rgnl Airpark,OVC,"[{'cover': 'BKN', 'base': 4100}, {'cover': 'OVC', 'base': 4900}]",VFR,34.0,,1020.0,,,,,,,"Hope Rgnl Airpark, BC, CA",CA,Canada,7.031102984292501
4055,CYHK,2026-02-27 03:57:01.048000+00:00,1772164440,2026-02-27T03:54:00.000Z,-35.0,-39.0,250,19.0,2.25,1010.2,2,SPECI,SPECI CYHK 270354Z AUTO 25019KT 2 1/4SM HZ FEW004 OVC032 M35/M39 A2983 RMK SLP114,68.633,-95.851,36,Gjoa Haven Arpt,OVC,"[{'cover': 'FEW', 'base': 400}, {'cover': 'OVC', 'base': 3200}]",IFR,,HZ,1011.4,,,,,,,"Gjoa Haven Arpt, NU, CA",CA,Canada,-53.217937189213885
4116,CYIO,2026-02-27 03:24:40.447000+00:00,1772162460,2026-02-27T03:21:00.000Z,-34.0,-38.0,150,4.0,6,1007.9,2,SPECI,SPECI CYIO 270321Z AUTO 15004KT 6SM HZ BKN033 M34/M38 A2976 RMK ICE MISG SLP091,72.694,-77.957,61,Pond Inlet Arpt,BKN,"[{'cover': 'BKN', 'base': 3300}]",VFR,,HZ,1009.1,,,,,,,"Pond Inlet Arpt, NU, CA",CA,Canada,-42.2111785902846
4025,CYKJ,2026-02-27 04:00:39.107000+00:00,1772164620,2026-02-27T03:57:00.000Z,-20.0,-23.0,50,14.0,2.5,1003.1,2,SPECI,SPECI CYKJ 270357Z AUTO 05014G20KT 2 1/2SM -SN OVC029 M20/M23 A2962 RMK SLP086,57.256,-105.618,519,Key Lake Arpt,OVC,"[{'cover': 'OVC', 'base': 2900}]",IFR,20.0,-SN,1008.6,,,,,,,"Key Lake Arpt, SK, CA",CA,Canada,-31.76624037159731
4077,CYKL,2026-02-27 03:48:40.856000+00:00,1772163840,2026-02-27T03:44:00.000Z,-14.0,-17.0,280,11.0,6,996.7,2,SPECI,SPECI CYKL 270344Z AUTO 28011G20KT 6SM -SN OVC066 M14/M17 A2943 RMK SLP012,54.803,-66.804,507,Schefferville Arpt,OVC,"[{'cover': 'OVC', 'base': 6600}]",VFR,20.0,-SN,1001.2,,,,,,,"Schefferville Arpt, QC, CA",CA,Canada,-22.958832294058876
4248,CYMJ,2026-02-27 03:21:43.339000+00:00,1772162040,2026-02-27T03:14:00.000Z,3.0,-3.0,320,15.0,15,998.7,0,SPECI,SPECI CYMJ 270314Z 32015G21KT 250V330 15SM FEW250 03/M03 A2949 RMK CI1 DENSITY ALT 1418FT LAST OBS /NEXT 271200 UTC SLP010,50.33,-105.559,578,Moose Jaw Arpt,FEW,"[{'cover': 'FEW', 'base': 25000}]",VFR,21.0,,1001.0,,,,,,,"Moose Jaw Arpt, SK, CA",CA,Canada,-2.3242783444158692
4177,CYMM,2026-02-27 03:52:12.884000+00:00,1772164200,2026-02-27T03:50:00.000Z,-20.0,-23.0,330,15.0,1.25,1010.9,2,SPECI,SPECI CYMM 270350Z AUTO 33015G23KT 1 1/4SM -SN OVC024 M20/M23 A2985 RMK PRESRR SLP147,56.65,-111.221,371,Fort McMurray Arpt,OVC,"[{'cover': 'OVC', 'base': 2400}]",IFR,23.0,-SN,1014.7,,,,,,,"Fort McMurray Arpt, AB, CA",CA,Canada,-32.12657904419291
4178,CYMT,2026-02-27 03:52:12.919000+00:00,1772164200,2026-02-27T03:50:00.000Z,-19.0,-21.0,250,2.0,9,1009.6,2,SPECI,SPECI CYMT 270350Z AUTO 25002KT 9SM -SN OVC027 M19/M21 A2981 RMK SLP135,49.779,-74.527,388,Chibougamau Arpt,OVC,"[{'cover': 'OVC', 'base': 2700}]",MVFR,,-SN,1013.5,,,,,,,"Chibougamau Arpt, QC, CA",CA,Canada,-21.971194656625574
4240,CYNE,2026-02-27 03:21:43.364000+00:00,1772162220,2026-02-27T03:17:00.000Z,-13.0,-16.0,90,6.0,1.25,1000.1,2,SPECI,SPECI CYNE 270317Z AUTO 09006KT 1 1/4SM -SN OVC020 M13/M16 A2953 RMK SLP025,53.958,-97.845,220,Norway House Arpt,OVC,"[{'cover': 'OVC', 'base': 2000}]",IFR,,-SN,1002.5,,,,,,,"Norway House Arpt, MB, CA",CA,Canada,-19.223946993426225
4238,CYOD,2026-02-27 03:24:40.577000+00:00,1772162340,2026-02-27T03:19:00.000Z,-9.0,-13.0,320,24.0,15,1002.1,0,SPECI,SPECI CYOD 270319Z 32024G29KT 15SM -SHSN OVC020 M09/M13 A2959 RMK SC8 DENSITY ALT -596FT PRESRR SLP051,54.41,-110.287,540,Cold Lake,OVC,"[{'cover': 'OVC', 'base': 2000}]",MVFR,29.0,-SHSN,1005.1,,,,,,,"Cold Lake , AB, CA",CA,Canada,-19.857559752903633
4150,CYOJ,2026-02-27 04:01:48.855000+00:00,1772164860,2026-02-27T04:01:00.000Z,-27.0,-31.0,350,16.0,6,1020.1,2,SPECI,SPECI CYOJ 270401Z AUTO 35016G22KT 6SM -SN BKN039 M27/M31 A3012 RMK SLP249,58.628,-117.174,339,High Level Arpt,BKN,"[{'cover': 'BKN', 'base': 3900}]",VFR,22.0,-SN,1024.9,,,,,,,"High Level Arpt, AB, CA",CA,Canada,-41.58652824796502
4194,CYOO,2026-02-27 03:41:47.409000+00:00,1772163660,2026-02-27T03:41:00.000Z,-11.0,-13.0,350,2.0,9,1013.6,2,SPECI,SPECI CYOO 270341Z AUTO 35002KT 9SM BKN022 M11/M13 A2993 RMK SLP147,43.921,-78.899,136,Oshawa Arpt,BKN,"[{'cover': 'BKN', 'base': 2200}]",MVFR,,,1014.7,,,,,,,"Oshawa Arpt, ON, CA",CA,Canada,-13.091662507808117
4191,CYPH,2026-02-27 03:45:39.568000+00:00,1772163720,2026-02-27T03:42:00.000Z,-23.0,-25.0,300,11.0,7,1003.8,2,SPECI,SPECI CYPH 270342Z AUTO 30011KT 7SM -SN OVC014 M23/M25 A2964 RMK SLP044,58.47,-78.08,24,Inukjuak Arpt,OVC,"[{'cover': 'OVC', 'base': 1400}]",MVFR,,-SN,1004.4,,,,,,,"Inukjuak Arpt, QC, CA",CA,Canada,-34.326815366631564
4222,CYPR,2026-02-27 03:32:13.022000+00:00,1772162940,2026-02-27T03:29:00.000Z,1.0,-1.0,220,11.0,9,1015.7,2,SPECI,SPECI CYPR 270329Z AUTO 22011KT 190V250 9SM FEW055 SCT110 01/M01 A2999 RMK ICE PAST HR SLP159,54.291,-130.451,30,Prince Rupert Arpt,SCT,"[{'cover': 'FEW', 'base': 5500}, {'cover': 'SCT', 'base': 11000}]",VFR,,,1015.9,,,,,,,"Prince Rupert Arpt, BC, CA",CA,Canada,-4.012193839771064
4167,CYQD,2026-02-27 04:00:39.131000+00:00,1772164560,2026-02-27T03:56:00.000Z,-13.0,-16.0,100,12.0,0.75,995.7,2,SPECI,SPECI CYQD 270356Z AUTO 10012G18KT 3/4SM -SN VV011 M13/M16 A2940 RMK SLP986,53.975,-101.089,268,The Pas Arpt,OVX,"[{'cover': 'OVX', 'base': 1100}]",LIFR,18.0,-SN,998.6,,,,,,11.0,"The Pas Arpt, MB, CA",CA,Canada,-22.07063645244408
4165,CYQF,2026-02-27 04:00:39.152000+00:00,1772164680,2026-02-27T03:58:00.000Z,-5.0,-7.0,350,14.0,2,1007.2,2,SPECI,SPECI CYQF 270358Z AUTO 35014G21KT 2SM -SN OVC032 M05/M07 A2974 RMK VIS VRB 1 3/4-3 SLP123,52.179,-113.903,912,Red Deer Rgnl,OVC,"[{'cover': 'OVC', 'base': 3200}]",IFR,21.0,-SN,1012.3,,,,,,,"Red Deer Rgnl, AB, CA",CA,Canada,-12.440987982671475
4237,CYTH,2026-02-27 03:21:43.428000+00:00,1772162340,2026-02-27T03:19:00.000Z,-17.0,-21.0,60,11.0,15,1003.8,0,SPECI,SPECI CYTH 270319Z 06011KT 15SM -SN DRSN SCT032 OVC063 M17/M21 A2964 RMK SC4SC4 SLP067,55.803,-97.846,212,Thompson Arpt,OVC,"[{'cover': 'SCT', 'base': 3200}, {'cover': 'OVC', 'base': 6300}]",VFR,,-SN DRSN,1006.7,,,,,,,"Thompson Arpt, MB, CA",CA,Canada,-26.748159984916434
4190,CYUX,2026-02-27 03:45:39.883000+00:00,1772163720,2026-02-27T03:42:00.000Z,-39.0,-43.0,330,11.0,4,1009.6,2,SPECI,SPECI CYUX 270342Z AUTO 33011KT 4SM HZ OVC008 M39/M43 A2981 RMK SLP098,68.772,-81.233,8,Hall Beach Arpt,OVC,"[{'cover': 'OVC', 'base': 800}]",IFR,,HZ,1009.8,,,,,,,"Hall Beach Arpt, NU, CA",CA,Canada,-54.53656305120522
4184,CYVO,2026-02-27 03:52:12.945000+00:00,1772164020,2026-02-27T03:47:00.000Z,-16.0,-19.0,170,5.0,6,1009.2,2,SPECI,SPECI CYVO 270347Z AUTO 17005KT 6SM -SN OVC033 M16/M19 A2980 RMK SLP129,48.056,-77.779,329,Val D'Or Arpt,OVC,"[{'cover': 'OVC', 'base': 3300}]",VFR,,-SN,1012.9,,,,,,,"Val D'Or Arpt, QC, CA",CA,Canada,-22.087347537264733
4164,CYVT,2026-02-27 03:59:58.654000+00:00,1772164740,2026-02-27T03:59:00.000Z,-13.0,-16.0,350,15.0,1.5,1001.1,2,SPECI,SPECI CYVT 270359Z AUTO 35015G26KT 1 1/2SM -SN OVC026 M13/M16 A2956 RMK SLP051,55.842,-108.418,438,Buffalo Narrows Arpt,OVC,"[{'cover': 'OVC', 'base': 2600}]",IFR,26.0,-SN,1005.1,,,,,,,"Buffalo Narrows Arpt, SK, CA",CA,Canada,-23.056313613825985
4187,CYVV,2026-02-27 03:48:40.952000+00:00,1772163900,2026-02-27T03:45:00.000Z,-7.0,-10.0,180,9.0,3,1011.3,0,SPECI,SPECI CYVV 270345Z 18009KT 3SM -SN OVC027 M07/M10 A2986 RMK SC8 SLP127,44.745,-81.107,221,Wiarton Arpt,OVC,"[{'cover': 'OVC', 'base': 2700}]",MVFR,,-SN,1012.7,,,,,,,"Wiarton Arpt, ON, CA",CA,Canada,-13.393702280619284
4152,CYWK,2026-02-27 04:02:14.991000+00:00,1772164860,2026-02-27T04:01:00.000Z,-16.0,-19.0,280,6.0,6,999.7,2,SPECI,SPECI CYWK 270401Z AUTO 28006KT 6SM -SN SCT015 BKN024 M16/M19 A2952 RMK SLP048,52.927,-66.874,547,Wabush Lake Arpt,BKN,"[{'cover': 'SCT', 'base': 1500}, {'cover': 'BKN', 'base': 2400}]",MVFR,,-SN,1004.8,,,,,,,"Wabush Lake Arpt, NL, CA",CA,Canada,-22.835367843483894
4197,CYXJ,2026-02-27 03:45:40.146000+00:00,1772163600,2026-02-27T03:40:00.000Z,-19.0,-22.0,360,8.0,1,1015.0,0,SPECI,SPECI CYXJ 270340Z 36008KT 1SM R30/4500VP6000FT/N -SN DRSN VV010 M19/M22 A2997 RMK SN8 SLP215,56.247,-120.737,700,Fort St John/N Peace Rgnl,OVX,"[{'cover': 'OVX', 'base': 1000}]",IFR,,DRSN -SN,1021.5,,,,,,10.0,"Fort St John/N Peace Rgnl, BC, CA",CA,Canada,-27.754654537606708
4195,CYXR,2026-02-27 03:41:38.994000+00:00,1772163600,2026-02-27T03:40:00.000Z,-14.0,-16.0,340,2.0,5,1008.9,2,SPECI,SPECI CYXR 270340Z AUTO 34002KT 5SM -SN BKN055 OVC068 M14/M16 A2979 RMK ICE INTMT SLP112,47.698,-79.852,244,Earlton Arpt,OVC,"[{'cover': 'BKN', 'base': 5500}, {'cover': 'OVC', 'base': 6800}]",MVFR,,-SN,1011.2,,,,,,,"Earlton Arpt, ON, CA",CA,Canada,-16.421487063614663
4163,CYYB,2026-02-27 03:59:53.743000+00:00,1772164740,2026-02-27T03:59:00.000Z,-8.0,-9.0,200,9.0,6,1009.2,2,SPECI,SPECI CYYB 270359Z AUTO 20009KT 6SM -SN FEW005 BKN010 OVC020 M08/M09 A2980 RMK SLP119,46.365,-79.423,360,North Bay/Garland Arpt,OVC,"[{'cover': 'FEW', 'base': 500}, {'cover': 'BKN', 'base': 1000}, {'cover': 'OVC', 'base': 2000}]",MVFR,,-SN,1011.9,,,,,,,"North Bay/Garland Arpt, ON, CA",CA,Canada,-14.636538363329622
4151,CYYD,2026-02-27 04:01:50.045000+00:00,1772164860,2026-02-27T04:01:00.000Z,-2.0,-5.0,120,3.0,3,1010.2,2,SPECI,SPECI CYYD 270401Z AUTO 12003KT 080V140 3SM -SN OVC022 M02/M05 A2983 RMK SLP126,54.823,-127.185,527,Smithers Arpt,OVC,"[{'cover': 'OVC', 'base': 2200}]",MVFR,,-SN,1012.6,,,,,,,"Smithers Arpt, BC, CA",CA,Canada,-4.106616046788002
4254,CYYE,2026-02-27 03:15:54.279000+00:00,1772161800,2026-02-27T03:10:00.000Z,-23.0,-26.0,340,6.0,4,1023.1,0,SPECI,SPECI CYYE 270310Z 34006KT 4SM -SN BKN024 OVC063 M23/M26 A3021 RMK SC6SC2 SLP278,58.839,-122.59,379,Fort Nelson Arpt,OVC,"[{'cover': 'BKN', 'base': 2400}, {'cover': 'OVC', 'base': 6300}]",MVFR,,-SN,1027.8,,,,,,,"Fort Nelson Arpt, BC, CA",CA,Canada,-31.262016493618432
4261,CYYL,2026-02-27 03:07:43.897000+00:00,1772161440,2026-02-27T03:04:00.000Z,-18.0,-21.0,60,10.0,9,1002.8,2,SPECI,SPECI CYYL 270304Z AUTO 06010G16KT 9SM -SN OVC055 M18/M21 A2961 RMK SLP069,56.863,-101.073,351,Lynn Lake Arpt,OVC,"[{'cover': 'OVC', 'base': 5500}]",VFR,16.0,-SN,1006.9,,,,,,,"Lynn Lake Arpt, MB, CA",CA,Canada,-27.557993489121458
4239,CYYR,2026-02-27 03:24:40.969000+00:00,1772162280,2026-02-27T03:18:00.000Z,-7.0,-8.0,210,2.0,15,998.7,0,SPECI,SPECI CYYR 270318Z 21002KT 15SM -SN FEW036 BKN049 M07/M08 A2949 RMK SC1SC5 DENSITY ALT -2048FT PCPN VRY LGT CIG PDMTLY TRANSPARENT SLP991,53.32,-60.417,42,Goose Bay Arpt,BKN,"[{'cover': 'FEW', 'base': 3600}, {'cover': 'BKN', 'base': 4900}]",VFR,,-SN,999.1,,,,,,,"Goose Bay Arpt, NL, CA",CA,Canada,-8.651896433399381
4209,CYYU,2026-02-27 03:35:13.094000+00:00,1772163180,2026-02-27T03:33:00.000Z,-15.0,-17.0,80,4.0,1.5,1008.2,0,SPECI,SPECI CYYU 270333Z 08004KT 1 1/2SM -SN VV031 M15/M17 A2977 RMK SN8 SLP107,49.416,-82.47,228,Kapuskasing Arpt,OVX,"[{'cover': 'OVX', 'base': 3100}]",IFR,,-SN,1010.7,,,,,,31.0,"Kapuskasing Arpt, ON, CA",CA,Canada,-20.033819488025642
4179,CYYW,2026-02-27 03:52:13.060000+00:00,1772164200,2026-02-27T03:50:00.000Z,-18.0,-20.0,190,2.0,9,1005.8,2,SPECI,SPECI CYYW 270350Z AUTO 19002KT 9SM OVC029 M18/M20 A2970 RMK SLP104,50.296,-88.912,320,Armstrong Arpt,OVC,"[{'cover': 'OVC', 'base': 2900}]",MVFR,,,1010.4,,,,,,,"Armstrong Arpt, ON, CA",CA,Canada,-20.861253138023386
4166,CYZE,2026-02-27 04:00:39.182000+00:00,1772164620,2026-02-27T03:57:00.000Z,-4.0,-5.0,200,10.0,9,1008.5,2,SPECI,SPECI CYZE 270357Z AUTO 20010KT 9SM -SN BKN020 OVC030 M04/M05 A2978 RMK SLP099,45.885,-82.57,189,Gore Bay/Manitoulin Arpt,OVC,"[{'cover': 'BKN', 'base': 2000}, {'cover': 'OVC', 'base': 3000}]",MVFR,,-SN,1009.9,,,,,,,"Gore Bay/Manitoulin Arpt, ON, CA",CA,Canada,-10.010405341288562
4174,CYZP,2026-02-27 03:57:01.223000+00:00,1772164260,2026-02-27T03:51:00.000Z,1.0,-1.0,200,7.0,4,1017.0,2,SPECI,SPECI CYZP 270351Z AUTO 20007KT 4SM -SN SCT022 OVC029 01/M01 A3003 RMK SLP170,53.254,-131.814,7,Sandspit Arpt,OVC,"[{'cover': 'SCT', 'base': 2200}, {'cover': 'OVC', 'base': 2900}]",MVFR,,-SN,1017.0,,,,,,,"Sandspit Arpt, BC, CA",CA,Canada,-2.773149174861113
4170,CZBF,2026-02-27 03:57:01.249000+00:00,1772164500,2026-02-27T03:55:00.000Z,-5.0,-10.0,290,8.0,9,1009.6,2,SPECI,SPECI CZBF 270355Z AUTO 29008KT 260V340 9SM FEW018 M05/M10 A2981 RMK SLP101,47.628,-65.746,60,Bathurst Arpt,FEW,"[{'cover': 'FEW', 'base': 1800}]",VFR,,,1010.1,,,,,,,"Bathurst Arpt, NB, CA",CA,Canada,-10.517343971284717
202,DAAG,2026-02-27 03:36:19.558000+00:00,1772163000,2026-02-27T03:30:00.000Z,12.0,11.0,0,0.0,1.55,1025.0,0,METAR,METAR DAAG 270330Z 00000KT 2500 BR BKN005 12/11 Q1025,36.691,3.215,18,Algiers Intl,BKN,"[{'cover': 'BKN', 'base': 500}]",IFR,,BR,,,,,,,,"Algiers Intl, BM, DZ",DZ,Algeria,20.58466666666667
3733,DAAT,2026-02-27 03:36:19.596000+00:00,1772163000,2026-02-27T03:30:00.000Z,13.0,-15.0,90,6.0,6+,1023.0,0,METAR,METAR DAAT 270330Z 09006KT CAVOK 13/M15 Q1023,22.824,5.452,1372,Tamanrasset/Aguenar-Hadj Bei Arpt,CAVOK,[],VFR,,,,,,,,,,"Tamanrasset/Aguenar-Hadj Bei Arpt, TA, DZ",DZ,Algeria,12.075033707073512
212,DABB,2026-02-27 04:01:29.982000+00:00,1772163000,2026-02-27T03:30:00.000Z,7.0,6.0,230,3.0,2.49,1025.0,1,METAR,METAR DABB 270330Z COR 23003KT 4000 BR FEW006 07/06 Q1025,36.822,7.809,3,Annaba/Bitat Arpt,FEW,"[{'cover': 'FEW', 'base': 600}]",IFR,,BR,,,,,,,,"Annaba/Bitat Arpt, ET, DZ",DZ,Algeria,6.177497826397239
933,DABC,2026-02-27 03:36:19.622000+00:00,1772163000,2026-02-27T03:30:00.000Z,6.0,4.0,0,0.0,6+,1027.0,0,METAR,METAR DABC 270330Z 00000KT CAVOK 06/04 Q1027,36.278,6.629,686,Constantine/Boudiaf Arpt,CAVOK,[],VFR,,,,,,,,,,"Constantine/Boudiaf Arpt, CO, DZ",DZ,Algeria,16.855666666666668
2772,DAOO,2026-02-27 03:36:19.652000+00:00,1772163000,2026-02-27T03:30:00.000Z,11.0,11.0,360,5.0,0.25,1023.0,0,METAR,METAR DAOO 270330Z 36005KT 0400 FG BKN010 11/11 Q1023,35.623,-0.624,87,Oran/Es-Sénia Arpt,BKN,"[{'cover': 'BKN', 'base': 1000}]",LIFR,,FG,,,,,,,,"Oran/Es-Sénia Arpt, OR, DZ",DZ,Algeria,9.963423247098614
217,DIAP,2026-02-27 03:39:23.179000+00:00,1772163000,2026-02-27T03:30:00.000Z,27.0,25.0,210,4.0,6+,1010.0,16,METAR,METAR DIAP 270330Z 21004KT 9999 FEW012 27/25 Q1010 NOSIG,5.261,-3.926,4,Abidjan/Boigny Intl,FEW,"[{'cover': 'FEW', 'base': 1200}]",VFR,,,,,,,,,,"Abidjan/Boigny Intl, AB, CI",CI,Côte d'Ivoire,28.989816422230977
2359,DTMB,2026-02-27 03:36:45.234000+00:00,1772163000,2026-02-27T03:30:00.000Z,11.0,11.0,160,5.0,3.73,1025.0,0,METAR,METAR DTMB 270330Z 16005KT 6000 NSC 11/11 Q1025,35.758,10.755,1,Monastir/Bourguiba Intl,CLR,[],MVFR,,,,,,,,,,"Monastir/Bourguiba Intl, MO, TN",TN,Tunisia,9.963423247098614
2580,DTNH,2026-02-27 03:36:45.274000+00:00,1772163000,2026-02-27T03:30:00.000Z,10.0,10.0,0,0.0,0.93,1025.0,0,METAR,METAR DTNH 270330Z 00000KT 1500 BR FEW020 10/10 Q1025,36.074,10.436,1,Enfidha/Mammamet Arpt,FEW,"[{'cover': 'FEW', 'base': 2000}]",LIFR,,BR,,,,,,,,"Enfidha/Mammamet Arpt, SO, TN",TN,Tunisia,19.341666666666665
3931,DTTA,2026-02-27 03:36:45.306000+00:00,1772163000,2026-02-27T03:30:00.000Z,11.0,11.0,140,3.0,4.97,1025.0,0,METAR,METAR DTTA 270330Z 14003KT 8000 FEW023 11/11 Q1025,36.851,10.227,4,Tunis/Carthage Intl,FEW,"[{'cover': 'FEW', 'base': 2300}]",MVFR,,,,,,,,,,"Tunis/Carthage Intl, AR, TN",TN,Tunisia,10.74821510336845
924,DTTJ,2026-02-27 03:36:45.337000+00:00,1772163000,2026-02-27T03:30:00.000Z,11.0,11.0,170,2.0,1.86,1025.0,0,METAR,METAR DTTJ 270330Z 17002KT 3000 BR NSC 11/11 Q1025,33.875,10.775,3,Djerba/Zarzis Intl,CLR,[],IFR,,BR,,,,,,,,"Djerba/Zarzis Intl, ME, TN",TN,Tunisia,11.3270509014399
133,EBAW,2026-02-27 03:56:47.354000+00:00,1772164200,2026-02-27T04:00:00.000Z,10.0,8.0,170,7.0,6+,1016.0,2,METAR,METAR EBAW 270350Z AUTO 17007KT 9999 // VV/// 10/08 Q1016,51.189,4.46,7,Antwerp Intl,OVX,[],VFR,,,,,,,,,,"Antwerp Intl, VA, BE",BE,Belgium,8.191979324962865
392,EBBR,2026-02-27 03:55:36.701000+00:00,1772164200,2026-02-27T04:00:00.000Z,10.0,8.0,180,10.0,6+,1016.0,16,METAR,METAR EBBR 270350Z 18010KT CAVOK 10/08 Q1016 NOSIG,50.896,4.526,49,Brussels Intl,CAVOK,[],VFR,,,,,,,,,,"Brussels Intl, VL, BE",BE,Belgium,7.5371828065443305
886,EBCI,2026-02-27 03:55:36.771000+00:00,1772164200,2026-02-27T04:00:00.000Z,11.0,8.0,180,7.0,6+,1017.0,16,METAR,METAR EBCI 270350Z 18007KT CAVOK 11/08 Q1017 NOSIG,50.459,4.454,176,Charleroi Arpt,CAVOK,[],VFR,,,,,,,,,,"Charleroi Arpt, WH, BE",BE,Belgium,9.410326936054416
2050,EBLG,2026-02-27 03:55:36.829000+00:00,1772164200,2026-02-27T04:00:00.000Z,11.0,8.0,180,13.0,6+,1017.0,16,METAR,METAR EBLG 270350Z 18013G26KT CAVOK 11/08 Q1017 NOSIG,50.637,5.443,187,Bierset/Liège Arpt,CAVOK,[],VFR,26.0,,,,,,,,,"Bierset/Liège Arpt, WL, BE",BE,Belgium,8.311592810628984
2725,EBOS,2026-02-27 03:55:36.893000+00:00,1772164200,2026-02-27T04:00:00.000Z,9.0,7.0,180,8.0,6+,1014.0,16,METAR,METAR EBOS 270350Z 18008KT 9999 FEW025 09/07 Q1014 NOSIG,51.199,2.862,5,Oostende-Bruges Intl,FEW,"[{'cover': 'FEW', 'base': 2500}]",VFR,,,,,,,,,,"Oostende-Bruges Intl, VH, BE",BE,Belgium,6.719966595037279
132,EDAC,2026-02-27 03:56:47.390000+00:00,1772164200,2026-02-27T04:00:00.000Z,8.0,6.0,190,4.0,6+,1021.0,2,METAR,METAR EDAC 270350Z AUTO 19004KT 9999 // NCD 08/06 Q1021,50.982,12.506,193,Altenburg Arpt,CLR,[],VFR,,,,,,,,,,"Altenburg Arpt, ID, DE",DE,Germany,6.812457319972031
887,EDBC,2026-02-27 03:55:48.144000+00:00,1772164200,2026-02-27T04:00:00.000Z,7.0,5.0,190,6.0,6+,1019.0,2,METAR,METAR EDBC 270350Z AUTO 19006KT CAVOK 07/05 Q1019,51.856,11.42,178,Magdeburg/Cochstedt Arpt,CAVOK,[],VFR,,,,,,,,,,"Magdeburg/Cochstedt Arpt, ST, DE",DE,Germany,4.8521920069581945
403,EDDB,2026-02-27 03:53:30.049000+00:00,1772164200,2026-02-27T04:00:00.000Z,5.0,5.0,180,6.0,6+,1019.0,18,METAR,METAR EDDB 270350Z AUTO 18006KT CAVOK 05/05 Q1019 NOSIG,52.3807,13.5306,48,Berlin/Brandenburg Intl,CAVOK,[],VFR,,,,,,,,,,"Berlin/Brandenburg Intl, BR, DE",DE,Germany,2.4445781069197556
893,EDDC,2026-02-27 03:53:30.097000+00:00,1772164200,2026-02-27T04:00:00.000Z,4.0,4.0,170,6.0,6+,1021.0,2,METAR,METAR EDDC 270350Z AUTO 17006KT 150V210 CAVOK 04/04 Q1021,51.128,13.7543,227,Dresden Arpt,CAVOK,[],VFR,,,,,,,,,,"Dresden Arpt, SN, DE",DE,Germany,1.2407711569005286
1170,EDDE,2026-02-27 03:53:30.141000+00:00,1772164200,2026-02-27T04:00:00.000Z,8.0,7.0,190,3.0,6+,1020.0,2,METAR,METAR EDDE 270350Z AUTO 19003KT CAVOK 08/07 Q1020,50.983,10.961,314,Erfurt Arpt,CAVOK,[],VFR,,,,,,,,,,"Erfurt Arpt, TH, DE",DE,Germany,7.320177145640041
1149,EDDF,2026-02-27 03:56:25.743000+00:00,1772164200,2026-02-27T04:00:00.000Z,2.0,2.0,60,3.0,0.4,1020.0,18,METAR,METAR EDDF 270350Z AUTO 06003KT 0650 0300 R25R/0650N R25C/P2000N R25L/0500D R18/1300U FG VV003 02/02 Q1020 NOSIG,50.045,8.598,113,Frankfurt/Main Arpt,OVX,"[{'cover': 'OVX', 'base': 300}]",LIFR,,FG,,,,,,,3.0,"Frankfurt/Main Arpt, HE, DE",DE,Germany,0.4641012301832169
1171,EDDG,2026-02-27 03:53:30.183000+00:00,1772164200,2026-02-27T04:00:00.000Z,10.0,8.0,180,6.0,6+,1016.0,18,METAR,METAR EDDG 270350Z AUTO 18006KT 160V220 CAVOK 10/08 Q1016 NOSIG,52.135,7.697,46,Münster/Osnabrück Arpt,CAVOK,[],VFR,,,,,,,,,,"Münster/Osnabrück Arpt, NT, DE",DE,Germany,8.463612857015855
1452,EDDH,2026-02-27 03:53:24.636000+00:00,1772164200,2026-02-27T04:00:00.000Z,10.0,8.0,160,7.0,6+,1015.0,18,METAR,METAR EDDH 270350Z AUTO 16007KT 9999 FEW033 BKN045 10/08 Q1015 NOSIG,53.633,9.988,8,Hamburg Arpt,BKN,"[{'cover': 'FEW', 'base': 3300}, {'cover': 'BKN', 'base': 4500}]",VFR,,,,,,,,,,"Hamburg Arpt, HH, DE",DE,Germany,8.191979324962865
652,EDDK,2026-02-27 03:53:24.702000+00:00,1772164200,2026-02-27T04:00:00.000Z,10.0,7.0,130,6.0,6+,1018.0,18,METAR,METAR EDDK 270350Z AUTO 13006KT CAVOK 10/07 Q1018 NOSIG,50.865,7.157,92,Koln-Bonn Arpt,CAVOK,[],VFR,,,,,,,,,,"Koln-Bonn Arpt, NT, DE",DE,Germany,8.463612857015855
1169,EDDL,2026-02-27 03:53:24.765000+00:00,1772164200,2026-02-27T04:00:00.000Z,10.0,8.0,150,10.0,6+,1017.0,18,METAR,METAR EDDL 270350Z AUTO 15010KT CAVOK 10/08 Q1017 NOSIG,51.296,6.769,37,Düsseldorf Intl,CAVOK,[],VFR,,,,,,,,,,"Düsseldorf Intl, NT, DE",DE,Germany,7.5371828065443305
2545,EDDM,2026-02-27 03:56:47.429000+00:00,1772164200,2026-02-27T04:00:00.000Z,0.0,-1.0,120,2.0,2.8,1023.0,2,METAR,METAR EDDM 270350Z AUTO 12002KT 4500 0600 R26R/0650D R26L/P2000N BCFG FEW002 M00/M01 Q1023 TEMPO 1200 BCFG,48.348,11.813,445,Munich Intl,FEW,"[{'cover': 'FEW', 'base': 200}]",IFR,,BCFG,,,,,,,,"Munich Intl, BY, DE",DE,Germany,-0.8823058031841057
2719,EDDN,2026-02-27 03:56:47.459000+00:00,1772164200,2026-02-27T04:00:00.000Z,2.0,2.0,120,6.0,0.37,1023.0,2,METAR,METAR EDDN 270350Z AUTO 12006KT 0600 0550 R10/0650U FG VV006 02/02 Q1023,49.503,11.055,312,Nurnberg Arpt,OVX,"[{'cover': 'OVX', 'base': 600}]",LIFR,,FG,,,,,,,6.0,"Nurnberg Arpt, BY, DE",DE,Germany,-1.1668427431379098
2068,EDDP,2026-02-27 03:53:30.231000+00:00,1772164200,2026-02-27T04:00:00.000Z,6.0,5.0,170,10.0,6+,1020.0,18,METAR,METAR EDDP 270350Z AUTO 17010KT CAVOK 06/05 Q1020 NOSIG,51.435,12.24,129,Leipzig/Halle Arpt,CAVOK,[],VFR,,,,,,,,,,"Leipzig/Halle Arpt, SN, DE",DE,Germany,2.5235861928777896
3220,EDDR,2026-02-27 03:53:30.282000+00:00,1772164200,2026-02-27T04:00:00.000Z,10.0,6.0,210,6.0,6+,1020.0,2,METAR,METAR EDDR 270350Z AUTO 21006KT CAVOK 10/06 Q1020,49.213,7.108,317,Saarbrücken Arpt,CAVOK,[],VFR,,,,,,,,,,"Saarbrücken Arpt, SL, DE",DE,Germany,8.463612857015855
3455,EDDS,2026-02-27 03:56:25.851000+00:00,1772164200,2026-02-27T04:00:00.000Z,3.0,3.0,80,2.0,6+,1021.0,2,METAR,METAR EDDS 270350Z AUTO 08002KT 9999 1100 R07/P2000N BR NCD 03/03 Q1021,48.69,9.222,374,Stuttgart Arpt,CLR,[],VFR,,BR,,,,,,,,"Stuttgart Arpt, BW, DE",DE,Germany,2.4475187526224413
1453,EDDV,2026-02-27 03:53:25.005000+00:00,1772164200,2026-02-27T04:00:00.000Z,10.0,7.0,180,7.0,6+,1017.0,18,METAR,METAR EDDV 270350Z AUTO 18007KT CAVOK 10/07 Q1017 NOSIG,52.466,9.68,53,Hannover Arpt,CAVOK,[],VFR,,,,,,,,,,"Hannover Arpt, NI, DE",DE,Germany,8.191979324962865
404,EDDW,2026-02-27 03:53:30.334000+00:00,1772164200,2026-02-27T04:00:00.000Z,9.0,7.0,170,7.0,6+,1015.0,18,METAR,METAR EDDW 270350Z AUTO 17007KT CAVOK 09/07 Q1015 NOSIG,53.047,8.787,5,Bremen Arpt,CAVOK,[],VFR,,,,,,,,,,"Bremen Arpt, HB, DE",DE,Germany,6.973631713871313
1693,EDFH,2026-02-27 03:55:33.329000+00:00,1772164200,2026-02-27T04:00:00.000Z,9.0,7.0,190,7.0,6+,1019.0,0,METAR,METAR EDFH 270350Z 19007KT CAVOK 09/07 Q1019,49.946,7.265,494,Frankfurt/Hahn Arpt,CAVOK,[],VFR,,,,,,,,,,"Frankfurt/Hahn Arpt, RP, DE",DE,Germany,6.973631713871313
2302,EDFM,2026-02-27 03:55:33.401000+00:00,1772164200,2026-02-27T04:00:00.000Z,9.0,8.0,160,5.0,6+,1021.0,0,METAR,METAR EDFM 270350Z 16005KT CAVOK 09/08 Q1021,49.474,8.515,94,Mannheim City Arpt,CAVOK,[],VFR,,,,,,,,,,"Mannheim City Arpt, BW, DE",DE,Germany,7.589292077886522
3459,EDGS,2026-02-27 03:55:48.187000+00:00,1772164200,2026-02-27T04:00:00.000Z,8.0,8.0,200,7.0,6+,1019.0,2,METAR,METAR EDGS 270350Z AUTO 20007KT 9999 // NCD 08/08 Q1019,50.708,8.083,595,Siegerland Arpt,CLR,[],VFR,,,,,,,,,,"Siegerland Arpt, NT, DE",DE,Germany,5.755284102779758
4071,EDHI,2026-02-27 04:01:10.935000+00:00,1772164200,2026-02-27T04:00:00.000Z,10.0,8.0,200,9.0,6+,1015.0,2,METAR,METAR EDHI 270350Z AUTO 20009KT 9999 // FEW027/// BKN038/// 10/08 Q1015,53.536,9.837,5,Hamburg/FinkenwerderR Arpt,BKN,"[{'cover': 'FEW', 'base': 2700}, {'cover': 'BKN', 'base': 3800}]",VFR,,,,,,,,,,"Hamburg/FinkenwerderR Arpt, HH, DE",DE,Germany,7.7345111254565495
1871,EDHK,2026-02-27 04:01:10.962000+00:00,1772164200,2026-02-27T04:00:00.000Z,10.0,7.0,220,8.0,6+,1014.0,2,METAR,METAR EDHK 270350Z AUTO 22008KT 9999 // FEW024/// BKN027/// BKN031/// 10/07 Q1014,54.376,10.143,24,Kiel/Holtenau Arpt,BKN,"[{'cover': 'FEW', 'base': 2400}, {'cover': 'BKN', 'base': 2700}, {'cover': 'BKN', 'base': 3100}]",MVFR,,,,,,,,,,"Kiel/Holtenau Arpt, SH, DE",DE,Germany,7.951203064060274
2051,EDHL,2026-02-27 03:56:47.498000+00:00,1772164200,2026-02-27T04:00:00.000Z,10.0,8.0,190,10.0,6+,1015.0,2,METAR,METAR EDHL 270350Z AUTO 19010KT 9999 // BKN050/// BKN230/// 10/08 Q1015,53.805,10.719,13,Lübeck Arpt,BKN,"[{'cover': 'BKN', 'base': 5000}, {'cover': 'BKN', 'base': 23000}]",VFR,,,,,,,,,,"Lübeck Arpt, SH, DE",DE,Germany,7.5371828065443305
1160,EDJA,2026-02-27 03:56:25.925000+00:00,1772164200,2026-02-27T04:00:00.000Z,2.0,0.0,180,3.0,6+,1023.0,2,METAR,METAR EDJA 270350Z AUTO 18003KT 9999 // SCT140/// 02/M00 Q1023,47.989,10.239,625,Memmingerberg Arpt,SCT,"[{'cover': 'SCT', 'base': 14000}]",VFR,,,,,,,,,,"Memmingerberg Arpt, BY, DE",DE,Germany,0.4641012301832169
2298,EDLN,2026-02-27 03:56:47.524000+00:00,1772164200,2026-02-27T04:00:00.000Z,9.0,7.0,160,3.0,6+,1017.0,2,METAR,METAR EDLN 270350Z AUTO 16003KT 9999 // NCD 09/07 Q1017,51.23,6.504,38,Monchengladbach Arpt,CLR,[],VFR,,,,,,,,,,"Monchengladbach Arpt, NW, DE",DE,Germany,8.462856464882849
2965,EDLP,2026-02-27 03:55:48.306000+00:00,1772164200,2026-02-27T04:00:00.000Z,12.0,7.0,190,10.0,6+,1018.0,0,METAR,METAR EDLP 270350Z 19010KT CAVOK 12/07 Q1018,51.614,8.616,211,Paderborn Arpt,CAVOK,[],VFR,,,,,,,,,,"Paderborn Arpt, NT, DE",DE,Germany,10.043981113377608
2722,EDLV,2026-02-27 03:55:33.482000+00:00,1772164200,2026-02-27T04:00:00.000Z,10.0,8.0,180,5.0,6+,1016.0,0,METAR,METAR EDLV 270350Z 18005KT CAVOK 10/08 Q1016,51.602,6.142,27,Weeze Arpt,CAVOK,[],VFR,,,,,,,,,,"Weeze Arpt, NT, DE",DE,Germany,8.776357662492565
1146,EDLW,2026-02-27 03:56:47.564000+00:00,1772164200,2026-02-27T04:00:00.000Z,11.0,7.0,190,9.0,6+,1017.0,2,METAR,METAR EDLW 270350Z AUTO 19009KT 9999 // NCD 11/07 Q1017,51.518,7.612,122,Dortmund Arpt,CLR,[],VFR,,,,,,,,,,"Dortmund Arpt, NT, DE",DE,Germany,8.977347208166893
137,EDMA,2026-02-27 03:56:47.589000+00:00,1772164200,2026-02-27T04:00:00.000Z,3.0,1.0,140,4.0,6+,1023.0,2,METAR,METAR EDMA 270350Z AUTO 14004KT 9999 // NCD 03/01 Q1023,48.425,10.932,462,Augsberg Arpt,CLR,[],VFR,,,,,,,,,,"Augsberg Arpt, BY, DE",DE,Germany,0.9763101877986221
2727,EDMO,2026-02-27 03:55:49.068000+00:00,1772164200,2026-02-27T04:00:00.000Z,3.0,2.0,200,5.0,6+,1023.0,2,METAR,METAR EDMO 270350Z AUTO 20005KT CAVOK 03/02 Q1023,48.081,11.283,587,Oberpfaffenhofe Arpt,CAVOK,[],VFR,,,,,,,,,,"Oberpfaffenhofe Arpt, BY, DE",DE,Germany,0.46689857025021475
1158,EDNY,2026-02-27 03:56:47.614000+00:00,1772164200,2026-02-27T04:00:00.000Z,1.0,0.0,80,2.0,4.97,1024.0,2,METAR,METAR EDNY 270350Z AUTO 08002KT 8000 // NCD 01/00 Q1024,47.671,9.511,411,Friedrichshafen Arpt,CLR,[],MVFR,,,,,,,,,,"Friedrichshafen Arpt, BW, DE",DE,Germany,0.2276357154180807
1690,EDQM,2026-02-27 03:56:47.641000+00:00,1772164200,2026-02-27T04:00:00.000Z,4.0,4.0,170,4.0,0.62,1021.0,2,METAR,METAR EDQM 270350Z AUTO 17004KT 140V200 1000 R26/1300D // NCD 04/04 Q1021,50.289,11.86,578,Hof/Plauen Arpt,CLR,[],LIFR,,,,,,,,,,"Hof/Plauen Arpt, BY, DE",DE,Germany,2.143539614233304
1159,EDSB,2026-02-27 03:55:48.502000+00:00,1772164200,2026-02-27T04:00:00.000Z,4.0,4.0,VRB,1.0,6+,1021.0,0,METAR,METAR EDSB 270350Z VRB01KT 9999 BCFG NSC 04/04 Q1021,48.779,8.081,122,Baden Arpt,CLR,[],VFR,,BCFG,,,,,,,,"Baden Arpt, BW, DE",DE,Germany,4.822954707534809
2045,EDTL,2026-02-27 04:01:10.991000+00:00,1772164200,2026-02-27T04:00:00.000Z,5.0,4.0,0,0.0,6+,1021.0,2,METAR,METAR EDTL 270350Z AUTO 00000KT 9999 // NCD 05/04 Q1021,48.369,7.828,152,Lahr/Black Forest Arpt,CLR,[],VFR,,,,,,,,,,"Lahr/Black Forest Arpt, BW, DE",DE,Germany,16.234166666666667
643,EDVE,2026-02-27 03:55:49.198000+00:00,1772164200,2026-02-27T04:00:00.000Z,10.0,8.0,180,6.0,6+,1018.0,2,METAR,METAR EDVE 270350Z AUTO 18006KT CAVOK 10/08 Q1018,52.319,10.558,83,Braunschweig Arpt,CAVOK,[],VFR,,,,,,,,,,"Braunschweig Arpt, NI, DE",DE,Germany,8.463612857015855
2047,EDVK,2026-02-27 03:56:47.666000+00:00,1772164200,2026-02-27T04:00:00.000Z,6.0,6.0,100,3.0,0.16,1019.0,2,METAR,METAR EDVK 270350Z AUTO 10003KT 050V180 0250 0200 R09/0250N // NCD 06/06 Q1019,51.421,9.388,262,Kassel/Calden Arpt,CLR,[],LIFR,,,,,,,,,,"Kassel/Calden Arpt, HE, DE",DE,Germany,5.034818507154431
1152,EDWE,2026-02-27 03:55:33.628000+00:00,1772164200,2026-02-27T04:00:00.000Z,10.0,7.0,210,11.0,6+,1014.0,2,METAR,METAR EDWE 270350Z AUTO 21011KT CAVOK 10/07 Q1014,53.388,7.229,0,Emden Arpt,CAVOK,[],VFR,,,,,,,,,,"Emden Arpt, NI, DE",DE,Germany,7.355789232801619
1433,EDXW,2026-02-27 04:01:11.019000+00:00,1772164200,2026-02-27T04:00:00.000Z,6.0,6.0,220,16.0,2.24,1011.0,2,METAR,METAR EDXW 270350Z AUTO 22016KT 3600 // BKN004/// OVC010/// 06/06 Q1011,54.913,8.341,8,Westerland/Sylt Arpt,OVC,"[{'cover': 'BKN', 'base': 400}, {'cover': 'OVC', 'base': 1000}]",LIFR,,,,,,,,,,"Westerland/Sylt Arpt, SH, DE",DE,Germany,1.4042453289829144
1874,EEKA,2026-02-27 03:51:30.733000+00:00,1772164200,2026-02-27T04:00:00.000Z,3.0,3.0,220,9.0,1.93,1010.0,2,METAR,METAR EEKA 270350Z AUTO 22009KT 180V250 3100 BR OVC002/// 03/03 Q1010,58.991,22.831,6,Kärdla Arpt,OVC,"[{'cover': 'OVC', 'base': 200}]",LIFR,,BR,,,,,,,,"Kärdla Arpt, HI, EE",EE,Estonia,-0.9653414535158531
3901,EEKE,2026-02-27 03:51:30.824000+00:00,1772164200,2026-02-27T04:00:00.000Z,1.0,1.0,200,11.0,0.68,1012.0,2,METAR,METAR EEKE 270350Z AUTO 20011KT 1100 R17/1300N BR VV002 01/01 Q1012,58.23,22.509,4,Kuressaare Arpt,OVX,"[{'cover': 'OVX', 'base': 200}]",LIFR,,BR,,,,,,,2.0,"Kuressaare Arpt, SA, EE",EE,Estonia,-4.012193839771064
1164,EEPU,2026-02-27 03:51:31.025000+00:00,1772164200,2026-02-27T04:00:00.000Z,1.0,-1.0,200,19.0,6+,1013.0,2,METAR,METAR EEPU 270350Z AUTO 20019KT 9999 OVC011/// 01/M01 Q1013,58.419,24.473,13,Pärnu Arpt,OVC,"[{'cover': 'OVC', 'base': 1100}]",MVFR,,,,,,,,,,"Pärnu Arpt, PA, EE",EE,Estonia,-5.635213940081639
3692,EETN,2026-02-27 03:56:25.188000+00:00,1772164200,2026-02-27T04:00:00.000Z,1.0,1.0,200,12.0,1.37,1010.0,0,METAR,METAR EETN 270350Z 20012KT 2200 DZ BR OVC003 01/01 Q1010 TEMPO 1000,59.413,24.801,41,Tallin Arpt,OVC,"[{'cover': 'OVC', 'base': 300}]",LIFR,,DZ BR,,,,,,,,"Tallin Arpt, HA, EE",EE,Estonia,-4.261179533112544
3704,EETU,2026-02-27 03:51:30.927000+00:00,1772164200,2026-02-27T04:00:00.000Z,1.0,-2.0,210,13.0,6+,1014.0,2,METAR,METAR EETU 270350Z AUTO 21013KT 9999 OVC015/// 01/M02 Q1014,58.307,26.691,67,Tartu Arpt,OVC,"[{'cover': 'OVC', 'base': 1500}]",MVFR,,,,,,,,,,"Tartu Arpt, TA, EE",EE,Estonia,-4.493305452735829
1166,EFET,2026-02-27 03:53:13.047000+00:00,1772164200,2026-02-27T04:00:00.000Z,-10.0,-12.0,100,3.0,6+,1002.0,2,METAR,METAR EFET 270350Z AUTO 10003KT 070V230 9999 OVC011 M10/M12 Q1002,68.363,23.424,300,Enontekio Arpt,OVC,"[{'cover': 'OVC', 'base': 1100}]",MVFR,,,,,,,,,,"Enontekio Arpt, LL, FI",FI,Finland,-13.24805060073044
1876,EFHA,2026-02-27 03:53:12.501000+00:00,1772164200,2026-02-27T04:00:00.000Z,2.0,2.0,220,8.0,4.35,1002.0,2,METAR,METAR EFHA 270350Z AUTO 22008KT 7000 -DZ OVC005 02/02 Q1002,61.855,24.805,144,Halli Arpt,OVC,"[{'cover': 'OVC', 'base': 500}]",IFR,,-DZ,,,,,,,,"Halli Arpt, KS, FI",FI,Finland,-1.8986886881237177
1700,EFHK,2026-02-27 03:51:24.876000+00:00,1772164200,2026-02-27T04:00:00.000Z,2.0,1.0,210,17.0,2.49,1007.0,16,METAR,METAR EFHK 270350Z 21017KT 4000 -DZ BKN003 02/01 Q1007 NOSIG,60.327,24.957,56,Helsinki/Vantaa Arpt,BKN,"[{'cover': 'BKN', 'base': 300}]",LIFR,,-DZ,,,,,,,,"Helsinki/Vantaa Arpt, UU, FI",FI,Finland,-3.9839256144102597
1873,EFIV,2026-02-27 03:51:25.469000+00:00,1772164200,2026-02-27T04:00:00.000Z,-10.0,-12.0,50,3.0,6+,1007.0,2,METAR,METAR EFIV 270350Z AUTO 05003KT 9999 -SN OVC016 M10/M12 Q1007,68.607,27.405,145,Ivalo Arpt,OVC,"[{'cover': 'OVC', 'base': 1600}]",MVFR,,-SN,,,,,,,,"Ivalo Arpt, LL, FI",FI,Finland,-13.24805060073044
1877,EFJO,2026-02-27 03:53:12.691000+00:00,1772164200,2026-02-27T04:00:00.000Z,-2.0,-3.0,160,10.0,2.61,1003.0,2,METAR,METAR EFJO 270350Z AUTO 16010KT 4200 -SN OVC003 M02/M03 Q1003,62.66,29.611,118,Joensuu Arpt,OVC,"[{'cover': 'OVC', 'base': 300}]",LIFR,,-SN,,,,,,,,"Joensuu Arpt, PK, FI",FI,Finland,-7.50360703445529
1875,EFJY,2026-02-27 03:53:12.360000+00:00,1772164200,2026-02-27T04:00:00.000Z,1.0,0.0,200,6.0,5.59,1001.0,2,METAR,METAR EFJY 270350Z AUTO 20006KT 9000 -DZ OVC004 01/00 Q1001,62.404,25.675,139,Jyväskylä Arpt,OVC,"[{'cover': 'OVC', 'base': 400}]",LIFR,,-DZ,,,,,,,,"Jyväskylä Arpt, KS, FI",FI,Finland,-2.370649693157133
1878,EFKE,2026-02-27 03:53:13.112000+00:00,1772164200,2026-02-27T04:00:00.000Z,-4.0,-5.0,80,6.0,3.73,1001.0,2,METAR,METAR EFKE 270350Z AUTO 08006KT 040V100 6000 -SN OVC035 M04/M05 Q1001,65.784,24.579,15,Kemi/Tornio Arpt,OVC,"[{'cover': 'OVC', 'base': 3500}]",MVFR,,-SN,,,,,,,,"Kemi/Tornio Arpt, LL, FI",FI,Finland,-8.389684443253236
1879,EFKI,2026-02-27 03:53:13.178000+00:00,1772164200,2026-02-27T04:00:00.000Z,-4.0,-5.0,120,10.0,2.8,1000.0,2,METAR,METAR EFKI 270350Z AUTO 12010KT 4500 -SN OVC027 M04/M05 Q1000,64.283,27.673,132,Kajaani Arpt,OVC,"[{'cover': 'OVC', 'base': 2700}]",IFR,,-SN,,,,,,,,"Kajaani Arpt, PP, FI",FI,Finland,-10.010405341288562
2066,EFKK,2026-02-27 03:53:12.565000+00:00,1772164200,2026-02-27T04:00:00.000Z,0.0,0.0,240,4.0,5.59,999.0,2,METAR,METAR EFKK 270350Z AUTO 24004KT 210V270 9000 OVC002 00/00 Q0999,63.721,23.143,25,Kruunupyy Arpt,OVC,"[{'cover': 'OVC', 'base': 200}]",LIFR,,,,,,,,,,"Kruunupyy Arpt, KP, FI",FI,Finland,-2.525378091505422
1880,EFKS,2026-02-27 03:53:13.249000+00:00,1772164200,2026-02-27T04:00:00.000Z,-8.0,-9.0,100,11.0,4.35,1003.0,2,METAR,METAR EFKS 270350Z AUTO 10011KT 7000 -SHSN OVC006 M08/M09 Q1003,65.992,29.236,270,Kuusamo Arpt,OVC,"[{'cover': 'OVC', 'base': 600}]",IFR,,-SHSN,,,,,,,,"Kuusamo Arpt, PP, FI",FI,Finland,-15.38017691234375
2067,EFKT,2026-02-27 03:53:13.310000+00:00,1772164200,2026-02-27T04:00:00.000Z,-8.0,-9.0,110,5.0,6+,1003.0,2,METAR,METAR EFKT 270350Z AUTO 11005KT 9999 OVC005 M08/M09 Q1003,67.701,24.847,190,Kittilä Arpt,OVC,"[{'cover': 'OVC', 'base': 500}]",IFR,,,,,,,,,,"Kittilä Arpt, LL, FI",FI,Finland,-12.590822860416331
2065,EFKU,2026-02-27 03:53:12.435000+00:00,1772164200,2026-02-27T04:00:00.000Z,-1.0,-1.0,160,7.0,4.97,1001.0,2,METAR,METAR EFKU 270350Z AUTO 16007KT 8000 -SN OVC005 M01/M01 Q1001,63.008,27.799,92,Kuopio Arpt,OVC,"[{'cover': 'OVC', 'base': 500}]",IFR,,-SN,,,,,,,,"Kuopio Arpt, PS, FI",FI,Finland,-5.209844397044219
2313,EFLP,2026-02-27 03:53:12.754000+00:00,1772164200,2026-02-27T04:00:00.000Z,0.0,0.0,210,10.0,4.97,1006.0,2,METAR,METAR EFLP 270350Z AUTO 21010KT 8000 OVC003 00/M00 Q1006,61.044,28.151,102,Lappeenranta Arpt,OVC,"[{'cover': 'OVC', 'base': 300}]",LIFR,,,,,,,,,,"Lappeenranta Arpt, EK, FI",FI,Finland,-4.996808727622021
2311,EFMA,2026-02-27 03:51:25.381000+00:00,1772164200,2026-02-27T04:00:00.000Z,2.0,2.0,200,6.0,6+,1006.0,2,METAR,METAR EFMA 270350Z AUTO 20006KT 9999 OVC009 02/02 Q1006,60.125,19.903,6,Mariehamn Arpt,OVC,"[{'cover': 'OVC', 'base': 900}]",IFR,,,,,,,,,,"Mariehamn Arpt, AH, FI",FI,Finland,-1.1668427431379098
2314,EFMI,2026-02-27 03:53:12.814000+00:00,1772164200,2026-02-27T04:00:00.000Z,1.0,0.0,200,6.0,6+,1003.0,2,METAR,METAR EFMI 270350Z AUTO 20006KT 170V230 9999 OVC004 01/00 Q1003,61.687,27.201,99,Mikkeli Arpt,OVC,"[{'cover': 'OVC', 'base': 400}]",LIFR,,,,,,,,,,"Mikkeli Arpt, ES, FI",FI,Finland,-2.370649693157133
2734,EFOU,2026-02-27 03:51:25.194000+00:00,1772164200,2026-02-27T04:00:00.000Z,-3.0,-4.0,110,8.0,2.17,1000.0,2,METAR,METAR EFOU 270350Z AUTO 11008KT 3500 -SN FEW006 OVC019 M03/M04 Q1000,64.93,25.355,15,Oulu Arpt,OVC,"[{'cover': 'FEW', 'base': 600}, {'cover': 'OVC', 'base': 1900}]",IFR,,-SN,,,,,,,,"Oulu Arpt, PP, FI",FI,Finland,-8.054871033238715
2971,EFPO,2026-02-27 03:53:12.624000+00:00,1772164200,2026-02-27T04:00:00.000Z,3.0,2.0,240,8.0,6+,1003.0,2,METAR,METAR EFPO 270350Z AUTO 24008KT 9999 OVC005 03/02 Q1003,61.462,21.8,10,Pori Arpt,OVC,"[{'cover': 'OVC', 'base': 500}]",IFR,,,,,,,,,,"Pori Arpt, EK, FI",FI,Finland,-0.6674522191007229
3214,EFRO,2026-02-27 03:51:25.284000+00:00,1772164200,2026-02-27T04:00:00.000Z,-6.0,-7.0,70,10.0,4.35,1002.0,2,METAR,METAR EFRO 270350Z AUTO 07010KT 7000 -SN FEW008 OVC041 M06/M07 Q1002,66.562,25.829,201,Rovaniemi Arpt,OVC,"[{'cover': 'FEW', 'base': 800}, {'cover': 'OVC', 'base': 4100}]",MVFR,,-SN,,,,,,,,"Rovaniemi Arpt, LL, FI",FI,Finland,-12.517203648121834
3473,EFSA,2026-02-27 03:53:12.878000+00:00,1772164200,2026-02-27T04:00:00.000Z,0.0,-1.0,190,11.0,6+,1004.0,2,METAR,METAR EFSA 270350Z AUTO 19011KT 9999 OVC005 M00/M01 Q1004 REFZRA,61.943,28.945,90,Savonlinna Arpt,OVC,"[{'cover': 'OVC', 'base': 500}]",IFR,,,,,,,,,,"Savonlinna Arpt, ES, FI",FI,Finland,-5.275303070056919
3474,EFSI,2026-02-27 03:53:12.942000+00:00,1772164200,2026-02-27T04:00:00.000Z,1.0,1.0,250,7.0,6+,1000.0,2,METAR,METAR EFSI 270350Z AUTO 25007KT 210V280 9999 OVC002 01/01 Q1000,62.693,22.83,90,Seinajoki/Ilmajoki Arpt,OVC,"[{'cover': 'OVC', 'base': 200}]",LIFR,,,,,,,,,,"Seinajoki/Ilmajoki Arpt, EP, FI",FI,Finland,-2.773149174861113
3702,EFTP,2026-02-27 03:51:24.952000+00:00,1772164200,2026-02-27T04:00:00.000Z,2.0,2.0,230,13.0,6+,1003.0,2,METAR,METAR EFTP 270350Z AUTO 23013KT 9999 OVC003 02/02 Q1003,61.419,23.616,111,Tampere/Pirkkala Arpt,OVC,"[{'cover': 'OVC', 'base': 300}]",LIFR,,,,,,,,,,"Tampere/Pirkkala Arpt, PI, FI",FI,Finland,-3.212815626399345
3703,EFTU,2026-02-27 03:51:25.032000+00:00,1772164200,2026-02-27T04:00:00.000Z,2.0,2.0,230,7.0,1.43,1005.0,2,METAR,METAR EFTU 270350Z AUTO 23007KT 2300 DZ OVC001 02/02 Q1005,60.514,22.263,47,Turku Arpt,OVC,"[{'cover': 'OVC', 'base': 100}]",LIFR,,DZ,,,,,,,,"Turku Arpt, VS, FI",FI,Finland,-1.5548015637695576
3902,EFUT,2026-02-27 03:53:13+00:00,1772164200,2026-02-27T04:00:00.000Z,1.0,1.0,210,10.0,1.68,1005.0,2,METAR,METAR EFUT 270350Z AUTO 21010KT 2700 -DZ OVC001 01/01 Q1005,60.896,26.938,104,Utti Arpt,OVC,"[{'cover': 'OVC', 'base': 100}]",LIFR,,-DZ,,,,,,,,"Utti Arpt, KY, FI",FI,Finland,-3.743409574205386
3900,EFVA,2026-02-27 03:51:25.112000+00:00,1772164200,2026-02-27T04:00:00.000Z,0.0,0.0,270,8.0,6+,1001.0,2,METAR,METAR EFVA 270350Z AUTO 27008KT 9999 -FZDZ OVC003 M00/M00 Q1001,63.051,21.762,4,Vaasa Arpt,OVC,"[{'cover': 'OVC', 'base': 300}]",LIFR,,-FZDZ,,,,,,,,"Vaasa Arpt, PO, FI",FI,Finland,-4.36116162616972
389,EGAA,2026-02-27 03:54:44.199000+00:00,1772164200,2026-02-27T04:00:00.000Z,7.0,6.0,220,8.0,5.59,1004.0,2,METAR,METAR EGAA 270350Z AUTO 22008KT 9000 NCD 07/06 Q1004,54.654,-6.225,65,Belfast Intl,CLR,[],VFR,,,,,,,,,,"Belfast Intl, NI, GB",GB,United Kingdom,4.257493656991282
390,EGAC,2026-02-27 03:54:44.284000+00:00,1772164200,2026-02-27T04:00:00.000Z,8.0,6.0,220,7.0,6+,1005.0,2,METAR,METAR EGAC 270350Z AUTO 22007KT 200V260 9999 NCD 08/06 Q1005,54.614,-5.873,2,Belfast/Harbour Arpt,CLR,[],VFR,,,,,,,,,,"Belfast/Harbour Arpt, NI, GB",GB,United Kingdom,5.755284102779758
399,EGBB,2026-02-27 03:54:42.415000+00:00,1772164200,2026-02-27T04:00:00.000Z,8.0,7.0,20,4.0,1.24,1006.0,0,METAR,METAR EGBB 270350Z 02004KT 2000 RA BKN003 OVC010 08/07 Q1006,52.46,-1.758,91,Birmingham Intl,OVC,"[{'cover': 'BKN', 'base': 300}, {'cover': 'OVC', 'base': 1000}]",LIFR,,RA,,,,,,,,"Birmingham Intl, EN, GB",GB,United Kingdom,6.812457319972031
2301,EGCC,2026-02-27 03:54:52.014000+00:00,1772164200,2026-02-27T04:00:00.000Z,8.0,6.0,220,3.0,6+,1007.0,2,METAR,METAR EGCC 270350Z AUTO 22003KT 150V280 9999 -RA SCT045 08/06 Q1007,53.354,-2.275,78,Manchester Intl,SCT,"[{'cover': 'SCT', 'base': 4500}]",VFR,,-RA,,,,,,,,"Manchester Intl, EN, GB",GB,United Kingdom,7.320177145640041
4119,EGDY,2026-02-27 03:33:26.742000+00:00,1772162400,2026-02-27T03:20:00.000Z,11.0,10.0,200,19.0,3.73,1007.0,2,METAR,METAR EGDY 270320Z AUTO 20019KT 6000 -DZ OVC009/// 11/10 Q1007,51.006,-2.643,21,Yeovilton Arpt),OVC,"[{'cover': 'OVC', 'base': 900}]",IFR,,-DZ,,,,,,,,"Yeovilton Arpt), EN, GB",GB,United Kingdom,7.582209184677317
895,EGFF,2026-02-27 03:54:31.782000+00:00,1772164200,2026-02-27T04:00:00.000Z,10.0,9.0,170,6.0,6+,1005.0,2,METAR,METAR EGFF 270350Z AUTO 17006KT 9999 FEW014 OVC027 10/09 Q1005,51.397,-3.343,65,Cardiff Intl,OVC,"[{'cover': 'FEW', 'base': 1400}, {'cover': 'OVC', 'base': 2700}]",MVFR,,,,,,,,,,"Cardiff Intl, WL, GB",GB,United Kingdom,8.463612857015855
406,EGGD,2026-02-27 03:54:31.908000+00:00,1772164200,2026-02-27T04:00:00.000Z,10.0,9.0,200,13.0,6+,1006.0,2,METAR,METAR EGGD 270350Z AUTO 20013KT 9999 OVC003 10/09 Q1006,51.383,-2.719,182,Bristol Intl,OVC,"[{'cover': 'OVC', 'base': 300}]",LIFR,,,,,,,,,,"Bristol Intl, EN, GB",GB,United Kingdom,7.031102984292501
2300,EGGP,2026-02-27 03:54:44.758000+00:00,1772164200,2026-02-27T04:00:00.000Z,8.0,6.0,VRB,1.0,6+,1006.0,2,METAR,METAR EGGP 270350Z AUTO VRB01KT 9999 -RA FEW031/// BKN044/// 08/06 Q1006,53.334,-2.85,23,Liverpool/Lennon Arpt,BKN,"[{'cover': 'FEW', 'base': 3100}, {'cover': 'BKN', 'base': 4400}]",VFR,,-RA,,,,,,,,"Liverpool/Lennon Arpt, EN, GB",GB,United Kingdom,9.057624326859145
2315,EGGW,2026-02-27 03:54:30.978000+00:00,1772164200,2026-02-27T04:00:00.000Z,9.0,8.0,200,13.0,5.59,1009.0,2,METAR,METAR EGGW 270350Z AUTO 20013KT 9000 -RA BKN013 09/08 Q1009,51.875,-0.368,159,Luton Arpt,BKN,"[{'cover': 'BKN', 'base': 1300}]",MVFR,,-RA,,,,,,,,"Luton Arpt, EN, GB",GB,United Kingdom,5.7506131579560265
3476,EGHI,2026-02-27 03:54:32.047000+00:00,1772164200,2026-02-27T04:00:00.000Z,10.0,10.0,200,15.0,3.73,1009.0,2,METAR,METAR EGHI 270350Z AUTO 20015KT 6000 -RADZ BKN009 OVC012 10/10 Q1009,50.944,-1.358,13,Southampton Intl,OVC,"[{'cover': 'BKN', 'base': 900}, {'cover': 'OVC', 'base': 1200}]",IFR,,-RA -DZ,,,,,,,,"Southampton Intl, EN, GB",GB,United Kingdom,6.745987085951061
2736,EGHQ,2026-02-27 03:54:30.465000+00:00,1772164200,2026-02-27T04:00:00.000Z,11.0,11.0,210,13.0,6+,1005.0,2,METAR,METAR EGHQ 270350Z AUTO 21013KT 9999 BKN003/// 11/11 Q1005 REDZ,50.438,-4.998,101,Newquay/Cornwall Arpt,BKN,"[{'cover': 'BKN', 'base': 300}]",LIFR,,,,,,,,,,"Newquay/Cornwall Arpt, EN, GB",GB,United Kingdom,8.311592810628984
1454,EGJB,2026-02-27 03:54:32.152000+00:00,1772164200,2026-02-27T04:00:00.000Z,10.0,9.0,190,14.0,2.8,1011.0,0,METAR,METAR EGJB 270350Z 19014KT 4500 DZRA BR BKN012 10/09 Q1011,49.433,-2.598,102,Guernsey Arpt,BKN,"[{'cover': 'BKN', 'base': 1200}]",IFR,,DZ RA BR,,,,,,,,"Guernsey Arpt, , GG",GG,Guernsey,6.884264406254365
1856,EGJJ,2026-02-27 03:56:47.709000+00:00,1772164200,2026-02-27T04:00:00.000Z,10.0,9.0,180,13.0,6+,1012.0,2,METAR,METAR EGJJ 270350Z AUTO 18013KT 150V220 9999 OVC020/// 10/09 Q1012 RERA REDZ,49.21,-2.194,84,Jersey Arpt,OVC,"[{'cover': 'OVC', 'base': 2000}]",MVFR,,,,,,,,,,"Jersey Arpt, , JE",JE,Jersey,7.031102984292501
405,EGKB,2026-02-27 03:54:31.175000+00:00,1772164200,2026-02-27T04:00:00.000Z,9.0,8.0,210,16.0,6+,1010.0,2,METAR,METAR EGKB 270350Z AUTO 21016KT 180V240 9999 -RA OVC010/// 09/08 Q1010,51.33,0.033,183,London/Biggin Hill Arpt,OVC,"[{'cover': 'OVC', 'base': 1000}]",MVFR,,-RA,,,,,,,,"London/Biggin Hill Arpt, EN, GB",GB,United Kingdom,5.312497472341822
2058,EGKK,2026-02-27 03:54:42.521000+00:00,1772164200,2026-02-27T04:00:00.000Z,10.0,9.0,200,10.0,4.35,1010.0,0,METAR,METAR EGKK 270350Z 20010KT 170V230 7000 -RA BKN010 10/09 Q1010,51.148,-0.19,58,London/Gatwick Arpt,BKN,"[{'cover': 'BKN', 'base': 1000}]",MVFR,,-RA,,,,,,,,"London/Gatwick Arpt, EN, GB",GB,United Kingdom,7.5371828065443305
2070,EGLC,2026-02-27 03:54:31.339000+00:00,1772164200,2026-02-27T04:00:00.000Z,11.0,9.0,220,10.0,6+,1010.0,2,METAR,METAR EGLC 270350Z AUTO 22010KT 180V250 9999 -RA BKN015 BKN020 OVC030 11/09 Q1010,51.505,0.055,10,London City Arpt,OVC,"[{'cover': 'BKN', 'base': 1500}, {'cover': 'BKN', 'base': 2000}, {'cover': 'OVC', 'base': 3000}]",MVFR,,-RA,,,,,,,,"London City Arpt, EN, GB",GB,United Kingdom,8.790581959960969
1172,EGLF,2026-02-27 03:56:42.690000+00:00,1772164200,2026-02-27T04:00:00.000Z,10.0,9.0,200,12.0,5.59,1009.0,2,METAR,METAR EGLF 270350Z AUTO 20012KT 170V230 9000 DZ FEW013/// BKN019/// 10/09 Q1009 REDZ,51.28,-0.773,65,Farnborough Arpt,BKN,"[{'cover': 'FEW', 'base': 1300}, {'cover': 'BKN', 'base': 1900}]",MVFR,,DZ,,,,,,,,"Farnborough Arpt, EN, GB",GB,United Kingdom,7.1877570578863015
2057,EGLL,2026-02-27 03:54:42.620000+00:00,1772164200,2026-02-27T04:00:00.000Z,10.0,9.0,210,11.0,6+,1010.0,2,METAR,METAR EGLL 270350Z AUTO 21011KT 9999 -RADZ BKN015 OVC020 10/09 Q1010,51.477,-0.461,26,London/Heathrow Intl,OVC,"[{'cover': 'BKN', 'base': 1500}, {'cover': 'OVC', 'base': 2000}]",MVFR,,-RA -DZ,,,,,,,,"London/Heathrow Intl, EN, GB",GB,United Kingdom,7.355789232801619
2316,EGMD,2026-02-27 03:54:31.463000+00:00,1772164200,2026-02-27T04:00:00.000Z,11.0,10.0,200,17.0,6+,1012.0,2,METAR,METAR EGMD 270350Z AUTO 20017KT 9999 NCD 11/10 Q1012,50.956,0.939,4,Lydd Arpt,CLR,[],VFR,,,,,,,,,,"Lydd Arpt, EN, GB",GB,United Kingdom,7.800593008287033
1691,EGNJ,2026-02-27 03:54:44.884000+00:00,1772164200,2026-02-27T04:00:00.000Z,9.0,9.0,200,7.0,6+,1007.0,2,METAR,METAR EGNJ 270350Z AUTO 20007KT 9999 -RA NCD 09/09 Q1007,53.58,-0.341,23,Humberside Intl,CLR,[],VFR,,-RA,,,,,,,,"Humberside Intl, EN, GB",GB,United Kingdom,6.973631713871313
2547,EGNT,2026-02-27 03:54:44.985000+00:00,1772164200,2026-02-27T04:00:00.000Z,8.0,6.0,260,3.0,6+,1004.0,2,METAR,METAR EGNT 270350Z AUTO 26003KT 9999 NCD 08/06 Q1004,55.037,-1.702,77,Newcastle Intl,CLR,[],VFR,,,,,,,,,,"Newcastle Intl, SC, GB",GB,United Kingdom,7.320177145640041
2613,EGNV,2026-02-27 03:24:32.907000+00:00,1772162400,2026-02-27T03:20:00.000Z,10.0,8.0,200,5.0,6+,1005.0,2,METAR,METAR EGNV 270320Z AUTO 20005KT 9999 OVC026/// 10/08 Q1005,54.511,-1.418,36,Teesside Intl,OVC,"[{'cover': 'OVC', 'base': 2600}]",MVFR,,,,,,,,,,"Teesside Intl, EN, GB",GB,United Kingdom,8.776357662492565
1151,EGNX,2026-02-27 03:54:45.084000+00:00,1772164200,2026-02-27T04:00:00.000Z,8.0,8.0,VRB,4.0,4.35,1007.0,0,METAR,METAR EGNX 270350Z VRB04KT 7000 -RA FEW003 SCT008 OVC019 08/08 Q1007,52.833,-1.333,91,Nottingham/E Midlands Arpt,OVC,"[{'cover': 'FEW', 'base': 300}, {'cover': 'SCT', 'base': 800}, {'cover': 'OVC', 'base': 1900}]",MVFR,,-RA,,,,,,,,"Nottingham/E Midlands Arpt, EN, GB",GB,United Kingdom,6.812457319972031
3982,EGOV,2026-02-27 03:33:26.904000+00:00,1772162400,2026-02-27T03:20:00.000Z,8.0,8.0,190,6.0,2.24,1006.0,2,METAR,METAR EGOV 270320Z AUTO 19006KT 3600 -RA SCT006/// OVC032/// 08/08 Q1006,53.252,-4.536,11,Valley,OVC,"[{'cover': 'SCT', 'base': 600}, {'cover': 'OVC', 'base': 3200}]",IFR,,-RA,,,,,,,,"Valley, WL, GB",GB,United Kingdom,6.0559989569774135
2046,EGPA,2026-02-27 03:54:44.380000+00:00,1772164200,2026-02-27T04:00:00.000Z,6.0,4.0,230,17.0,6+,995.0,2,METAR,METAR EGPA 270350Z AUTO 23017KT 9999 NCD 06/04 Q0995,58.958,-2.905,15,Kirkwall Arpt,CLR,[],VFR,,,,,,,,,,"Kirkwall Arpt, SC, GB",GB,United Kingdom,1.253638217899646
2299,EGPB,2026-02-27 03:54:44.516000+00:00,1772164200,2026-02-27T04:00:00.000Z,8.0,5.0,220,19.0,6+,994.0,2,METAR,METAR EGPB 270350Z AUTO 22019KT 9999 BKN023/// 08/05 Q0994,59.88,-1.296,2,Sumburgh Arpt,BKN,"[{'cover': 'BKN', 'base': 2300}]",MVFR,,,,,,,,,,"Sumburgh Arpt, SC, GB",GB,United Kingdom,3.616982247249633
4074,EGPC,2026-02-27 03:54:32.401000+00:00,1772164200,2026-02-27T04:00:00.000Z,6.0,3.0,220,7.0,6+,996.0,2,METAR,METAR EGPC 270350Z AUTO 22007KT 9999 NCD 06/03 Q0996,58.459,-3.093,38,Wick Arpt,CLR,[],VFR,,,,,,,,,,"Wick Arpt, SC, GB",GB,United Kingdom,3.3185888805966517
141,EGPD,2026-02-27 03:54:44.632000+00:00,1772164200,2026-02-27T04:00:00.000Z,6.0,2.0,130,6.0,6+,1000.0,2,METAR,METAR EGPD 270350Z AUTO 13006KT 9999 NCD 06/02 Q1000,57.205,-2.205,65,Aberdeen Arpt,CLR,[],VFR,,,,,,,,,,"Aberdeen Arpt, SC, GB",GB,United Kingdom,3.648385056938971
1703,EGPE,2026-02-27 03:54:32.511000+00:00,1772164200,2026-02-27T04:00:00.000Z,7.0,3.0,220,17.0,6+,999.0,2,METAR,METAR EGPE 270350Z AUTO 22017KT 9999 NCD 07/03 Q0999,57.538,-4.053,7,Inverness Arpt,CLR,[],VFR,,,,,,,,,,"Inverness Arpt, SC, GB",GB,United Kingdom,2.5630291759771335
1436,EGPF,2026-02-27 03:54:42.753000+00:00,1772164200,2026-02-27T04:00:00.000Z,6.0,4.0,240,7.0,6+,1003.0,2,METAR,METAR EGPF 270350Z AUTO 24007KT 9999 BKN033 06/04 Q1003,55.867,-4.433,8,Glasgow Arpt,BKN,"[{'cover': 'BKN', 'base': 3300}]",VFR,,,,,,,,,,"Glasgow Arpt, SC, GB",GB,United Kingdom,3.3185888805966517
1150,EGPH,2026-02-27 03:56:02.678000+00:00,1772164200,2026-02-27T04:00:00.000Z,7.0,5.0,250,7.0,6+,1003.0,2,METAR,METAR EGPH 270350Z AUTO 25007KT 9999 NCD 07/05 Q1003,55.952,-3.36,29,Edinburgh Arpt,CLR,[],VFR,,,,,,,,,,"Edinburgh Arpt, SC, GB",GB,United Kingdom,4.536936491688211
1702,EGPI,2026-02-27 03:54:30.798000+00:00,1772164200,2026-02-27T04:00:00.000Z,8.0,6.0,250,10.0,6+,1003.0,2,METAR,METAR EGPI 270350Z AUTO 25010KT 9999 -RA OVC015/// 08/06 Q1003 RERA,55.681,-6.25,17,Islay Arpt,OVC,"[{'cover': 'OVC', 'base': 1500}]",MVFR,,-RA,,,,,,,,"Islay Arpt, SC, GB",GB,United Kingdom,5.030384499711064
2962,EGPK,2026-02-27 03:54:42.884000+00:00,1772164200,2026-02-27T04:00:00.000Z,9.0,5.0,240,12.0,6+,1004.0,0,METAR,METAR EGPK 270350Z 24012KT 9999 SCT040 09/05 Q1004,55.509,-4.587,14,Prestwick Intl,SCT,"[{'cover': 'SCT', 'base': 4000}]",VFR,,,,,,,,,,"Prestwick Intl, SC, GB",GB,United Kingdom,5.91565299221977
407,EGPL,2026-02-27 03:54:32.631000+00:00,1772164200,2026-02-27T04:00:00.000Z,7.0,4.0,260,17.0,6+,999.0,2,METAR,METAR EGPL 270350Z AUTO 26017KT 9999 NCD 07/04 Q0999,57.475,-7.364,3,Benbecula Isl Arpt,CLR,[],VFR,,,,,,,,,,"Benbecula Isl Arpt, SC, GB",GB,United Kingdom,2.5630291759771335
3705,EGPO,2026-02-27 03:54:32.762000+00:00,1772164200,2026-02-27T04:00:00.000Z,7.0,4.0,260,9.0,6+,997.0,2,METAR,METAR EGPO 270350Z AUTO 26009G19KT 9999 BKN023/// OVC045/// 07/04 Q0997,58.215,-6.329,10,Stornoway Arpt,OVC,"[{'cover': 'BKN', 'base': 2300}, {'cover': 'OVC', 'base': 4500}]",MVFR,19.0,,,,,,,,,"Stornoway Arpt, SC, GB",GB,United Kingdom,4.00600287732553
3706,EGPU,2026-02-27 03:54:32.856000+00:00,1772164200,2026-02-27T04:00:00.000Z,6.0,5.0,230,9.0,6+,1001.0,2,METAR,METAR EGPU 270350Z AUTO 23009KT 9999 NCD 06/05 Q1001,56.499,-6.872,12,Tiree Island Arpt,CLR,[],VFR,,,,,,,,,,"Tiree Island Arpt, SC, GB",GB,United Kingdom,2.763166794615179
139,EGQL,2026-02-27 04:00:38.246000+00:00,1772164200,2026-02-27T04:00:00.000Z,7.0,4.0,240,14.0,6+,1002.0,0,METAR,METAR EGQL 270350Z 24014KT CAVOK 07/04 Q1002 RMK BLU,56.377,-2.862,11,Leuchars,CAVOK,[],VFR,,,,,,,,,,"Leuchars, SC, GB",GB,United Kingdom,3.019213928469205
2044,EGQS,2026-02-27 04:00:38.267000+00:00,1772164200,2026-02-27T04:00:00.000Z,7.0,3.0,250,12.0,6+,999.0,0,METAR,METAR EGQS 270350Z 25012KT CAVOK 07/03 Q0999 RMK BLU,57.711,-3.324,6,Lossiemouth,CAVOK,[],VFR,,,,,,,,,,"Lossiemouth, SC, GB",GB,United Kingdom,3.371444860886691
2737,EGSH,2026-02-27 03:54:31.604000+00:00,1772164200,2026-02-27T04:00:00.000Z,11.0,9.0,200,11.0,6+,1009.0,2,METAR,METAR EGSH 270350Z AUTO 20011KT 9999 -RA FEW015/// SCT040/// 11/09 Q1009,52.676,1.283,21,Norwich Intl,SCT,"[{'cover': 'FEW', 'base': 1500}, {'cover': 'SCT', 'base': 4000}]",VFR,,-RA,,,,,,,,"Norwich Intl, EN, GB",GB,United Kingdom,8.618898463087474
3456,EGSS,2026-02-27 03:54:42.991000+00:00,1772164200,2026-02-27T04:00:00.000Z,10.0,9.0,210,13.0,6+,1010.0,2,METAR,METAR EGSS 270350Z AUTO 21013KT 9999 -RA SCT014 BKN024 BKN032 10/09 Q1010,51.881,0.223,101,London/Stansted Arpt,BKN,"[{'cover': 'SCT', 'base': 1400}, {'cover': 'BKN', 'base': 2400}, {'cover': 'BKN', 'base': 3200}]",MVFR,,-RA,,,,,,,,"London/Stansted Arpt, EN, GB",GB,United Kingdom,7.031102984292501
476,EGUB,2026-02-27 03:34:16.665000+00:00,1772162400,2026-02-27T03:20:00.000Z,10.0,8.0,180,13.0,6+,1008.0,2,METAR,METAR EGUB 270320Z AUTO 18013KT 9999 // OVC011/// 10/08 Q1008,51.62,-1.099,56,Benson,OVC,"[{'cover': 'OVC', 'base': 1100}]",MVFR,,,,,,,,,,"Benson, EN, GB",GB,United Kingdom,7.031102984292501
2007,EGUL,2026-02-27 03:57:07.146000+00:00,1772164500,2026-02-27T04:00:00.000Z,10.6,8.0,190,13.0,6+,1008.5,14,METAR,METAR EGUL 270355Z AUTO 19013KT 9999 OVC055 11/08 A2978 RMK AO2 RAB0255E0257RAB14E20 SLP088 P0001 T01060080 $,52.409,0.561,8,Lakenheath,OVC,"[{'cover': 'OVC', 'base': 5500}]",VFR,,,1008.8,0.01,,,,,,"Lakenheath, EN, GB",GB,United Kingdom,7.799396880094394
2223,EGUN,2026-02-27 03:57:24.235000+00:00,1772164500,2026-02-27T04:00:00.000Z,10.6,8.2,210,13.0,6+,1008.5,4,METAR,METAR EGUN 270355Z 21013KT 9999 -RA OVC048 11/08 A2978 RMK AO2A RAE0255RAB03 SLP088 P0001 T01060082,52.362,0.486,10,Mildenhall,OVC,"[{'cover': 'OVC', 'base': 4800}]",VFR,,-RA,1008.8,0.01,,,,,,"Mildenhall, EN, GB",GB,United Kingdom,7.799396880094394
650,EGVN,2026-02-27 03:59:08.683000+00:00,1772164200,2026-02-27T04:00:00.000Z,10.0,9.0,190,9.0,6+,1007.0,0,METAR,METAR EGVN 270350Z 19009KT 9999 -DZ FEW004 BKN008 10/09 Q1007 REDZ TEMPO 3000 DZ BKN006 RMK GRN TEMPO YLO1,51.758,-1.578,83,Brize Norton,BKN,"[{'cover': 'FEW', 'base': 400}, {'cover': 'BKN', 'base': 800}]",IFR,,-DZ,,,,,,,,"Brize Norton, EN, GB",GB,United Kingdom,7.7345111254565495
2795,EGVO,2026-02-27 03:33:27.147000+00:00,1772162400,2026-02-27T03:20:00.000Z,10.0,8.0,200,19.0,6+,1009.0,2,METAR,METAR EGVO 270320Z AUTO 20019G29KT 9999 -RA OVC009/// 10/08 Q1009,51.239,-0.945,118,Odiham,OVC,"[{'cover': 'OVC', 'base': 900}]",IFR,29.0,-RA,,,,,,,,"Odiham, EN, GB",GB,United Kingdom,6.260466872201423
2605,EGWU,2026-02-27 03:33:27.283000+00:00,1772162400,2026-02-27T03:20:00.000Z,10.0,9.0,220,8.0,6+,1010.0,2,METAR,METAR EGWU 270320Z AUTO 22008KT 9999 -RA FEW012/// OVC025/// 10/09 Q1010,51.549,-0.417,33,Northolt,OVC,"[{'cover': 'FEW', 'base': 1200}, {'cover': 'OVC', 'base': 2500}]",MVFR,,-RA,,,,,,,,"Northolt, EN, GB",GB,United Kingdom,7.951203064060274
3215,EGXC,2026-02-27 03:59:08.720000+00:00,1772164200,2026-02-27T04:00:00.000Z,9.0,9.0,180,5.0,6+,1007.0,0,METAR,METAR EGXC 270350Z 18005KT 9999 -RA BKN022 09/09 Q1007 RMK WHT,53.094,-0.173,9,Coningsby,BKN,"[{'cover': 'BKN', 'base': 2200}]",MVFR,,-RA,,,,,,,,"Coningsby, EN, GB",GB,United Kingdom,7.589292077886522
4118,EGXW,2026-02-27 03:33:27.507000+00:00,1772162400,2026-02-27T03:20:00.000Z,9.0,8.0,210,4.0,4.97,1007.0,2,METAR,METAR EGXW 270320Z AUTO 21004KT 8000 -RA OVC040/// 09/08 Q1007,53.175,-0.523,70,Waddington Arpt,OVC,"[{'cover': 'OVC', 'base': 4000}]",MVFR,,-RA,,,,,,,,"Waddington Arpt, EN, GB",GB,United Kingdom,7.979686746406713
2063,EGYM,2026-02-27 03:59:08.747000+00:00,1772164200,2026-02-27T04:00:00.000Z,10.0,9.0,200,14.0,6+,1008.0,0,METAR,METAR EGYM 270350Z 20014KT 9999 -RA OVC050 10/09 Q1008 RMK BLU,52.648,0.567,25,Marham Arpt,OVC,"[{'cover': 'OVC', 'base': 5000}]",VFR,,-RA,,,,,,,,"Marham Arpt, EN, GB",GB,United Kingdom,6.884264406254365
2556,EGYP,2026-02-27 03:59:31.568000+00:00,1772164200,2026-02-27T04:00:00.000Z,10.0,4.0,350,17.0,6+,1002.0,0,METAR,METAR EGYP 270350Z 35017KT CAVOK 10/04 Q1002,-51.82,-58.448,70,Mount Pleasant Arpt,CAVOK,[],VFR,,,,,,,,,,"Mount Pleasant Arpt, SG, FK",FK,Falkland Islands (Malvinas),6.491202050209558
49,EHAM,2026-02-27 03:57:23.365000+00:00,1772164500,2026-02-27T04:00:00.000Z,9.0,7.0,210,10.0,6+,1014.0,16,METAR,METAR EHAM 270355Z 21010KT 9999 FEW017 SCT024 09/07 Q1014 NOSIG,52.315,4.79,-2,Amsterdam/Schiphol Arpt,SCT,"[{'cover': 'FEW', 'base': 1700}, {'cover': 'SCT', 'base': 2400}]",VFR,,,,,,,,,,"Amsterdam/Schiphol Arpt, NH, NL",NL,Netherlands,6.283783653127699
2491,EHBK,2026-02-27 03:57:23.397000+00:00,1772164500,2026-02-27T04:00:00.000Z,11.0,9.0,190,9.0,6+,1017.0,2,METAR,METAR EHBK 270355Z AUTO 19009KT 9999 NCD 11/09 Q1017,50.905,5.762,112,Maastricht/Aachen Arpt,CLR,[],VFR,,,,,,,,,,"Maastricht/Aachen Arpt, LI, NL",NL,Netherlands,8.977347208166893
1068,EHEH,2026-02-27 04:00:42.671000+00:00,1772164500,2026-02-27T04:00:00.000Z,10.0,8.0,180,6.0,6+,1016.0,2,METAR,METAR EHEH 270355Z AUTO 18006KT 9999 OVC310 10/08 Q1016 BLU,51.45,5.377,20,Eindhoven Arpt,OVC,"[{'cover': 'OVC', 'base': 31000}]",VFR,,,,,,,,,,"Eindhoven Arpt, NB, NL",NL,Netherlands,8.463612857015855
1365,EHGG,2026-02-27 03:57:23.424000+00:00,1772164500,2026-02-27T04:00:00.000Z,9.0,7.0,200,11.0,6+,1013.0,2,METAR,METAR EHGG 270355Z AUTO 20011KT 170V230 9999 NSC 09/07 Q1013,53.12,6.579,2,Groningen Arpt,CLR,[],VFR,,,,,,,,,,"Groningen Arpt, DR, NL",NL,Netherlands,6.092680002515773
1372,EHGR,2026-02-27 04:00:43.770000+00:00,1772164500,2026-02-27T04:00:00.000Z,9.0,7.0,190,7.0,6+,1015.0,2,METAR,METAR EHGR 270355Z AUTO 19007KT 150V230 9999 OVC310 09/07 Q1015 BLU,51.565,4.935,12,Gilze-Rijen,OVC,"[{'cover': 'OVC', 'base': 31000}]",VFR,,,,,,,,,,"Gilze-Rijen, NB, NL",NL,Netherlands,6.973631713871313
820,EHKD,2026-02-27 04:00:42.705000+00:00,1772164500,2026-02-27T04:00:00.000Z,9.0,8.0,210,16.0,6+,1012.0,2,METAR,METAR EHKD 270355Z AUTO 21016KT 9999 OVC170 09/08 Q1012 BLU,52.927,4.781,1,Den Helder Arpt,OVC,"[{'cover': 'OVC', 'base': 17000}]",VFR,,,,,,,,,,"Den Helder Arpt, NH, NL",NL,Netherlands,5.312497472341822
2002,EHLE,2026-02-27 03:57:23.478000+00:00,1772164500,2026-02-27T04:00:00.000Z,10.0,7.0,200,9.0,6+,1014.0,2,METAR,METAR EHLE 270355Z AUTO 20009KT 180V240 9999 NSC 10/07 Q1014,52.456,5.522,-3,Lelystad Arpt,CLR,[],VFR,,,,,,,,,,"Lelystad Arpt, FL, NL",NL,Netherlands,7.7345111254565495
2238,EHLW,2026-02-27 04:00:43.807000+00:00,1772164500,2026-02-27T04:00:00.000Z,9.0,8.0,210,12.0,6+,1013.0,2,METAR,METAR EHLW 270355Z AUTO 21012KT 170V230 9999 FEW100 OVC150 09/08 Q1013 BLU,53.223,5.752,1,Leeuwarden Arpt,OVC,"[{'cover': 'FEW', 'base': 10000}, {'cover': 'OVC', 'base': 15000}]",VFR,,,,,,,,,,"Leeuwarden Arpt, FR, NL",NL,Netherlands,5.91565299221977
3143,EHRD,2026-02-27 03:57:23.452000+00:00,1772164500,2026-02-27T04:00:00.000Z,10.0,8.0,200,12.0,6+,1014.0,18,METAR,METAR EHRD 270355Z AUTO 20012KT 170V230 9999 NCD 10/08 Q1014 NOSIG,51.954,4.444,-4,Rotterdam/The Hague Arpt,CLR,[],VFR,,,,,,,,,,"Rotterdam/The Hague Arpt, ZH, NL",NL,Netherlands,7.1877570578863015
3850,EHVK,2026-02-27 04:00:43.839000+00:00,1772164500,2026-02-27T04:00:00.000Z,10.0,8.0,180,7.0,6+,1016.0,2,METAR,METAR EHVK 270355Z AUTO 18007KT 9999 OVC310 10/08 Q1016 BLU,51.658,5.707,20,Volkel Arpt,OVC,"[{'cover': 'OVC', 'base': 31000}]",VFR,,,,,,,,,,"Volkel Arpt, NB, NL",NL,Netherlands,8.191979324962865
4047,EHWO,2026-02-27 04:00:43.902000+00:00,1772164500,2026-02-27T04:00:00.000Z,11.0,8.0,200,7.0,6+,1015.0,2,METAR,METAR EHWO 270355Z AUTO 20007KT 160V240 9999 OVC320/// 11/08 Q1015 BLU,51.448,4.342,15,Woensdrecht,OVC,"[{'cover': 'OVC', 'base': 32000}]",VFR,,,,,,,,,,"Woensdrecht, NB, NL",NL,Netherlands,9.410326936054416
2778,EICK,2026-02-27 03:33:32.594000+00:00,1772163000,2026-02-27T03:30:00.000Z,8.0,7.0,320,4.0,4.97,1006.0,16,METAR,METAR EICK 270330Z 32004KT 8000 FEW002 SCT060 BKN090 08/07 Q1006 NOSIG,51.848,-8.479,158,Cork Arpt,BKN,"[{'cover': 'FEW', 'base': 200}, {'cover': 'SCT', 'base': 6000}, {'cover': 'BKN', 'base': 9000}]",MVFR,,,,,,,,,,"Cork Arpt, M, IE",IE,Ireland,6.812457319972031
1232,EIDW,2026-02-27 03:33:32.506000+00:00,1772163000,2026-02-27T03:30:00.000Z,9.0,6.0,VRB,3.0,6+,1005.0,16,METAR,METAR EIDW 270330Z VRB03KT 9999 FEW018 SCT045 BKN110 09/06 Q1005 NOSIG,53.422,-6.298,75,Dublin Arpt,BKN,"[{'cover': 'FEW', 'base': 1800}, {'cover': 'SCT', 'base': 4500}, {'cover': 'BKN', 'base': 11000}]",VFR,,,,,,,,,,"Dublin Arpt, L, IE",IE,Ireland,8.462856464882849
3538,EINN,2026-02-27 03:33:32.549000+00:00,1772163000,2026-02-27T03:30:00.000Z,8.0,6.0,0,0.0,6+,1006.0,16,METAR,METAR EINN 270330Z 00000KT 9999 FEW038 BKN110 08/06 Q1006 NOSIG,52.702,-8.925,20,Shannon Arpt,BKN,"[{'cover': 'FEW', 'base': 3800}, {'cover': 'BKN', 'base': 11000}]",VFR,,,,,,,,,,"Shannon Arpt, M, IE",IE,Ireland,18.09866666666667
153,EKAH,2026-02-27 03:53:13.561000+00:00,1772164200,2026-02-27T04:00:00.000Z,6.0,6.0,180,4.0,3.11,1010.0,2,METAR,METAR EKAH 270350Z AUTO 18004KT 120V250 5000 -DZ OVC003/// 06/06 Q1010,56.3,10.619,25,Tirstrup Arpt,OVC,"[{'cover': 'OVC', 'base': 300}]",LIFR,,-DZ,,,,,,,,"Tirstrup Arpt, MI, DK",DK,Denmark,4.477998467102664
402,EKBI,2026-02-27 03:53:13.621000+00:00,1772164200,2026-02-27T04:00:00.000Z,7.0,7.0,210,9.0,3.11,1010.0,2,METAR,METAR EKBI 270350Z AUTO 21009KT 180V240 5000 -RA OVC004/// 07/07 Q1010,55.74,9.152,67,Billund Arpt,OVC,"[{'cover': 'OVC', 'base': 400}]",LIFR,,-RA,,,,,,,,"Billund Arpt, SY, DK",DK,Denmark,4.00600287732553
892,EKCH,2026-02-27 03:53:13.507000+00:00,1772164200,2026-02-27T04:00:00.000Z,5.0,5.0,200,8.0,2.05,1013.0,16,METAR,METAR EKCH 270350Z 20008KT 3300 BR BKN015 05/05 Q1013 NOSIG,55.618,12.656,4,Kobenhavn Intl,BKN,"[{'cover': 'BKN', 'base': 1500}]",IFR,,BR,,,,,,,,"Kobenhavn Intl, HO, DK",DK,Denmark,1.7950207189452803
1167,EKEB,2026-02-27 03:53:13.449000+00:00,1772164200,2026-02-27T04:00:00.000Z,7.0,6.0,200,15.0,6+,1010.0,2,METAR,METAR EKEB 270350Z AUTO 20015G25KT 9999 -RA OVC004/// 07/06 Q1010,55.528,8.563,29,Esbjerg Arpt,OVC,"[{'cover': 'OVC', 'base': 400}]",LIFR,25.0,-RA,,,,,,,,"Esbjerg Arpt, SY, DK",DK,Denmark,2.8587304729366676
2064,EKKA,2026-02-27 03:52:15.266000+00:00,1772164200,2026-02-27T04:00:00.000Z,7.0,7.0,210,9.0,2.3,1008.0,2,METAR,METAR EKKA 270350Z AUTO 21009KT 3700 -RA OVC004/// 07/07 Q1008,56.293,9.114,50,Karup Arpt,OVC,"[{'cover': 'OVC', 'base': 400}]",LIFR,,-RA,,,,,,,,"Karup Arpt, MI, DK",DK,Denmark,4.00600287732553
2735,EKOD,2026-02-27 03:53:19.251000+00:00,1772164200,2026-02-27T04:00:00.000Z,8.0,7.0,210,13.0,6+,1011.0,2,METAR,METAR EKOD 270350Z AUTO 21013KT 180V240 9999 -RA BKN011/// OVC014/// 08/07 Q1011,55.475,10.331,13,Odense Arpt,OVC,"[{'cover': 'BKN', 'base': 1100}, {'cover': 'OVC', 'base': 1400}]",MVFR,,-RA,,,,,,,,"Odense Arpt, SY, DK",DK,Denmark,4.47012333161954
3219,EKRK,2026-02-27 03:53:13.677000+00:00,1772164200,2026-02-27T04:00:00.000Z,7.0,6.0,210,9.0,2.61,1013.0,2,METAR,METAR EKRK 270350Z AUTO 21009KT 4200 BR OVC013/// 07/06 Q1013,55.587,12.136,40,Koebenhavn/Roskilde Arpt,OVC,"[{'cover': 'OVC', 'base': 1300}]",IFR,,BR,,,,,,,,"Koebenhavn/Roskilde Arpt, SJ, DK",DK,Denmark,4.00600287732553
3218,EKRN,2026-02-27 03:53:13.395000+00:00,1772164200,2026-02-27T04:00:00.000Z,4.0,3.0,130,3.0,2.86,1015.0,2,METAR,METAR EKRN 270350Z AUTO 13003KT 4600 BR BKN003/// BKN042/// 04/03 Q1015,55.068,14.749,14,Ronne/Bornholm Arpt,BKN,"[{'cover': 'BKN', 'base': 300}, {'cover': 'BKN', 'base': 4200}]",LIFR,,BR,,,,,,,,"Ronne/Bornholm Arpt, HO, DK",DK,Denmark,2.749459868668822
3475,EKSB,2026-02-27 03:53:19.139000+00:00,1772164200,2026-02-27T04:00:00.000Z,10.0,7.0,200,6.0,6+,1012.0,2,METAR,METAR EKSB 270350Z AUTO 20006KT 160V240 9999 OVC017/// 10/07 Q1012,54.962,9.787,23,Sønderborg Arpt,OVC,"[{'cover': 'OVC', 'base': 1700}]",MVFR,,,,,,,,,,"Sønderborg Arpt, SY, DK",DK,Denmark,8.463612857015855
3472,EKSP,2026-02-27 03:52:15.150000+00:00,1772164200,2026-02-27T04:00:00.000Z,7.0,7.0,220,13.0,3.11,1011.0,0,METAR,METAR EKSP 270350Z 22013KT 5000 -DZRA BKN006 BKN008 07/07 Q1011,55.225,9.263,40,Vojens Arpt,BKN,"[{'cover': 'BKN', 'base': 600}, {'cover': 'BKN', 'base': 800}]",IFR,,-DZ -RA,,,,,,,,"Vojens Arpt, SY, DK",DK,Denmark,3.1896335052830613
1163,EKVG,2026-02-27 03:56:25.495000+00:00,1772164200,2026-02-27T04:00:00.000Z,5.0,3.0,260,13.0,6+,983.0,2,METAR,METAR EKVG 270350Z AUTO 26013KT 9999 -RA OVC020/// 05/03 Q0983 RMK OVC020/// WIND SKEID 28022G33KT 250V320,62.065,-7.282,89,Sørvágur/Vágar Arpt,OVC,"[{'cover': 'OVC', 'base': 2000}]",MVFR,,-RA,,,,,,,,"Sørvágur/Vágar Arpt, VG, FO",FO,Faroe Islands,0.6286538526100967
3449,EKVJ,2026-02-27 03:56:47.735000+00:00,1772164200,2026-02-27T04:00:00.000Z,5.0,5.0,200,13.0,3.04,1009.0,2,METAR,METAR EKVJ 270350Z AUTO 20013KT 4900 -RA BR ///////// 05/05 Q1009,55.991,8.354,5,Stauning Arpt,,,,,-RA BR,,,,,,,,"Stauning Arpt, MI, DK",DK,Denmark,0.6286538526100967
152,EKYT,2026-02-27 03:53:13.339000+00:00,1772164200,2026-02-27T04:00:00.000Z,7.0,6.0,210,11.0,1.62,1007.0,2,METAR,METAR EKYT 270350Z AUTO 21011KT 2600 -RA BR OVC004/// 07/06 Q1007,57.093,9.879,2,Aalborg Arpt,OVC,"[{'cover': 'OVC', 'base': 400}]",LIFR,,-RA BR,,,,,,,,"Aalborg Arpt, NO, DK",DK,Denmark,3.5664615419440633
2305,ELLX,2026-02-27 03:55:36.954000+00:00,1772164200,2026-02-27T04:00:00.000Z,8.0,8.0,180,9.0,3.73,1019.0,16,METAR,METAR ELLX 270350Z 18009KT 6000 NSC 08/08 Q1019 NOSIG,49.626,6.204,374,Luxembourg/Findel Arpt,CLR,[],MVFR,,,,,,,,,,"Luxembourg/Findel Arpt, LL, LU",LU,Luxembourg,5.248838960035869
149,ENAL,2026-02-27 03:55:51.996000+00:00,1772164200,2026-02-27T04:00:00.000Z,6.0,5.0,180,12.0,5.59,992.0,2,METAR,METAR ENAL 270350Z AUTO 18012KT 9000 RA FEW005/// SCT018/// BKN027/// 06/05 Q0992,62.562,6.115,21,Vigra/Alesund Arpt,BKN,"[{'cover': 'FEW', 'base': 500}, {'cover': 'SCT', 'base': 1800}, {'cover': 'BKN', 'base': 2700}]",MVFR,,RA,,,,,,,,"Vigra/Alesund Arpt, MR, NO",NO,Norway,2.0993407952201477
147,ENAN,2026-02-27 03:55:48.548000+00:00,1772164200,2026-02-27T04:00:00.000Z,0.0,-4.0,150,12.0,6+,995.0,2,METAR,METAR ENAN 270350Z AUTO 15012KT 9999 NCD 00/M04 Q0995,69.307,16.131,13,Andøya Arpt,CLR,[],VFR,,,,,,,,,,"Andøya Arpt, NO, NO",NO,Norway,-5.533283598779083
135,ENAT,2026-02-27 03:57:08.641000+00:00,1772164200,2026-02-27T04:00:00.000Z,-7.0,-12.0,150,11.0,6+,1004.0,2,METAR,METAR ENAT 270350Z AUTO 15011KT 9999 -SN BKN022/// M07/M12 Q1004 RMK WIND 700FT 15025KT,69.978,23.358,3,Alta Arpt,BKN,"[{'cover': 'BKN', 'base': 2200}]",MVFR,,-SN,,,,,,,,"Alta Arpt, FI, NO",NO,Norway,-14.117067682057897
1161,ENBL,2026-02-27 03:55:49.321000+00:00,1772164200,2026-02-27T04:00:00.000Z,5.0,4.0,220,6.0,6+,995.0,2,METAR,METAR ENBL 270350Z AUTO 22006KT 160V260 9999 RA NCD 05/04 Q0995,61.391,5.76,313,Bringeland Arpt,CLR,[],VFR,,RA,,,,,,,,"Bringeland Arpt, SO, NO",NO,Norway,2.4445781069197556
395,ENBN,2026-02-27 03:55:49.836000+00:00,1772164200,2026-02-27T04:00:00.000Z,5.0,0.0,110,2.0,6+,993.0,2,METAR,METAR ENBN 270350Z AUTO 11002KT 9999 BKN037/// 05/00 Q0993,65.458,12.216,3,Bronnoysund/Bronnoy Arpt,BKN,"[{'cover': 'BKN', 'base': 3700}]",VFR,,,,,,,,,,"Bronnoysund/Bronnoy Arpt, NO, NO",NO,Norway,4.66740178982681
393,ENBO,2026-02-27 03:55:48.596000+00:00,1772164200,2026-02-27T04:00:00.000Z,0.0,-4.0,90,27.0,6+,994.0,2,METAR,METAR ENBO 270350Z AUTO 09027KT 9999 -RA BKN044/// 00/M04 Q0994,67.267,14.359,13,Bodø Arpt,BKN,"[{'cover': 'BKN', 'base': 4400}]",VFR,,-RA,,,,,,,,"Bodø Arpt, NO, NO",NO,Norway,-8.118477611602508
388,ENBR,2026-02-27 03:56:25.229000+00:00,1772164200,2026-02-27T04:00:00.000Z,6.0,6.0,180,14.0,5.59,998.0,0,METAR,METAR ENBR 270350Z 18014KT 9000 BKN009 06/06 Q0998 RMK WIND 1200FT 21016KT,60.29,5.222,49,Bergen/Flesland Arpt,BKN,"[{'cover': 'BKN', 'base': 900}]",IFR,,,,,-1.6,,,,,"Bergen/Flesland Arpt, HO, NO",NO,Norway,1.7308637692074749
394,ENBS,2026-02-27 03:55:49.596000+00:00,1772164200,2026-02-27T04:00:00.000Z,-8.0,-10.0,150,22.0,3.11,1009.0,2,METAR,METAR ENBS 270350Z AUTO 15022KT 5000 -SN BKN003/// OVC005/// M08/M10 Q1009,70.601,29.698,144,Båtsfjord Arpt,OVC,"[{'cover': 'BKN', 'base': 300}, {'cover': 'OVC', 'base': 500}]",LIFR,,-SN,,,,,,,,"Båtsfjord Arpt, FI, NO",NO,Norway,-18.14051136070324
644,ENBV,2026-02-27 03:55:49.876000+00:00,1772164200,2026-02-27T04:00:00.000Z,-7.0,-10.0,150,15.0,6+,1010.0,2,METAR,METAR ENBV 270350Z AUTO 15015KT 9999 OVC072/// M07/M10 Q1010,70.871,29.032,13,Berlevåg Arpt,OVC,"[{'cover': 'OVC', 'base': 7200}]",VFR,,,,,,,,,,"Berlevåg Arpt, FI, NO",NO,Norway,-15.281800387797192
2056,ENCN,2026-02-27 03:56:25.250000+00:00,1772164200,2026-02-27T04:00:00.000Z,3.0,3.0,190,6.0,0.31,1004.0,2,METAR,METAR ENCN 270350Z AUTO 19006KT 0500 R03/1500N R21/1400N FG VV003 03/03 Q1004,58.2,8.077,17,Kristiansand Arpt,OVX,"[{'cover': 'OVX', 'base': 300}]",LIFR,,FG,,,,,,,3.0,"Kristiansand Arpt, VA, NO",NO,Norway,0.03696420688130549
387,ENDU,2026-02-27 03:56:27.940000+00:00,1772164200,2026-02-27T04:00:00.000Z,-12.0,-13.0,0,0.0,6+,997.0,0,METAR,METAR ENDU 270350Z 00000KT 9999 FEW030 SCT040 M12/M13 Q0997 RMK WIND 1374FT 11010KT WIND 2165FT 13012KT,69.058,18.544,65,Bardufoss Arpt,SCT,"[{'cover': 'FEW', 'base': 3000}, {'cover': 'SCT', 'base': 4000}]",VFR,,,,,,,,-1.0,,"Bardufoss Arpt, TR, NO",NO,Norway,5.668666666666668
1145,ENEV,2026-02-27 03:57:08.663000+00:00,1772164200,2026-02-27T04:00:00.000Z,0.0,-6.0,120,12.0,6+,996.0,0,METAR,METAR ENEV 270350Z 12012KT 9999 SCT044 BKN055 M00/M06 Q0996 RMK WIND 1400FT 12016KT,68.491,16.683,26,Evenes Arpt,BKN,"[{'cover': 'SCT', 'base': 4400}, {'cover': 'BKN', 'base': 5500}]",VFR,,,,,,,,,,"Evenes Arpt, TR, NO",NO,Norway,-5.533283598779083
1442,ENFL,2026-02-27 03:55:49.423000+00:00,1772164200,2026-02-27T04:00:00.000Z,7.0,6.0,200,18.0,6+,995.0,2,METAR,METAR ENFL 270350Z AUTO 20018KT 9999 -RA BKN013/// OVC027/// 07/06 Q0995 RERA,61.582,5.02,1,Florø Arpt,OVC,"[{'cover': 'BKN', 'base': 1300}, {'cover': 'OVC', 'base': 2700}]",MVFR,,-RA,,,,,,,,"Florø Arpt, SO, NO",NO,Norway,2.4260086299715846
2720,ENGM,2026-02-27 03:56:25.293000+00:00,1772164200,2026-02-27T04:00:00.000Z,2.0,1.0,180,10.0,0.47,1001.0,0,METAR,METAR ENGM 270350Z 18010KT 0750 0700SE R19R/0900N R01R/0800N R19L/0900N R01L/0800N FG VV002 02/01 Q1001,60.201,11.08,204,Oslo/Gardermoen Arpt,OVX,"[{'cover': 'OVX', 'base': 200}]",LIFR,,FG,,,,,,,2.0,"Oslo/Gardermoen Arpt, AK, NO",NO,Norway,-2.4900104207887472
1445,ENHD,2026-02-27 03:55:52.080000+00:00,1772164200,2026-02-27T04:00:00.000Z,7.0,6.0,180,12.0,4.97,1000.0,2,METAR,METAR ENHD 270350Z AUTO 18012KT 8000 OVC005/// 07/06 Q1000,59.341,5.22,22,Haugesund Arpt,OVC,"[{'cover': 'OVC', 'base': 500}]",IFR,,,,,,,,,,"Haugesund Arpt, RO, NO",NO,Norway,3.371444860886691
1688,ENHF,2026-02-27 03:57:08.778000+00:00,1772164200,2026-02-27T04:00:00.000Z,-6.0,-10.0,170,9.0,6+,1001.0,2,METAR,METAR ENHF 270350Z AUTO 17009G19KT 110V220 9999 NCD M06/M10 Q1001 RMK WIND RWY 04 17016G30KT WIND 1253FT 16034G44KT,70.681,23.677,79,Hammerfest Arpt,CLR,[],VFR,19.0,,,,,,,,,"Hammerfest Arpt, FI, NO",NO,Norway,-12.150866197908938
1443,ENHK,2026-02-27 03:55:49.635000+00:00,1772164200,2026-02-27T04:00:00.000Z,-3.0,-6.0,110,23.0,6+,999.0,2,METAR,METAR ENHK 270350Z AUTO 11023KT 9999 NCD M03/M06 Q0999,70.487,22.14,6,Hasvik Arpt,CLR,[],VFR,,,,,,,,,,"Hasvik Arpt, FI, NO",NO,Norway,-11.610804538550692
1696,ENHV,2026-02-27 03:55:49.682000+00:00,1772164200,2026-02-27T04:00:00.000Z,-6.0,-9.0,150,21.0,6+,1005.0,2,METAR,METAR ENHV 270350Z AUTO 15021KT 9999 -SN FEW029/// M06/M09 Q1005,71.009,25.982,13,Honningsvag/Valan Arpt,FEW,"[{'cover': 'FEW', 'base': 2900}]",VFR,,-SN,,,,,,,,"Honningsvag/Valan Arpt, SV, NO",NO,Norway,-15.279426011214632
2052,ENKB,2026-02-27 03:57:08.687000+00:00,1772164200,2026-02-27T04:00:00.000Z,6.0,2.0,240,4.0,6+,992.0,2,METAR,METAR ENKB 270350Z AUTO 24004KT 190V280 9999 FEW047/// 06/02 Q0992 RMK WIND 745FT 20015KT,63.109,7.816,62,Kristiansund Arpt,FEW,"[{'cover': 'FEW', 'base': 4700}]",VFR,,,,,1.5,,,,,"Kristiansund Arpt, MR, NO",NO,Norway,4.477998467102664
1855,ENKR,2026-02-27 03:57:08.711000+00:00,1772164200,2026-02-27T04:00:00.000Z,-11.0,-14.0,140,14.0,6+,1010.0,0,METAR,METAR ENKR 270350Z 14014KT 9999 -SHSN BKN034 M11/M14 Q1010 RMK WIND 731FT 14020KT,69.725,29.898,86,Kirkenes/Høybuktmoen Arpt,BKN,"[{'cover': 'BKN', 'base': 3400}]",VFR,,-SHSN,,,,,,,,"Kirkenes/Høybuktmoen Arpt, FI, NO",NO,Norway,-20.171088938241812
2053,ENLK,2026-02-27 03:55:49.722000+00:00,1772164200,2026-02-27T04:00:00.000Z,1.0,-1.0,160,5.0,6+,994.0,2,METAR,METAR ENLK 270350Z AUTO 16005KT 120V200 9999 -SN OVC014/// 01/M01 Q0994,68.155,13.615,26,Leknes Arpt,OVC,"[{'cover': 'OVC', 'base': 1400}]",MVFR,,-SN,,,,,,,,"Leknes Arpt, NO, NO",NO,Norway,-1.9072325989618832
2307,ENMH,2026-02-27 03:55:49.757000+00:00,1772164200,2026-02-27T04:00:00.000Z,-7.0,-9.0,VRB,3.0,6+,1008.0,0,METAR,METAR ENMH 270350Z VRB03KT 9999 -SHSN SCT020 BKN060 M07/M09 Q1008,71.029,27.829,10,Mehamn Arpt,BKN,"[{'cover': 'SCT', 'base': 2000}, {'cover': 'BKN', 'base': 6000}]",VFR,,-SHSN,,,,,,,,"Mehamn Arpt, FI, NO",NO,Norway,-9.820012643002027
2544,ENML,2026-02-27 03:57:08.732000+00:00,1772164200,2026-02-27T04:00:00.000Z,4.0,3.0,VRB,2.0,6+,993.0,2,METAR,METAR ENML 270350Z AUTO VRB02KT 9999 -SHRA FEW028/// SCT047/// 04/03 Q0993 RMK WIND 1587FT 20018KT,62.744,7.262,3,Molde/Aro Arpt,SCT,"[{'cover': 'FEW', 'base': 2800}, {'cover': 'SCT', 'base': 4700}]",VFR,,-SHRA,,,1.8,,,,,"Molde/Aro Arpt, MR, NO",NO,Norway,3.5574602712246257
2297,ENMS,2026-02-27 03:57:08.829000+00:00,1772164200,2026-02-27T04:00:00.000Z,0.0,-3.0,0,0.0,6+,995.0,2,METAR,METAR ENMS 270350Z AUTO 00000KT 9999 FEW029/// SCT062/// M00/M03 Q0995 RMK WIND 412FT VRB03KT,65.784,13.218,44,Mosjøen Arpt,SCT,"[{'cover': 'FEW', 'base': 2900}, {'cover': 'SCT', 'base': 6200}]",VFR,,,,,,,,,,"Mosjøen Arpt, NO, NO",NO,Norway,13.126666666666667
2043,ENNA,2026-02-27 03:57:08.754000+00:00,1772164200,2026-02-27T04:00:00.000Z,-9.0,-12.0,170,26.0,2.55,1005.0,2,METAR,METAR ENNA 270350Z AUTO 17026KT 4100 -SN VV015 M09/M12 Q1005 RMK WIND 1800FT 16048KT,70.059,24.971,12,Banak Arpt,OVX,"[{'cover': 'OVX', 'base': 1500}]",IFR,,-SN,,,,,,,15.0,"Banak Arpt, FI, NO",NO,Norway,-20.210604082706705
2728,ENNM,2026-02-27 03:55:49.795000+00:00,1772164200,2026-02-27T04:00:00.000Z,2.0,0.0,70,13.0,6+,994.0,2,METAR,METAR ENNM 270350Z AUTO 07013KT 9999 -RA FEW016/// SCT027/// OVC033/// 02/00 Q0994,64.471,11.57,2,Namsos Arpt,OVC,"[{'cover': 'FEW', 'base': 1600}, {'cover': 'SCT', 'base': 2700}, {'cover': 'OVC', 'base': 3300}]",VFR,,-RA,,,,,,,,"Namsos Arpt, TR, NO",NO,Norway,-3.212815626399345
2726,ENOL,2026-02-27 03:55:48.780000+00:00,1772164200,2026-02-27T04:00:00.000Z,5.0,2.0,130,11.0,6+,992.0,0,METAR,METAR ENOL 270350Z 13011KT 9999 FEW045 05/02 Q0992,63.703,9.609,9,Ørland Arpt,FEW,"[{'cover': 'FEW', 'base': 4500}]",VFR,,,,,,,,,,"Ørland Arpt, TR, NO",NO,Norway,1.0402430813723542
1697,ENOV,2026-02-27 03:56:27.654000+00:00,1772164200,2026-02-27T04:00:00.000Z,5.0,3.0,VRB,2.0,6+,994.0,2,METAR,METAR ENOV 270350Z AUTO VRB02KT 9999 -RA OVC034/// 05/03 Q0994 RMK WIND RWY 24 VRB03KT WIND 2090FT 19020G30KT,62.18,6.078,72,Ørsta-Volda Arpt,OVC,"[{'cover': 'OVC', 'base': 3400}]",VFR,,-RA,,,,,,,,"Ørsta-Volda Arpt, MR, NO",NO,Norway,4.66740178982681
2553,ENRA,2026-02-27 03:55:49.968000+00:00,1772164200,2026-02-27T04:00:00.000Z,1.0,-5.0,80,14.0,6+,996.0,2,METAR,METAR ENRA 270350Z AUTO 08014KT 050V110 9999 BKN059/// 01/M05 Q0996,66.364,14.302,66,Moirana Arpt,BKN,"[{'cover': 'BKN', 'base': 5900}]",VFR,,,,,,,,,,"Moirana Arpt, NO, NO",NO,Norway,-4.710887027101137
3209,ENRM,2026-02-27 03:55:51.135000+00:00,1772164200,2026-02-27T04:00:00.000Z,4.0,2.0,130,7.0,4.97,993.0,2,METAR,METAR ENRM 270350Z AUTO 13007KT 100V160 8000 -RA OVC022/// 04/02 Q0993,64.835,11.141,4,Rørvik Arpt,OVC,"[{'cover': 'OVC', 'base': 2200}]",MVFR,,-RA,,,,,,,,"Rørvik Arpt, TR, NO",NO,Norway,0.881893658413545
3212,ENRO,2026-02-27 03:55:52.121000+00:00,1772164200,2026-02-27T04:00:00.000Z,-1.0,-4.0,180,6.0,6+,994.0,2,METAR,METAR ENRO 270350Z AUTO 18006KT 130V240 9999 FEW137/// M01/M04 Q0994,62.578,11.342,624,Røros Arpt,FEW,"[{'cover': 'FEW', 'base': 13700}]",VFR,,,,,,,,,,"Røros Arpt, TR, NO",NO,Norway,-4.778263593195575
3210,ENRS,2026-02-27 03:55:51.172000+00:00,1772164200,2026-02-27T04:00:00.000Z,4.0,2.0,170,13.0,6+,993.0,2,METAR,METAR ENRS 270350Z AUTO 17013KT 9999 FEW007/// OVC010/// 04/02 Q0993,67.527,12.104,4,Røst Arpt,OVC,"[{'cover': 'FEW', 'base': 700}, {'cover': 'OVC', 'base': 1000}]",MVFR,,,,,,,,,,"Røst Arpt, VE, NO",NO,Norway,-0.6518359737263858
3201,ENRY,2026-02-27 03:56:27.682000+00:00,1772164200,2026-02-27T04:00:00.000Z,2.0,1.0,190,12.0,0.09,1003.0,2,METAR,METAR ENRY 270350Z AUTO 19012KT 0150 R12/0600N R30/0800N FG VV001 02/01 Q1003,59.381,10.783,45,Moss/Rygge Arpt,OVX,"[{'cover': 'OVX', 'base': 100}]",LIFR,,FG,,,,,,,1.0,"Moss/Rygge Arpt, OS, NO",NO,Norway,-2.989075467446002
3451,ENSD,2026-02-27 03:56:27.708000+00:00,1772164200,2026-02-27T04:00:00.000Z,5.0,5.0,0,0.0,6+,995.0,2,METAR,METAR ENSD 270350Z AUTO 00000KT 9999 -RA FEW008/// SCT038/// OVC047/// 05/05 Q0995 RMK WIND RWY 26 VRB01KT WIND 1140FT 08002KT,61.829,6.104,61,Sandane Arpt,OVC,"[{'cover': 'FEW', 'base': 800}, {'cover': 'SCT', 'base': 3800}, {'cover': 'OVC', 'base': 4700}]",VFR,,-RA,,,,,,,,"Sandane Arpt, SO, NO",NO,Norway,16.234166666666667
3452,ENSG,2026-02-27 03:56:27.734000+00:00,1772164200,2026-02-27T04:00:00.000Z,,,230,4.0,6+,995.0,2,METAR,METAR ENSG 270350Z AUTO 23004KT 200V260 9999 -RA SCT022/// BKN028/// OVC039/// ///// Q0995 RMK WIND 3806FT 20024KT,61.158,7.141,493,Sogndal/Haukasen Arpt,OVC,"[{'cover': 'SCT', 'base': 2200}, {'cover': 'BKN', 'base': 2800}, {'cover': 'OVC', 'base': 3900}]",MVFR,,-RA,,,2.4,,,,,"Sogndal/Haukasen Arpt, SO, NO",NO,Norway,
3453,ENSH,2026-02-27 03:57:08.800000+00:00,1772164200,2026-02-27T04:00:00.000Z,1.0,-2.0,60,13.0,6+,995.0,2,METAR,METAR ENSH 270350Z AUTO 06013KT 9999 NCD 01/M02 Q0995 RMK WIND 0150FT 07016KT,68.245,14.669,9,Svolvaer/Helle Arpt,CLR,[],VFR,,,,,,,,,,"Svolvaer/Helle Arpt, NO, NO",NO,Norway,-4.493305452735829
3462,ENSK,2026-02-27 03:55:51.207000+00:00,1772164200,2026-02-27T04:00:00.000Z,1.0,-3.0,140,14.0,6+,994.0,2,METAR,METAR ENSK 270350Z AUTO 14014KT 9999 SCT043/// 01/M03 Q0994,68.58,15.029,3,Storkmarknes Arpt,SCT,"[{'cover': 'SCT', 'base': 4300}]",VFR,,,,,,,,,,"Storkmarknes Arpt, NO, NO",NO,Norway,-4.710887027101137
3454,ENSR,2026-02-27 03:56:27.787000+00:00,1772164200,2026-02-27T04:00:00.000Z,-4.0,-9.0,140,24.0,6+,998.0,2,METAR,METAR ENSR 270350Z AUTO 14024KT 9999 NCD M04/M09 Q0998 RMK WIND RWY 32 14020G31KT WIND 1119FT 15018G29KT,69.789,20.955,5,Sørkjosen Arpt,CLR,[],VFR,,,,,,,,,,"Sørkjosen Arpt, TR, NO",NO,Norway,-13.115501980170045
3894,ENSS,2026-02-27 03:55:52.431000+00:00,1772164200,2026-02-27T04:00:00.000Z,-6.0,-8.0,150,22.0,6+,1012.0,2,METAR,METAR ENSS 270350Z AUTO 15022KT 9999 OVC012/// M06/M08 Q1012 RMK WIND 0500FT 14021KT,70.355,31.044,13,Vardoe Arpt,OVC,"[{'cover': 'OVC', 'base': 1200}]",MVFR,,,,,,,,,,"Vardoe Arpt, FI, NO",NO,Norway,-15.463787879369638
3463,ENST,2026-02-27 03:57:08.855000+00:00,1772164200,2026-02-27T04:00:00.000Z,4.0,1.0,0,0.0,6+,993.0,2,METAR,METAR ENST 270350Z AUTO 00000KT 9999 BKN033/// OVC051/// 04/01 Q0993 RMK WIND 0300FT 09004KT,65.961,12.472,17,Sandnessjøen Arpt,OVC,"[{'cover': 'BKN', 'base': 3300}, {'cover': 'OVC', 'base': 5100}]",VFR,,,,,,,,,,"Sandnessjøen Arpt, NO, NO",NO,Norway,15.612666666666668
3691,ENTC,2026-02-27 03:56:25.334000+00:00,1772164200,2026-02-27T04:00:00.000Z,-5.0,-9.0,VRB,2.0,6+,997.0,2,METAR,METAR ENTC 270350Z AUTO VRB02KT 9999 FEW044/// M05/M09 Q0997 RMK WIND 2600FT 16019KT,69.675,18.916,9,Tromsø Arpt,FEW,"[{'cover': 'FEW', 'base': 4400}]",VFR,,,,,,,,,,"Tromsø Arpt, TR, NO",NO,Norway,-6.432013396195018
3689,ENTO,2026-02-27 03:56:27.845000+00:00,1772164200,2026-02-27T04:00:00.000Z,2.0,2.0,200,8.0,0.09,1002.0,2,METAR,METAR ENTO 270350Z AUTO 20008KT 0150 R18/0650N R36/0900N +RA VV001 02/02 Q1002,59.184,10.255,84,Torp Arpt,OVX,"[{'cover': 'OVX', 'base': 100}]",LIFR,,+RA,,,,,,,1.0,"Torp Arpt, VE, NO",NO,Norway,-1.8986886881237177
3690,ENVA,2026-02-27 03:56:25.364000+00:00,1772164200,2026-02-27T04:00:00.000Z,5.0,1.0,VRB,2.0,6+,993.0,0,METAR,METAR ENVA 270350Z VRB02KT CAVOK 05/01 Q0993 RMK WIND 670FT VRB03KT,63.46,10.931,12,Trondheim Arpt,CAVOK,[],VFR,,,,,,,,,,"Trondheim Arpt, TR, NO",NO,Norway,4.66740178982681
3891,ENVD,2026-02-27 03:55:51.270000+00:00,1772164200,2026-02-27T04:00:00.000Z,-7.0,-10.0,150,9.0,6+,1011.0,0,METAR,METAR ENVD 270350Z 15009KT 9999 FEW014 SCT029 BKN037 M07/M10 Q1011,70.065,29.835,39,Vadsø Arpt,BKN,"[{'cover': 'FEW', 'base': 1400}, {'cover': 'SCT', 'base': 2900}, {'cover': 'BKN', 'base': 3700}]",VFR,,,,,,,,,,"Vadsø Arpt, FI, NO",NO,Norway,-13.393702280619284
3460,ENZV,2026-02-27 03:55:48.868000+00:00,1772164200,2026-02-27T04:00:00.000Z,7.0,6.0,190,12.0,6+,1002.0,0,METAR,METAR ENZV 270350Z 19012KT 9999 OVC007 07/06 Q1002,58.884,5.637,7,Stavanger/Sola Arpt,OVC,"[{'cover': 'OVC', 'base': 700}]",IFR,,,,,,,,,,"Stavanger/Sola Arpt, RO, NO",NO,Norway,3.371444860886691
536,EPBY,2026-02-27 04:02:24.050000+00:00,1772164800,2026-02-27T04:00:00.000Z,1.0,0.0,VRB,1.0,3.11,1020.0,0,METAR,METAR EPBY 270400Z VRB01KT 5000 BR NSC 01/00 Q1020,53.0962,17.9949,66,Bydgoszcz Arpt,CLR,[],MVFR,,BR,,,,,,,,"Bydgoszcz Arpt, KP, PL",PL,Poland,1.6469524930415522
1320,EPGD,2026-02-27 04:02:22.674000+00:00,1772164800,2026-02-27T04:00:00.000Z,3.0,1.0,200,3.0,6+,1018.0,0,METAR,METAR EPGD 270400Z 20003KT CAVOK 03/01 Q1018,54.379,18.466,136,Gdańsk/Wałęsa Arpt,CAVOK,[],VFR,,,,,,,,,,"Gdańsk/Wałęsa Arpt, PM, PL",PL,Poland,1.6067805494260137
1961,EPKK,2026-02-27 04:02:22.714000+00:00,1772164800,2026-02-27T04:00:00.000Z,-3.0,-4.0,60,3.0,3.11,1024.0,0,METAR,METAR EPKK 270400Z 06003KT 5000 MIFG BR NSC M03/M04 Q1024,50.078,19.797,237,Kraków/Paul II Arpt,CLR,[],MVFR,,MIFG BR,,,,,,,,"Kraków/Paul II Arpt, ML, PL",PL,Poland,-5.2492953660308075
1964,EPKT,2026-02-27 04:02:24.083000+00:00,1772164800,2026-02-27T04:00:00.000Z,3.0,-1.0,200,6.0,6+,1023.0,0,METAR,METAR EPKT 270400Z 20006KT CAVOK 03/M01 Q1023,50.478,19.085,296,Katowice/Pyrzowice Arpt,CAVOK,[],VFR,,,,,,,,,,"Katowice/Pyrzowice Arpt, SL, PL",PL,Poland,0.03696420688130549
2181,EPLB,2026-02-27 04:02:24.119000+00:00,1772164800,2026-02-27T04:00:00.000Z,-2.0,-3.0,VRB,1.0,6+,1026.0,0,METAR,METAR EPLB 270400Z VRB01KT CAVOK M02/M03 Q1026,51.239,22.714,206,Lublin Arpt,CAVOK,[],VFR,,,,,,,,,,"Lublin Arpt, PM, PL",PL,Poland,-1.5290497214517016
1962,EPLL,2026-02-27 04:02:22.752000+00:00,1772164800,2026-02-27T04:00:00.000Z,0.0,-1.0,VRB,2.0,3.11,1022.0,0,METAR,METAR EPLL 270400Z VRB02KT 5000 BR NSC 00/M01 Q1022,51.724,19.401,176,Łódź Arpt,CLR,[],MVFR,,BR,,,,,,,,"Łódź Arpt, LO, PL",PL,Poland,-0.8823058031841057
4022,EPMO,2026-02-27 04:02:24.150000+00:00,1772164800,2026-02-27T04:00:00.000Z,0.0,-2.0,130,4.0,6+,1023.0,0,METAR,METAR EPMO 270400Z 13004KT CAVOK M00/M02 Q1023,52.452,20.642,102,Modlin Arpt,CAVOK,[],VFR,,,,,,,,,,"Modlin Arpt, MZ, PL",PL,Poland,-2.525378091505422
2843,EPPO,2026-02-27 04:02:22.791000+00:00,1772164800,2026-02-27T04:00:00.000Z,3.0,2.0,200,4.0,4.97,1020.0,0,METAR,METAR EPPO 270400Z 20004KT 8000 NSC 03/02 Q1020,52.417,16.835,87,Poznań/Ławica Arpt,CLR,[],MVFR,,,,,,,,,,"Poznań/Ławica Arpt, WP, PL",PL,Poland,0.9763101877986221
3109,EPRA,2026-02-27 04:02:24.179000+00:00,1772164800,2026-02-27T04:00:00.000Z,-1.0,-3.0,160,9.0,6+,1024.0,0,METAR,METAR EPRA 270400Z 16009KT CAVOK M01/M03 Q1024,51.39,21.211,182,Radom Arpt,CAVOK,[],VFR,,,,,,,,,,"Radom Arpt, MZ, PL",PL,Poland,-5.936685784357222
3105,EPRZ,2026-02-27 04:02:22.824000+00:00,1772164800,2026-02-27T04:00:00.000Z,-2.0,-4.0,VRB,2.0,6+,1026.0,0,METAR,METAR EPRZ 270400Z VRB02KT CAVOK M02/M04 Q1026,50.112,22.025,206,Rzeszów/Jasionka Arpt,CAVOK,[],VFR,,,,,,,,,,"Rzeszów/Jasionka Arpt, PP, PL",PL,Poland,-3.1021888403884685
3631,EPSC,2026-02-27 04:02:24.206000+00:00,1772164800,2026-02-27T04:00:00.000Z,4.0,4.0,140,6.0,3.73,1018.0,0,METAR,METAR EPSC 270400Z 14006KT 6000 NSC 04/04 Q1018,53.585,14.902,47,Szczecin/Golenow Arpt,CLR,[],MVFR,,,,,,,,,,"Szczecin/Golenow Arpt, ZA, PL",PL,Poland,1.2407711569005286
3632,EPSY,2026-02-27 04:02:24.236000+00:00,1772164800,2026-02-27T04:00:00.000Z,0.0,-3.0,170,5.0,6+,1022.0,0,METAR,METAR EPSY 270400Z 17005KT CAVOK M00/M03 Q1022,53.482,20.938,136,Szczytno Intl,CAVOK,[],VFR,,,,,,,,,,"Szczytno Intl, WN, PL",PL,Poland,-3.0942981835679344
4021,EPWA,2026-02-27 04:02:22.854000+00:00,1772164800,2026-02-27T04:00:00.000Z,-2.0,-3.0,130,7.0,6+,1023.0,16,METAR,METAR EPWA 270400Z 13007KT CAVOK M02/M03 Q1023 NOSIG,52.163,20.961,107,Warsaw/Chopin Arpt,CAVOK,[],VFR,,,,,,,,,,"Warsaw/Chopin Arpt, MZ, PL",PL,Poland,-6.42819200813577
4023,EPWR,2026-02-27 04:02:24.268000+00:00,1772164800,2026-02-27T04:00:00.000Z,0.0,0.0,130,5.0,6+,1022.0,0,METAR,METAR EPWR 270400Z 13005KT CAVOK 00/00 Q1022,51.1032,16.8998,118,Wrocław/Strachowice Arpt,CAVOK,[],VFR,,,,,,,,,,"Wrocław/Strachowice Arpt, DO, PL",PL,Poland,-3.0942981835679344
1578,EPZG,2026-02-27 04:02:24.346000+00:00,1772164800,2026-02-27T04:00:00.000Z,0.0,0.0,250,2.0,0.5,1021.0,0,METAR,METAR EPZG 270400Z 25002KT 0800 R24/0800N FG OVC001 00/00 Q1021,52.137,15.779,59,Zielona Gora Arpt,OVC,"[{'cover': 'OVC', 'base': 100}]",LIFR,,FG,,,,,,,,"Zielona Gora Arpt, LU, PL",PL,Poland,-0.8823058031841057
3202,ESDF,2026-02-27 03:56:28.059000+00:00,1772164200,2026-02-27T04:00:00.000Z,4.0,4.0,200,7.0,0.62,1013.0,2,METAR,METAR ESDF 270350Z AUTO 20007KT 1000 0650// R01/1900N R19/1500N BR OVC002/// 04/04 Q1013 RESHRA,56.266,15.267,52,Ronneby Arpt,OVC,"[{'cover': 'OVC', 'base': 200}]",LIFR,,BR,,,,,,,,"Ronneby Arpt, K, SE",SE,Sweden,0.881893658413545
1437,ESGG,2026-02-27 03:56:28.082000+00:00,1772164200,2026-02-27T04:00:00.000Z,5.0,5.0,200,13.0,0.09,1007.0,0,METAR,METAR ESGG 270350Z 20013KT 0150 R03/0700N R21/0700N FG VV002 05/05 Q1007,57.667,12.285,152,Göteborg/Landvetter Arpt,OVX,"[{'cover': 'OVX', 'base': 200}]",LIFR,,FG,,,,,,,2.0,"Göteborg/Landvetter Arpt, O, SE",SE,Sweden,0.6286538526100967
1858,ESGJ,2026-02-27 03:54:43.207000+00:00,1772164200,2026-02-27T04:00:00.000Z,6.0,5.0,200,10.0,3.73,1008.0,2,METAR,METAR ESGJ 270350Z AUTO 20010KT 6000 OVC004/// 06/05 Q1008,57.752,14.069,224,Jönköping Arpt,OVC,"[{'cover': 'OVC', 'base': 400}]",LIFR,,,,,,,,,,"Jönköping Arpt, F, SE",SE,Sweden,2.5235861928777896
1438,ESGP,2026-02-27 03:54:43.300000+00:00,1772164200,2026-02-27T04:00:00.000Z,5.0,4.0,210,17.0,1.43,1008.0,2,METAR,METAR ESGP 270350Z AUTO 21017KT 2300 BR OVC002/// 05/04 Q1008,57.781,11.869,15,Goteborg/City Arpt,OVC,"[{'cover': 'OVC', 'base': 200}]",LIFR,,BR,,,,,,,,"Goteborg/City Arpt, O, SE",SE,Sweden,-0.055752740177826214
3693,ESGT,2026-02-27 03:54:43.385000+00:00,1772164200,2026-02-27T04:00:00.000Z,,,210,11.0,3.73,1006.0,2,METAR,METAR ESGT 270350Z AUTO 21011KT 6000 -DZ OVC005/// ///// Q1006 REDZ,58.314,12.347,40,Trollhattan Arpt,OVC,"[{'cover': 'OVC', 'base': 500}]",IFR,,-DZ,,,,,,,,"Trollhattan Arpt, O, SE",SE,Sweden,
2552,ESKM,2026-02-27 03:55:36.191000+00:00,1772164200,2026-02-27T04:00:00.000Z,5.0,4.0,180,3.0,6+,1000.0,2,METAR,METAR ESKM 270350Z AUTO 18003KT 140V240 9999 OVC006/// 05/04 Q1000,60.96,14.507,184,Mora-Siljan Arpt,OVC,"[{'cover': 'OVC', 'base': 600}]",IFR,,,,,,,,,,"Mora-Siljan Arpt, W, SE",SE,Sweden,3.8921391879116305
2738,ESKN,2026-02-27 03:54:32.974000+00:00,1772164200,2026-02-27T04:00:00.000Z,7.0,6.0,210,8.0,6+,1007.0,0,METAR,METAR ESKN 270350Z 21008KT 9999 OVC014 07/06 Q1007,58.786,16.918,41,Stockholm/Skavsta Arpt,OVC,"[{'cover': 'OVC', 'base': 1400}]",MVFR,,,,,,,,,,"Stockholm/Skavsta Arpt, D, SE",SE,Sweden,4.257493656991282
3221,ESKS,2026-02-27 03:54:34.131000+00:00,1772164200,2026-02-27T04:00:00.000Z,2.0,2.0,190,7.0,0.68,999.0,2,METAR,METAR ESKS 270350Z AUTO 19007KT 140V230 1100 R15/P2000N R33/P2000N BR VV002 02/02 Q0999 REUP RERA,61.165,12.834,503,Salen/Scandanavian Mtns Arpt,OVX,"[{'cover': 'OVX', 'base': 200}]",LIFR,,RA BR,,,,,,,2.0,"Salen/Scandanavian Mtns Arpt, W, SE",SE,Sweden,-1.5548015637695576
1859,ESMK,2026-02-27 03:54:43.520000+00:00,1772164200,2026-02-27T04:00:00.000Z,8.0,8.0,200,7.0,4.35,1012.0,2,METAR,METAR ESMK 270350Z AUTO 20007KT 7000 FEW011/// SCT094/// 08/08 Q1012,55.922,14.085,20,Kristianstad Arpt,SCT,"[{'cover': 'FEW', 'base': 1100}, {'cover': 'SCT', 'base': 9400}]",MVFR,,,,,,,,,,"Kristianstad Arpt, S, SE",SE,Sweden,5.755284102779758
1860,ESMQ,2026-02-27 03:54:43.619000+00:00,1772164200,2026-02-27T04:00:00.000Z,3.0,3.0,170,7.0,0.93,1013.0,2,METAR,METAR ESMQ 270350Z AUTO 17007KT 1500 -RA BKN031/// 03/03 Q1013,56.685,16.284,3,Kalmar Arpt,BKN,"[{'cover': 'BKN', 'base': 3100}]",LIFR,,-RA,,,,,,,,"Kalmar Arpt, H, SE",SE,Sweden,-0.3364539526780103
2546,ESMS,2026-02-27 03:54:43.722000+00:00,1772164200,2026-02-27T04:00:00.000Z,7.0,7.0,220,10.0,3.11,1013.0,0,METAR,METAR ESMS 270350Z 22010KT 5000 BR BKN006 07/07 Q1013,55.539,13.373,68,Malmo/Sturup Arpt,BKN,"[{'cover': 'BKN', 'base': 600}]",IFR,,BR,,,,,,,,"Malmo/Sturup Arpt, M, SE",SE,Sweden,3.776985346294433
1439,ESMT,2026-02-27 03:54:43.812000+00:00,1772164200,2026-02-27T04:00:00.000Z,6.0,6.0,210,16.0,4.35,1011.0,2,METAR,METAR ESMT 270350Z AUTO 21016KT 7000 -RA BKN004/// OVC008/// 06/06 Q1011,56.691,12.82,24,Halmstad Arpt,OVC,"[{'cover': 'BKN', 'base': 400}, {'cover': 'OVC', 'base': 800}]",LIFR,,-RA,,,,,,,,"Halmstad Arpt, N, SE",SE,Sweden,1.4042453289829144
3881,ESMX,2026-02-27 03:56:28.109000+00:00,1772164200,2026-02-27T04:00:00.000Z,6.0,6.0,180,7.0,3.11,1011.0,2,METAR,METAR ESMX 270350Z AUTO 18007KT 5000 BR OVC003/// 06/06 Q1011 REDZ,56.927,14.73,176,Växjö Arpt,OVC,"[{'cover': 'OVC', 'base': 300}]",LIFR,,BR,,,,,,,,"Växjö Arpt, G, SE",SE,Sweden,3.3185888805966517
1157,ESND,2026-02-27 03:55:36.580000+00:00,1772164200,2026-02-27T04:00:00.000Z,,,VRB,3.0,6+,997.0,2,METAR,METAR ESND 270350Z AUTO VRB03KT 9999 BKN011/// OVC016/// 00/// Q0997,62.047,14.416,352,Sveg Arpt,OVC,"[{'cover': 'BKN', 'base': 1100}, {'cover': 'OVC', 'base': 1600}]",MVFR,,,,,,,,,,"Sveg Arpt, Z, SE",SE,Sweden,
1446,ESNG,2026-02-27 03:54:40.460000+00:00,1772164200,2026-02-27T04:00:00.000Z,-7.0,-7.0,110,5.0,1.43,1000.0,0,METAR,METAR ESNG 270350Z 11005KT 2300 SN VV009 M07/M07 Q1000,67.133,20.81,300,Gällivare Arpt,OVX,"[{'cover': 'OVX', 'base': 900}]",IFR,,SN,,,,,,,9.0,"Gällivare Arpt, BD, SE",SE,Sweden,-11.403757275810284
2061,ESNK,2026-02-27 03:54:40.560000+00:00,1772164200,2026-02-27T04:00:00.000Z,-3.0,-3.0,0,0.0,6+,1000.0,2,METAR,METAR ESNK 270350Z AUTO 00000KT 9999 OVC004/// M03/M03 Q1000,63.047,17.766,4,Kramfors/Solleftea Arpt,OVC,"[{'cover': 'OVC', 'base': 400}]",LIFR,,,,,,,,,,"Kramfors/Solleftea Arpt, Y, SE",SE,Sweden,11.262166666666667
2304,ESNL,2026-02-27 03:55:36.246000+00:00,1772164200,2026-02-27T04:00:00.000Z,-4.0,-4.0,VRB,2.0,6+,999.0,2,METAR,METAR ESNL 270350Z AUTO VRB02KT 9999 OVC008/// M04/M04 Q0999,64.552,18.711,220,Lycksele Arpt,OVC,"[{'cover': 'OVC', 'base': 800}]",IFR,,,,,,,,,,"Lycksele Arpt, AC, SE",SE,Sweden,-5.322071877592833
3465,ESNN,2026-02-27 03:56:28.129000+00:00,1772164200,2026-02-27T04:00:00.000Z,-2.0,-2.0,90,2.0,6+,1000.0,2,METAR,METAR ESNN 270350Z AUTO 09002KT 9999 R16///// R34/P2000N BKN010/// OVC015/// M02/M02 Q1000,62.532,17.436,4,Sundsvall-Timra Arpt,OVC,"[{'cover': 'BKN', 'base': 1000}, {'cover': 'OVC', 'base': 1500}]",MVFR,,,,,,,,,,"Sundsvall-Timra Arpt, Y, SE",SE,Sweden,-3.1021888403884685
2731,ESNO,2026-02-27 03:54:40.782000+00:00,1772164200,2026-02-27T04:00:00.000Z,-5.0,-6.0,290,3.0,6+,1000.0,2,METAR,METAR ESNO 270350Z AUTO 29003KT 9999 NCD M05/M06 Q1000,63.412,18.98,100,Örnsköldsvik Arpt,CLR,[],VFR,,,,,,,,,,"Örnsköldsvik Arpt, Y, SE",SE,Sweden,-7.53465400451642
2060,ESNQ,2026-02-27 03:54:40.875000+00:00,1772164200,2026-02-27T04:00:00.000Z,-8.0,-9.0,140,4.0,2.98,999.0,2,METAR,METAR ESNQ 270350Z AUTO 14004KT 4800 -SN SCT009/// BKN020/// OVC068/// M08/M09 Q0999,67.823,20.34,447,Kiruna Arpt,OVC,"[{'cover': 'SCT', 'base': 900}, {'cover': 'BKN', 'base': 2000}, {'cover': 'OVC', 'base': 6800}]",IFR,,-SN,,,,,,,,"Kiruna Arpt, BD, SE",SE,Sweden,-11.863213502982873
3464,ESNS,2026-02-27 03:54:40.991000+00:00,1772164200,2026-02-27T04:00:00.000Z,-3.0,-4.0,330,6.0,6+,1000.0,2,METAR,METAR ESNS 270350Z AUTO 33006KT 290V360 9999 SG OVC005/// M03/M04 Q1000 RESG,64.625,21.077,41,Skellefteå Arpt,OVC,"[{'cover': 'OVC', 'base': 500}]",IFR,,SG,,,,,,,,"Skellefteå Arpt, AC, SE",SE,Sweden,-7.185877493234015
3895,ESNU,2026-02-27 03:54:41.091000+00:00,1772164200,2026-02-27T04:00:00.000Z,-5.0,-6.0,340,2.0,6+,1000.0,2,METAR,METAR ESNU 270350Z AUTO 34002KT 9999 NCD M05/M06 Q1000,63.789,20.285,8,Umeå Arpt,CLR,[],VFR,,,,,,,,,,"Umeå Arpt, AC, SE",SE,Sweden,-6.432013396195018
3888,ESNV,2026-02-27 03:55:36.300000+00:00,1772164200,2026-02-27T04:00:00.000Z,-6.0,-7.0,30,3.0,6+,998.0,2,METAR,METAR ESNV 270350Z AUTO 03003KT 9999 BKN007/// BKN012/// OVC017/// M06/M07 Q0998,64.579,16.839,348,Vilhelmina Arpt,OVC,"[{'cover': 'BKN', 'base': 700}, {'cover': 'BKN', 'base': 1200}, {'cover': 'OVC', 'base': 1700}]",IFR,,,,,,,,,,"Vilhelmina Arpt, AC, SE",SE,Sweden,-8.677333323759221
146,ESNX,2026-02-27 03:55:36.365000+00:00,1772164200,2026-02-27T04:00:00.000Z,-6.0,-6.0,VRB,2.0,6+,999.0,2,METAR,METAR ESNX 270350Z AUTO VRB02KT 9999 OVC011/// M06/M06 Q0999,65.592,19.283,380,Arvidsjaur Arpt,OVC,"[{'cover': 'OVC', 'base': 1100}]",MVFR,,,,,,,,,,"Arvidsjaur Arpt, BD, SE",SE,Sweden,-7.5419549147971985
2730,ESNZ,2026-02-27 03:54:41.191000+00:00,1772164200,2026-02-27T04:00:00.000Z,,,130,7.0,6+,995.0,2,METAR,METAR ESNZ 270350Z AUTO 13007KT 9999 FEW019/// SCT084/// M01/// Q0995 RESG REFZUP,63.199,14.489,360,Åre Östersund Arpt,SCT,"[{'cover': 'FEW', 'base': 1900}, {'cover': 'SCT', 'base': 8400}]",VFR,,UP,,,,,,,,"Åre Östersund Arpt, Z, SE",SE,Sweden,
2739,ESOE,2026-02-27 03:54:33.083000+00:00,1772164200,2026-02-27T04:00:00.000Z,6.0,5.0,210,11.0,2.67,1005.0,2,METAR,METAR ESOE 270350Z AUTO 21011KT 4300 -DZ OVC007/// 06/05 Q1005,59.229,15.046,57,Örebro Arpt,OVC,"[{'cover': 'OVC', 'base': 700}]",IFR,,-DZ,,,,,,,,"Örebro Arpt, T, SE",SE,Sweden,2.303352311658205
1704,ESOH,2026-02-27 03:54:34.014000+00:00,1772164200,2026-02-27T04:00:00.000Z,4.0,4.0,190,10.0,4.97,1003.0,2,METAR,METAR ESOH 270350Z AUTO 19010KT 8000 OVC003/// 04/04 Q1003,60.02,13.579,145,Hagfors Arpt,OVC,"[{'cover': 'OVC', 'base': 300}]",LIFR,,,,,,,,,,"Hagfors Arpt, , SE",SE,Sweden,0.01678788604451932
2071,ESOK,2026-02-27 03:54:33.197000+00:00,1772164200,2026-02-27T04:00:00.000Z,4.0,4.0,190,14.0,3.11,1004.0,2,METAR,METAR ESOK 270350Z AUTO 19014KT 5000 FEW002/// SCT004/// BKN006/// 04/04 Q1004,59.442,13.342,101,Karlstad Arpt,BKN,"[{'cover': 'FEW', 'base': 200}, {'cover': 'SCT', 'base': 400}, {'cover': 'BKN', 'base': 600}]",IFR,,,,,,,,,,"Karlstad Arpt, S, SE",SE,Sweden,-0.8458365493159685
3882,ESOW,2026-02-27 03:56:28.157000+00:00,1772164200,2026-02-27T04:00:00.000Z,6.0,6.0,,,2.42,1005.0,2,METAR,METAR ESOW 270350Z AUTO /////KT 3900 BR BKN007/// OVC009/// 06/06 Q1005,59.595,16.638,7,Stockholm/Västerås Arpt,OVC,"[{'cover': 'BKN', 'base': 700}, {'cover': 'OVC', 'base': 900}]",IFR,,BR,,,,,,,,"Stockholm/Västerås Arpt, U, SE",SE,Sweden,
2059,ESPA,2026-02-27 03:54:41.876000+00:00,1772164200,2026-02-27T04:00:00.000Z,-4.0,-5.0,30,4.0,6+,1001.0,2,METAR,METAR ESPA 270350Z AUTO 03004KT 340V060 9999 -SN BKN008/// OVC012/// M04/M05 Q1001,65.541,22.126,12,Luleå Arpt,OVC,"[{'cover': 'BKN', 'base': 800}, {'cover': 'OVC', 'base': 1200}]",IFR,,-SN,,,,,,,,"Luleå Arpt, BD, SE",SE,Sweden,-7.194295797244146
136,ESSA,2026-02-27 03:56:28.179000+00:00,1772164200,2026-02-27T04:00:00.000Z,5.0,4.0,200,9.0,6+,1005.0,0,METAR,METAR ESSA 270350Z 20009KT 9999 BKN010 05/04 Q1005 TEMPO 4000 BR BKN004,59.664,17.92,36,Stockholm/Arlanda Arpt,BKN,"[{'cover': 'BKN', 'base': 1000}]",MVFR,,,,,,,,,,"Stockholm/Arlanda Arpt, AB, SE",SE,Sweden,1.5203307119048364
408,ESSB,2026-02-27 03:54:33.530000+00:00,1772164200,2026-02-27T04:00:00.000Z,6.0,5.0,210,6.0,6+,1007.0,2,METAR,METAR ESSB 270350Z AUTO 21006KT 170V240 9999 OVC012/// 06/05 Q1007,59.356,17.933,14,Stockholm/Bromma Arpt,OVC,"[{'cover': 'OVC', 'base': 1200}]",MVFR,,,,,,,,,,"Stockholm/Bromma Arpt, AB, SE",SE,Sweden,3.648385056938971
409,ESSD,2026-02-27 03:54:33.666000+00:00,1772164200,2026-02-27T04:00:00.000Z,4.0,3.0,230,13.0,6+,1001.0,2,METAR,METAR ESSD 270350Z AUTO 23013G23KT 9999 OVC005/// 04/03 Q1001,60.422,15.515,151,Borlange/Dala Arpt,OVC,"[{'cover': 'OVC', 'base': 500}]",IFR,23.0,,,,,,,,,"Borlange/Dala Arpt, W, SE",SE,Sweden,-0.6518359737263858
2308,ESSL,2026-02-27 03:54:42.130000+00:00,1772164200,2026-02-27T04:00:00.000Z,8.0,5.0,210,10.0,6+,1008.0,2,METAR,METAR ESSL 270350Z AUTO 21010KT 9999 BKN015/// OVC039/// 08/05 Q1008,58.406,15.681,51,Linköping City Arpt,OVC,"[{'cover': 'BKN', 'base': 1500}, {'cover': 'OVC', 'base': 3900}]",MVFR,,,,,,,,,,"Linköping City Arpt, E, SE",SE,Sweden,5.030384499711064
2740,ESSP,2026-02-27 03:54:33.792000+00:00,1772164200,2026-02-27T04:00:00.000Z,8.0,5.0,220,8.0,6+,1008.0,2,METAR,METAR ESSP 270350Z AUTO 22008KT 180V240 9999 OVC017/// 08/05 Q1008,58.584,16.255,3,Norrköping Arpt,OVC,"[{'cover': 'OVC', 'base': 1700}]",MVFR,,,,,,,,,,"Norrköping Arpt, E, SE",SE,Sweden,5.488730126014277
3889,ESST,2026-02-27 03:55:36.433000+00:00,1772164200,2026-02-27T04:00:00.000Z,4.0,3.0,190,6.0,6+,1002.0,2,METAR,METAR ESST 270350Z AUTO 19006KT 150V220 9999 OVC008/// 04/03 Q1002,60.158,12.992,110,Torsby Arpt,OVC,"[{'cover': 'OVC', 'base': 800}]",IFR,,,,,,,,,,"Torsby Arpt, S, SE",SE,Sweden,1.2407711569005286
3904,ESSV,2026-02-27 03:54:33.905000+00:00,1772164200,2026-02-27T04:00:00.000Z,5.0,5.0,210,15.0,3.73,1011.0,2,METAR,METAR ESSV 270350Z AUTO 21015KT 6000 SCT008/// OVC100/// 05/05 Q1011,57.662,18.348,38,Visby Arpt,OVC,"[{'cover': 'SCT', 'base': 800}, {'cover': 'OVC', 'base': 10000}]",MVFR,,,,,,,,,,"Visby Arpt, I, SE",SE,Sweden,0.26722606426040507
140,ESTA,2026-02-27 03:54:44.005000+00:00,1772164200,2026-02-27T04:00:00.000Z,6.0,5.0,160,5.0,1.68,1012.0,2,METAR,METAR ESTA 270350Z AUTO 16005KT 2700 -RA BKN010/// OVC014/// 06/05 Q1012,56.294,12.848,19,Angelholm Arpt,OVC,"[{'cover': 'BKN', 'base': 1000}, {'cover': 'OVC', 'base': 1400}]",IFR,,-RA,,,,,,,,"Angelholm Arpt, M, SE",SE,Sweden,4.0280953240683655
2964,ESUP,2026-02-27 03:55:36.501000+00:00,1772164200,2026-02-27T04:00:00.000Z,-6.0,-6.0,70,5.0,3.73,1002.0,2,METAR,METAR ESUP 270350Z AUTO 07005KT 040V100 6000 -SN OVC005/// M06/M06 Q1002,67.246,23.069,164,Pajala Arpt,OVC,"[{'cover': 'OVC', 'base': 500}]",IFR,,-SN,,,,,,,,"Pajala Arpt, BD, SE",SE,Sweden,-10.216691691204232
1698,ESUT,2026-02-27 03:54:41.290000+00:00,1772164200,2026-02-27T04:00:00.000Z,-4.0,-6.0,130,9.0,6+,996.0,2,METAR,METAR ESUT 270350Z AUTO 13009KT 9999 BKN015/// OVC025/// M04/M06 Q0996,65.806,15.083,457,Hamavan Arpt,OVC,"[{'cover': 'BKN', 'base': 1500}, {'cover': 'OVC', 'base': 2500}]",MVFR,,,,,,,,,,"Hamavan Arpt, AC, SE",SE,Sweden,-9.665194032488248
3398,ETAD,2026-02-27 04:01:11.058000+00:00,1772164500,2026-02-27T04:00:00.000Z,7.8,6.9,190,4.0,6+,1018.7,78,METAR,METAR ETAD 270355Z AUTO 19004KT 9999 CLR 08/07 A3008 RMK AO2 SLP180 T00780069 FZRANO $,49.979,6.698,365,Spangdahlem,CLR,[],VFR,,,1018.0,,,,,,,"Spangdahlem, RP, DE",DE,Germany,6.579011434685091
3150,ETAR,2026-02-27 04:01:11.093000+00:00,1772164500,2026-02-27T04:00:00.000Z,3.3,2.7,0,0.0,5.59,1020.1,12,METAR,METAR ETAR 270355Z 00000KT 9000 BR CLR 03/03 A3012 RMK AO2A SLP206 T00330027 $,49.437,7.6,231,Ramstein,CLR,[],VFR,,BR,1020.6,,,,,,,"Ramstein , RP, DE",DE,Germany,15.177616666666665
4235,ETHC,2026-02-27 03:26:12.631000+00:00,1772162400,2026-02-27T03:20:00.000Z,8.0,7.0,160,5.0,6+,1017.0,0,METAR,METAR ETHC 270320Z 16005KT 9999 FEW160 BKN280 08/07 Q1017 BLU+,52.591,10.022,35,Celle Arpt,BKN,"[{'cover': 'FEW', 'base': 16000}, {'cover': 'BKN', 'base': 28000}]",VFR,,,,,,,,,,"Celle Arpt, NI, DE",DE,Germany,6.402226493280468
1435,ETHF,2026-02-27 04:00:39.205000+00:00,1772164200,2026-02-27T03:50:00.000Z,4.0,4.0,70,2.0,4.97,1019.0,0,SPECI,SPECI ETHF 270350Z 07002KT 8000 VCFG MIFG BKN360 04/04 Q1019 BLU+,51.114,9.286,171,Fritzlar Arpt,BKN,"[{'cover': 'BKN', 'base': 36000}]",MVFR,,VCFG MIFG,,,,,,,,"Fritzlar Arpt, HE, DE",DE,Germany,3.5574602712246257
1268,ETMN,2026-02-27 03:26:12.811000+00:00,1772162400,2026-02-27T03:20:00.000Z,10.0,7.0,200,12.0,6+,1013.0,0,METAR,METAR ETMN 270320Z 20012KT 9999 BKN140 BKN210 10/07 Q1013 BLU,53.765,8.658,23,Nordholz Arpt),BKN,"[{'cover': 'BKN', 'base': 14000}, {'cover': 'BKN', 'base': 21000}]",VFR,,,,,,,,,,"Nordholz Arpt), NI, DE",DE,Germany,7.1877570578863015
1448,ETNG,2026-02-27 03:51:25.857000+00:00,1772164200,2026-02-27T04:00:00.000Z,12.0,9.0,160,3.0,6+,1017.0,0,METAR,METAR ETNG 270350Z 16003KT CAVOK 12/09 Q1017,50.964,6.032,76,Geilenkirchen,CAVOK,[],VFR,,,,,,,,,,"Geilenkirchen, NT, DE",DE,Germany,11.89089442261126
3298,ETNL,2026-02-27 03:26:12.932000+00:00,1772162400,2026-02-27T03:20:00.000Z,8.0,6.0,240,5.0,6+,1016.0,0,METAR,METAR ETNL 270320Z 24005KT 9999 SCT150 BKN250 08/06 Q1016 BLU+,53.916,12.279,40,Laage Arpt,BKN,"[{'cover': 'SCT', 'base': 15000}, {'cover': 'BKN', 'base': 25000}]",VFR,,,,,,,,,,"Laage Arpt, MV, DE",DE,Germany,6.402226493280468
4122,ETNS,2026-02-27 03:31:14.679000+00:00,1772162400,2026-02-27T03:20:00.000Z,10.0,7.0,220,12.0,,1013.0,2,METAR,METAR ETNS 270320Z AUTO 22012KT //// // ////// 10/07 Q1013 ///,54.457,9.52,22,Schleswig),,,,,,,,,,,,,"Schleswig), SH, DE",DE,Germany,7.1877570578863015
4043,ETOU,2026-02-27 04:01:11.199000+00:00,1772164500,2026-02-27T04:00:00.000Z,3.5,2.8,0,0.0,1.49,1020.4,14,METAR,METAR ETOU 270355Z AUTO 00000KT 2400 BR FEW000 04/03 A3013 RMK AO2 VIS 0800V2400 VIS 0400 RWY07 SLP209 T00350028 $,50.048,8.329,141,Wiesbaden,FEW,[],IFR,,BR,1020.9,,,,,,,"Wiesbaden , HE, DE",DE,Germany,15.30191666666667
1780,ETSI,2026-02-27 03:31:14.744000+00:00,1772162400,2026-02-27T03:20:00.000Z,3.0,2.0,80,2.0,0.06,1024.0,2,METAR,METAR ETSI 270320Z AUTO 08002KT 0100 // ////// 03/02 Q1024 ///,48.716,11.534,366,Ingolstadt-Manching Arpt,,,,,,,,,,,,,"Ingolstadt-Manching Arpt, BY, DE",DE,Germany,2.4475187526224413
2310,EVLA,2026-02-27 03:51:11.713000+00:00,1772164200,2026-02-27T04:00:00.000Z,2.0,0.0,190,14.0,6+,1016.0,2,METAR,METAR EVLA 270350Z AUTO 19014KT 9999 FEW018/// BKN044/// 02/M00 Q1016,56.517,21.097,5,Liepāja Intl,BKN,"[{'cover': 'FEW', 'base': 1800}, {'cover': 'BKN', 'base': 4400}]",VFR,,,,,,,,,,"Liepāja Intl, LP, LV",LV,Latvia,-3.42253686783941
3213,EVRA,2026-02-27 03:50:31.499000+00:00,1772164200,2026-02-27T04:00:00.000Z,1.0,-2.0,180,12.0,6+,1017.0,16,METAR,METAR EVRA 270350Z 18012KT 9999 OVC015 01/M02 Q1017 NOSIG,56.924,23.968,7,Riga Intl,OVC,"[{'cover': 'OVC', 'base': 1500}]",MVFR,,,,,,,,,,"Riga Intl, RG, LV",LV,Latvia,-4.261179533112544
3898,EVVA,2026-02-27 03:51:11.599000+00:00,1772164200,2026-02-27T04:00:00.000Z,3.0,2.0,180,8.0,4.97,1014.0,2,METAR,METAR EVVA 270350Z AUTO 18008KT 8000 OVC012 03/02 Q1014,57.361,21.545,1,Ventpils Arpt,OVC,"[{'cover': 'OVC', 'base': 1200}]",MVFR,,,,,,,,,,"Ventpils Arpt, VS, LV",LV,Latvia,-0.6674522191007229
2062,EYKA,2026-02-27 03:50:30.919000+00:00,1772164200,2026-02-27T04:00:00.000Z,0.0,-4.0,180,5.0,6+,1021.0,0,METAR,METAR EYKA 270350Z 18005KT 130V230 CAVOK M00/M04 Q1021,54.962,24.069,68,Kaunas Arpt,CAVOK,[],VFR,,,,,,,,,,"Kaunas Arpt, KI, LT",LT,Lithuania,-3.0942981835679344
2970,EYPA,2026-02-27 03:50:31.217000+00:00,1772164200,2026-02-27T04:00:00.000Z,3.0,-1.0,190,14.0,6+,1018.0,0,METAR,METAR EYPA 270350Z 19014KT 9999 SCT021 OVC044 03/M01 Q1018,55.973,21.092,15,Palanga Intl,OVC,"[{'cover': 'SCT', 'base': 2100}, {'cover': 'OVC', 'base': 4400}]",VFR,,,,,,,,,,"Palanga Intl, KL, LT",LT,Lithuania,-2.134186708577693
3469,EYSA,2026-02-27 03:51:46.420000+00:00,1772164200,2026-02-27T04:00:00.000Z,0.0,-4.0,200,14.0,6+,1019.0,16,METAR,METAR EYSA 270350Z 20014KT CAVOK M00/M04 Q1019 NOSIG,55.894,23.395,135,Šiauliai Intl,CAVOK,[],VFR,,,,,,,,,,"Šiauliai Intl, SA, LT",LT,Lithuania,-5.999237186362858
3899,EYVI,2026-02-27 03:51:13.454000+00:00,1772164200,2026-02-27T04:00:00.000Z,-3.0,-5.0,170,14.0,6+,1022.0,16,METAR,METAR EYVI 270350Z 17014KT CAVOK M03/M05 Q1022 NOSIG,54.634,25.286,180,Vilnius Intl,CAVOK,[],VFR,,,,,,,,,,"Vilnius Intl, VL, LT",LT,Lithuania,-9.864287664148025
1118,FALE,2026-02-27 04:02:25.111000+00:00,1772164380,2026-02-27T03:53:00.000Z,22.0,20.0,170,12.0,2.17,1015.0,0,SPECI,SPECI FALE 270353Z 17012KT 3500 -RA BKN005 OVC011 22/20 Q1015 TEMPO 5000,-29.602,31.13,109,Durban/King Shaka Intl,OVC,"[{'cover': 'BKN', 'base': 500}, {'cover': 'OVC', 'base': 1100}]",IFR,,-RA,,,,,,,,"Durban/King Shaka Intl, NL, ZA",ZA,South Africa,22.453005845884768
1810,FAOR,2026-02-27 04:00:43.279000+00:00,1772164800,2026-02-27T04:00:00.000Z,17.0,16.0,340,8.0,6+,1022.0,16,METAR,METAR FAOR 270400Z 34008KT CAVOK 17/16 Q1022 NOSIG,-26.139,28.246,1684,Johannesburg/Tambo Intl,CAVOK,[],VFR,,,,,,,,,,"Johannesburg/Tambo Intl, NP, ZA",ZA,South Africa,16.56985834722128
243,FHAW,2026-02-27 03:31:50.771000+00:00,1772162400,2026-02-27T03:20:00.000Z,26.0,21.0,130,13.0,6+,1012.0,2,METAR,METAR FHAW 270320Z AUTO 13013KT 9999 NCD 26/21 Q1012,-7.97,-14.394,79,Ascension Arpt,CLR,[],VFR,,,,,,,,,,"Ascension Arpt, HE, SH",SH,"Saint Helena, Ascension and Tristan da Cunha",27.518940205676202
2464,FIMP,2026-02-27 03:59:36.459000+00:00,1772164800,2026-02-27T04:00:00.000Z,27.0,24.0,0,0.0,6+,1012.0,0,METAR,METAR FIMP 270400Z 00000KT 9999 FEW018 27/24 Q1012,-20.434,57.684,57,Mauritius Intl,FEW,"[{'cover': 'FEW', 'base': 1800}]",VFR,,,,,,,,,,"Mauritius Intl, GP, MU",MU,Mauritius,29.907166666666665
3123,FIMR,2026-02-27 04:01:28.543000+00:00,1772164800,2026-02-27T04:00:00.000Z,30.0,25.0,60,3.0,6+,1012.0,0,METAR,METAR FIMR 270400Z 06003KT 9999 SCT017 30/25 Q1012,-19.755,63.36,31,Rodrigues Arpt,SCT,"[{'cover': 'SCT', 'base': 1700}]",VFR,,,,,,,,,,"Rodrigues Arpt, RO, MU",MU,Mauritius,32.459122168981736
2678,FJDG,2026-02-27 03:52:13.886000+00:00,1772164500,2026-02-27T04:00:00.000Z,27.2,24.4,270,9.0,6+,1010.9,0,METAR,METAR FJDG 270355Z 27009KT 9999 FEW018 SCT045 BKN080 27/24 A2985 RMK SLP105 T02720244,-7.313,72.411,3,Diego Garcia Arpt,BKN,"[{'cover': 'FEW', 'base': 1800}, {'cover': 'SCT', 'base': 4500}, {'cover': 'BKN', 'base': 8000}]",VFR,,,1010.5,,,,,,,"Diego Garcia Arpt, BT, IO",IO,British Indian Ocean Territory,29.11129174807445
1015,FMCZ,2026-02-27 04:01:03.891000+00:00,1772164800,2026-02-27T04:00:00.000Z,28.0,26.0,VRB,3.0,6+,1010.0,2,METAR,METAR FMCZ 270400Z AUTO VRB03KT 9999 FEW023 28/26 Q1010 TEMPO VRB15G25KT 1000 TSRA SCT007 SCT012CB BKN015TCU,-12.805,45.281,7,Dzaoudzi/Pamandzi Intl,FEW,"[{'cover': 'FEW', 'base': 2300}]",VFR,,,,,,,,,,"Dzaoudzi/Pamandzi Intl, MA, YT",YT,Mayotte,30.173763530496128
3258,FMEE,2026-02-27 03:36:10.718000+00:00,1772163000,2026-02-27T03:30:00.000Z,25.0,20.0,190,5.0,6+,1011.0,2,METAR,METAR FMEE 270330Z AUTO 19005KT CAVOK 25/20 Q1011 BECMG 35010KT,-20.887,55.51,20,Reunion/St Denis/Garros Arpt,CAVOK,[],VFR,,,,,,,,,,"Reunion/St Denis/Garros Arpt, , RE",RE,Réunion,26.582341431583323
4212,FMEP,2026-02-27 03:35:36.029000+00:00,1772163000,2026-02-27T03:30:00.000Z,27.0,17.0,40,4.0,6+,1012.0,18,METAR,METAR FMEP 270330Z AUTO 04004KT CAVOK 27/17 Q1012 NOSIG,-21.32,55.425,21,Reunion/Pierrefonds Arpt,CAVOK,[],VFR,,,,,,,,,,"Reunion/Pierrefonds Arpt, , RE",RE,Réunion,28.989816422230977
1974,FNLU,2026-02-27 03:59:18.427000+00:00,1772164800,2026-02-27T04:00:00.000Z,26.0,22.0,VRB,2.0,5.59,1009.0,16,METAR,METAR FNLU 270400Z VRB02KT 9000 BKN018 26/22 Q1009 NOSIG,-8.858,13.231,75,Luanda Intl,BKN,"[{'cover': 'BKN', 'base': 1800}]",MVFR,,,,,,,,,,"Luanda Intl, LU, AO",AO,Angola,27.97617368047264
3325,FSIA,2026-02-27 04:00:43.668000+00:00,1772164800,2026-02-27T04:00:00.000Z,29.0,25.0,VRB,2.0,6+,1009.0,16,METAR,METAR FSIA 270400Z VRB02KT 9999 SCT020 29/25 Q1009 NOSIG,-4.674,55.522,3,Seychelles Intl,SCT,"[{'cover': 'SCT', 'base': 2000}]",VFR,,,,,,,,,,"Seychelles Intl, PL, SC",SC,Seychelles,31.30599823627919
465,GABS,2026-02-27 03:39:23.141000+00:00,1772163000,2026-02-27T03:30:00.000Z,22.0,3.0,30,3.0,4.97,1011.0,16,METAR,METAR GABS 270330Z 03003KT 8000 NSC 22/03 Q1011 NOSIG,12.534,-7.95,375,Bamako/Senou Intl,CLR,[],MVFR,,,,,,,,,,"Bamako/Senou Intl, BK, ML",ML,Mali,23.317687615039304
1510,GCFV,2026-02-27 03:34:39.189000+00:00,1772163000,2026-02-27T03:30:00.000Z,16.0,9.0,340,5.0,6+,1015.0,2,METAR,METAR GCFV 270330Z AUTO 34005KT 9999 OVC048 16/09 Q1015,28.445,-13.863,11,Fuerteventura Arpt,OVC,"[{'cover': 'OVC', 'base': 4800}]",VFR,,,,,,,,,,"Fuerteventura Arpt, CR, ES",ES,Spain,15.898751170128858
1498,GCGM,2026-02-27 03:34:47.632000+00:00,1772163000,2026-02-27T03:30:00.000Z,17.0,11.0,40,18.0,6+,1019.0,2,METAR,METAR GCGM 270330Z AUTO 04018G42KT 330V110 9999 BKN029 OVC037 17/11 Q1019 RMK R09/VRB04KT ARP/VRB06G16KT,28.032,-17.211,217,Alajero/La Gomera Arpt,OVC,"[{'cover': 'BKN', 'base': 2900}, {'cover': 'OVC', 'base': 3700}]",MVFR,42.0,,,,,,,,,"Alajero/La Gomera Arpt, CR, ES",ES,Spain,15.58311676629602
3948,GCHI,2026-02-27 03:34:47.702000+00:00,1772163000,2026-02-27T03:30:00.000Z,18.0,14.0,10,24.0,6+,1020.0,2,METAR,METAR GCHI 270330Z AUTO 01024G36KT 9999 SCT022 SCT029 BKN034 18/14 Q1020,27.819,-17.889,21,Valverde/Hierro Arpt,BKN,"[{'cover': 'SCT', 'base': 2200}, {'cover': 'SCT', 'base': 2900}, {'cover': 'BKN', 'base': 3400}]",VFR,36.0,,,,,,,,,"Valverde/Hierro Arpt, CR, ES",ES,Spain,16.549552219857738
3544,GCLA,2026-02-27 03:34:39.305000+00:00,1772163000,2026-02-27T03:30:00.000Z,18.0,13.0,350,21.0,6+,1021.0,2,METAR,METAR GCLA 270330Z AUTO 35021KT 9999 FEW027 OVC039 18/13 Q1021,28.633,-17.755,20,La Palma Arpt,OVC,"[{'cover': 'FEW', 'base': 2700}, {'cover': 'OVC', 'base': 3900}]",VFR,,,,,,,,,,"La Palma Arpt, CR, ES",ES,Spain,16.713673234677074
2380,GCLP,2026-02-27 03:34:39.423000+00:00,1772163000,2026-02-27T03:30:00.000Z,18.0,14.0,360,22.0,6+,1016.0,16,METAR,METAR GCLP 270330Z 36022G32KT 9999 SCT023 BKN040 18/14 Q1016 NOSIG,27.923,-15.389,16,Grand Canaria Arpt,BKN,"[{'cover': 'SCT', 'base': 2300}, {'cover': 'BKN', 'base': 4000}]",VFR,32.0,,,,,,,,,"Grand Canaria Arpt, CR, ES",ES,Spain,16.656893896633605
210,GCRR,2026-02-27 03:34:39.542000+00:00,1772163000,2026-02-27T03:30:00.000Z,19.0,10.0,10,19.0,5.59,1015.0,2,METAR,METAR GCRR 270330Z AUTO 01019KT 9000 OVC040 19/10 Q1015,28.952,-13.6,9,Arrecife/Lanzarote Arpt,OVC,"[{'cover': 'OVC', 'base': 4000}]",VFR,,,,,,,,,,"Arrecife/Lanzarote Arpt, CR, ES",ES,Spain,18.156147684484488
3748,GCTS,2026-02-27 03:34:39.652000+00:00,1772163000,2026-02-27T03:30:00.000Z,18.0,11.0,280,7.0,6+,1017.0,16,METAR,METAR GCTS 270330Z 28007KT 250V340 9999 FEW050 18/11 Q1017 NOSIG,28.047,-16.561,59,Tenerife/South Arpt,FEW,"[{'cover': 'FEW', 'base': 5000}]",VFR,,,,,,,,,,"Tenerife/South Arpt, CR, ES",ES,Spain,17.93876021369529
3729,GCXO,2026-02-27 03:36:07.419000+00:00,1772163000,2026-02-27T03:30:00.000Z,13.0,13.0,340,10.0,3.11,1020.0,2,METAR,METAR GCXO 270330Z AUTO 34010KT 290V030 5000 0550NW R30/P2000 R12/1200U BR BCFG FEW003 BKN007 BKN011 13/13 Q1020,28.483,-16.342,623,Tenerife/North Arpt,BKN,"[{'cover': 'FEW', 'base': 300}, {'cover': 'BKN', 'base': 700}, {'cover': 'BKN', 'base': 1100}]",IFR,,BCFG BR,,,,,,,,"Tenerife/North Arpt, CR, ES",ES,Spain,11.297380266794237
2591,GEML,2026-02-27 03:34:36.157000+00:00,1772163000,2026-02-27T03:30:00.000Z,15.0,13.0,100,4.0,6+,1023.0,2,METAR,METAR GEML 270330Z AUTO 10004KT 050V120 9999 FEW011 OVC017 15/13 Q1023,35.278,-2.956,48,Melilla Arpt,OVC,"[{'cover': 'FEW', 'base': 1100}, {'cover': 'OVC', 'base': 1700}]",MVFR,,,,,,,,,,"Melilla Arpt, ML, ES",ES,Spain,14.983063305014802
3279,GLRB,2026-02-27 03:32:02.780000+00:00,1772163000,2026-02-27T03:30:00.000Z,24.0,23.0,30,4.0,4.97,1009.0,0,METAR,METAR GLRB 270330Z 03004KT 8000 TSRA FEW005 BKN012 FEW022CB 24/23 Q1009 NOSIC RMK CB-SE-S,6.234,-10.362,12,Monrovia/Roberts Intl,FEW,"[{'cover': 'FEW', 'base': 500}, {'cover': 'BKN', 'base': 1200}, {'cover': 'FEW', 'base': 2200}]",MVFR,,TSRA IC,,,,,,,,"Monrovia/Roberts Intl, MG, LR",LR,Liberia,25.48812814292694
5,GMAD,2026-02-27 04:02:22.890000+00:00,1772164800,2026-02-27T04:00:00.000Z,24.0,-4.0,50,15.0,3.73,1014.0,16,METAR,METAR GMAD 270400Z 05015KT 6000 NSC 24/M04 Q1014 NOSIG,30.325,-9.413,66,Agadir/Al Massira Arpt,CLR,[],MVFR,,,,,,,,,,"Agadir/Al Massira Arpt, SM, MA",MA,Morocco,24.886517946684926
997,GMFF,2026-02-27 04:02:22.914000+00:00,1772164800,2026-02-27T04:00:00.000Z,7.0,4.0,200,5.0,6+,1021.0,16,METAR,METAR GMFF 270400Z 20005KT CAVOK 07/04 Q1021 NOSIG,33.929,-4.976,575,Fes/Saïss Arpt,CAVOK,[],VFR,,,,,,,,,,"Fes/Saïss Arpt, FE, MA",MA,Morocco,5.215160908674418
1001,GMFK,2026-02-27 04:02:24.480000+00:00,1772164800,2026-02-27T04:00:00.000Z,13.0,-9.0,VRB,2.0,6+,1026.0,16,METAR,METAR GMFK 270400Z VRB02KT CAVOK 13/M09 Q1026 NOSIG,31.946,-4.399,1033,Errachidia/Cherif Arpt,CAVOK,[],VFR,,,,,,,,,,"Errachidia/Cherif Arpt, MK, MA",MA,Morocco,13.546933938644262
2180,GMFM,2026-02-27 04:02:22.601000+00:00,1772164800,2026-02-27T04:00:00.000Z,9.0,3.0,150,3.0,,1020.0,0,METAR,METAR GMFM 270400Z 15003KT 120V190 09/03 Q1020,33.875,-5.52,569,Meknes/Bassatine Arpt,,,,,,,,,,,,,"Meknes/Bassatine Arpt, MK, MA",MA,Morocco,8.462856464882849
2635,GMFO,2026-02-27 04:02:22.944000+00:00,1772164800,2026-02-27T04:00:00.000Z,12.0,-5.0,230,10.0,6+,1023.0,16,METAR,METAR GMFO 270400Z 23010KT CAVOK 12/M05 Q1023 NOSIG,34.787,-1.924,452,Oujda/Angads Arpt,CAVOK,[],VFR,,,,,,,,,,"Oujda/Angads Arpt, RA, MA",MA,Morocco,10.043981113377608
3106,GMME,2026-02-27 04:02:22.972000+00:00,1772164800,2026-02-27T04:00:00.000Z,10.0,10.0,0,0.0,3.11,1018.0,16,METAR,METAR GMME 270400Z 00000KT 5000 NSC 10/10 Q1018 NOSIG,34.051,-6.752,84,Rabat-Salé Arpt,CLR,[],MVFR,,,,,,,,,,"Rabat-Salé Arpt, RS, MA",MA,Morocco,19.341666666666665
1002,GMMI,2026-02-27 04:02:24.509000+00:00,1772164800,2026-02-27T04:00:00.000Z,14.0,8.0,70,7.0,3.11,1017.0,18,METAR,METAR GMMI 270400Z AUTO 07007KT 5000 BKN016 14/08 Q1017 NOSIG,31.406,-9.687,102,Essaouira/Mogador Arpt,BKN,"[{'cover': 'BKN', 'base': 1600}]",MVFR,,,,,,,,,,"Essaouira/Mogador Arpt, MR, MA",MA,Morocco,13.065369769329083
996,GMML,2026-02-27 04:02:22.625000+00:00,1772164800,2026-02-27T04:00:00.000Z,13.0,12.0,50,10.0,3.73,1013.0,16,METAR,METAR GMML 270400Z 05010KT 6000 FEW016 13/12 Q1013 NOSIG,27.141,-13.23,63,Laâyoune/Hassan Arpt,FEW,"[{'cover': 'FEW', 'base': 1600}]",MVFR,,,,,,,,,,"Laâyoune/Hassan Arpt, LA, EH",EH,Western Sahara,11.297380266794237
531,GMMN,2026-02-27 04:02:23.005000+00:00,1772164800,2026-02-27T04:00:00.000Z,9.0,8.0,160,6.0,2.49,1019.0,16,METAR,METAR GMMN 270400Z 16006KT 4000 R17R/1900N BR NSC 09/08 Q1019 NOSIG,33.367,-7.59,196,Casablanca Intl,CLR,[],IFR,,BR,,,,,,,,"Casablanca Intl, ME, MA",MA,Morocco,7.259805906996636
2453,GMMW,2026-02-27 04:02:24.533000+00:00,1772164800,2026-02-27T04:00:00.000Z,13.0,12.0,70,2.0,3.11,1022.0,16,METAR,METAR GMMW 270400Z 07002KT 5000 BKN009 SCT190 13/12 Q1022 NOSIG,34.993,-3.025,174,Nador/Aroui Intl,SCT,"[{'cover': 'BKN', 'base': 900}, {'cover': 'SCT', 'base': 19000}]",IFR,,,,,,,,,,"Nador/Aroui Intl, TA, MA",MA,Morocco,13.546933938644262
3107,GMMX,2026-02-27 04:02:23.038000+00:00,1772164800,2026-02-27T04:00:00.000Z,15.0,3.0,VRB,2.0,4.97,1018.0,16,METAR,METAR GMMX 270400Z VRB02KT 8000 SCT080 15/03 Q1018 NOSIG,31.607,-8.036,465,Marrakesh/Menara Intl,SCT,"[{'cover': 'SCT', 'base': 8000}]",MVFR,,,,,,,,,,"Marrakesh/Menara Intl, ME, MA",MA,Morocco,15.766816975848634
2846,GMMZ,2026-02-27 04:02:24.555000+00:00,1772164800,2026-02-27T04:00:00.000Z,11.0,-10.0,VRB,1.0,6+,1024.0,16,METAR,METAR GMMZ 270400Z VRB01KT CAVOK 11/M10 Q1024 NOSIG,30.939,-6.909,1139,Ouarzazate Arpt,CAVOK,[],VFR,,,,,,,,,,"Ouarzazate Arpt, SO, MA",MA,Morocco,12.2336265413524
10,GMTA,2026-02-27 04:02:24.577000+00:00,1772164800,2026-02-27T04:00:00.000Z,14.0,12.0,VRB,2.0,,1023.0,0,METAR,METAR GMTA 270400Z VRB02KT 14/12 Q1023,35.177,-3.84,14,Al Hoceima/Idrissi Arpt,,,,,,,,,,,,,"Al Hoceima/Idrissi Arpt, TA, MA",MA,Morocco,14.656875457246453
3805,GMTN,2026-02-27 04:02:24.602000+00:00,1772164800,2026-02-27T04:00:00.000Z,15.0,13.0,80,8.0,6+,1022.0,16,METAR,METAR GMTN 270400Z 08008KT 9999 BKN010 SCT026 15/13 Q1022 NOSIG,35.594,-5.32,10,Tetouan/Sania Ramel Arpt,SCT,"[{'cover': 'BKN', 'base': 1000}, {'cover': 'SCT', 'base': 2600}]",MVFR,,,,,,,,,,"Tetouan/Sania Ramel Arpt, TA, MA",MA,Morocco,14.107385409175274
3753,GMTT,2026-02-27 03:33:13.308000+00:00,1772163000,2026-02-27T03:30:00.000Z,15.0,12.0,80,16.0,4.97,1020.0,16,METAR,METAR GMTT 270330Z 08016KT 8000 NSC 15/12 Q1020 NOSIG,35.727,-5.917,19,Tangier/Batouta Arpt,CLR,[],MVFR,,,,,,,,,,"Tangier/Batouta Arpt, TA, MA",MA,Morocco,13.12900175905963
992,GOBD,2026-02-27 04:00:43.613000+00:00,1772164800,2026-02-27T04:00:00.000Z,18.0,18.0,360,13.0,4.97,1012.0,16,METAR,METAR GOBD 270400Z 36013KT 8000 NSC 18/18 Q1012 NOSIG,14.671,-17.067,90,Dakar/Diagne Intl,CLR,[],MVFR,,,,,,,,,,"Dakar/Diagne Intl, TH, SN",SN,Senegal,17.275021594984356
543,HECA,2026-02-27 03:59:32.298000+00:00,1772164800,2026-02-27T04:00:00.000Z,12.0,4.0,290,7.0,6+,1018.0,16,METAR,METAR HECA 270400Z 29007KT 230V340 9999 FEW025 12/04 Q1018 NOSIG,30.133,31.405,142,Cairo Intl,FEW,"[{'cover': 'FEW', 'base': 2500}]",VFR,,,,,,,,,,"Cairo Intl, QH, EG",EG,Egypt,10.628674547145975
1237,HKEL,2026-02-27 03:45:19.299000+00:00,1772163000,2026-02-27T03:30:00.000Z,14.0,13.0,VRB,2.0,6+,1023.0,0,METAR,METAR HKEL 270330Z VRB02KT 9999 -RA BKN011 BKN070 14/13 Q1023,0.404,35.239,2116,Eldoret Intl,BKN,"[{'cover': 'BKN', 'base': 1100}, {'cover': 'BKN', 'base': 7000}]",MVFR,,-RA,,,,,,,,"Eldoret Intl, UA, KE",KE,Kenya,14.656875457246453
2593,HKJK,2026-02-27 03:45:19.179000+00:00,1772163000,2026-02-27T03:30:00.000Z,16.0,15.0,250,1.0,6+,1021.0,16,METAR,METAR HKJK 270330Z 25001KT 9999 FEW016 BKN080 16/15 Q1021 NOSIG,-1.319,36.928,1615,Nairobi/Kenyatta Intl,BKN,"[{'cover': 'FEW', 'base': 1600}, {'cover': 'BKN', 'base': 8000}]",VFR,,,,,,,,,,"Nairobi/Kenyatta Intl, NA, KE",KE,Kenya,17.52696356550782
2355,HKMO,2026-02-27 03:57:23.309000+00:00,1772163000,2026-02-27T03:30:00.000Z,24.0,22.0,VRB,2.0,6+,1008.0,16,METAR,METAR HKMO 270330Z VRB02KT 9999 FEW019CB SCT070 24/22 Q1008 NOSIG,-4.015,39.606,55,Mombasa/Moi Intl,SCT,"[{'cover': 'FEW', 'base': 1900}, {'cover': 'SCT', 'base': 7000}]",VFR,,,,,,,,,,"Mombasa/Moi Intl, MO, KE",KE,Kenya,25.756290643268276
1818,HRYR,2026-02-27 04:01:52.351000+00:00,1772164800,2026-02-27T04:00:00.000Z,17.0,17.0,20,3.0,0.5,1019.0,0,METAR,METAR HRYR 270400Z 02003KT 0800 FG FEW006 BKN020 17/17 Q1019 BECMG 1500 BR,-1.969,30.14,1493,Kigali Intl,BKN,"[{'cover': 'FEW', 'base': 600}, {'cover': 'BKN', 'base': 2000}]",LIFR,,FG,,,,,,,,"Kigali Intl, KI, RW",RW,Rwanda,17.604291018825286
1010,HUEN,2026-02-27 04:02:53.904000+00:00,1772164800,2026-02-27T04:00:00.000Z,21.0,20.0,350,5.0,6+,1015.0,0,METAR,METAR HUEN 270400Z 35005KT 9999 TS BKN023 FEW025CB 21/20 Q1015,0.036,32.437,1147,Entebbe Intl,FEW,"[{'cover': 'BKN', 'base': 2300}, {'cover': 'FEW', 'base': 2500}]",MVFR,,TS,,,,,,,,"Entebbe Intl, C, UG",UG,Uganda,21.83407909315911
114,KAAF,2026-02-27 03:56:40.947000+00:00,1772164380,2026-02-27T04:00:00.000Z,18.3,17.2,210,5.0,10+,1014.6,14,METAR,METAR KAAF 270353Z AUTO 21005KT 10SM FEW040 OVC065 18/17 A2996 RMK AO1 SLP144 T01830172 $,29.7268,-85.0248,5,Apalachicola Muni,OVC,"[{'cover': 'FEW', 'base': 4000}, {'cover': 'OVC', 'base': 6500}]",VFR,,,1014.4,,,,,,,"Apalachicola Muni, FL, US",US,United States,18.62900201472278
126,KABE,2026-02-27 03:56:18.606000+00:00,1772164260,2026-02-27T04:00:00.000Z,-1.7,-8.3,0,0.0,10+,1014.0,4,METAR,METAR KABE 270351Z 00000KT 10SM SCT110 M02/M08 A2994 RMK AO2 SLP143 T10171083,40.658,-75.4347,117,Allentown/Lehigh Valley Intl,SCT,"[{'cover': 'SCT', 'base': 11000}]",VFR,,,1014.3,,,,,,,"Allentown/Lehigh Valley Intl, PA, US",US,United States,12.07011666666667
115,KABI,2026-02-27 03:58:39.297000+00:00,1772164320,2026-02-27T04:00:00.000Z,17.8,1.7,70,5.0,10+,1015.7,12,METAR,METAR KABI 270352Z 07005KT 10SM CLR 18/02 A2999 RMK AO2 SLP138 T01780017 $,32.4106,-99.6821,543,Abilene Rgnl,CLR,[],VFR,,,1013.8,,,,,,,"Abilene Rgnl, TX, US",US,United States,18.035469222419763
120,KABQ,2026-02-27 03:56:20.701000+00:00,1772164320,2026-02-27T04:00:00.000Z,16.7,-9.4,320,12.0,10+,1020.7,12,METAR,METAR KABQ 270352Z 32012KT 10SM SCT250 16/M09 A3014 RMK AO2 SLP148 T01671094 $,35.0419,-106.6154,1620,Albuquerque Intl,SCT,"[{'cover': 'SCT', 'base': 25000}]",VFR,,,1014.8,,,,,,,"Albuquerque Intl, NM, US",US,United States,15.710854297852116
113,KABR,2026-02-27 03:58:43.003000+00:00,1772164380,2026-02-27T04:00:00.000Z,-0.6,-4.4,240,7.0,10+,1005.8,6,METAR,METAR KABR 270353Z AUTO 24007KT 10SM CLR M01/M04 A2970 RMK AO2 SLP070 T10061044,45.4436,-98.4138,397,Aberdeen Rgnl,CLR,[],VFR,,,1007.0,,,,,,,"Aberdeen Rgnl, SD, US",US,United States,-4.722505352607594
91,KABY,2026-02-27 03:56:40.984000+00:00,1772164380,2026-02-27T04:00:00.000Z,17.8,15.0,200,9.0,10+,1014.3,6,METAR,METAR KABY 270353Z AUTO 20009KT 10SM OVC100 18/15 A2995 RMK AO2 SLP141 T01780150,31.5364,-84.1958,60,Albany/SW Georgia Rgnl,OVC,"[{'cover': 'OVC', 'base': 10000}]",VFR,,,1014.1,,,,,,,"Albany/SW Georgia Rgnl, GA, US",US,United States,17.428632570597237
52,KACB,2026-02-27 04:00:14.903000+00:00,1772164500,2026-02-27T04:00:00.000Z,-0.9,-4.0,0,0.0,10+,1009.2,6,METAR,METAR KACB 270355Z AUTO 00000KT 10SM OVC048 M01/M04 A2980 RMK AO2 T10091040,44.9867,-85.2022,189,Bellaire/Antrim Cnty,OVC,"[{'cover': 'OVC', 'base': 4800}]",VFR,,,,,,,,,,"Bellaire/Antrim Cnty, MI, US",US,United States,12.56731666666667
92,KACK,2026-02-27 03:58:24.613000+00:00,1772164380,2026-02-27T04:00:00.000Z,1.7,0.0,300,4.0,9,1013.0,14,METAR,METAR KACK 270353Z AUTO 30004KT 9SM OVC090 02/00 A2991 RMK AO2 SLP129 T00170000 $,41.2541,-70.0589,12,Nantucket Mem Arpt,OVC,"[{'cover': 'OVC', 'base': 9000}]",VFR,,,1012.9,,,,,,,"Nantucket Mem Arpt, MA, US",US,United States,-0.5410880665664605
124,KACT,2026-02-27 03:56:19.843000+00:00,1772164260,2026-02-27T04:00:00.000Z,17.2,11.7,350,4.0,10+,1012.6,4,METAR,METAR KACT 270351Z 35004KT 10SM CLR 17/12 A2990 RMK AO2 SLP122 T01720117,31.618,-97.2283,150,Waco Rgnl,CLR,[],VFR,,,1012.2,,,,,,,"Waco Rgnl, TX, US",US,United States,17.5509680431711
112,KACV,2026-02-27 03:58:28.040000+00:00,1772164380,2026-02-27T04:00:00.000Z,12.2,11.1,0,0.0,10+,1023.8,6,METAR,METAR KACV 270353Z AUTO 00000KT 10SM OVC046 12/11 A3023 RMK AO2 SLP243 T01220111,40.9784,-124.1048,63,Arcata Arpt,OVC,"[{'cover': 'OVC', 'base': 4600}]",VFR,,,1024.3,,,,,,,"Arcata Arpt, CA, US",US,United States,20.708966666666665
74,KACY,2026-02-27 03:58:33.493000+00:00,1772164440,2026-02-27T04:00:00.000Z,3.3,0.6,270,3.0,10+,1014.3,6,METAR,METAR KACY 270354Z AUTO 27003KT 10SM OVC085 03/01 A2995 RMK AO2 SLP141 T00330006,39.452,-74.567,18,Atlantic City Intl,OVC,"[{'cover': 'OVC', 'base': 8500}]",VFR,,,1014.1,,,,,,,"Atlantic City Intl, NJ, US",US,United States,1.9495843451988568
111,KADG,2026-02-27 03:58:43.474000+00:00,1772164380,2026-02-27T04:00:00.000Z,-2.2,-5.6,0,0.0,10+,1013.3,6,METAR,METAR KADG 270353Z AUTO 00000KT 10SM CLR M02/M06 A2992 RMK AO2 SLP143 T10221056,41.8678,-84.0794,244,Adrian/Lenawee Cnty,CLR,[],VFR,,,1014.3,,,,,,,"Adrian/Lenawee Cnty, MI, US",US,United States,11.759366666666667
68,KADH,2026-02-27 04:00:30.873000+00:00,1772164500,2026-02-27T04:00:00.000Z,15.0,1.0,350,3.0,10+,1015.0,6,METAR,METAR KADH 270355Z AUTO 35003KT 10SM BKN048 15/01 A2997 RMK AO2,34.8021,-96.6701,301,Ada Muni,BKN,"[{'cover': 'BKN', 'base': 4800}]",VFR,,,,,,,,,,"Ada Muni, OK, US",US,United States,15.318932380339671
142,KADM,2026-02-27 03:55:14.636000+00:00,1772164200,2026-02-27T04:00:00.000Z,10.0,0.0,0,0.0,10+,1014.6,0,METAR,METAR KADM 270350Z 00000KT 10SM CLR 10/00 A2996,34.3007,-97.0089,223,Ardmore Muni,CLR,[],VFR,,,,,,,,,,"Ardmore Muni, OK, US",US,United States,19.341666666666665
64,KADS,2026-02-27 04:00:30.903000+00:00,1772164500,2026-02-27T04:00:00.000Z,20.0,4.0,30,5.0,10+,1013.6,6,METAR,METAR KADS 270355Z AUTO 03005KT 10SM CLR 20/04 A2993 RMK AO2,32.9634,-96.8354,198,Dallas/Addison Arpt,CLR,[],VFR,,,,,,,,,,"Dallas/Addison Arpt, TX, US",US,United States,20.647013508553073
47,KADW,2026-02-27 03:58:57.874000+00:00,1772164500,2026-02-27T04:00:00.000Z,3.5,1.9,0,0.0,10+,1014.6,12,METAR,METAR KADW 270355Z 00000KT 10SM OVC065 04/02 A2996 RMK AO2A SLP154 T00350019 $,38.8215,-76.8654,87,Andrews AFB,OVC,"[{'cover': 'OVC', 'base': 6500}]",VFR,,,1015.4,,,,,,,"Andrews AFB, MD, US",US,United States,15.30191666666667
51,KAEL,2026-02-27 04:00:14.937000+00:00,1772164500,2026-02-27T04:00:00.000Z,0.3,-2.3,210,5.0,10+,1008.5,6,METAR,METAR KAEL 270355Z AUTO 21005KT 10SM CLR 00/M02 A2978 RMK AO2 T00031023,43.6823,-93.3722,382,Albert Lea Muni,CLR,[],VFR,,,,,,,,,,"Albert Lea Muni, MN, US",US,United States,-2.738178508186117
110,KAEX,2026-02-27 03:56:41.068000+00:00,1772164380,2026-02-27T04:00:00.000Z,18.3,16.7,0,0.0,6,1011.9,4,METAR,METAR KAEX 270353Z 00000KT 6SM BR SCT035 18/17 A2988 RMK AO2 SLP119 T01830167,31.3346,-92.5585,25,Alexandria Intl,SCT,"[{'cover': 'SCT', 'base': 3500}]",VFR,,BR,1011.9,,,,,,,"Alexandria Intl, LA, US",US,United States,24.50011666666667
56,KAFF,2026-02-27 04:02:13.600000+00:00,1772164500,2026-02-27T04:00:00.000Z,9.0,-10.5,300,5.0,10+,1018.4,6,METAR,METAR KAFF 270355Z AUTO 30005KT 10SM CLR 09/M10 A3007 RMK AO2 SLP142 T00901105,38.971,-104.816,2003,Air Force Academy Arfld,CLR,[],VFR,,,1014.2,,,,,,,"Air Force Academy Arfld, CO, US",US,United States,7.589292077886522
4031,KAFJ,2026-02-27 04:00:33.244000+00:00,1772164560,2026-02-27T04:00:00.000Z,-2.2,-6.7,0,0.0,10+,1015.3,78,METAR,METAR KAFJ 270356Z AUTO 00000KT 10SM BKN100 M02/M07 A2998 RMK AO2 SLP163 T10221067 400721039 FZRANO $,40.1362,-80.2851,360,Washington Cnty Arpt,BKN,"[{'cover': 'BKN', 'base': 10000}]",VFR,,,1016.3,,,7.2,-3.9,,,"Washington Cnty Arpt, PA, US",US,United States,11.759366666666667
117,KAFN,2026-02-27 03:56:25.975000+00:00,1772164320,2026-02-27T04:00:00.000Z,-8.9,-12.2,0,0.0,10+,1012.6,6,METAR,METAR KAFN 270352Z AUTO 00000KT 10SM CLR M09/M12 A2990 RMK AO2 SLP147 T10891122,42.8067,-72.0013,308,Jaffrey Muni,CLR,[],VFR,,,1014.7,,,,,,,"Jaffrey Muni, NH, US",US,United States,7.595316666666668
43,KAFO,2026-02-27 04:00:33.708000+00:00,1772164500,2026-02-27T04:00:00.000Z,-1.0,-5.0,210,4.0,10+,1024.5,6,METAR,METAR KAFO 270355Z AUTO 21004KT 10SM CLR M01/M05 A3025 RMK AO2,42.7139,-110.9443,1881,Afton Muni,CLR,[],VFR,,,,,,,,,,"Afton Muni, WY, US",US,United States,-3.692607517940104
86,KAFW,2026-02-27 03:58:28.350000+00:00,1772164380,2026-02-27T04:00:00.000Z,16.1,5.6,340,4.0,10+,1013.6,4,METAR,METAR KAFW 270353Z 34004KT 10SM CLR 16/06 A2993 RMK AO2 SLP133 T01610056,32.99,-97.32,208,Fort Worth/Alliance Arpt,CLR,[],VFR,,,1013.3,,,,,,,"Fort Worth/Alliance Arpt, TX, US",US,United States,16.267015674092953
100,KAGC,2026-02-27 03:58:43.029000+00:00,1772164380,2026-02-27T04:00:00.000Z,2.2,-11.1,0,0.0,10+,1013.6,6,METAR,METAR KAGC 270353Z AUTO 00000KT 10SM CLR 02/M11 A2993 RMK AO2 SLP152 T00221111,40.3551,-79.9215,380,Pittsburgh/Allegheny Cnty,CLR,[],VFR,,,1015.2,,,,,,,"Pittsburgh/Allegheny Cnty, PA, US",US,United States,14.493966666666665
55,KAGO,2026-02-27 03:58:21.650000+00:00,1772164500,2026-02-27T04:00:00.000Z,13.0,13.0,0,0.0,2.5,1011.3,6,METAR,METAR KAGO 270355Z AUTO 00000KT 2 1/2SM BR CLR 13/13 A2986 RMK A01,33.2266,-93.2154,91,Magnolia Muni,CLR,[],IFR,,BR,,,,,,,,"Magnolia Muni, AR, US",US,United States,21.206166666666665
44,KAGS,2026-02-27 03:59:01.457000+00:00,1772164500,2026-02-27T03:55:00.000Z,15.6,15.6,20,4.0,2.5,1013.3,6,SPECI,SPECI KAGS 270355Z AUTO 02004KT 2 1/2SM +RA BR FEW003 BKN008 OVC046 16/16 A2992 RMK AO2 P0000 T01560156,33.3652,-81.9635,40,Augusta Rgnl,OVC,"[{'cover': 'FEW', 'base': 300}, {'cover': 'BKN', 'base': 800}, {'cover': 'OVC', 'base': 4600}]",IFR,,+RA BR,,0.005,,,,,,"Augusta Rgnl, GA, US",US,United States,15.683400960875613
129,KAHN,2026-02-27 03:54:28.513000+00:00,1772164260,2026-02-27T04:00:00.000Z,13.9,13.9,210,3.0,6,1011.9,6,METAR,METAR KAHN 270351Z AUTO 21003KT 6SM BR CLR 14/14 A2988 RMK AO2 RAB0255E18 SLP117 P0000 T01390139,33.9477,-83.3274,241,Athens/Epps Arpt,CLR,[],VFR,,BR,1011.7,0.005,,,,,,"Athens/Epps Arpt, GA, US",US,United States,14.061985129172585
83,KAIA,2026-02-27 03:58:43.494000+00:00,1772164380,2026-02-27T04:00:00.000Z,7.8,-8.9,270,16.0,10+,1011.6,6,METAR,METAR KAIA 270353Z AUTO 27016KT 10SM CLR 08/M09 A2987 RMK AO2 SLP118 T00781089,42.0573,-102.8017,1198,Alliance Muni,CLR,[],VFR,,,1011.8,,,,,,,"Alliance Muni, NE, US",US,United States,3.7491966149982563
57,KAID,2026-02-27 03:36:11.002000+00:00,1772164500,2026-02-27T04:00:00.000Z,1.5,-1.1,0,0.0,10+,1014.0,6,METAR,METAR KAID 270355Z AUTO 00000KT 10SM OVC090 02/M01 A2994 RMK AO2 T00151011,40.1061,-85.6098,277,Anderson Muni,OVC,"[{'cover': 'OVC', 'base': 9000}]",VFR,,,,,,,,,,"Anderson Muni, IN, US",US,United States,14.058916666666669
45,KAIK,2026-02-27 03:58:46.386000+00:00,1772164500,2026-02-27T04:00:00.000Z,14.8,14.2,200,10.0,10+,1014.0,6,METAR,METAR KAIK 270355Z AUTO 20010KT 10SM -RA OVC095 15/14 A2994 RMK AO2 LTG DSNT W P0008 T01480142,33.651,-81.6821,155,Aiken Muni,OVC,"[{'cover': 'OVC', 'base': 9500}]",VFR,,-RA,,0.08,,,,,,"Aiken Muni, GA, US",US,United States,13.553498742944189
69,KAIO,2026-02-27 04:00:30.988000+00:00,1772164500,2026-02-27T04:00:00.000Z,-1.0,-2.0,0,0.0,10+,1011.9,6,METAR,METAR KAIO 270355Z AUTO 00000KT 10SM CLR M01/M02 A2988 RMK AO2,41.4059,-95.0465,349,Atlantic Muni,CLR,[],VFR,,,,,,,,,,"Atlantic Muni, IA, US",US,United States,12.505166666666668
90,KAKO,2026-02-27 03:58:28.372000+00:00,1772164380,2026-02-27T04:00:00.000Z,3.3,-11.1,290,10.0,10+,1015.7,6,METAR,METAR KAKO 270353Z AUTO 29010KT 10SM CLR 03/M11 A2999 RMK AO2 SLP148 T00331111,40.1743,-103.2146,1431,Akron/Plains Rgnl,CLR,[],VFR,,,1014.8,,,,,,,"Akron/Plains Rgnl, CO, US",US,United States,-0.8605915213471249
76,KAKR,2026-02-27 03:58:21.683000+00:00,1772164440,2026-02-27T04:00:00.000Z,-0.6,-5.6,0,0.0,10+,1013.6,6,METAR,METAR KAKR 270354Z AUTO 00000KT 10SM OVC080 M01/M06 A2993 RMK AO2 SLP146 T10061056,41.0373,-81.4634,319,Akron/Fulton Intl,OVC,"[{'cover': 'OVC', 'base': 8000}]",VFR,,,1014.6,,,,,,,"Akron/Fulton Intl, OH, US",US,United States,12.753766666666671
127,KALB,2026-02-27 03:56:18.632000+00:00,1772164260,2026-02-27T04:00:00.000Z,-6.7,-11.1,0,0.0,10+,1016.0,12,METAR,METAR KALB 270351Z 00000KT 10SM CLR M07/M11 A3000 RMK AO2 SLP161 T10671111 $,42.7473,-73.7991,82,Albany Intl,CLR,[],VFR,,,1016.1,,,,,,,"Albany Intl, NY, US",US,United States,8.96261666666667
89,KALI,2026-02-27 03:58:28.054000+00:00,1772164380,2026-02-27T04:00:00.000Z,22.2,18.3,60,11.0,10+,1008.2,6,METAR,METAR KALI 270353Z AUTO 06011KT 10SM CLR 22/18 A2977 RMK AO2 SLP078 T02220183,27.7413,-98.0251,52,Alice Intl,CLR,[],VFR,,,1007.8,,,,,,,"Alice Intl, TX, US",US,United States,22.765721842289047
58,KALM,2026-02-27 03:58:38.110000+00:00,1772164500,2026-02-27T04:00:00.000Z,16.0,-1.0,40,7.0,10+,1017.4,6,METAR,METAR KALM 270355Z AUTO 04007KT 10SM CLR 16/M01 A3004 RMK AO2,32.8351,-105.9941,1267,Alamogordo/White Sands Rgnl,CLR,[],VFR,,,,,,,,,,"Alamogordo/White Sands Rgnl, NM, US",US,United States,15.502064991512176
157,KALN,2026-02-27 03:47:42.253000+00:00,1772163900,2026-02-27T04:00:00.000Z,7.0,2.0,VRB,3.0,10+,1013.6,0,METAR,METAR KALN 270345Z VRB03KT 10SM CLR 07/02 A2993,38.8897,-90.0316,159,Alton/St Louis Rgnl,CLR,[],VFR,,,,,,,,,,"Alton/St Louis Rgnl, IL, US",US,United States,6.177497826397239
81,KALO,2026-02-27 03:58:21.699000+00:00,1772164440,2026-02-27T04:00:00.000Z,-4.4,-5.0,0,0.0,5,1010.9,6,METAR,METAR KALO 270354Z AUTO 00000KT 5SM BR CLR M04/M05 A2985 RMK AO2 SLP121 T10441050,42.5544,-92.4013,264,Waterloo Rgnl,CLR,[],MVFR,,BR,1012.1,,,,,,,"Waterloo Rgnl, IA, US",US,United States,10.392066666666667
118,KALS,2026-02-27 03:56:24.494000+00:00,1772164320,2026-02-27T04:00:00.000Z,3.9,-8.9,360,10.0,10+,1022.8,6,METAR,METAR KALS 270352Z AUTO 36010KT 10SM CLR 04/M09 A3020 RMK AO2 SLP200 T00391089,37.4393,-105.8618,2299,Alamosa/Bergman Fld,CLR,[],VFR,,,1020.0,,,,,,,"Alamosa/Bergman Fld, CO, US",US,United States,-0.10855202929713709
87,KALW,2026-02-27 03:58:24.892000+00:00,1772164380,2026-02-27T04:00:00.000Z,7.2,-1.7,190,7.0,10+,1022.8,6,METAR,METAR KALW 270353Z AUTO 19007KT 10SM CLR 07/M02 A3020 RMK AO2 SLP232 T00721017,46.0946,-118.2857,355,Walla Walla Rgnl,CLR,[],VFR,,,1023.2,,,,,,,"Walla Walla Rgnl, WA, US",US,United States,4.780606013906521
50,KALX,2026-02-27 03:58:58.183000+00:00,1772164500,2026-02-27T04:00:00.000Z,16.7,16.7,0,0.0,7,1011.6,6,METAR,METAR KALX 270355Z AUTO 00000KT 7SM SCT003 BKN030 OVC035 17/17 A2987 RMK AO2 LTG DSNT NE P0001 T01670167,32.916,-85.964,198,Alexander City/Russell Fld,OVC,"[{'cover': 'SCT', 'base': 300}, {'cover': 'BKN', 'base': 3000}, {'cover': 'OVC', 'base': 3500}]",MVFR,,,,0.01,,,,,,"Alexander City/Russell Fld, AL, US",US,United States,23.50571666666667
109,KAMA,2026-02-27 03:58:28.072000+00:00,1772164380,2026-02-27T04:00:00.000Z,8.9,-3.9,140,9.0,10+,1016.7,4,METAR,METAR KAMA 270353Z 14009KT 10SM CLR 09/M04 A3002 RMK AO2 SLP144 T00891039,35.2203,-101.7173,1102,Amarillo Intl Arpt,CLR,[],VFR,,,1014.4,,,,,,,"Amarillo Intl Arpt, TX, US",US,United States,6.367391434475177
62,KAMN,2026-02-27 04:00:33.275000+00:00,1772164500,2026-02-27T04:00:00.000Z,-1.0,-7.0,210,7.0,10+,1010.9,6,METAR,METAR KAMN 270355Z AUTO 21007KT 10SM SCT120 M01/M07 A2985 RMK AO2,43.3209,-84.6871,228,Alma/Gratiot Communi,SCT,"[{'cover': 'SCT', 'base': 12000}]",VFR,,,,,,,,,,"Alma/Gratiot Communi, MI, US",US,United States,-5.209844397044219
101,KAMW,2026-02-27 03:58:43.051000+00:00,1772164380,2026-02-27T04:00:00.000Z,0.6,-2.2,0,0.0,10+,1011.6,6,METAR,METAR KAMW 270353Z AUTO 00000KT 10SM CLR 01/M02 A2987 RMK AO2 SLP120 T00061022,41.9905,-93.6185,282,Ames Muni,CLR,[],VFR,,,1012.0,,,,,,,"Ames Muni, IA, US",US,United States,13.49956666666667
102,KANB,2026-02-27 03:56:41.263000+00:00,1772164380,2026-02-27T04:00:00.000Z,17.2,16.1,220,3.0,10+,1011.6,6,METAR,METAR KANB 270353Z AUTO 22003KT 10SM -RA OVC013 17/16 A2987 RMK AO2 LTG DSNT N AND NE RAB43 SLP110 P0000 T01720161,33.5904,-85.8479,187,Anniston Metro,OVC,"[{'cover': 'OVC', 'base': 1300}]",MVFR,,-RA,1011.0,0.005,,,,,,"Anniston Metro, AL, US",US,United States,17.832826882673842
33,KAND,2026-02-27 04:00:18.174000+00:00,1772164560,2026-02-27T04:00:00.000Z,13.9,12.8,0,0.0,1,1012.3,6,METAR,METAR KAND 270356Z AUTO 00000KT 1SM BR OVC004 14/13 A2989 RMK AO2 SLP119 T01390128,34.498,-82.7092,233,Anderson Rgnl,OVC,"[{'cover': 'OVC', 'base': 400}]",LIFR,,BR,1011.9,,,,,,,"Anderson Rgnl, SC, US",US,United States,21.76551666666667
3396,KANK,2026-02-27 04:00:31.031000+00:00,1772164500,2026-02-27T04:00:00.000Z,5.1,-9.9,320,4.0,10+,1022.4,14,METAR,METAR KANK 270355Z AUTO 32004KT 10SM CLR 05/M10 A3019 RMK AO2 T00511099 $,38.538,-106.049,2293,Salida/Alexander Fld,CLR,[],VFR,,,,,,,,,,"Salida/Alexander Fld, CO, US",US,United States,3.427491983311452
72,KANW,2026-02-27 04:02:21.324000+00:00,1772164500,2026-02-27T04:00:00.000Z,0.4,-6.0,180,6.0,10+,1009.9,6,METAR,METAR KANW 270355Z AUTO 18006KT 10SM CLR 00/M06 A2982 RMK AO2 T00041060,42.5748,-99.9984,788,Ainsworth Muni,CLR,[],VFR,,,,,,,,,,"Ainsworth Muni, NE, US",US,United States,-3.0929338631686676
71,KANY,2026-02-27 04:01:06.590000+00:00,1772164500,2026-02-27T04:00:00.000Z,10.0,-1.0,160,3.0,10+,1014.0,6,METAR,METAR KANY 270355Z AUTO 16003KT 10SM CLR 10/M01 A2994 RMK AO2,37.154,-98.078,408,Anthony Muni,CLR,[],VFR,,,,,,,,,,"Anthony Muni, KS, US",US,United States,9.60553578412565
84,KAOH,2026-02-27 03:58:43.073000+00:00,1772164380,2026-02-27T04:00:00.000Z,0.0,-5.6,190,6.0,10+,1014.0,6,METAR,METAR KAOH 270353Z AUTO 19006KT 10SM CLR 00/M06 A2994 RMK AO2 SLP147 T00001056,40.7081,-84.0214,294,Lima/Allen Cnty,CLR,[],VFR,,,1014.7,,,,,,,"Lima/Allen Cnty, OH, US",US,United States,-3.5744566431763536
108,KAOO,2026-02-27 03:58:43.519000+00:00,1772164380,2026-02-27T04:00:00.000Z,-2.2,-10.0,220,3.0,10+,1013.6,6,METAR,METAR KAOO 270353Z AUTO 22003KT 10SM CLR M02/M10 A2993 RMK AO2 SLP150 T10221100,40.2999,-78.3168,450,Altoona/Blair Cnty,CLR,[],VFR,,,1015.0,,,,,,,"Altoona/Blair Cnty, PA, US",US,United States,-4.335151910636566
88,KAPA,2026-02-27 03:58:24.362000+00:00,1772164380,2026-02-27T04:00:00.000Z,8.9,-10.0,230,14.0,10+,1017.4,4,METAR,METAR KAPA 270353Z 23014KT 10SM FEW220 09/M10 A3004 RMK AO2 SLP152 T00891100,39.5599,-104.8484,1791,Denver/Centennial Arpt,FEW,"[{'cover': 'FEW', 'base': 22000}]",VFR,,,1015.2,,,,,,,"Denver/Centennial Arpt, CO, US",US,United States,5.467079231066477
75,KAPC,2026-02-27 03:58:38.756000+00:00,1772164440,2026-02-27T04:00:00.000Z,14.4,10.6,0,0.0,10+,1021.8,6,METAR,METAR KAPC 270354Z AUTO 00000KT 10SM CLR 14/11 A3017 RMK AO2 SLP208 T01440106,38.2075,-122.2804,5,Napa Cnty Arpt,CLR,[],VFR,,,1020.8,,,,,,,"Napa Cnty Arpt, CA, US",US,United States,22.076266666666665
93,KAPF,2026-02-27 03:56:41.347000+00:00,1772164380,2026-02-27T04:00:00.000Z,20.6,20.0,140,6.0,10+,1017.0,14,METAR,METAR KAPF 270353Z AUTO 14006KT 10SM SCT075 21/20 A3003 RMK AO2 SLP169 T02060200 $,26.155,-81.7751,2,Naples Muni,SCT,"[{'cover': 'SCT', 'base': 7500}]",VFR,,,1016.9,,,,,,,"Naples Muni, FL, US",US,United States,21.223966527219602
80,KAPN,2026-02-27 03:58:33.532000+00:00,1772164440,2026-02-27T04:00:00.000Z,-3.3,-5.0,190,5.0,5,1009.6,6,METAR,METAR KAPN 270354Z AUTO 19005KT 5SM -SN BR OVC042 M03/M05 A2981 RMK AO2 SLP105 P0000 T10331050,45.0716,-83.5645,208,Alpena Cnty Rgnl,OVC,"[{'cover': 'OVC', 'base': 4200}]",MVFR,,-SN BR,1010.5,0.005,,,,,,"Alpena Cnty Rgnl, MI, US",US,United States,-7.011614612767898
94,KARA,2026-02-27 03:56:41.402000+00:00,1772164380,2026-02-27T04:00:00.000Z,19.4,18.3,150,6.0,10+,1011.9,6,METAR,METAR KARA 270353Z AUTO 15006KT 10SM OVC060 19/18 A2988 RMK AO2 SLP116 T01940183,30.0292,-91.8845,5,New Iberia/Acadiana Rgnl,OVC,"[{'cover': 'OVC', 'base': 6000}]",VFR,,,1011.6,,,,,,,"New Iberia/Acadiana Rgnl, LA, US",US,United States,19.779398187196534
107,KARB,2026-02-27 03:58:43.544000+00:00,1772164380,2026-02-27T04:00:00.000Z,-3.9,-8.3,210,4.0,10+,1012.6,6,METAR,METAR KARB 270353Z AUTO 21004KT 10SM CLR M04/M08 A2990 RMK AO2 SLP138 T10391083,42.2239,-83.7398,251,Ann Arbor Muni,CLR,[],VFR,,,1013.8,,,,,,,"Ann Arbor Muni, MI, US",US,United States,-7.077572854600679
29,KARG,2026-02-27 03:58:58.295000+00:00,1772164560,2026-02-27T04:00:00.000Z,9.4,9.4,360,5.0,6,1013.3,14,METAR,METAR KARG 270356Z AUTO 36005KT 6SM BR CLR 09/09 A2992 RMK AO2 SLP135 T00940094 $,36.1256,-90.9216,82,Walnut Ridge Rgnl,CLR,[],VFR,,BR,1013.5,,,,,,,"Walnut Ridge Rgnl, AR, US",US,United States,8.06411831172894
4049,KARM,2026-02-27 04:00:14.466000+00:00,1772164500,2026-02-27T04:00:00.000Z,19.2,17.8,120,5.0,7,1010.9,38,METAR,METAR KARM 270355Z AUTO 12005KT 7SM CLR 19/18 A2985 RMK AO2 T01920178 TSNO,29.2515,-96.1508,29,Wharton Rgnl,CLR,[],VFR,,,,,,,,,,"Wharton Rgnl, TX, US",US,United States,19.697361040868234
119,KARR,2026-02-27 03:56:26.226000+00:00,1772164320,2026-02-27T04:00:00.000Z,-3.3,-5.6,0,0.0,7,1011.9,6,METAR,METAR KARR 270352Z AUTO 00000KT 7SM CLR M03/M06 A2988 RMK AO2 SLP126 T10331056,41.7713,-88.4815,213,Aurora Muni,CLR,[],VFR,,,1012.6,,,,,,,"Aurora Muni, IL, US",US,United States,11.075716666666667
34,KART,2026-02-27 04:00:19.588000+00:00,1772164560,2026-02-27T04:00:00.000Z,-11.7,-14.4,0,0.0,10+,1015.0,6,METAR,METAR KART 270356Z AUTO 00000KT 10SM CLR M12/M14 A2997 RMK AO2 SLP159 T11171144,43.9888,-76.0261,100,Watertown Intl,CLR,[],VFR,,,1015.9,,,,,,,"Watertown Intl, NY, US",US,United States,5.855116666666669
65,KARV,2026-02-27 04:00:15.610000+00:00,1772164500,2026-02-27T04:00:00.000Z,-3.3,-5.1,0,0.0,10+,1006.5,6,METAR,METAR KARV 270355Z AUTO 00000KT 10SM CLR M03/M05 A2972 RMK AO2 T10331051,45.9264,-89.7307,494,Woodruff/Lakeland Arpt,CLR,[],VFR,,,,,,,,,,"Woodruff/Lakeland Arpt, WI, US",US,United States,11.075716666666667
106,KASE,2026-02-27 03:58:27.796000+00:00,1772164380,2026-02-27T04:00:00.000Z,-0.6,-6.1,220,9.0,10+,1024.5,6,METAR,METAR KASE 270353Z AUTO 22009KT 10SM CLR M01/M06 A3025 RMK AO2 SLP209 T10061061,39.2299,-106.8705,2384,Aspen/Pitkin Cnty,CLR,[],VFR,,,1020.9,,,,,,,"Aspen/Pitkin Cnty, CO, US",US,United States,-5.439551351273081
32,KASH,2026-02-27 04:00:14.999000+00:00,1772164560,2026-02-27T04:00:00.000Z,-3.9,-9.4,290,4.0,10+,1014.3,6,METAR,METAR KASH 270356Z AUTO 29004KT 10SM CLR M04/M09 A2995 RMK AO2 SLP144 T10391094,42.7798,-71.5141,56,Nashua/Boire Fld,CLR,[],VFR,,,1014.4,,,,,,,"Nashua/Boire Fld, NH, US",US,United States,-7.077572854600679
46,KASL,2026-02-27 03:58:21.737000+00:00,1772164500,2026-02-27T04:00:00.000Z,15.8,15.8,0,0.0,10+,1011.6,14,METAR,METAR KASL 270355Z AUTO 00000KT 10SM CLR 16/16 A2987 RMK AO2 T01580158 $,32.5207,-94.3066,104,Marshall/Harrison Cnty,CLR,[],VFR,,,,,,,,,,"Marshall/Harrison Cnty, TX, US",US,United States,22.946366666666666
70,KASN,2026-02-27 04:00:31.136000+00:00,1772164500,2026-02-27T04:00:00.000Z,17.0,17.0,VRB,2.0,10+,1010.9,6,METAR,METAR KASN 270355Z AUTO VRB02KT 10SM OVC011 17/17 A2985 RMK AO2 LTG DSNT NE,33.569,-86.0519,159,Talladega Muni,OVC,"[{'cover': 'OVC', 'base': 1100}]",MVFR,,,,,,,,,,"Talladega Muni, AL, US",US,United States,17.98670001305301
103,KASX,2026-02-27 03:58:24.633000+00:00,1772164380,2026-02-27T04:00:00.000Z,-7.2,-7.2,230,4.0,10+,1006.5,6,METAR,METAR KASX 270353Z AUTO 23004KT 10SM CLR M07/M07 A2972 RMK AO2 SLP078 T10721072,46.5468,-90.9184,249,Ashland/Kennedy Mem Arpt,CLR,[],VFR,,,1007.8,,,,,,,"Ashland/Kennedy Mem Arpt, WI, US",US,United States,-10.92942996183513
121,KATL,2026-02-27 03:56:20.716000+00:00,1772164320,2026-02-27T04:00:00.000Z,15.6,13.9,220,4.0,5,1012.3,12,METAR,METAR KATL 270352Z 22004KT 5SM -RA BR SCT012 BKN028CB OVC100 16/14 A2989 RMK AO2 RAB46 SLP120 CB SE-SW MOV E P0000 T01560139 $,33.6297,-84.4422,309,Atlanta/Hartsfield-Jackson Intl,OVC,"[{'cover': 'SCT', 'base': 1200}, {'cover': 'BKN', 'base': 2800}, {'cover': 'OVC', 'base': 10000}]",MVFR,,-RA BR,1012.0,0.005,,,,,,"Atlanta/Hartsfield-Jackson Intl, GA, US",US,United States,15.683400960875613
54,KATS,2026-02-27 03:58:21.762000+00:00,1772164500,2026-02-27T04:00:00.000Z,17.0,1.0,240,10.0,10+,1015.7,6,METAR,METAR KATS 270355Z AUTO 24010KT 10SM CLR 17/01 A2999 RMK AO2,32.8524,-104.4644,1073,Artesia Muni,CLR,[],VFR,,,,,,,,,,"Artesia Muni, NM, US",US,United States,16.310976880460792
156,KATW,2026-02-27 03:45:51.545000+00:00,1772163900,2026-02-27T04:00:00.000Z,1.0,-3.0,240,8.0,10+,1009.2,0,METAR,METAR KATW 270345Z 24008KT 10SM CLR 01/M03 A2980,44.2519,-88.526,266,Appleton/Outagamie Cnty,CLR,[],VFR,,,,,,,,,,"Appleton/Outagamie Cnty, WI, US",US,United States,-3.1299251571467184
98,KATY,2026-02-27 03:58:43.130000+00:00,1772164380,2026-02-27T04:00:00.000Z,-0.6,-3.3,180,5.0,10+,1006.5,6,METAR,METAR KATY 270353Z AUTO 18005KT 10SM CLR M01/M03 A2972 RMK AO2 SLP083 T10061033,44.9045,-97.1496,531,Watertown Rgnl,CLR,[],VFR,,,1008.3,,,,,,,"Watertown Rgnl, SD, US",US,United States,-3.8065375343315586
105,KAUG,2026-02-27 03:58:43.166000+00:00,1772164380,2026-02-27T04:00:00.000Z,-4.4,-11.7,350,10.0,10+,1014.0,206,METAR,METAR KAUG 270353Z AUTO 35010KT 10SM CLR M04/M12 A2994 RMK AO2 SLP143 T10441117 PWINO FZRANO $,44.3161,-69.797,107,Augusta/State Arpt,CLR,[],VFR,,,1014.3,,,,,,,"Augusta/State Arpt, ME, US",US,United States,-10.511765002655219
66,KAUM,2026-02-27 04:00:15.646000+00:00,1772164500,2026-02-27T04:00:00.000Z,-0.6,-0.9,160,3.0,7,1008.9,6,METAR,METAR KAUM 270355Z AUTO 16003KT 7SM CLR M01/M01 A2979 RMK AO2 T10061009,43.6688,-92.9321,376,Austin Muni,CLR,[],VFR,,,,,,,,,,"Austin Muni, MN, US",US,United States,-2.506864999848073
59,KAUN,2026-02-27 04:00:31.178000+00:00,1772164500,2026-02-27T04:00:00.000Z,14.0,14.0,20,4.0,10+,1022.8,6,METAR,METAR KAUN 270355Z AUTO 02004KT 10SM CLR 14/14 A3020 RMK A01,38.9553,-121.0865,453,Auburn Muni,CLR,[],VFR,,,,,,,,,,"Auburn Muni, CA, US",US,United States,13.815833878580127
35,KAUO,2026-02-27 03:58:55.964000+00:00,1772164560,2026-02-27T04:00:00.000Z,16.1,,190,4.0,10+,1013.0,14,METAR,METAR KAUO 270356Z AUTO 19004KT 10SM BKN029 OVC034 16/ A2991 RMK AO2 RAE02 SLP121 P0001 T0161 $,32.617,-85.4342,231,Auburn Univ Arpt,OVC,"[{'cover': 'BKN', 'base': 2900}, {'cover': 'OVC', 'base': 3400}]",MVFR,,,1012.1,0.01,,,,,,"Auburn Univ Arpt, AL, US",US,United States,16.267015674092953
85,KAUS,2026-02-27 03:58:42.342000+00:00,1772164380,2026-02-27T04:00:00.000Z,20.0,15.0,10,10.0,10+,1011.6,12,METAR,METAR KAUS 270353Z 01010KT 10SM CLR 20/15 A2987 RMK AO2 SLP109 T02000150 $,30.1831,-97.6806,148,Austin/Bergstrom Intl,CLR,[],VFR,,,1010.9,,,,,,,"Austin/Bergstrom Intl, TX, US",US,United States,20.07117434071069
79,KAUW,2026-02-27 03:58:21.783000+00:00,1772164440,2026-02-27T04:00:00.000Z,-1.1,-4.4,190,7.0,10+,1007.9,6,METAR,METAR KAUW 270354Z AUTO 19007KT 10SM CLR M01/M04 A2976 RMK AO2 SLP098 T10111044,44.9265,-89.6248,367,Wausau Downtown,CLR,[],VFR,,,1009.8,,,,,,,"Wausau Downtown, WI, US",US,United States,-5.331679158153376
78,KAVL,2026-02-27 03:58:21.826000+00:00,1772164440,2026-02-27T04:00:00.000Z,8.3,7.8,0,0.0,9,1013.6,6,METAR,METAR KAVL 270354Z AUTO 00000KT 9SM OVC018 08/08 A2993 RMK AO2 SLP130 T00830078,35.4318,-82.5379,646,Asheville Muni,OVC,"[{'cover': 'OVC', 'base': 1800}]",MVFR,,,1013.0,,,,,,,"Asheville Muni, NC, US",US,United States,18.285116666666667
77,KAVP,2026-02-27 03:58:33.555000+00:00,1772164440,2026-02-27T04:00:00.000Z,-2.2,-7.8,100,4.0,10+,1013.6,4,METAR,METAR KAVP 270354Z 10004KT 10SM CLR M02/M08 A2993 RMK AO2 SLP144 T10221078,41.3335,-75.7227,290,Wilkes-Barre Scranton Intl,CLR,[],VFR,,,1014.4,,,,,,,"Wilkes-Barre Scranton Intl, PA, US",US,United States,-5.093282829661722
60,KAVQ,2026-02-27 04:00:31.250000+00:00,1772164500,2026-02-27T04:00:00.000Z,21.0,5.0,290,4.0,10+,1015.3,6,METAR,METAR KAVQ 270355Z AUTO 29004KT 10SM CLR 21/05 A2998 RMK AO2,32.4112,-111.216,618,Tucson/Marana Rgnl,CLR,[],VFR,,,,,,,,,,"Tucson/Marana Rgnl, AZ, US",US,United States,21.98643986362289
128,KAVX,2026-02-27 03:56:19.858000+00:00,1772164260,2026-02-27T04:00:00.000Z,22.8,10.0,320,12.0,10+,1017.4,6,METAR,METAR KAVX 270351Z AUTO 32012G19KT 10SM CLR 23/10 A3004 RMK AO2 SLP149 T02280100,33.4042,-118.4146,482,Avalon/Catalina Arpt,CLR,[],VFR,19.0,,1014.9,,,,,,,"Avalon/Catalina Arpt, CA, US",US,United States,23.470689098418006
104,KAWM,2026-02-27 03:56:39.872000+00:00,1772164380,2026-02-27T04:00:00.000Z,12.2,10.6,40,3.0,7,1011.9,14,METAR,METAR KAWM 270353Z AUTO 04003KT 7SM CLR 12/11 A2988 RMK AO2 SLP117 T01220106 $,35.1401,-90.2359,64,West Memphis Muni,CLR,[],VFR,,,1011.7,,,,,,,"West Memphis Muni, AR, US",US,United States,12.119430286459815
61,KAXA,2026-02-27 04:00:31.342000+00:00,1772164500,2026-02-27T04:00:00.000Z,2.0,-5.0,210,6.0,10+,1009.6,6,METAR,METAR KAXA 270355Z AUTO 21006KT 10SM CLR 02/M05 A2981 RMK A01,43.0796,-94.2724,371,Algona Muni,CLR,[],VFR,,,,,,,,,,"Algona Muni, IA, US",US,United States,-1.1668427431379098
99,KAXN,2026-02-27 03:58:42.656000+00:00,1772164380,2026-02-27T04:00:00.000Z,-0.6,-2.2,210,7.0,10+,1006.2,6,METAR,METAR KAXN 270353Z AUTO 21007KT 10SM CLR M01/M02 A2971 RMK AO2 SLP078 T10061022,45.868,-95.394,433,Alexandria/Chandler Fld,CLR,[],VFR,,,1007.8,,,,,,,"Alexandria/Chandler Fld, MN, US",US,United States,-4.722505352607594
333,KAXS,2026-02-27 04:00:12.156000+00:00,1772164500,2026-02-27T04:00:00.000Z,16.0,-3.0,120,5.0,10+,1015.0,6,METAR,METAR KAXS 270355Z AUTO 12005KT 10SM CLR 16/M03 A2997 RMK AO2,34.6963,-99.3402,433,Altus/Quartz Mtn Rgnl,CLR,[],VFR,,,,,,,,,,"Altus/Quartz Mtn Rgnl, OK, US",US,United States,15.898751170128858
317,KAXV,2026-02-27 04:00:15.040000+00:00,1772164500,2026-02-27T04:00:00.000Z,-2.0,-9.0,0,0.0,10+,1014.0,6,METAR,METAR KAXV 270355Z AUTO 00000KT 10SM CLR M02/M09 A2994 RMK AO2,40.4959,-84.2929,278,Wapakoneta/Armstrong Arpt,CLR,[],VFR,,,,,,,,,,"Wapakoneta/Armstrong Arpt, OH, US",US,United States,11.88366666666667
313,KAXX,2026-02-27 04:00:11.183000+00:00,1772164500,2026-02-27T04:00:00.000Z,-1.8,-7.3,0,0.0,10+,1023.8,6,METAR,METAR KAXX 270355Z AUTO 00000KT 10SM CLR M02/M07 A3023 RMK AO2 T10181073,36.422,-105.29,2543,Angel Fire Arpt,CLR,[],VFR,,,,,,,,,,"Angel Fire Arpt, NM, US",US,United States,12.007966666666668
330,KAYS,2026-02-27 04:00:28.564000+00:00,1772164500,2026-02-27T04:00:00.000Z,17.5,12.7,220,5.0,10+,1015.0,6,METAR,METAR KAYS 270355Z AUTO 22005KT 10SM CLR 18/13 A2997 RMK AO2 T01750127,31.2466,-82.4014,42,Waycross/Ware Cnty,CLR,[],VFR,,,,,,,,,,"Waycross/Ware Cnty, GA, US",US,United States,17.679349547037944
352,KAZO,2026-02-27 03:58:43.203000+00:00,1772164380,2026-02-27T04:00:00.000Z,-1.1,-5.6,170,5.0,10+,1012.3,4,METAR,METAR KAZO 270353Z 17005KT 10SM CLR M01/M06 A2989 RMK AO2 SLP133 T10111056,42.2283,-85.546,264,Kalamazoo Intl,CLR,[],VFR,,,1013.3,,,,,,,"Kalamazoo Intl, MI, US",US,United States,-4.400070326634589
334,KBAD,2026-02-27 03:58:34.715000+00:00,1772164500,2026-02-27T04:00:00.000Z,21.0,15.0,0,0.0,10+,1011.9,0,METAR,METAR KBAD 270355Z 00000KT 10SM SKC 21/15 A2988 RMK SLPNO WND DATA ESTMD ALSTG ESTMD,32.488,-93.658,49,Barksdale AFB,SKC,[],VFR,,,,,,,,,,"Barksdale AFB, LA, US",US,United States,26.178166666666666
369,KBAF,2026-02-27 03:58:43.239000+00:00,1772164380,2026-02-27T04:00:00.000Z,-2.2,-10.0,330,8.0,10+,1014.6,6,METAR,METAR KBAF 270353Z AUTO 33008KT 10SM CLR M02/M10 A2996 RMK AO2 SLP151 T10221100,42.16,-72.7124,80,Westfield/Barnes Muni,CLR,[],VFR,,,1015.1,,,,,,,"Westfield/Barnes Muni, MA, US",US,United States,-7.06988185802032
336,KBAM,2026-02-27 04:00:14.504000+00:00,1772164500,2026-02-27T04:00:00.000Z,5.0,2.0,160,6.0,10+,1024.8,6,METAR,METAR KBAM 270355Z AUTO 16006KT 10SM CLR 05/02 A3026 RMK AO1,40.6048,-116.8719,1381,Battle Mountain Arpt,CLR,[],VFR,,,,,,,,,,"Battle Mountain Arpt, NV, US",US,United States,2.4445781069197556
318,KBBB,2026-02-27 04:00:15.082000+00:00,1772164500,2026-02-27T04:00:00.000Z,-1.0,-1.0,170,7.0,10+,1006.9,6,METAR,METAR KBBB 270355Z AUTO 17007KT 10SM CLR M01/M01 A2973 RMK AO2,45.331,-95.6469,315,Benson Muni,CLR,[],VFR,,,,,,,,,,"Benson Muni, MN, US",US,United States,-5.209844397044219
327,KBBD,2026-02-27 04:00:24.100000+00:00,1772164500,2026-02-27T04:00:00.000Z,17.0,5.0,60,7.0,10+,1014.6,6,METAR,METAR KBBD 270355Z AUTO 06007KT 10SM FEW048 17/05 A2996 RMK AO2,31.1766,-99.3229,554,Brady/Curtis Fld,FEW,"[{'cover': 'FEW', 'base': 4800}]",VFR,,,,,,,,,,"Brady/Curtis Fld, TX, US",US,United States,16.720412602603744
331,KBBG,2026-02-27 04:00:13.842000+00:00,1772164500,2026-02-27T04:00:00.000Z,10.0,2.0,310,3.0,10+,1014.6,6,METAR,METAR KBBG 270355Z AUTO 31003KT 10SM 10/02 A2996 RMK AO2,36.5259,-93.1969,403,Branson Arpt,,,,,,,,,,,,,"Branson Arpt, MO, US",US,United States,9.60553578412565
572,KBBP,2026-02-27 03:58:56.193000+00:00,1772164500,2026-02-27T04:00:00.000Z,13.0,13.0,0,0.0,5,1014.0,6,METAR,METAR KBBP 270355Z AUTO 00000KT 5SM BR OVC017 13/13 A2994 RMK AO2,34.6228,-79.7354,44,Bennettsville/Marlboro Jetport,OVC,"[{'cover': 'OVC', 'base': 1700}]",MVFR,,BR,,,,,,,,"Bennettsville/Marlboro Jetport, SC, US",US,United States,21.206166666666665
362,KBBW,2026-02-27 03:58:42.006000+00:00,1772164380,2026-02-27T04:00:00.000Z,-0.6,-6.1,0,0.0,10+,1010.6,6,METAR,METAR KBBW 270353Z AUTO 00000KT 10SM CLR M01/M06 A2984 RMK AO2 SLP117 T10061061,41.4365,-99.6385,771,Broken Bow Muni,CLR,[],VFR,,,1011.7,,,,,,,"Broken Bow Muni, NE, US",US,United States,12.753766666666671
337,KBCB,2026-02-27 03:50:07.926000+00:00,1772164500,2026-02-27T04:00:00.000Z,2.7,2.7,0,0.0,5,1015.0,6,METAR,METAR KBCB 270355Z AUTO 00000KT 5SM BR CLR 03/03 A2997 RMK AO2 T00270027,37.208,-80.4127,642,Blacksburg/VA Tech Montgomery Exec,CLR,[],MVFR,,BR,,,,,,,,"Blacksburg/VA Tech Montgomery Exec, VA, US",US,United States,14.80471666666667
346,KBCE,2026-02-27 03:58:27.812000+00:00,1772164380,2026-02-27T04:00:00.000Z,1.7,-8.3,300,3.0,10+,1026.5,14,METAR,METAR KBCE 270353Z AUTO 30003KT 10SM CLR 02/M08 A3031 RMK AO2 SLP206 T00171083 $,37.7013,-112.149,2311,Bryce Canyon Arpt,CLR,[],VFR,,,1020.6,,,,,,,"Bryce Canyon Arpt, UT, US",US,United States,0.12129743441037356
370,KBCT,2026-02-27 03:53:17.681000+00:00,1772164380,2026-02-27T04:00:00.000Z,23.0,20.0,140,7.0,10+,1017.7,0,METAR,METAR KBCT 270353Z 14007KT 10SM SCT016 23/20 A3005,26.379,-80.106,3,Boca Raton Arpt,SCT,"[{'cover': 'SCT', 'base': 1600}]",VFR,,,,,,,,,,"Boca Raton Arpt, FL, US",US,United States,24.030498269153057
343,KBDE,2026-02-27 03:58:43.570000+00:00,1772164380,2026-02-27T04:00:00.000Z,-3.3,-6.7,150,4.0,,1002.1,14,METAR,METAR KBDE 270353Z AUTO 15004KT FEW075 SCT120 M03/M07 A2959 RMK AO2 SLP038 T10331067 $,48.7261,-94.6122,330,Baudette Intl,SCT,"[{'cover': 'FEW', 'base': 7500}, {'cover': 'SCT', 'base': 12000}]",,,,1003.8,,,,,,,"Baudette Intl, MN, US",US,United States,-6.377235198739871
323,KBDG,2026-02-27 03:58:21.859000+00:00,1772164500,2026-02-27T04:00:00.000Z,7.7,-4.3,340,6.0,10+,1022.4,6,METAR,METAR KBDG 270355Z AUTO 34006KT 10SM CLR 08/M04 A3019 RMK AO2 T00771043,37.587,-109.481,1778,Blanding Muni,CLR,[],VFR,,,,,,,,,,"Blanding Muni, UT, US",US,United States,5.694856871971644
381,KBDL,2026-02-27 03:56:24.603000+00:00,1772164260,2026-02-27T04:00:00.000Z,-2.2,-9.4,20,4.0,10+,1014.6,12,METAR,METAR KBDL 270351Z 02004KT 10SM FEW120 FEW250 M02/M09 A2996 RMK AO2 SLP148 T10221094 $,41.9374,-72.682,52,Hartford/Bradley Intl,FEW,"[{'cover': 'FEW', 'base': 12000}, {'cover': 'FEW', 'base': 25000}]",VFR,,,1014.8,,,,,,,"Hartford/Bradley Intl, CT, US",US,United States,-5.093282829661722
373,KBDR,2026-02-27 03:56:24.672000+00:00,1772164320,2026-02-27T04:00:00.000Z,1.7,-5.6,360,7.0,10+,1014.6,6,METAR,METAR KBDR 270352Z AUTO 36007KT 10SM CLR 02/M06 A2996 RMK AO2 SLP143 T00171056,41.1642,-73.1266,5,Bridgeport/Sikorsky Mem,CLR,[],VFR,,,1014.3,,,,,,,"Bridgeport/Sikorsky Mem, CT, US",US,United States,-1.9203058470970231
4051,KBDU,2026-02-27 04:00:11.217000+00:00,1772164500,2026-02-27T04:00:00.000Z,11.0,-8.0,190,4.0,10+,1016.7,6,METAR,METAR KBDU 270355Z AUTO 19004KT 10SM CLR 11/M08 A3002 RMK AO2,40.0377,-105.2274,1614,Boulder Muni,CLR,[],VFR,,,,,,,,,,"Boulder Muni, CO, US",US,United States,10.314145599276072
339,KBEC,2026-02-27 04:02:08.366000+00:00,1772164500,2026-02-27T04:00:00.000Z,10.1,-3.0,180,4.0,10+,1014.0,6,METAR,METAR KBEC 270355Z AUTO 18004KT 10SM CLR 10/M03 A2994 RMK AO2 T01011030,37.694,-97.215,421,Wichita/Beech Factory Arpt,CLR,[],VFR,,,,,,,,,,"Wichita/Beech Factory Arpt, KS, US",US,United States,9.263639115484866
380,KBED,2026-02-27 04:02:17.448000+00:00,1772164260,2026-02-27T04:00:00.000Z,-2.2,-11.1,0,0.0,10+,1014.0,6,METAR,METAR KBED 270351Z AUTO 00000KT 10SM CLR M02/M11 A2994 RMK AO2 SLP155 T10221111,42.4681,-71.2946,39,Bedford/Hanscom Fld,CLR,[],VFR,,,1015.5,,,,,,,"Bedford/Hanscom Fld, MA, US",US,United States,11.759366666666667
363,KBEH,2026-02-27 03:58:24.657000+00:00,1772164380,2026-02-27T04:00:00.000Z,-1.1,-5.0,150,3.0,10+,1012.3,6,METAR,METAR KBEH 270353Z AUTO 15003KT 10SM CLR M01/M05 A2989 RMK AO2 SLP129 T10111050,42.129,-86.4152,196,Benton Harbor/SW Michigan Rgnl,CLR,[],VFR,,,1012.9,,,,,,,"Benton Harbor/SW Michigan Rgnl, MI, US",US,United States,-3.078204659469483
344,KBFD,2026-02-27 03:58:43.283000+00:00,1772164380,2026-02-27T04:00:00.000Z,-8.3,-11.7,0,0.0,10+,1011.9,6,METAR,METAR KBFD 270353Z AUTO 00000KT 10SM CLR M08/M12 A2988 RMK AO2 SLP148 T10831117,41.7984,-78.6354,642,Bradford Rgnl,CLR,[],VFR,,,1014.8,,,,,,,"Bradford Rgnl, PA, US",US,United States,7.968216666666668
368,KBFF,2026-02-27 03:58:39.535000+00:00,1772164380,2026-02-27T04:00:00.000Z,10.6,-7.8,290,16.0,10+,1013.3,6,METAR,METAR KBFF 270353Z AUTO 29016G24KT 10SM CLR 11/M08 A2992 RMK AO2 PK WND 27028/0304 SLP130 T01061078,41.8747,-103.6011,1204,Scottsbluff/Western Nebraska Rgnl,CLR,[],VFR,24.0,,1013.0,,,,,,,"Scottsbluff/Western Nebraska Rgnl, NE, US",US,United States,7.396898615466572
347,KBFI,2026-02-27 03:58:27.829000+00:00,1772164380,2026-02-27T04:00:00.000Z,9.4,3.9,190,8.0,10+,1025.1,4,METAR,METAR KBFI 270353Z 19008G16KT 10SM BKN030 09/04 A3027 RMK AO2 SLP251 T00940039,47.5455,-122.3148,7,Seattle/Boeing Fld,BKN,"[{'cover': 'BKN', 'base': 3000}]",MVFR,16.0,,1025.1,,,,,,,"Seattle/Boeing Fld, WA, US",US,United States,7.212461182646479
342,KBFL,2026-02-27 03:58:38.776000+00:00,1772164440,2026-02-27T04:00:00.000Z,17.2,13.9,40,5.0,9,1021.1,4,METAR,METAR KBFL 270354Z 04005KT 9SM CLR 17/14 A3015 RMK AO2 SLP207 T01720139,35.4342,-119.0552,146,Bakersfield/Meadows Arpt,CLR,[],VFR,,,1020.7,,,,,,,"Bakersfield/Meadows Arpt, CA, US",US,United States,17.323229871656128
367,KBFM,2026-02-27 03:56:40.171000+00:00,1772164380,2026-02-27T04:00:00.000Z,17.8,16.7,VRB,4.0,10+,1013.3,4,METAR,METAR KBFM 270353Z VRB04KT 10SM OVC028 18/17 A2992 RMK AO2 SLP132 T01780167,30.6147,-88.063,7,Mobile/Downtown Arpt,OVC,"[{'cover': 'OVC', 'base': 2800}]",MVFR,,,1013.2,,,,,,,"Mobile/Downtown Arpt, AL, US",US,United States,18.251305699031914
338,KBFR,2026-02-27 04:02:08.392000+00:00,1772164500,2026-02-27T04:00:00.000Z,5.0,2.0,130,5.0,10+,1014.0,6,METAR,METAR KBFR 270355Z AUTO 13005KT 10SM SCT065 05/02 A2994 RMK AO2,38.8383,-86.446,223,Bedford/Grissom Arpt,SCT,"[{'cover': 'SCT', 'base': 6500}]",VFR,,,,,,,,,,"Bedford/Grissom Arpt, IN, US",US,United States,2.8410297394623205
382,KBGD,2026-02-27 03:56:19.890000+00:00,1772164260,2026-02-27T04:00:00.000Z,14.4,-3.9,140,8.0,10+,1016.0,6,METAR,METAR KBGD 270351Z AUTO 14008KT 10SM CLR 14/M04 A3000 RMK AO2 SLP142 T01441039,35.695,-101.3955,928,Borger/Hutchinson Cnty,CLR,[],VFR,,,1014.2,,,,,,,"Borger/Hutchinson Cnty, TX, US",US,United States,13.36864352776147
319,KBGE,2026-02-27 03:58:56.261000+00:00,1772164500,2026-02-27T04:00:00.000Z,17.9,17.8,190,8.0,,1014.3,134,METAR,METAR KBGE 270355Z AUTO 19008KT 18/18 A2995 RMK AO2 PWINO T01790178,30.9709,-84.6344,40,Bainbridge/Decatur Cnty,,,,,,,,,,,,,"Bainbridge/Decatur Cnty, GA, US",US,United States,17.677971169341973
356,KBGM,2026-02-27 03:58:43.597000+00:00,1772164380,2026-02-27T04:00:00.000Z,-5.6,-11.7,60,4.0,10+,1012.3,4,METAR,METAR KBGM 270353Z 06004KT 10SM CLR M06/M12 A2989 RMK AO2 SLP143 T10561117,42.2068,-75.9799,485,Binghamton Arpt,CLR,[],VFR,,,1014.3,,,,,,,"Binghamton Arpt, NY, US",US,United States,-9.061862879539637
357,KBGR,2026-02-27 03:58:24.673000+00:00,1772164380,2026-02-27T04:00:00.000Z,-7.8,-13.3,310,4.0,10+,1013.6,4,METAR,METAR KBGR 270353Z 31004KT 10SM BKN250 M08/M13 A2993 RMK AO2 SLP139 T10781133,44.7979,-68.8195,45,Bangor Intl Arpt,BKN,"[{'cover': 'BKN', 'base': 25000}]",VFR,,,1013.9,,,,,,,"Bangor Intl Arpt, ME, US",US,United States,-11.629767617695936
301,KBHB,2026-02-27 04:00:15.103000+00:00,1772164560,2026-02-27T04:00:00.000Z,-5.0,-9.4,350,4.0,10+,1013.6,78,METAR,METAR KBHB 270356Z AUTO 35004KT 10SM CLR M05/M09 A2993 RMK AO2 SLP137 T10501094 400331056 FZRANO $,44.4549,-68.3617,21,Bar Harbor/Hancock Cnty,CLR,[],VFR,,,1013.7,,,3.3,-5.6,,,"Bar Harbor/Hancock Cnty, ME, US",US,United States,-8.361525223678829
358,KBHM,2026-02-27 03:56:40.239000+00:00,1772164380,2026-02-27T04:00:00.000Z,16.7,14.4,20,15.0,4,1011.3,12,METAR,METAR KBHM 270353Z 02015G23KT 4SM +RA BR BKN008 OVC014 17/14 A2986 RMK AO2 RAB19 CIG 006V011 SLP106 P0004 T01670144 $,33.5655,-86.7449,191,Birmingham Intl,OVC,"[{'cover': 'BKN', 'base': 800}, {'cover': 'OVC', 'base': 1400}]",IFR,23.0,+RA BR,1010.6,0.04,,,,,,"Birmingham Intl, AL, US",US,United States,15.427526855016554
307,KBID,2026-02-27 04:00:13.544000+00:00,1772164560,2026-02-27T04:00:00.000Z,1.1,-1.7,330,5.0,10+,1014.0,78,METAR,METAR KBID 270356Z AUTO 33005KT 10SM BKN120 01/M02 A2994 RMK AO2 SLP139 T00111017 FZRANO PNO $,41.1668,-71.5757,32,Block Island Arpt,BKN,"[{'cover': 'BKN', 'base': 12000}]",VFR,,,1013.9,,,,,,,"Block Island Arpt, RI, US",US,United States,-1.7885260405012795
316,KBIE,2026-02-27 04:00:35.447000+00:00,1772164500,2026-02-27T04:00:00.000Z,4.3,-4.2,0,0.0,10+,1012.3,6,METAR,METAR KBIE 270355Z AUTO 00000KT 10SM CLR 04/M04 A2989 RMK AO2 T00431042,40.3005,-96.7517,398,Beatrice Muni,CLR,[],VFR,,,,,,,,,,"Beatrice Muni, NE, US",US,United States,15.79911666666667
321,KBIF,2026-02-27 03:56:45.147000+00:00,1772164500,2026-02-27T04:00:00.000Z,20.4,0.2,0,0.0,10+,1016.0,14,METAR,METAR KBIF 270355Z AUTO 00000KT 10SM CLR 20/00 A3000 RMK AO2 SLP104 T02040002 $,31.861,-106.369,1201,Biggs,CLR,[],VFR,,,1010.4,,,,,,,"Biggs, TX, US",US,United States,25.805266666666668
306,KBIH,2026-02-27 04:00:31.902000+00:00,1772164560,2026-02-27T04:00:00.000Z,15.0,3.3,350,4.0,10+,1022.8,6,METAR,METAR KBIH 270356Z AUTO 35004KT 10SM CLR 15/03 A3020 RMK AO2 SLP202 T01500033,37.3711,-118.3589,1252,Bishop Rgnl,CLR,[],VFR,,,1020.2,,,,,,,"Bishop Rgnl, CA, US",US,United States,14.983063305014802
364,KBIL,2026-02-27 03:58:39.252000+00:00,1772164380,2026-02-27T04:00:00.000Z,10.0,-10.0,240,13.0,10+,1010.2,4,METAR,METAR KBIL 270353Z 24013G24KT 10SM CLR 10/M10 A2983 RMK AO2 SLP099 T01001100,45.8072,-108.5462,1089,Billings/Logan Intl,CLR,[],VFR,24.0,,1009.9,,,,,,,"Billings/Logan Intl, MT, US",US,United States,7.031102984292501
377,KBIS,2026-02-27 03:56:25.991000+00:00,1772164320,2026-02-27T04:00:00.000Z,2.2,-3.3,250,6.0,10+,1004.1,6,METAR,METAR KBIS 270352Z AUTO 25006KT 10SM CLR 02/M03 A2965 RMK AO2 SLP056 T00221033,46.7823,-100.7575,506,Bismarck Arpt,CLR,[],VFR,,,1005.6,,,,,,,"Bismarck Arpt, ND, US",US,United States,-0.9260813531340695
322,KBIX,2026-02-27 03:58:56.316000+00:00,1772164500,2026-02-27T04:00:00.000Z,17.5,15.5,250,3.0,10+,1011.6,6,METAR,METAR KBIX 270355Z AUTO 25003KT 10SM BKN020 OVC070 18/16 A2987 RMK AO2 CIG 020V070 BKN V SCT SLP118 T01750155,30.415,-88.922,4,Biloxi/Keesler AFB,OVC,"[{'cover': 'BKN', 'base': 2000}, {'cover': 'OVC', 'base': 7000}]",MVFR,,,1011.8,,,,,,,"Biloxi/Keesler AFB, MS, US",US,United States,18.17563067844669
315,KBJI,2026-02-27 04:00:34.762000+00:00,1772164500,2026-02-27T04:00:00.000Z,-1.8,-4.1,200,4.0,10+,1003.8,6,METAR,METAR KBJI 270355Z AUTO 20004KT 10SM SCT120 M02/M04 A2964 RMK AO2 T10181041,47.5076,-94.9279,422,Bemidji Municip,SCT,"[{'cover': 'SCT', 'base': 12000}]",VFR,,,,,,,,,,"Bemidji Municip, MN, US",US,United States,-4.626391059087847
305,KBJJ,2026-02-27 04:00:26.805000+00:00,1772164560,2026-02-27T04:00:00.000Z,-1.1,-3.9,0,0.0,10+,1014.0,6,METAR,METAR KBJJ 270356Z AUTO 00000KT 10SM BKN075 M01/M04 A2994 RMK AO2 SLP152 T10111039,40.8732,-81.8886,338,Wooster/Wayne Cnty,BKN,"[{'cover': 'BKN', 'base': 7500}]",VFR,,,1015.2,,,,,,,"Wooster/Wayne Cnty, OH, US",US,United States,12.443016666666667
328,KBKD,2026-02-27 04:00:24.142000+00:00,1772164500,2026-02-27T04:00:00.000Z,15.1,1.6,0,0.0,10+,1015.0,6,METAR,METAR KBKD 270355Z AUTO 00000KT 10SM CLR 15/02 A2997 RMK AO2 T01510016,32.7206,-98.8931,383,Breckenridge/Stephens Cnty,CLR,[],VFR,,,,,,,,,,"Breckenridge/Stephens Cnty, TX, US",US,United States,22.511316666666673
348,KBKE,2026-02-27 03:58:27.845000+00:00,1772164380,2026-02-27T04:00:00.000Z,-0.6,-5.6,260,3.0,10+,1023.8,6,METAR,METAR KBKE 270353Z AUTO 26003KT 10SM CLR M01/M06 A3023 RMK AO2 SLP266 T10061056,44.843,-117.8099,1025,Baker Muni,CLR,[],VFR,,,1026.6,,,,,,,"Baker Muni, OR, US",US,United States,-2.506864999848073
300,KBKF,2026-02-27 04:02:12.153000+00:00,1772164680,2026-02-27T04:00:00.000Z,6.4,-10.8,190,8.0,10+,1017.0,4,METAR,METAR KBKF 270358Z 19008KT 10SM FEW220 06/M11 A3003 RMK AO2A SLP142 T00641108,39.713,-104.758,1703,Buckley SFB,FEW,"[{'cover': 'FEW', 'base': 22000}]",VFR,,,1014.2,,,,,,,"Buckley SFB, CO, US",US,United States,3.5187517755774738
366,KBKL,2026-02-27 03:58:42.684000+00:00,1772164380,2026-02-27T04:00:00.000Z,-1.1,-6.7,170,6.0,10+,1014.0,4,METAR,METAR KBKL 270353Z 17006KT 10SM OVC085 M01/M07 A2994 RMK AO2 SLP146 T10111067,41.5173,-81.6832,177,Cleveland/Burke Lakefront Arpt,OVC,"[{'cover': 'OVC', 'base': 8500}]",VFR,,,1014.6,,,,,,,"Cleveland/Burke Lakefront Arpt, OH, US",US,United States,-4.898644288197499
383,KBKW,2026-02-27 03:56:18.655000+00:00,1772164260,2026-02-27T04:00:00.000Z,3.9,2.2,0,0.0,10+,1014.3,6,METAR,METAR KBKW 270351Z AUTO 00000KT 10SM OVC011 04/02 A2995 RMK AO2 SLP151 T00390022,37.7836,-81.1228,762,Beckley/Raleigh Cnty,OVC,"[{'cover': 'OVC', 'base': 1100}]",MVFR,,,1015.1,,,,,,,"Beckley/Raleigh Cnty, WV, US",US,United States,15.550516666666669
308,KBKX,2026-02-27 04:00:36.901000+00:00,1772164560,2026-02-27T04:00:00.000Z,1.1,-5.6,210,7.0,10+,1007.9,70,METAR,METAR KBKX 270356Z AUTO 21007KT 10SM CLR 01/M06 A2976 RMK AO2 SLP103 T00111056 FZRANO,44.3075,-96.8183,494,Brookings Rgnl,CLR,[],VFR,,,1010.3,,,,,,,"Brookings Rgnl, SD, US",US,United States,-2.65131441375196
376,KBLF,2026-02-27 03:56:26.008000+00:00,1772164320,2026-02-27T04:00:00.000Z,2.8,2.2,310,4.0,9,1014.3,6,METAR,METAR KBLF 270352Z AUTO 31004KT 9SM OVC003 03/02 A2995 RMK AO2 SLP145 T00280022,37.2978,-81.2036,871,Bluefield/Mercer Cnty,OVC,"[{'cover': 'OVC', 'base': 300}]",LIFR,,,1014.5,,,,,,,"Bluefield/Mercer Cnty, WV, US",US,United States,0.7428643025116897
374,KBLH,2026-02-27 03:56:20.399000+00:00,1772164320,2026-02-27T04:00:00.000Z,26.7,5.0,340,5.0,10+,1014.3,6,METAR,METAR KBLH 270352Z AUTO 34005KT 10SM CLR 27/05 A2995 RMK AO2 SLP136 T02670050,33.6188,-114.7145,119,Blythe Arpt,CLR,[],VFR,,,1013.6,,,,,,,"Blythe Arpt, CA, US",US,United States,28.600352925413606
365,KBLI,2026-02-27 03:58:28.117000+00:00,1772164380,2026-02-27T04:00:00.000Z,8.9,2.8,200,4.0,10+,1023.1,4,METAR,METAR KBLI 270353Z 20004KT 10SM FEW044 OVC120 09/03 A3021 RMK AO2 SLP240 T00890028,48.7991,-122.5407,46,Bellingham Intl,OVC,"[{'cover': 'FEW', 'base': 4400}, {'cover': 'OVC', 'base': 12000}]",VFR,,,1024.0,,,,,,,"Bellingham Intl, WA, US",US,United States,7.862963803763247
302,KBLM,2026-02-27 04:00:15.122000+00:00,1772164560,2026-02-27T04:00:00.000Z,2.8,0.6,260,4.0,10+,1014.0,6,METAR,METAR KBLM 270356Z AUTO 26004KT 10SM BKN090 OVC110 03/01 A2994 RMK AO2 SLP141 T00280006,40.1822,-74.1207,45,Farmingdale/Monmouth Exec,OVC,"[{'cover': 'BKN', 'base': 9000}, {'cover': 'OVC', 'base': 11000}]",VFR,,,1014.1,,,,,,,"Farmingdale/Monmouth Exec, NJ, US",US,United States,0.7428643025116897
375,KBLU,2026-02-27 03:58:39.320000+00:00,1772164320,2026-02-27T04:00:00.000Z,10.0,5.0,0,0.0,10+,1027.2,6,METAR,METAR KBLU 270352Z AUTO 00000KT 10SM CLR 10/05 A3033 RMK AO2 SLP237 T01000050,39.2762,-120.7093,1605,Blue Canyon/Nyack Arpt,CLR,[],VFR,,,1023.7,,,,,,,"Blue Canyon/Nyack Arpt, CA, US",US,United States,19.341666666666665
312,KBLV,2026-02-27 03:58:34.199000+00:00,1772164500,2026-02-27T04:00:00.000Z,4.3,1.8,0,0.0,10+,1013.3,14,METAR,METAR KBLV 270355Z AUTO 00000KT 10SM CLR 04/02 A2992 RMK AO2 SLP137 T00430018 $,38.54,-89.845,134,Belleville/Scott AFB,CLR,[],VFR,,,1013.7,,,,,,,"Belleville/Scott AFB, IL, US",US,United States,15.79911666666667
325,KBMC,2026-02-27 04:02:18.555000+00:00,1772164500,2026-02-27T04:00:00.000Z,6.0,1.0,30,3.0,10+,1024.5,6,METAR,METAR KBMC 270355Z AUTO 03003KT 10SM CLR 06/01 A3025 RMK AO2,41.5463,-112.06,1289,Brigham City Arpt,CLR,[],VFR,,,,,,,,,,"Brigham City Arpt, UT, US",US,United States,5.034818507154431
359,KBMG,2026-02-27 03:58:28.526000+00:00,1772164380,2026-02-27T04:00:00.000Z,1.1,-1.1,0,0.0,10+,1014.0,6,METAR,METAR KBMG 270353Z AUTO 00000KT 10SM FEW070 01/M01 A2994 RMK AO2 SLP144 T00111011,39.1431,-86.6168,254,Bloomington/Monroe Cnty,FEW,"[{'cover': 'FEW', 'base': 7000}]",VFR,,,1014.4,,,,,,,"Bloomington/Monroe Cnty, IN, US",US,United States,13.810316666666667
303,KBMI,2026-02-27 04:00:13.047000+00:00,1772164560,2026-02-27T04:00:00.000Z,-0.6,-1.1,150,8.0,10+,1012.6,4,METAR,METAR KBMI 270356Z 15008KT 10SM CLR M01/M01 A2990 RMK AO2 SLP133 T10061011,40.4777,-88.9144,262,Bloomington Rgnl,CLR,[],VFR,,,1013.3,,,,,,,"Bloomington Rgnl, IL, US",US,United States,-5.099903507583513
378,KBML,2026-02-27 03:56:26.247000+00:00,1772164320,2026-02-27T04:00:00.000Z,-15.0,-17.8,0,0.0,10+,1013.0,6,METAR,METAR KBML 270352Z AUTO 00000KT 10SM CLR M15/M18 A2991 RMK AO2 SLP150 T11501178,44.576,-71.1782,344,Berlin Muni,CLR,[],VFR,,,1015.0,,,,,,,"Berlin Muni, NH, US",US,United States,3.804166666666669
314,KBMT,2026-02-27 04:00:11.252000+00:00,1772164500,2026-02-27T04:00:00.000Z,19.2,17.5,0,0.0,10+,1011.6,6,METAR,METAR KBMT 270355Z AUTO 00000KT 10SM OVC055 19/18 A2987 RMK AO2 T01920175,30.0686,-94.2155,8,Beaumont Muni,OVC,"[{'cover': 'OVC', 'base': 5500}]",VFR,,,,,,,,,,"Beaumont Muni, TX, US",US,United States,25.059466666666673
354,KBNA,2026-02-27 03:56:40.404000+00:00,1772164380,2026-02-27T04:00:00.000Z,10.0,6.1,50,7.0,10+,1013.6,12,METAR,METAR KBNA 270353Z 05007KT 10SM CLR 10/06 A2993 RMK AO2 SLP134 T01000061 $,36.1105,-86.6881,168,Nashville Intl,CLR,[],VFR,,,1013.4,,,,,,,"Nashville Intl, TN, US",US,United States,8.191979324962865
332,KBNL,2026-02-27 04:00:22.248000+00:00,1772164500,2026-02-27T04:00:00.000Z,15.0,15.0,0,0.0,2.5,1014.3,6,METAR,METAR KBNL 270355Z AUTO 00000KT 2 1/2SM RA FEW005 SCT025 BKN030 15/15 A2995 RMK AO2 P0005,33.2601,-81.387,76,Barnwell Cnty,BKN,"[{'cover': 'FEW', 'base': 500}, {'cover': 'SCT', 'base': 2500}, {'cover': 'BKN', 'base': 3000}]",IFR,,RA,,0.05,,,,,,"Barnwell Cnty, SC, US",US,United States,22.44916666666667
345,KBNO,2026-02-27 03:58:39.274000+00:00,1772164380,2026-02-27T04:00:00.000Z,-0.6,-2.8,240,4.0,10+,1024.1,6,METAR,METAR KBNO 270353Z AUTO 24004KT 10SM CLR M01/M03 A3024 RMK AO2 SLP268 T10061028,43.5949,-118.9579,1263,Burns Muni,CLR,[],VFR,,,1026.8,,,,,,,"Burns Muni, OR, US",US,United States,-3.225715747366225
329,KBNW,2026-02-27 04:00:27.839000+00:00,1772164500,2026-02-27T04:00:00.000Z,5.0,-1.0,230,6.0,10+,1010.9,6,METAR,METAR KBNW 270355Z AUTO 23006KT 10SM CLR 05/M01 A2985 RMK AO2,42.0486,-93.8486,350,Boone Muni,CLR,[],VFR,,,,,,,,,,"Boone Muni, IA, US",US,United States,2.4445781069197556
361,KBOI,2026-02-27 03:58:28.152000+00:00,1772164380,2026-02-27T04:00:00.000Z,4.4,-5.6,160,3.0,10+,1024.1,4,METAR,METAR KBOI 270353Z 16003KT 10SM CLR 04/M06 A3024 RMK AO2 SLP252 T00441056,43.567,-116.2406,860,Boise Arpt,CLR,[],VFR,,,1025.2,,,,,,,"Boise Arpt, ID, US",US,United States,3.2065315963659438
341,KBOS,2026-02-27 03:58:21.945000+00:00,1772164440,2026-02-27T04:00:00.000Z,0.6,-9.4,310,6.0,10+,1014.3,4,METAR,METAR KBOS 270354Z 31006KT 10SM FEW120 SCT250 01/M09 A2995 RMK AO2 SLP142 T00061094,42.3606,-71.0097,4,Boston/Logan Intl,SCT,"[{'cover': 'FEW', 'base': 12000}, {'cover': 'SCT', 'base': 25000}]",VFR,,,1014.2,,,,,,,"Boston/Logan Intl, MA, US",US,United States,-2.8521724731648215
1357,KBPG,2026-02-27 04:00:11.288000+00:00,1772164500,2026-02-27T04:00:00.000Z,17.9,1.1,100,5.0,10+,1014.6,6,METAR,METAR KBPG 270355Z AUTO 10005KT 10SM CLR 18/01 A2996 RMK AO2 T01790011,32.2097,-101.5247,782,Big Springs/McMahon,CLR,[],VFR,,,,,,,,,,"Big Springs/McMahon , TX, US",US,United States,18.15417578088036
351,KBPI,2026-02-27 03:58:24.909000+00:00,1772164380,2026-02-27T04:00:00.000Z,-2.8,-6.7,330,5.0,10+,1022.4,6,METAR,METAR KBPI 270353Z AUTO 33005KT 10SM CLR M03/M07 A3019 RMK AO2 SLP225 T10281067,42.578,-110.1098,2120,Big Piney Arpt,CLR,[],VFR,,,1022.5,,,,,,,"Big Piney Arpt, WY, US",US,United States,-6.418081820464869
4062,KBPK,2026-02-27 03:56:40.463000+00:00,1772164380,2026-02-27T04:00:00.000Z,12.8,1.1,350,3.0,10+,1013.3,142,METAR,METAR KBPK 270353Z AUTO 35003KT 10SM CLR 13/01 A2992 RMK AO2 SLP130 T01280011 PWINO $,36.3706,-92.4719,279,Mountain Home/Baxter Cnty,CLR,[],VFR,,,1013.0,,,,,,,"Mountain Home/Baxter Cnty, AR, US",US,United States,12.805037878005502
353,KBPT,2026-02-27 03:58:28.393000+00:00,1772164380,2026-02-27T04:00:00.000Z,20.0,18.3,0,0.0,9,1011.6,6,METAR,METAR KBPT 270353Z AUTO 00000KT 9SM OVC060 20/18 A2987 RMK AO2 SLP114 T02000183,29.9521,-94.0262,6,Beaumont/SE Texas Rgnl,OVC,"[{'cover': 'OVC', 'base': 6000}]",VFR,,,1011.4,,,,,,,"Beaumont/SE Texas Rgnl, TX, US",US,United States,25.556666666666672
310,KBQK,2026-02-27 03:58:46.757000+00:00,1772164500,2026-02-27T04:00:00.000Z,17.4,12.1,210,6.0,10+,1015.3,6,METAR,METAR KBQK 270355Z AUTO 21006KT 10SM CLR 17/12 A2998 RMK AO2 T01740121,31.2567,-81.4754,7,Brunswick/Golden Isles Arpt,CLR,[],VFR,,,,,,,,,,"Brunswick/Golden Isles Arpt, GA, US",US,United States,17.37178428715809
360,KBRD,2026-02-27 03:58:42.713000+00:00,1772164380,2026-02-27T04:00:00.000Z,-1.7,-4.4,220,5.0,10+,1005.5,6,METAR,METAR KBRD 270353Z AUTO 22005KT 10SM CLR M02/M04 A2969 RMK AO2 SLP073 T10171044,46.4021,-94.1273,372,Brainerd/Lakes Rgnl,CLR,[],VFR,,,1007.3,,,,,,,"Brainerd/Lakes Rgnl, MN, US",US,United States,-5.112309677398213
355,KBRL,2026-02-27 03:58:28.542000+00:00,1772164380,2026-02-27T04:00:00.000Z,0.6,-5.6,120,3.0,10+,1012.6,6,METAR,METAR KBRL 270353Z AUTO 12003KT 10SM CLR 01/M06 A2990 RMK AO2 SLP132 T00061056,40.7729,-91.1255,208,Burlington/SE Iowa Rgnl,CLR,[],VFR,,,1013.2,,,,,,,"Burlington/SE Iowa Rgnl, IA, US",US,United States,-1.1356498167567115
350,KBRO,2026-02-27 03:58:28.173000+00:00,1772164380,2026-02-27T04:00:00.000Z,22.8,20.6,170,9.0,8,1008.2,4,METAR,METAR KBRO 270353Z 17009KT 8SM OVC010 23/21 A2977 RMK AO2 SLP079 T02280206,25.9146,-97.4231,6,Brownsville Intl,OVC,"[{'cover': 'OVC', 'base': 1000}]",MVFR,,,1007.9,,,,,,,"Brownsville Intl, TX, US",US,United States,23.642812984148957
324,KBRY,2026-02-27 03:58:21.988000+00:00,1772164500,2026-02-27T04:00:00.000Z,1.2,1.2,0,0.0,9,1014.3,14,METAR,METAR KBRY 270355Z AUTO 00000KT 9SM CLR 01/01 A2995 RMK AO2 T00120012 $,37.8079,-85.5011,192,Bardstown/Samuel Fld,CLR,[],VFR,,,,,,,,,,"Bardstown/Samuel Fld, KY, US",US,United States,13.872466666666664
620,KBTL,2026-02-27 03:58:42.033000+00:00,1772164380,2026-02-27T04:00:00.000Z,-2.2,-6.1,190,6.0,10+,1011.9,4,METAR,METAR KBTL 270353Z 19006KT 10SM FEW120 M02/M06 A2988 RMK AO2 SLP131 T10221061,42.3119,-85.2415,282,Battle Creek/Kellogg Fld Arpt,FEW,"[{'cover': 'FEW', 'base': 12000}]",VFR,,,1013.1,,,,,,,"Battle Creek/Kellogg Fld Arpt, MI, US",US,United States,-6.22283193321864
605,KBTM,2026-02-27 03:58:28.196000+00:00,1772164380,2026-02-27T04:00:00.000Z,5.6,-15.0,260,10.0,10+,1017.4,6,METAR,METAR KBTM 270353Z AUTO 26010G20KT 10SM CLR 06/M15 A3004 RMK AO2 SLP176 T00561150,45.9644,-112.5015,1680,Butte/Mooney Arpt,CLR,[],VFR,20.0,,1017.6,,,,,,,"Butte/Mooney Arpt, MT, US",US,United States,2.0222265315111403
3848,KBTN,2026-02-27 04:00:31.394000+00:00,1772164500,2026-02-27T04:00:00.000Z,3.0,0.0,200,11.0,10+,1004.5,6,METAR,METAR KBTN 270355Z AUTO 20011KT 10SM CLR 03/M00 A2966 RMK AO2,45.8186,-97.7457,400,Britton Muni,CLR,[],VFR,,,,,,,,,,"Britton Muni, SD, US",US,United States,-1.4859753791993588
561,KBTP,2026-02-27 04:00:36.474000+00:00,1772164560,2026-02-27T04:00:00.000Z,-2.2,-6.7,0,0.0,10+,1014.0,78,METAR,METAR KBTP 270356Z AUTO 00000KT 10SM OVC090 M02/M07 A2994 RMK AO2 SLP160 T10221067 400501067 FZRANO $,40.7765,-79.9568,375,Pittsburgh/Butler Rgnl,OVC,"[{'cover': 'OVC', 'base': 9000}]",VFR,,,1016.0,,,5.0,-6.7,,,"Pittsburgh/Butler Rgnl, PA, US",US,United States,11.759366666666667
611,KBTR,2026-02-27 03:56:40.585000+00:00,1772164380,2026-02-27T04:00:00.000Z,21.1,17.2,190,3.0,10+,1011.9,4,METAR,METAR KBTR 270353Z 19003KT 10SM BKN060 OVC075 21/17 A2988 RMK AO2 SLP117 T02110172,30.5378,-91.1468,20,Baton Rouge/Ryan Fld,OVC,"[{'cover': 'BKN', 'base': 6000}, {'cover': 'OVC', 'base': 7500}]",VFR,,,1011.7,,,,,,,"Baton Rouge/Ryan Fld, LA, US",US,United States,22.289276227720784
599,KBTV,2026-02-27 03:58:33.576000+00:00,1772164440,2026-02-27T04:00:00.000Z,-8.3,-13.3,100,5.0,10+,1015.7,4,METAR,METAR KBTV 270354Z 10005KT 10SM CLR M08/M13 A2999 RMK AO2 SLP161 T10831133,44.4682,-73.1499,101,Burlington Intl,CLR,[],VFR,,,1016.1,,,,,,,"Burlington Intl, VT, US",US,United States,-12.94694253579815
600,KBUF,2026-02-27 03:58:33.595000+00:00,1772164440,2026-02-27T04:00:00.000Z,-7.2,-10.6,180,5.0,10+,1014.0,4,METAR,METAR KBUF 270354Z 18005KT 10SM FEW130 FEW280 M07/M11 A2994 RMK AO2 SLP151 T10721106,42.94,-78.7361,217,Buffalo-Niagara Intl,FEW,"[{'cover': 'FEW', 'base': 13000}, {'cover': 'FEW', 'base': 28000}]",VFR,,,1015.1,,,,,,,"Buffalo-Niagara Intl, NY, US",US,United States,-11.641170392731494
604,KBUR,2026-02-27 03:58:42.369000+00:00,1772164380,2026-02-27T04:00:00.000Z,22.8,12.8,320,3.0,10+,1016.0,4,METAR,METAR KBUR 270353Z 32003KT 10SM CLR 23/13 A3000 RMK AO2 SLP146 T02280128,34.1996,-118.3654,221,Burbank/Bob Hope Arpt,CLR,[],VFR,,,1014.6,,,,,,,"Burbank/Bob Hope Arpt, CA, US",US,United States,24.231831070433557
309,KBVI,2026-02-27 04:00:35.481000+00:00,1772164500,2026-02-27T04:00:00.000Z,1.9,-9.7,0,0.0,10+,1013.6,6,METAR,METAR KBVI 270355Z AUTO 00000KT 10SM OVC085 02/M10 A2993 RMK AO2 T00191097,40.7735,-80.3825,387,Beaver Falls Arpt,OVC,"[{'cover': 'OVC', 'base': 8500}]",VFR,,,,,,,,,,"Beaver Falls Arpt, PA, US",US,United States,14.30751666666667
624,KBVO,2026-02-27 03:56:40.614000+00:00,1772164380,2026-02-27T04:00:00.000Z,4.4,-0.6,0,0.0,10+,1015.0,6,METAR,METAR KBVO 270353Z AUTO 00000KT 10SM CLR 04/M01 A2997 RMK AO2 SLP144 T00441006,36.7664,-96.013,210,Bartlesville Muni,CLR,[],VFR,,,1014.4,,,,,,,"Bartlesville Muni, OK, US",US,United States,15.861266666666666
2498,KBVS,2026-02-27 04:00:24.692000+00:00,1772164500,2026-02-27T04:00:00.000Z,9.0,9.0,240,5.0,10+,1024.5,6,METAR,METAR KBVS 270355Z AUTO 24005KT 10SM OVC037 09/09 A3025 RMK A01,48.4696,-122.4189,31,Burlington/Skagit Rgnl,OVC,"[{'cover': 'OVC', 'base': 3700}]",VFR,,,,,,,,,,"Burlington/Skagit Rgnl, WA, US",US,United States,7.589292077886522
562,KBVX,2026-02-27 03:58:56.490000+00:00,1772164560,2026-02-27T04:00:00.000Z,11.1,10.0,0,0.0,10+,1013.6,14,METAR,METAR KBVX 270356Z AUTO 00000KT 10SM CLR 11/10 A2993 RMK AO2 SLP135 T01110100 $,35.7259,-91.6518,137,Batesville Rgnl,CLR,[],VFR,,,1013.5,,,,,,,"Batesville Rgnl, AR, US",US,United States,20.025316666666665
625,KBVY,2026-02-27 03:58:42.739000+00:00,1772164380,2026-02-27T04:00:00.000Z,-1.7,-10.0,340,5.0,10+,1014.0,6,METAR,METAR KBVY 270353Z AUTO 34005KT 10SM CLR M02/M10 A2994 RMK AO2 SLP135 T10171100,42.5841,-70.9153,28,Beverly Muni,CLR,[],VFR,,,1013.5,,,,,,,"Beverly Muni, MA, US",US,United States,-5.112309677398213
569,KBWD,2026-02-27 03:58:22.045000+00:00,1772164500,2026-02-27T04:00:00.000Z,12.5,4.5,0,0.0,10+,1014.3,14,METAR,METAR KBWD 270355Z AUTO 00000KT 10SM CLR 12/04 A2995 RMK AO2 T01250045 $,31.7898,-98.9522,420,Brownwood Muni,CLR,[],VFR,,,,,,,,,,"Brownwood Muni, TX, US",US,United States,20.895416666666666
621,KBWG,2026-02-27 03:56:40.650000+00:00,1772164380,2026-02-27T04:00:00.000Z,5.6,3.3,0,0.0,10+,1014.3,6,METAR,METAR KBWG 270353Z AUTO 00000KT 10SM CLR 06/03 A2995 RMK AO2 SLP142 T00560033,36.9647,-86.4238,159,Bowling Green/Warren Cnty,CLR,[],VFR,,,1014.2,,,,,,,"Bowling Green/Warren Cnty, KY, US",US,United States,16.607066666666668
598,KBWI,2026-02-27 03:58:22.060000+00:00,1772164440,2026-02-27T04:00:00.000Z,2.2,1.1,0,0.0,10+,1015.0,4,METAR,METAR KBWI 270354Z 00000KT 10SM FEW070 FEW100 02/01 A2997 RMK AO2 SLP148 T00220011,39.1733,-76.684,42,Baltimore-Washington Intl,FEW,"[{'cover': 'FEW', 'base': 7000}, {'cover': 'FEW', 'base': 10000}]",VFR,,,1014.8,,,,,,,"Baltimore-Washington Intl, MD, US",US,United States,14.493966666666665
4044,KBWP,2026-02-27 03:58:22.082000+00:00,1772164500,2026-02-27T04:00:00.000Z,1.0,1.0,180,9.0,10+,1004.5,6,METAR,METAR KBWP 270355Z AUTO 18009KT 10SM FEW037 FEW044 FEW085 01/01 A2966 RMK AO2,46.2444,-96.6046,294,Breckenridge-Wahpeton/Stern Arpt,FEW,"[{'cover': 'FEW', 'base': 3700}, {'cover': 'FEW', 'base': 4400}, {'cover': 'FEW', 'base': 8500}]",VFR,,,,,,,,,,"Breckenridge-Wahpeton/Stern Arpt, ND, US",US,United States,-3.451013618936537
579,KBWW,2026-02-27 03:58:22.104000+00:00,1772164500,2026-02-27T04:00:00.000Z,1.0,-6.0,240,11.0,10+,1006.2,6,METAR,METAR KBWW 270355Z AUTO 24011KT 10SM CLR 01/M06 A2971 RMK AO2,46.1656,-103.2964,911,Bowman Rgnl,CLR,[],VFR,,,,,,,,,,"Bowman Rgnl, ND, US",US,United States,-4.012193839771064
595,KBXA,2026-02-27 03:58:56.521000+00:00,1772164500,2026-02-27T04:00:00.000Z,19.7,17.8,210,4.0,10+,1012.6,6,METAR,METAR KBXA 270355Z AUTO 21004KT 10SM SCT080 20/18 A2990 RMK AO2 T01970178,30.8104,-89.8628,35,Bogalusa/Carr Arfld,SCT,"[{'cover': 'SCT', 'base': 8000}]",VFR,,,,,,,,,,"Bogalusa/Carr Arfld, LA, US",US,United States,20.469041609257804
568,KBXK,2026-02-27 03:58:37.202000+00:00,1772164500,2026-02-27T04:00:00.000Z,23.0,6.0,270,4.0,10+,1013.6,6,METAR,METAR KBXK 270355Z AUTO 27004KT 10SM CLR 23/06 A2993 RMK AO2,33.4178,-112.6884,303,Buckeye Muni,CLR,[],VFR,,,,,,,,,,"Buckeye Muni, AZ, US",US,United States,24.32089871649226
609,KBYG,2026-02-27 03:58:24.927000+00:00,1772164380,2026-02-27T04:00:00.000Z,10.6,-13.9,280,8.0,10+,1009.6,6,METAR,METAR KBYG 270353Z AUTO 28008G20KT 10SM CLR 11/M14 A2981 RMK AO2 SLP077 T01061139,44.3812,-106.7195,1503,Buffalo/Johnson Cnty,CLR,[],VFR,20.0,,1007.7,,,,,,,"Buffalo/Johnson Cnty, WY, US",US,United States,8.689944945474075
623,KBYI,2026-02-27 04:00:22.417000+00:00,1772164380,2026-02-27T04:00:00.000Z,2.2,0.0,170,3.0,10+,1024.1,38,METAR,METAR KBYI 270353Z AUTO 17003KT 10SM CLR 02/00 A3024 RMK AO2 SLP248 T00220000 TSNO,42.5453,-113.7686,1263,Burley Muni,CLR,[],VFR,,,1024.8,,,,,,,"Burley Muni, ID, US",US,United States,0.6926370940317739
566,KBYS,2026-02-27 03:58:41.209000+00:00,1772164500,2026-02-27T04:00:00.000Z,17.7,5.9,10,6.0,10+,1019.0,14,METAR,METAR KBYS 270355Z AUTO 01006KT 10SM CLR 18/06 A3009 RMK AO2 SLP177 T01770059 $,35.271,-116.634,717,Bicycle Lake,CLR,[],VFR,,,1017.7,,,,,,,"Bicycle Lake , CA, US",US,United States,17.73292637216385
311,KBYY,2026-02-27 03:58:37.257000+00:00,1772164500,2026-02-27T04:00:00.000Z,20.4,20.4,90,5.0,9,1009.6,14,METAR,METAR KBYY 270355Z AUTO 09005KT 9SM SCT013 20/20 A2981 RMK AO2 T02040204 $,28.9717,-95.8584,12,Bay City Muni,SCT,"[{'cover': 'SCT', 'base': 1300}]",VFR,,,,,,,,,,"Bay City Muni, TX, US",US,United States,21.121839742395487
557,KBZN,2026-02-27 04:00:31.928000+00:00,1772164560,2026-02-27T04:00:00.000Z,8.3,-11.1,190,9.0,10+,1014.6,4,METAR,METAR KBZN 270356Z 19009KT 10SM CLR 08/M11 A2996 RMK AO2 SLP152 T00831111,45.7876,-111.1615,1349,Bozeman/Gallatin Fld,CLR,[],VFR,,,1015.2,,,,,,,"Bozeman/Gallatin Fld, MT, US",US,United States,5.621689784848971
571,KCAD,2026-02-27 04:00:36.499000+00:00,1772164500,2026-02-27T04:00:00.000Z,-2.0,-6.0,240,8.0,10+,1008.9,6,METAR,METAR KCAD 270355Z AUTO 24008KT 10SM OVC042 M02/M06 A2979 RMK AO2,44.2785,-85.4207,397,Cadillac/Wexford Cnty,OVC,"[{'cover': 'OVC', 'base': 4200}]",VFR,,,,,,,,,,"Cadillac/Wexford Cnty, MI, US",US,United States,-6.823634564215714
558,KCAE,2026-02-27 04:00:31.944000+00:00,1772164560,2026-02-27T04:00:00.000Z,14.4,13.9,170,4.0,10+,1013.0,4,METAR,METAR KCAE 270356Z 17004KT 10SM FEW075 OVC110 14/14 A2991 RMK AO2 RAE19 SLP126 P0004 T01440139,33.9422,-81.118,69,Columbia Metro,OVC,"[{'cover': 'FEW', 'base': 7500}, {'cover': 'OVC', 'base': 11000}]",VFR,,,1012.6,0.04,,,,,,"Columbia Metro, SC, US",US,United States,14.282725649153994
610,KCAG,2026-02-27 03:58:27.863000+00:00,1772164380,2026-02-27T04:00:00.000Z,-1.7,-3.9,330,3.0,10+,1023.5,6,METAR,METAR KCAG 270353Z AUTO 33003KT 10SM CLR M02/M04 A3022 RMK AO2 SLP243 T10171039,40.493,-107.524,1888,Craig-Moffat Arpt,CLR,[],VFR,,,1024.3,,,,,,,"Craig-Moffat Arpt, CO, US",US,United States,-3.763812251015158
636,KCAK,2026-02-27 03:56:18.673000+00:00,1772164260,2026-02-27T04:00:00.000Z,-0.6,-8.3,0,0.0,10+,1014.0,4,METAR,METAR KCAK 270351Z 00000KT 10SM OVC085 M01/M08 A2994 RMK AO2 SLP151 T10061083,40.9181,-81.4434,369,Akron/Canton Rgnl,OVC,"[{'cover': 'OVC', 'base': 8500}]",VFR,,,1015.1,,,,,,,"Akron/Canton Rgnl, OH, US",US,United States,12.753766666666671
594,KCAO,2026-02-27 04:00:32.345000+00:00,1772164500,2026-02-27T04:00:00.000Z,8.9,-1.7,190,5.0,10+,1018.4,6,METAR,METAR KCAO 270355Z AUTO 19005KT 10SM CLR 09/M02 A3007 RMK AO2 SLP154 T00891017,36.4483,-103.1537,1517,Clayton Muni,CLR,[],VFR,,,1015.4,,,,,,,"Clayton Muni, NM, US",US,United States,7.4705855194259145
597,KCAR,2026-02-27 03:58:33.327000+00:00,1772164440,2026-02-27T04:00:00.000Z,-9.4,-13.9,260,4.0,10+,1010.6,6,METAR,METAR KCAR 270354Z AUTO 26004KT 10SM FEW031 FEW055 M09/M14 A2984 RMK AO2 SLP118 T10941139,46.8705,-68.0172,189,Caribou Muni,FEW,"[{'cover': 'FEW', 'base': 3100}, {'cover': 'FEW', 'base': 5500}]",VFR,,,1011.8,,,,,,,"Caribou Muni, ME, US",US,United States,-13.49733469999143
585,KCBE,2026-02-27 04:00:29.749000+00:00,1772164500,2026-02-27T04:00:00.000Z,0.3,-3.7,40,4.0,10+,1016.3,6,METAR,METAR KCBE 270355Z AUTO 04004KT 10SM CLR 00/M04 A3001 RMK AO2 T00031037,39.6182,-78.7598,226,Cumberland Arpt,CLR,[],VFR,,,,,,,,,,"Cumberland Arpt, MD, US",US,United States,-2.175209263575017
575,KCBF,2026-02-27 04:00:36.927000+00:00,1772164500,2026-02-27T04:00:00.000Z,8.0,-2.0,0,0.0,10+,1011.3,6,METAR,METAR KCBF 270355Z AUTO 00000KT 10SM CLR 08/M02 A2986 RMK AO2,41.2611,-95.7604,379,Council Bluffs Muni,CLR,[],VFR,,,,,,,,,,"Council Bluffs Muni, IA, US",US,United States,18.09866666666667
591,KCBK,2026-02-27 04:00:22.581000+00:00,1772164500,2026-02-27T04:00:00.000Z,2.1,-5.9,240,8.0,10+,1014.6,6,METAR,METAR KCBK 270355Z AUTO 24008KT 10SM CLR 02/M06 A2996 RMK AO2 T00211059,39.4301,-101.0512,970,Colby/Shaltz Fld,CLR,[],VFR,,,,,,,,,,"Colby/Shaltz Fld, KS, US",US,United States,-1.775565041221419
559,KCBM,2026-02-27 04:02:11.482000+00:00,1772164560,2026-02-27T03:56:00.000Z,17.0,17.0,320,3.0,7,1008.2,12,SPECI,SPECI KCBM 270356Z 32003KT 7SM TS FEW003 OVC032 17/17 A2977 RMK AO2A RAE56 SLP082 $,33.6519,-88.4567,59,Columbus AFB,OVC,"[{'cover': 'FEW', 'base': 300}, {'cover': 'OVC', 'base': 3200}]",VFR,,TS,1008.2,,,,,,,"Columbus AFB, MS, US",US,United States,17.604291018825286
592,KCCB,2026-02-27 04:01:30.028000+00:00,1772164500,2026-02-27T04:00:00.000Z,23.0,8.0,350,4.0,10+,1016.3,6,METAR,METAR KCCB 270355Z AUTO 35004KT 10SM CLR 23/08 A3001 RMK AO2,34.1118,-117.6847,440,Upland/Cable Arpt,CLR,[],VFR,,,,,,,,,,"Upland/Cable Arpt, CA, US",US,United States,24.32089871649226
607,KCCR,2026-02-27 03:58:23.638000+00:00,1772164380,2026-02-27T04:00:00.000Z,17.8,13.9,0,0.0,10+,1021.8,12,METAR,METAR KCCR 270353Z 00000KT 10SM CLR 18/14 A3017 RMK AO2 SLP202 T01780139 $,37.9916,-122.0527,6,Concord/Buchanan Fld,CLR,[],VFR,,,1020.2,,,,,,,"Concord/Buchanan Fld, CA, US",US,United States,24.189366666666672
583,KCCY,2026-02-27 04:00:25.429000+00:00,1772164500,2026-02-27T04:00:00.000Z,-3.0,-3.0,170,8.0,7,1010.2,6,METAR,METAR KCCY 270355Z AUTO 17008KT 7SM CLR M03/M03 A2983 RMK AO2,43.073,-92.6132,340,Charles City/NE Iowa Rgnl,CLR,[],VFR,,,,,,,,,,"Charles City/NE Iowa Rgnl, IA, US",US,United States,-8.054871033238715
1999,KCDA,2026-02-27 04:00:35.532000+00:00,1772164500,2026-02-27T04:00:00.000Z,-11.4,-13.8,0,0.0,10+,1013.6,6,METAR,METAR KCDA 270355Z AUTO 00000KT 10SM CLR M11/M14 A2993 RMK AO2 T11141138,44.5677,-72.0191,357,Lyndonville/Caledonia Cnty,CLR,[],VFR,,,,,,,,,,"Lyndonville/Caledonia Cnty, VT, US",US,United States,6.041566666666666
603,KCDC,2026-02-27 03:58:42.398000+00:00,1772164380,2026-02-27T04:00:00.000Z,9.4,-5.0,130,4.0,10+,1023.8,6,METAR,METAR KCDC 270353Z AUTO 13004KT 10SM CLR 09/M05 A3023 RMK AO2 SLP203 T00941050,37.7067,-113.097,1703,Cedar City Muni,CLR,[],VFR,,,1020.3,,,,,,,"Cedar City Muni, UT, US",US,United States,8.446578516980587
567,KCDH,2026-02-27 03:58:37.286000+00:00,1772164500,2026-02-27T04:00:00.000Z,16.0,16.0,0,0.0,7,1011.3,6,METAR,METAR KCDH 270355Z AUTO 00000KT 7SM FEW030 FEW040 SCT055 16/16 A2986 RMK AO2,33.619,-92.765,38,Camden/Harrell Fld,SCT,"[{'cover': 'FEW', 'base': 3000}, {'cover': 'FEW', 'base': 4000}, {'cover': 'SCT', 'base': 5500}]",VFR,,,,,,,,,,"Camden/Harrell Fld, AR, US",US,United States,23.070666666666664
586,KCDN,2026-02-27 04:00:22.710000+00:00,1772164500,2026-02-27T04:00:00.000Z,15.0,15.0,0,0.0,10+,1014.0,6,METAR,METAR KCDN 270355Z AUTO 00000KT 10SM BKN009 OVC017 15/15 A2994 RMK AO2,34.2815,-80.5636,90,Camden/Woodward Fld,OVC,"[{'cover': 'BKN', 'base': 900}, {'cover': 'OVC', 'base': 1700}]",IFR,,,,,,,,,,"Camden/Woodward Fld, SC, US",US,United States,22.44916666666667
619,KCDR,2026-02-27 03:58:39.771000+00:00,1772164380,2026-02-27T04:00:00.000Z,5.0,-8.3,230,11.0,10+,1010.9,6,METAR,METAR KCDR 270353Z AUTO 23011KT 10SM CLR 05/M08 A2985 RMK AO2 SLP126 T00501083,42.8374,-103.0981,1002,Chadron Muni,CLR,[],VFR,,,1012.6,,,,,,,"Chadron Muni, NE, US",US,United States,1.0402430813723542
626,KCDS,2026-02-27 03:58:27.881000+00:00,1772164380,2026-02-27T04:00:00.000Z,12.8,-2.2,120,6.0,10+,1015.3,6,METAR,METAR KCDS 270353Z AUTO 12006KT 10SM CLR 13/M02 A2998 RMK AO2 SLP142 T01281022,34.4275,-100.2839,595,Childress Muni,CLR,[],VFR,,,1014.2,,,,,,,"Childress Muni, TX, US",US,United States,11.834272317069674
627,KCDW,2026-02-27 03:58:28.566000+00:00,1772164380,2026-02-27T04:00:00.000Z,1.7,-6.1,0,0.0,10+,1014.6,4,METAR,METAR KCDW 270353Z 00000KT 10SM FEW120 02/M06 A2996 RMK AO2 SLP151 T00171061,40.8764,-74.2828,52,Caldwell/Essex Cnty,FEW,"[{'cover': 'FEW', 'base': 12000}]",VFR,,,1015.1,,,,,,,"Caldwell/Essex Cnty, NJ, US",US,United States,14.18321666666667
556,KCEC,2026-02-27 04:00:27.204000+00:00,1772164560,2026-02-27T04:00:00.000Z,9.4,8.3,10,3.0,10+,1024.8,6,METAR,METAR KCEC 270356Z AUTO 01003KT 10SM CLR 09/08 A3026 RMK AO2 SLP248 T00940083,41.7836,-124.238,17,Crescent City/McNama,CLR,[],VFR,,,1024.8,,,,,,,"Crescent City/McNama, CA, US",US,United States,8.91992819257997
580,KCEF,2026-02-27 04:02:13.743000+00:00,1772164500,2026-02-27T04:00:00.000Z,-2.6,-9.5,0,0.0,10+,1013.6,4,METAR,METAR KCEF 270355Z 00000KT 10SM FEW220 M03/M09 A2993 RMK AO2A SLP141 T10261095,42.201,-72.525,72,Chicopee/Westover AFB,FEW,"[{'cover': 'FEW', 'base': 22000}]",VFR,,,1014.1,,,,,,,"Chicopee/Westover AFB, MA, US",US,United States,11.510766666666667
596,KCEU,2026-02-27 03:58:37.305000+00:00,1772164440,2026-02-27T04:00:00.000Z,12.8,12.8,0,0.0,3,1012.6,6,METAR,METAR KCEU 270354Z AUTO 00000KT 3SM BR CLR 13/13 A2990 RMK AO2 SLP120 T01280128,34.6722,-82.8814,270,Clemson/Oconee Cnty,CLR,[],MVFR,,BR,1012.0,,,,,,,"Clemson/Oconee Cnty, SC, US",US,United States,21.08186666666667
616,KCEW,2026-02-27 03:56:29.710000+00:00,1772164380,2026-02-27T04:00:00.000Z,16.7,16.7,0,0.0,3,1014.3,6,METAR,METAR KCEW 270353Z AUTO 00000KT 3SM BR SCT029 OVC095 17/17 A2995 RMK AO2 SLP139 T01670167,30.7771,-86.5194,47,Crestview/Sikes Arpt,OVC,"[{'cover': 'SCT', 'base': 2900}, {'cover': 'OVC', 'base': 9500}]",MVFR,,BR,1013.9,,,,,,,"Crestview/Sikes Arpt, FL, US",US,United States,23.50571666666667
593,KCEY,2026-02-27 04:00:22.741000+00:00,1772164500,2026-02-27T04:00:00.000Z,6.0,6.0,120,4.0,10+,1013.6,6,METAR,METAR KCEY 270355Z AUTO 12004KT 10SM CLR 06/06 A2993 RMK AO2,36.664,-88.372,172,Murray/Oakley Fld,CLR,[],VFR,,,,,,,,,,"Murray/Oakley Fld, KY, US",US,United States,4.477998467102664
628,KCEZ,2026-02-27 03:58:23.656000+00:00,1772164380,2026-02-27T04:00:00.000Z,6.1,-5.0,350,4.0,10+,1022.4,6,METAR,METAR KCEZ 270353Z AUTO 35004KT 10SM CLR 06/M05 A3019 RMK AO2 SLP196 T00611050,37.3071,-108.6265,1801,Cortez/Montezuma Cnt,CLR,[],VFR,,,1019.6,,,,,,,"Cortez/Montezuma Cnt, CO, US",US,United States,4.594721409746138
570,KCFD,2026-02-27 04:00:12.726000+00:00,1772164500,2026-02-27T04:00:00.000Z,20.7,15.5,40,3.0,10+,1012.3,6,METAR,METAR KCFD 270355Z AUTO 04003KT 10SM CLR 21/16 A2989 RMK AO2 T02070155 402800178,30.7171,-96.3347,106,Bryan/Coulter Fld,CLR,[],VFR,,,,,,28.0,17.8,,,"Bryan/Coulter Fld, TX, US",US,United States,21.83220450002365
3830,KCFS,2026-02-27 04:00:34.851000+00:00,1772164500,2026-02-27T04:00:00.000Z,-5.0,-9.0,220,3.0,10+,1011.3,6,METAR,METAR KCFS 270355Z AUTO 22003KT 10SM BKN110 M05/M09 A2986 RMK AO2,43.4624,-83.4428,214,Tuscola Area Arpt,BKN,"[{'cover': 'BKN', 'base': 11000}]",VFR,,,,,,,,,,"Tuscola Area Arpt, MI, US",US,United States,-7.53465400451642
631,KCFV,2026-02-27 03:56:20.352000+00:00,1772164320,2026-02-27T04:00:00.000Z,6.1,0.0,0,0.0,10+,1014.0,6,METAR,METAR KCFV 270352Z AUTO 00000KT 10SM CLR 06/00 A2994 RMK AO2 SLP141 T00610000,37.0912,-95.5726,228,Coffeyville Muni,CLR,[],VFR,,,1014.1,,,,,,,"Coffeyville Muni, KS, US",US,United States,16.917816666666667
590,KCGE,2026-02-27 04:02:17.478000+00:00,1772164500,2026-02-27T04:00:00.000Z,4.0,3.0,0,0.0,5,1015.0,6,METAR,METAR KCGE 270355Z AUTO 00000KT 5SM BR OVC065 04/03 A2997 RMK A01,38.5371,-76.0309,5,Cambridge/Dorchester Rgnl,OVC,"[{'cover': 'OVC', 'base': 6500}]",MVFR,,BR,,,,,,,,"Cambridge/Dorchester Rgnl, MD, US",US,United States,15.612666666666668
655,KCGF,2026-02-27 03:47:42.355000+00:00,1772163900,2026-02-27T04:00:00.000Z,-4.0,-6.0,0,0.0,10+,1014.0,0,METAR,METAR KCGF 270345Z 00000KT 10SM CLR M04/M06 A2994,41.566,-81.4827,265,Cleveland/Cuyahoga Cnty,CLR,[],VFR,,,,,,,,,,"Cleveland/Cuyahoga Cnty, OH, US",US,United States,10.640666666666668
612,KCGI,2026-02-27 03:56:29.743000+00:00,1772164380,2026-02-27T04:00:00.000Z,6.1,4.4,0,0.0,9,1013.0,6,METAR,METAR KCGI 270353Z AUTO 00000KT 9SM CLR 06/04 A2991 RMK AO2 SLP130 T00610044,37.2254,-89.5785,103,Cape Girardeau Rgnl,CLR,[],VFR,,,1013.0,,,,,,,"Cape Girardeau Rgnl, MO, US",US,United States,16.917816666666667
565,KCGS,2026-02-27 04:00:35.554000+00:00,1772164500,2026-02-27T04:00:00.000Z,1.5,0.8,0,0.0,7,1015.7,6,METAR,METAR KCGS 270355Z AUTO 00000KT 7SM SCT100 02/01 A2999 RMK AO2 T00150008,38.9806,-76.9251,15,College Park Arpt,SCT,"[{'cover': 'SCT', 'base': 10000}]",VFR,,,,,,,,,,"College Park Arpt, MD, US",US,United States,14.058916666666669
554,KCGZ,2026-02-27 04:00:14.556000+00:00,1772164560,2026-02-27T04:00:00.000Z,21.1,4.4,0,0.0,10+,1014.6,14,METAR,METAR KCGZ 270356Z AUTO 00000KT 10SM CLR 21/04 A2996 RMK AO2 SLP138 T02110044 $,32.9531,-111.7725,444,Casa Granda Muni,CLR,[],VFR,,,1013.8,,,,,,,"Casa Granda Muni, AZ, US",US,United States,26.240316666666672
613,KCHA,2026-02-27 03:56:29.758000+00:00,1772164380,2026-02-27T04:00:00.000Z,13.9,10.6,350,8.0,10+,1013.0,4,METAR,METAR KCHA 270353Z 35008KT 10SM BKN031 OVC042 14/11 A2991 RMK AO2 SLP125 T01390106,35.0336,-85.2004,203,Chattanooga Metro,OVC,"[{'cover': 'BKN', 'base': 3100}, {'cover': 'OVC', 'base': 4200}]",VFR,,,1012.5,,,,,,,"Chattanooga Metro, TN, US",US,United States,12.753025293249973
587,KCHK,2026-02-27 04:00:22.788000+00:00,1772164500,2026-02-27T04:00:00.000Z,8.0,-1.0,290,3.0,10+,1015.7,6,METAR,METAR KCHK 270355Z AUTO 29003KT 10SM CLR 08/M01 A2999 RMK AO2,35.0927,-97.9709,346,Chickasha Muni,CLR,[],VFR,,,,,,,,,,"Chickasha Muni, OK, US",US,United States,7.320177145640041
614,KCHO,2026-02-27 03:56:29.772000+00:00,1772164380,2026-02-27T04:00:00.000Z,4.4,3.3,0,0.0,10+,1015.0,4,METAR,METAR KCHO 270353Z 00000KT 10SM FEW038 SCT050 04/03 A2997 RMK AO2 SLP149 T00440033,38.1374,-78.4551,193,Charlottesville/Albemarle Arpt,SCT,"[{'cover': 'FEW', 'base': 3800}, {'cover': 'SCT', 'base': 5000}]",VFR,,,1014.9,,,,,,,"Charlottesville/Albemarle Arpt, VA, US",US,United States,15.861266666666666
560,KCHS,2026-02-27 04:02:15.554000+00:00,1772164560,2026-02-27T04:00:00.000Z,14.4,13.3,320,4.0,6,1015.7,4,METAR,METAR KCHS 270356Z 32004KT 6SM -RA BR FEW010 BKN015 OVC045 14/13 A2999 RMK AO2 RAB05 SLP155 P0000 T01440133,32.8995,-80.0407,12,Charleston Intl,OVC,"[{'cover': 'FEW', 'base': 1000}, {'cover': 'BKN', 'base': 1500}, {'cover': 'OVC', 'base': 4500}]",MVFR,,-RA BR,1015.5,0.005,,,,,,"Charleston Intl, SC, US",US,United States,14.282725649153994
633,KCID,2026-02-27 04:00:32.407000+00:00,1772164320,2026-02-27T04:00:00.000Z,-2.8,-3.3,140,3.0,8,1011.6,5,METAR,METAR KCID 270352Z COR 14003KT 8SM BR CLR M03/M03 A2987 RMK AO2 SLP125 T10281033,41.8829,-91.7246,257,Cedar Rapids/E Iowa Arpt,CLR,[],VFR,,BR,1012.5,,,,,,,"Cedar Rapids/E Iowa Arpt, IA, US",US,United States,-5.020759502182245
584,KCIN,2026-02-27 04:00:25.478000+00:00,1772164500,2026-02-27T04:00:00.000Z,2.0,-1.0,230,5.0,10+,1011.3,6,METAR,METAR KCIN 270355Z AUTO 23005KT 10SM CLR 02/M01 A2986 RMK AO2,42.0444,-94.7888,365,Carroll/Neu Arpt,CLR,[],VFR,,,,,,,,,,"Carroll/Neu Arpt, IA, US",US,United States,-0.7201670143558303
573,KCIR,2026-02-27 04:00:32.873000+00:00,1772164500,2026-02-27T04:00:00.000Z,8.4,5.5,0,0.0,10+,1013.3,6,METAR,METAR KCIR 270355Z AUTO 00000KT 10SM CLR 08/06 A2992 RMK AO2 T00840055,37.0639,-89.2232,96,Cairo Rgnl,CLR,[],VFR,,,,,,,,,,"Cairo Rgnl, IL, US",US,United States,18.34726666666667
563,KCIU,2026-02-27 04:00:36.948000+00:00,1772164560,2026-02-27T04:00:00.000Z,-4.4,-5.0,180,3.0,9,1007.5,70,METAR,METAR KCIU 270356Z AUTO 18003KT 9SM -SN BKN007 OVC033 M04/M05 A2975 RMK AO2 SLP086 P0000 T10441050 FZRANO,46.2531,-84.4773,242,Chippewa Cnty Intl,OVC,"[{'cover': 'BKN', 'base': 700}, {'cover': 'OVC', 'base': 3300}]",IFR,,-SN,1008.6,0.005,,,,,,"Chippewa Cnty Intl, MI, US",US,United States,-6.849046412970736
617,KCKB,2026-02-27 03:58:28.587000+00:00,1772164380,2026-02-27T04:00:00.000Z,-0.6,-1.1,0,0.0,10+,1014.6,4,METAR,METAR KCKB 270353Z 00000KT 10SM FEW020 OVC090 M01/M01 A2996 RMK AO2 SLP152 T10061011,39.3022,-80.2239,368,Clarksburg/NC West Virginia Arpt,OVC,"[{'cover': 'FEW', 'base': 2000}, {'cover': 'OVC', 'base': 9000}]",VFR,,,1015.2,,,,,,,"Clarksburg/NC West Virginia Arpt, WV, US",US,United States,12.753766666666671
1370,KCKC,2026-02-27 03:58:38.498000+00:00,1772164500,2026-02-27T04:00:00.000Z,-7.0,-8.0,0,0.0,10+,1004.1,6,METAR,METAR KCKC 270355Z AUTO 00000KT 10SM OVC065 M07/M08 A2965 RMK AO2,47.8366,-90.3864,544,Grand Marais Muni,OVC,"[{'cover': 'OVC', 'base': 6500}]",VFR,,,,,,,,,,"Grand Marais Muni, MN, US",US,United States,8.776166666666667
576,KCKM,2026-02-27 03:58:37.404000+00:00,1772164500,2026-02-27T04:00:00.000Z,,,340,4.0,4,1011.9,6,METAR,METAR KCKM 270355Z AUTO 34004KT 4SM HZ A2988 RMK A01,34.2945,-90.5146,52,Clarksdale/Fletcher Fld,,,,,HZ,,,,,,,,"Clarksdale/Fletcher Fld, MS, US",US,United States,
582,KCKN,2026-02-27 04:00:33.306000+00:00,1772164500,2026-02-27T04:00:00.000Z,0.0,-2.0,180,8.0,10+,1003.1,6,METAR,METAR KCKN 270355Z AUTO 18008KT 10SM CLR 00/M02 A2962 RMK AO2,47.8404,-96.6201,272,Crookston Muni,CLR,[],VFR,,,,,,,,,,"Crookston Muni, MN, US",US,United States,-4.36116162616972
634,KCKV,2026-02-27 03:56:20.736000+00:00,1772164320,2026-02-27T04:00:00.000Z,8.3,5.0,130,3.0,10+,1013.6,6,METAR,METAR KCKV 270352Z AUTO 13003KT 10SM CLR 08/05 A2993 RMK AO2 SLP136 T00830050,36.6169,-87.4117,166,Clarksville/Outlaw Fld,CLR,[],VFR,,,1013.6,,,,,,,"Clarksville/Outlaw Fld, TN, US",US,United States,7.662980941412883
635,KCLE,2026-02-27 03:56:19.609000+00:00,1772164260,2026-02-27T04:00:00.000Z,-2.2,-6.1,170,6.0,10+,1013.6,12,METAR,METAR KCLE 270351Z 17006KT 10SM BKN080 M02/M06 A2993 RMK AO2 SLP161 T10221061 $,41.4057,-81.8519,237,Cleveland/Hopkins Intl,BKN,"[{'cover': 'BKN', 'base': 8000}]",VFR,,,1016.1,,,,,,,"Cleveland/Hopkins Intl, OH, US",US,United States,-6.22283193321864
564,KCLI,2026-02-27 04:00:32.750000+00:00,1772164500,2026-02-27T04:00:00.000Z,-2.9,-6.1,220,4.0,10+,1009.6,6,METAR,METAR KCLI 270355Z AUTO 22004KT 10SM CLR M03/M06 A2981 RMK AO2 T10291061,44.6152,-88.7313,248,Clintonville Muni,CLR,[],VFR,,,,,,,,,,"Clintonville Muni, WI, US",US,United States,-5.910343428165995
588,KCLK,2026-02-27 03:40:44.306000+00:00,1772164500,2026-02-27T04:00:00.000Z,13.0,-2.0,150,5.0,10+,1015.7,6,METAR,METAR KCLK 270355Z AUTO 15005KT 10SM CLR 13/M02 A2999 RMK AO2,35.5381,-98.9336,489,Clinton Rgnl,CLR,[],VFR,,,,,,,,,,"Clinton Rgnl, OK, US",US,United States,12.337554416310713
629,KCLL,2026-02-27 03:58:40.028000+00:00,1772164380,2026-02-27T04:00:00.000Z,22.2,16.1,50,4.0,10+,1011.3,6,METAR,METAR KCLL 270353Z AUTO 05004KT 10SM CLR 22/16 A2986 RMK AO2 SLP108 T02220161,30.5912,-96.3631,96,College Station/Easterwood Arpt,CLR,[],VFR,,,1010.8,,,,,,,"College Station/Easterwood Arpt, TX, US",US,United States,23.387115175344515
618,KCLM,2026-02-27 03:58:42.422000+00:00,1772164380,2026-02-27T04:00:00.000Z,3.9,2.8,0,0.0,10+,1024.1,6,METAR,METAR KCLM 270353Z AUTO 00000KT 10SM CLR 04/03 A3024 RMK AO2 SLP240 T00390028,48.1219,-123.5066,81,Port Angeles Intl,CLR,[],VFR,,,1024.0,,,,,,,"Port Angeles Intl, WA, US",US,United States,15.550516666666669
581,KCLS,2026-02-27 03:58:38.142000+00:00,1772164500,2026-02-27T04:00:00.000Z,6.0,5.0,0,0.0,10+,1026.5,6,METAR,METAR KCLS 270355Z AUTO 00000KT 10SM CLR 06/05 A3031 RMK AO2,46.6775,-122.9857,52,Chehalis-Centralia Arpt,CLR,[],VFR,,,,,,,,,,"Chehalis-Centralia Arpt, WA, US",US,United States,16.855666666666668
553,KCLT,2026-02-27 04:02:21.539000+00:00,1772164740,2026-02-27T03:59:00.000Z,13.3,12.2,20,3.0,5,1013.3,4,SPECI,SPECI KCLT 270359Z 02003KT 5SM BR SCT005 OVC014 13/12 A2992 RMK AO2 T01330122,35.2225,-80.9543,223,Charlotte/Douglas Intl,OVC,"[{'cover': 'SCT', 'base': 500}, {'cover': 'OVC', 'base': 1400}]",MVFR,,BR,,,,,,,,"Charlotte/Douglas Intl, NC, US",US,United States,13.3763775376269
577,KCLW,2026-02-27 03:58:37.472000+00:00,1772164500,2026-02-27T04:00:00.000Z,18.0,16.0,180,3.0,10+,1016.7,6,METAR,METAR KCLW 270355Z AUTO 18003KT 10SM CLR 18/16 A3002 RMK AO2,27.9741,-82.7563,21,Clearwater Air Park,CLR,[],VFR,,,,,,,,,,"Clearwater Air Park, FL, US",US,United States,18.74697033806809
637,KCMH,2026-02-27 03:56:20.057000+00:00,1772164260,2026-02-27T04:00:00.000Z,4.4,-6.1,20,3.0,10+,1014.3,4,METAR,METAR KCMH 270351Z 02003KT 10SM SCT090 04/M06 A2995 RMK AO2 SLP148 T00441061,39.9907,-82.877,257,Columbus/Glenn Intl,SCT,"[{'cover': 'SCT', 'base': 9000}]",VFR,,,1014.8,,,,,,,"Columbus/Glenn Intl, OH, US",US,United States,3.2065315963659438
630,KCMI,2026-02-27 03:58:43.313000+00:00,1772164380,2026-02-27T04:00:00.000Z,-0.6,-0.6,120,6.0,6,1013.0,4,METAR,METAR KCMI 270353Z 12006KT 6SM BR CLR M01/M01 A2991 RMK AO2 SLP135 T10061006,40.0324,-88.2755,227,Champaign/Willard Arpt,CLR,[],VFR,,BR,1013.5,,,,,,,"Champaign/Willard Arpt, IL, US",US,United States,-4.296740813187881
853,KCMX,2026-02-27 03:58:24.724000+00:00,1772164380,2026-02-27T04:00:00.000Z,-3.9,-6.1,340,3.0,9,1006.2,6,METAR,METAR KCMX 270353Z AUTO 34003KT 9SM BKN027 OVC041 M04/M06 A2971 RMK AO2 SLP079 T10391061,47.1705,-88.4854,326,Houghton Cnty Mem,OVC,"[{'cover': 'BKN', 'base': 2700}, {'cover': 'OVC', 'base': 4100}]",MVFR,,,1007.9,,,,,,,"Houghton Cnty Mem, MI, US",US,United States,-6.277706753349332
806,KCMY,2026-02-27 03:58:14.666000+00:00,1772164500,2026-02-27T04:00:00.000Z,-4.1,-5.5,0,0.0,8,1009.2,6,METAR,METAR KCMY 270355Z AUTO 00000KT 8SM CLR M04/M05 A2980 RMK AO2 SLP107 T10411055,43.9581,-90.7398,253,Sparta/Ft McCoy Arpt,CLR,[],VFR,,,1010.7,,,,,,,"Sparta/Ft McCoy Arpt, WI, US",US,United States,10.578516666666667
829,KCNK,2026-02-27 03:58:56.964000+00:00,1772164500,2026-02-27T04:00:00.000Z,9.4,0.0,190,6.0,10+,1013.0,6,METAR,METAR KCNK 270355Z AUTO 19006KT 10SM CLR 09/00 A2991 RMK AO2 SLP131 T00940000,39.5513,-97.6508,445,Concordia/Blosser Muni,CLR,[],VFR,,,1013.1,,,,,,,"Concordia/Blosser Muni, KS, US",US,United States,7.741328687004325
845,KCNM,2026-02-27 03:58:23.898000+00:00,1772164380,2026-02-27T04:00:00.000Z,16.1,0.6,240,6.0,10+,1015.0,14,METAR,METAR KCNM 270353Z AUTO 24006KT 10SM CLR 16/01 A2997 RMK AO2 SLP110 T01610006 $,32.3336,-104.2584,993,Carlsbad/Cavern City Air Term,CLR,[],VFR,,,1011.0,,,,,,,"Carlsbad/Cavern City Air Term, NM, US",US,United States,15.806835252133105
871,KCNO,2026-02-27 03:58:24.946000+00:00,1772164380,2026-02-27T04:00:00.000Z,20.6,13.9,0,0.0,10+,1016.0,4,METAR,METAR KCNO 270353Z 00000KT 10SM CLR 21/14 A3000 RMK AO2 SLP154 T02060139,33.9756,-117.6249,191,Chino Arpt,CLR,[],VFR,,,1015.4,,,,,,,"Chino Arpt, CA, US",US,United States,25.929566666666673
874,KCNU,2026-02-27 03:56:21.024000+00:00,1772164320,2026-02-27T04:00:00.000Z,7.2,-0.6,170,5.0,10+,1014.3,6,METAR,METAR KCNU 270352Z AUTO 17005KT 10SM CLR 07/M01 A2995 RMK AO2 SLP141 T00721006,37.6705,-95.4846,301,Chanute/Johnson Arpt,CLR,[],VFR,,,1014.1,,,,,,,"Chanute/Johnson Arpt, KS, US",US,United States,5.45257402559563
857,KCNY,2026-02-27 03:58:39.897000+00:00,1772164380,2026-02-27T04:00:00.000Z,11.1,-7.8,290,11.0,10+,1021.1,6,METAR,METAR KCNY 270353Z AUTO 29011KT 10SM CLR 11/M08 A3015 RMK AO2 SLP194 T01111078,38.7501,-109.7627,1392,Moab/Canyonland Fld,CLR,[],VFR,,,1019.4,,,,,,,"Moab/Canyonland Fld, UT, US",US,United States,8.745209386116057
795,KCOD,2026-02-27 04:00:33.728000+00:00,1772164560,2026-02-27T04:00:00.000Z,7.8,-8.9,280,13.0,10+,1015.7,14,METAR,METAR KCOD 270356Z AUTO 28013G21KT 10SM CLR 08/M09 A2999 RMK AO2 PK WND 27032/0302 SLP150 T00781089 $,44.52,-109.0268,1550,Cody/Yellowstone Rgnl,CLR,[],VFR,21.0,,1015.0,,,,,,,"Cody/Yellowstone Rgnl, WY, US",US,United States,4.214025366352242
791,KCOE,2026-02-27 04:00:36.221000+00:00,1772164560,2026-02-27T04:00:00.000Z,5.6,-1.1,200,15.0,10+,1019.7,14,METAR,METAR KCOE 270356Z AUTO 20015KT 10SM CLR 06/M01 A3011 RMK AO2 SLP227 T00561011 PNO $,47.7719,-116.8332,693,Coeur DAlene Arpt,CLR,[],VFR,,,1022.7,,,,,,,"Coeur DAlene Arpt, ID, US",US,United States,1.0446773868632815
813,KCOF,2026-02-27 03:58:34.749000+00:00,1772164500,2026-02-27T04:00:00.000Z,21.5,17.7,190,10.0,10+,1016.0,14,METAR,METAR KCOF 270355Z AUTO 19010KT 10SM FEW070 22/18 A3000 RMK AO2 SLP163 T02150177 $,28.242,-80.608,1,Cocoa Beach/Patrick,FEW,"[{'cover': 'FEW', 'base': 7000}]",VFR,,,1016.3,,,,,,,"Cocoa Beach/Patrick, FL, US",US,United States,21.951273070835654
818,KCOM,2026-02-27 04:02:08.450000+00:00,1772164500,2026-02-27T04:00:00.000Z,17.1,4.5,10,7.0,10+,1015.3,6,METAR,METAR KCOM 270355Z AUTO 01007KT 10SM CLR 17/05 A2998 RMK AO2 T01710045,31.8415,-99.4058,516,Coleman Muni,CLR,[],VFR,,,,,,,,,,"Coleman Muni, TX, US",US,United States,16.842247363712897
880,KCON,2026-02-27 03:56:24.621000+00:00,1772164260,2026-02-27T04:00:00.000Z,-4.4,-12.2,310,7.0,10+,1014.0,46,METAR,METAR KCON 270351Z AUTO 31007KT 10SM CLR M04/M12 A2994 RMK AO2 SLP143 T10441122 TSNO $,43.2049,-71.5026,102,Concord Muni,CLR,[],VFR,,,1014.3,,,,,,,"Concord Muni, NH, US",US,United States,-9.352226274755502
833,KCOS,2026-02-27 03:58:33.343000+00:00,1772164440,2026-02-27T04:00:00.000Z,8.9,-10.6,300,9.0,10+,1018.4,12,METAR,METAR KCOS 270354Z 30009KT 10SM CLR 09/M11 A3007 RMK AO2 SLP145 T00891106 $,38.8095,-104.6887,1886,Colorado Spring Arpt,CLR,[],VFR,,,1014.5,,,,,,,"Colorado Spring Arpt, CO, US",US,United States,6.367391434475177
843,KCOT,2026-02-27 03:58:24.377000+00:00,1772164380,2026-02-27T04:00:00.000Z,27.2,7.8,50,10.0,10+,1009.2,6,METAR,METAR KCOT 270353Z AUTO 05010KT 10SM CLR 27/08 A2980 RMK AO2 SLP085 T02720078,28.4585,-99.2228,144,Cotulla/LaSalle Cnty,CLR,[],VFR,,,1008.5,,,,,,,"Cotulla/LaSalle Cnty, TX, US",US,United States,29.095648245310468
831,KCOU,2026-02-27 03:58:33.358000+00:00,1772164440,2026-02-27T04:00:00.000Z,11.1,-2.2,70,3.0,10+,1013.6,14,METAR,METAR KCOU 270354Z AUTO 07003KT 10SM CLR 11/M02 A2993 RMK AO2 SLP136 T01111022 $,38.8171,-92.2148,272,Columbia Rgnl,CLR,[],VFR,,,1013.6,,,,,,,"Columbia Rgnl, MO, US",US,United States,10.862483035292733
872,KCPR,2026-02-27 03:58:23.672000+00:00,1772164380,2026-02-27T04:00:00.000Z,6.1,-8.9,250,26.0,10+,1015.7,4,METAR,METAR KCPR 270353Z 25026G38KT 10SM CLR 06/M09 A2999 RMK AO2 PK WND 23038/0350 RAB45E49 SLP145 P0000 T00611089,42.8978,-106.4736,1623,Casper/Natrona Cnty,CLR,[],VFR,38.0,,1014.5,0.005,,,,,,"Casper/Natrona Cnty, WY, US",US,United States,0.29188685929486585
870,KCPS,2026-02-27 03:56:26.021000+00:00,1772164380,2026-02-27T04:00:00.000Z,2.8,0.6,0,0.0,10+,1013.6,12,METAR,METAR KCPS 270353Z 00000KT 10SM CLR 03/01 A2993 RMK AO2 SLP137 T00280006 $,38.57,-90.156,125,St Louis/Downtown Arpt,CLR,[],VFR,,,1013.7,,,,,,,"St Louis/Downtown Arpt, IL, US",US,United States,14.866866666666668
1382,KCQW,2026-02-27 03:58:54.710000+00:00,1772164500,2026-02-27T04:00:00.000Z,13.0,13.0,0,0.0,8,1013.6,6,METAR,METAR KCQW 270355Z AUTO 00000KT 8SM BKN025 OVC037 13/13 A2993 RMK AO2,34.7128,-79.9622,67,Cheraw Muni,OVC,"[{'cover': 'BKN', 'base': 2500}, {'cover': 'OVC', 'base': 3700}]",MVFR,,,,,,,,,,"Cheraw Muni, SC, US",US,United States,21.206166666666665
846,KCRE,2026-02-27 03:56:29.948000+00:00,1772164380,2026-02-27T04:00:00.000Z,12.8,10.6,210,9.0,10+,1014.0,6,METAR,METAR KCRE 270353Z AUTO 21009KT 10SM -RA SCT049 OVC090 13/11 A2994 RMK AO1 RAB34 SLP140 P0001 T01280106,33.8162,-78.7204,9,North Myrtle Beach/Grand Strand Arpt,OVC,"[{'cover': 'SCT', 'base': 4900}, {'cover': 'OVC', 'base': 9000}]",VFR,,-RA,1014.0,0.01,,,,,,"North Myrtle Beach/Grand Strand Arpt, SC, US",US,United States,11.214452157045514
868,KCRG,2026-02-27 03:56:29.964000+00:00,1772164380,2026-02-27T04:00:00.000Z,15.0,11.1,0,0.0,10+,1016.0,4,METAR,METAR KCRG 270353Z 00000KT 10SM CLR 15/11 A3000 RMK AO2 SLP159 T01500111,30.3371,-81.5128,12,Jacksonville/Executive at Craig Arpt,CLR,[],VFR,,,1015.9,,,,,,,"Jacksonville/Executive at Craig Arpt, FL, US",US,United States,22.44916666666667
881,KCRP,2026-02-27 03:56:24.527000+00:00,1772164260,2026-02-27T04:00:00.000Z,21.1,18.9,100,6.0,9,1008.9,12,METAR,METAR KCRP 270351Z 10006KT 9SM CLR 21/19 A2979 RMK AO2 PRESRR SLP087 T02110189 $,27.7734,-97.513,11,Corpus Christi Intl,CLR,[],VFR,,,1008.7,,,,,,,"Corpus Christi Intl, TX, US",US,United States,21.825870002229212
606,KCRQ,2026-02-27 03:58:40.072000+00:00,1772164380,2026-02-27T04:00:00.000Z,18.9,12.2,250,3.0,10+,1015.0,4,METAR,METAR KCRQ 270353Z 25003KT 10SM CLR 19/12 A2997 RMK AO2 SLP147 T01890122,33.1299,-117.2765,96,Carlsbad/Palomar Arpt,CLR,[],VFR,,,1014.7,,,,,,,"Carlsbad/Palomar Arpt, CA, US",US,United States,19.775381725386612
838,KCRS,2026-02-27 03:58:23.915000+00:00,1772164380,2026-02-27T04:00:00.000Z,20.0,11.7,20,5.0,10+,1013.3,6,METAR,METAR KCRS 270353Z AUTO 02005KT 10SM CLR 20/12 A2992 RMK AO2 SLP126 T02000117,32.0316,-96.3994,136,Corsicana Muni,CLR,[],VFR,,,1012.6,,,,,,,"Corsicana Muni, TX, US",US,United States,20.647013508553073
832,KCRW,2026-02-27 03:58:33.377000+00:00,1772164440,2026-02-27T04:00:00.000Z,5.0,2.2,220,5.0,10+,1015.3,4,METAR,METAR KCRW 270354Z 22005KT 10SM OVC015 05/02 A2998 RMK AO2 SLP157 T00500022,38.3795,-81.5911,278,Charleston/Yeager Arpt,OVC,"[{'cover': 'OVC', 'base': 1500}]",MVFR,,,1015.7,,,,,,,"Charleston/Yeager Arpt, WV, US",US,United States,2.8410297394623205
826,KCRX,2026-02-27 04:00:22.962000+00:00,1772164500,2026-02-27T04:00:00.000Z,14.0,14.0,0,0.0,7,1012.6,6,METAR,METAR KCRX 270355Z AUTO 00000KT 7SM VCTS DZ FEW047 BKN060 OVC075 14/14 A2990 RMK AO2 LTG DSNT SE AND S P0001,34.9209,-88.6071,128,Corinth/Turner Fld,OVC,"[{'cover': 'FEW', 'base': 4700}, {'cover': 'BKN', 'base': 6000}, {'cover': 'OVC', 'base': 7500}]",VFR,,VCTS DZ,,0.01,,,,,,"Corinth/Turner Fld, MS, US",US,United States,21.827666666666673
879,KCSG,2026-02-27 03:54:29.031000+00:00,1772164260,2026-02-27T04:00:00.000Z,18.3,14.4,220,5.0,10+,1012.6,6,METAR,METAR KCSG 270351Z AUTO 22005KT 10SM FEW029 BKN047 OVC055 18/14 A2990 RMK AO2 RAB27E39 SLP121 P0000 T01830144,32.5163,-84.9422,120,Columbus Arpt,OVC,"[{'cover': 'FEW', 'base': 2900}, {'cover': 'BKN', 'base': 4700}, {'cover': 'OVC', 'base': 5500}]",VFR,,,1012.1,0.005,,,,,,"Columbus Arpt, GA, US",US,United States,18.62900201472278
854,KCSM,2026-02-27 03:56:30.012000+00:00,1772164380,2026-02-27T04:00:00.000Z,9.4,0.6,0,0.0,10+,1015.7,4,METAR,METAR KCSM 270353Z 00000KT 10SM CLR 09/01 A2999 RMK AO2 SLP147 T00940006,35.3568,-99.2041,586,Clinton/Sherman Arpt,CLR,[],VFR,,,1014.7,,,,,,,"Clinton/Sherman Arpt, OK, US",US,United States,18.968766666666667
825,KCSQ,2026-02-27 04:02:17.505000+00:00,1772164500,2026-02-27T04:00:00.000Z,3.0,-7.0,170,4.0,10+,1011.6,6,METAR,METAR KCSQ 270355Z AUTO 17004KT 10SM CLR 03/M07 A2987 RMK AO2,41.0189,-94.361,394,Creston Muni,CLR,[],VFR,,,,,,,,,,"Creston Muni, IA, US",US,United States,0.9763101877986221
867,KCSV,2026-02-27 03:56:30.036000+00:00,1772164380,2026-02-27T04:00:00.000Z,6.7,6.7,60,6.0,0.25,1013.3,6,METAR,METAR KCSV 270353Z AUTO 06006KT 1/4SM FG VV002 07/07 A2992 RMK AO2 SLP130 T00670067,35.951,-85.0814,569,Crossville/Whitson Fld,OVX,"[{'cover': 'OVX', 'base': 200}]",LIFR,,FG,1013.0,,,,,,2.0,"Crossville/Whitson Fld, TN, US",US,United States,4.4910499219524285
797,KCTB,2026-02-27 04:00:18.675000+00:00,1772164560,2026-02-27T04:00:00.000Z,3.9,-8.3,250,12.0,10+,1008.5,6,METAR,METAR KCTB 270356Z AUTO 25012G22KT 10SM CLR 04/M08 A2978 RMK AO2 PK WND 25032/0310 SLP103 T00391083,48.6036,-112.3766,1172,Cut Bank Muni,CLR,[],VFR,22.0,,1010.3,,,,,,,"Cut Bank Muni, MT, US",US,United States,-0.572077742679578
828,KCTY,2026-02-27 04:02:15.045000+00:00,1772164500,2026-02-27T04:00:00.000Z,15.0,15.0,0,0.0,10+,1016.0,6,METAR,METAR KCTY 270355Z AUTO 00000KT 10SM BKN075 15/15 A3000 RMK AO2,29.6334,-83.1055,12,Cross City Arpt,BKN,"[{'cover': 'BKN', 'base': 7500}]",VFR,,,,,,,,,,"Cross City Arpt, FL, US",US,United States,22.44916666666667
827,KCTZ,2026-02-27 04:00:23.088000+00:00,1772164500,2026-02-27T04:00:00.000Z,13.3,13.3,0,0.0,10+,1014.3,6,METAR,METAR KCTZ 270355Z AUTO 00000KT 10SM OVC042 13/13 A2995 RMK AO2 T01330133,34.9752,-78.3628,43,Clinton/Sampson Cnty,OVC,"[{'cover': 'OVC', 'base': 4200}]",VFR,,,,,,,,,,"Clinton/Sampson Cnty, NC, US",US,United States,21.392616666666665
866,KCUB,2026-02-27 03:56:30.056000+00:00,1772164380,2026-02-27T04:00:00.000Z,15.0,14.4,120,3.0,9,1013.3,6,METAR,METAR KCUB 270353Z AUTO 12003KT 9SM SCT017 SCT060 OVC110 15/14 A2992 RMK AO2 RAE25 PRESFR SLP130 P0006 T01500144,33.972,-80.9938,55,Columbia/Downtown Arpt,OVC,"[{'cover': 'SCT', 'base': 1700}, {'cover': 'SCT', 'base': 6000}, {'cover': 'OVC', 'base': 11000}]",VFR,,,1013.0,0.06,,,,,,"Columbia/Downtown Arpt, SC, US",US,United States,15.318932380339671
809,KCUH,2026-02-27 03:58:54.776000+00:00,1772164500,2026-02-27T04:00:00.000Z,5.2,-1.1,0,0.0,10+,1014.3,6,METAR,METAR KCUH 270355Z AUTO 00000KT 10SM CLR 05/M01 A2995 RMK AO2 T00521011,35.949,-96.768,274,Cushing Muni,CLR,[],VFR,,,,,,,,,,"Cushing Muni, OK, US",US,United States,16.358466666666672
876,KCVG,2026-02-27 03:56:17.557000+00:00,1772164320,2026-02-27T04:00:00.000Z,2.8,0.0,190,3.0,10+,1014.3,4,METAR,METAR KCVG 270352Z 19003KT 10SM FEW090 03/00 A2995 RMK AO2 SLP147 T00280000,39.0444,-84.6724,264,Cincinnati Intl,FEW,"[{'cover': 'FEW', 'base': 9000}]",VFR,,,1014.7,,,,,,,"Cincinnati Intl, KY, US",US,United States,1.3782446855774566
800,KCVN,2026-02-27 04:00:33.778000+00:00,1772164560,2026-02-27T04:00:00.000Z,11.1,-2.2,150,9.0,10+,1015.7,14,METAR,METAR KCVN 270356Z AUTO 15009KT 10SM CLR 11/M02 A2999 RMK AO2 SLP139 T01111022 $,34.4227,-103.0803,1278,Clovis Muni,CLR,[],VFR,,,1013.9,,,,,,,"Clovis Muni, NM, US",US,United States,9.101630816437925
796,KCVO,2026-02-27 04:00:37.778000+00:00,1772164560,2026-02-27T04:00:00.000Z,5.0,3.9,280,4.0,10+,1027.2,6,METAR,METAR KCVO 270356Z AUTO 28004KT 10SM CLR 05/04 A3033 RMK AO2 SLP277 T00500039,44.5013,-123.293,75,Corvallis Muni,CLR,[],VFR,,,1027.7,,,,,,,"Corvallis Muni, OR, US",US,United States,3.310769040667986
815,KCVS,2026-02-27 03:58:16.595000+00:00,1772164500,2026-02-27T04:00:00.000Z,13.8,-3.0,180,9.0,10+,1014.3,14,METAR,METAR KCVS 270355Z AUTO 18009KT 10SM CLR 14/M03 A2995 RMK AO2 SLP107 T01381030 $,34.381,-103.322,1305,Clovis/Cannon AFB,CLR,[],VFR,,,1010.7,,,,,,,"Clovis/Cannon AFB, NM, US",US,United States,12.457288239755862
890,KCWA,2026-02-27 03:49:40.410000+00:00,1772164200,2026-02-27T04:00:00.000Z,-4.0,-6.0,240,5.0,10+,1007.9,0,METAR,METAR KCWA 270350Z 24005KT 10SM BKN100 M04/M06 A2976,44.7795,-89.671,387,Mosinee/C Wisconsin Arpt,BKN,"[{'cover': 'BKN', 'base': 10000}]",VFR,,,,,,,,,,"Mosinee/C Wisconsin Arpt, WI, US",US,United States,-7.84256052199213
792,KCWI,2026-02-27 04:00:36.542000+00:00,1772164560,2026-02-27T04:00:00.000Z,-1.1,-2.8,260,4.0,10+,1012.6,70,METAR,METAR KCWI 270356Z AUTO 26004KT 10SM CLR M01/M03 A2990 RMK AO2 SLP138 T10111028 FZRANO,41.8295,-90.3328,212,Clinton Muni,CLR,[],VFR,,,1013.8,,,,,,,"Clinton Muni, IA, US",US,United States,-3.809330460583573
847,KCXO,2026-02-27 03:58:40.473000+00:00,1772164380,2026-02-27T04:00:00.000Z,20.0,18.3,0,0.0,8,1011.9,6,METAR,METAR KCXO 270353Z AUTO 00000KT 8SM SCT031 OVC060 20/18 A2988 RMK AO2 SLP114 T02000183,30.3611,-95.4176,69,Conroe/Executive Arpt,OVC,"[{'cover': 'SCT', 'base': 3100}, {'cover': 'OVC', 'base': 6000}]",VFR,,,1011.4,,,,,,,"Conroe/Executive Arpt, TX, US",US,United States,25.556666666666672
824,KCXP,2026-02-27 04:00:27.242000+00:00,1772164500,2026-02-27T04:00:00.000Z,12.0,4.0,0,0.0,10+,1026.2,6,METAR,METAR KCXP 270355Z AUTO 00000KT 10SM CLR 12/04 A3030 RMK AO2,39.1905,-119.7319,1431,Carson City Arpt,CLR,[],VFR,,,,,,,,,,"Carson City Arpt, NV, US",US,United States,20.58466666666667
1348,KCXY,2026-02-27 04:00:19.133000+00:00,1772164560,2026-02-27T04:00:00.000Z,-1.7,-5.0,240,3.0,10+,1014.6,6,METAR,METAR KCXY 270356Z AUTO 24003KT 10SM FEW100 M02/M05 A2996 RMK AO2 SLP150 T10171050,40.2184,-76.8552,102,Harrisburg/Capital City Arpt,FEW,"[{'cover': 'FEW', 'base': 10000}]",VFR,,,1015.0,,,,,,,"Harrisburg/Capital City Arpt, PA, US",US,United States,-3.763812251015158
865,KCYS,2026-02-27 03:58:24.393000+00:00,1772164380,2026-02-27T04:00:00.000Z,7.2,-10.0,270,22.0,10+,1015.7,4,METAR,METAR KCYS 270353Z 27022G34KT 10SM CLR 07/M10 A2999 RMK AO2 PK WND 26042/0336 SLP131 T00721100,41.1579,-104.8081,1868,Cheyenne Rgnl,CLR,[],VFR,34.0,,1013.1,,,,,,,"Cheyenne Rgnl, WY, US",US,United States,2.202587097432149
802,KCZT,2026-02-27 04:00:11.322000+00:00,1772164500,2026-02-27T04:00:00.000Z,25.0,2.0,60,3.0,10+,1010.2,6,METAR,METAR KCZT 270355Z AUTO 06003KT 10SM CLR 25/02 A2983 RMK AO2,28.5204,-99.8192,176,Carrizo Springs Arpt,CLR,[],VFR,,,,,,,,,,"Carrizo Springs Arpt, TX, US",US,United States,26.74572557276772
804,KDAA,2026-02-27 03:58:34.437000+00:00,1772164500,2026-02-27T04:00:00.000Z,5.5,4.3,0,0.0,10+,1014.3,14,METAR,METAR KDAA 270355Z AUTO 00000KT 10SM SCT070 06/04 A2995 RMK AO2 SLP145 T00550043 $,38.714,-77.178,17,Fort Belvoir/Davison,SCT,"[{'cover': 'SCT', 'base': 7000}]",VFR,,,1014.5,,,,,,,"Fort Belvoir/Davison, VA, US",US,United States,16.544916666666666
837,KDAB,2026-02-27 03:58:13.406000+00:00,1772164380,2026-02-27T04:00:00.000Z,17.8,14.4,180,4.0,10+,1016.7,4,METAR,METAR KDAB 270353Z 18004KT 10SM FEW200 18/14 A3002 RMK AO2 SLP166 T01780144,29.1735,-81.0719,8,Daytona Beach Intl,FEW,"[{'cover': 'FEW', 'base': 20000}]",VFR,,,1016.6,,,,,,,"Daytona Beach Intl, FL, US",US,United States,18.251305699031914
894,KDAG,2026-02-27 03:54:25.571000+00:00,1772164200,2026-02-27T04:00:00.000Z,21.1,8.9,230,6.0,10+,1019.0,6,METAR,METAR KDAG 270350Z AUTO 23006KT 10SM CLR 21/09 A3009 RMK AO2 SLP172 T02110089,34.8537,-116.787,584,Barstow/Daggett Cnty,CLR,[],VFR,,,1017.2,,,,,,,"Barstow/Daggett Cnty, CA, US",US,United States,21.825870002229212
864,KDAL,2026-02-27 03:58:39.920000+00:00,1772164380,2026-02-27T04:00:00.000Z,19.4,4.4,30,3.0,10+,1013.3,4,METAR,METAR KDAL 270353Z 03003KT 10SM CLR 19/04 A2992 RMK AO2 SLP127 T01940044,32.8384,-96.8358,148,Dallas/Love Fld,CLR,[],VFR,,,1012.7,,,,,,,"Dallas/Love Fld, TX, US",US,United States,20.346721385008017
848,KDAN,2026-02-27 03:56:30.148000+00:00,1772164380,2026-02-27T04:00:00.000Z,9.4,8.9,40,8.0,10+,1014.6,6,METAR,METAR KDAN 270353Z AUTO 04008KT 10SM OVC003 09/09 A2996 RMK AO2 SLP139 T00940089,36.5729,-79.335,170,Danville Rgnl,OVC,"[{'cover': 'OVC', 'base': 300}]",LIFR,,,1013.9,,,,,,,"Danville Rgnl, VA, US",US,United States,7.212461182646479
798,KDAY,2026-02-27 04:00:19.620000+00:00,1772164560,2026-02-27T04:00:00.000Z,3.3,-5.0,0,0.0,10+,1014.3,4,METAR,METAR KDAY 270356Z 00000KT 10SM FEW070 BKN090 03/M05 A2995 RMK AO2 SLP150 T00331050,39.9064,-84.2185,303,Dayton/Cox Intl,BKN,"[{'cover': 'FEW', 'base': 7000}, {'cover': 'BKN', 'base': 9000}]",VFR,,,1015.0,,,,,,,"Dayton/Cox Intl, OH, US",US,United States,15.177616666666665
805,KDBN,2026-02-27 03:58:33.410000+00:00,1772164500,2026-02-27T04:00:00.000Z,16.0,16.0,190,3.0,10+,1013.6,6,METAR,METAR KDBN 270355Z AUTO 19003KT 10SM BKN050 16/16 A2993 RMK AO2 T01600160,32.5632,-82.9855,90,Dublin/Barron Arpt,BKN,"[{'cover': 'BKN', 'base': 5000}]",VFR,,,,,,,,,,"Dublin/Barron Arpt, GA, US",US,United States,16.46161169958247
856,KDBQ,2026-02-27 03:58:39.417000+00:00,1772164380,2026-02-27T04:00:00.000Z,-2.2,-3.9,220,5.0,8,1011.6,12,METAR,METAR KDBQ 270353Z 22005KT 8SM CLR M02/M04 A2987 RMK AO2 SLP127 T10221039 $,42.3984,-90.7091,317,Dubuque Rgnl,CLR,[],VFR,,,1012.7,,,,,,,"Dubuque Rgnl, IA, US",US,United States,-5.705842469701243
875,KDCA,2026-02-27 03:56:17.573000+00:00,1772164320,2026-02-27T04:00:00.000Z,4.4,2.8,0,0.0,10+,1015.0,12,METAR,METAR KDCA 270352Z 00000KT 10SM FEW070 SCT095 04/03 A2997 RMK AO2 SLP149 T00440028 $,38.8472,-77.0345,4,Washington/Reagan-National Arpt,SCT,"[{'cover': 'FEW', 'base': 7000}, {'cover': 'SCT', 'base': 9500}]",VFR,,,1014.9,,,,,,,"Washington/Reagan-National Arpt, VA, US",US,United States,15.861266666666666
849,KDCU,2026-02-27 03:56:30.185000+00:00,1772164380,2026-02-27T04:00:00.000Z,13.9,11.7,40,6.0,10+,1011.3,14,METAR,METAR KDCU 270353Z AUTO 04006KT 10SM SCT044 BKN095 BKN120 14/12 A2986 RMK AO2 RAE0254 SLP109 P0000 T01390117 $,34.658,-86.9434,180,Decatur/Pryor Fld,BKN,"[{'cover': 'SCT', 'base': 4400}, {'cover': 'BKN', 'base': 9500}, {'cover': 'BKN', 'base': 12000}]",VFR,,,1010.9,0.005,,,,,,"Decatur/Pryor Fld, AL, US",US,United States,13.158459962090818
873,KDDC,2026-02-27 03:56:21.054000+00:00,1772164320,2026-02-27T04:00:00.000Z,7.8,-4.4,220,3.0,7,1015.0,6,METAR,METAR KDDC 270352Z AUTO 22003KT 7SM CLR 08/M04 A2997 RMK AO2 SLP146 T00781044,37.7711,-99.9692,786,Dodge City Arpt,CLR,[],VFR,,,1014.6,,,,,,,"Dodge City Arpt, KS, US",US,United States,7.091641281791476
830,KDEC,2026-02-27 03:58:37.604000+00:00,1772164440,2026-02-27T04:00:00.000Z,5.0,2.2,0,0.0,10+,1012.6,4,METAR,METAR KDEC 270354Z 00000KT 10SM CLR 05/02 A2990 RMK AO2 SLP130 T00500022,39.8308,-88.8719,205,Decatur Arpt,CLR,[],VFR,,,1013.0,,,,,,,"Decatur Arpt, IL, US",US,United States,16.234166666666667
823,KDEH,2026-02-27 04:00:26.850000+00:00,1772164500,2026-02-27T04:00:00.000Z,-1.0,0.0,240,5.0,10+,1009.6,6,METAR,METAR KDEH 270355Z AUTO 24005KT 10SM CLR M01/M00 A2981 RMK AO2,43.2755,-91.7433,348,Decorah Muni,CLR,[],VFR,,,,,,,,,,"Decorah Muni, IA, US",US,United States,-4.281363768173983
863,KDEN,2026-02-27 03:58:40.492000+00:00,1772164380,2026-02-27T04:00:00.000Z,6.1,-10.6,200,7.0,10+,1016.7,4,METAR,METAR KDEN 270353Z 20007KT 10SM FEW200 06/M11 A3002 RMK AO2 SLP138 T00611106,39.8466,-104.6562,1656,Denver Intl,FEW,"[{'cover': 'FEW', 'base': 20000}]",VFR,,,1013.8,,,,,,,"Denver Intl, CO, US",US,United States,3.4404236417058107
855,KDET,2026-02-27 03:58:41.661000+00:00,1772164380,2026-02-27T04:00:00.000Z,-2.8,-8.3,200,4.0,10+,1013.3,4,METAR,METAR KDET 270353Z 20004KT 10SM CLR M03/M08 A2992 RMK AO2 SLP144 T10281083,42.4072,-83.009,190,Detroit/C Young Arpt,CLR,[],VFR,,,1014.4,,,,,,,"Detroit/C Young Arpt, MI, US",US,United States,-5.793620485522525
850,KDFI,2026-02-27 03:58:42.061000+00:00,1772164380,2026-02-27T04:00:00.000Z,-3.3,-7.2,170,3.0,10+,1013.6,6,METAR,METAR KDFI 270353Z AUTO 17003KT 10SM CLR M03/M07 A2993 RMK AO2 SLP144 T10331072,41.3357,-84.4285,215,Defiance Mem Arpt,CLR,[],VFR,,,1014.4,,,,,,,"Defiance Mem Arpt, OH, US",US,United States,-5.592099161803649
851,KDFW,2026-02-27 03:58:24.963000+00:00,1772164380,2026-02-27T04:00:00.000Z,18.3,3.9,360,7.0,10+,1013.3,4,METAR,METAR KDFW 270353Z 36007KT 10SM CLR 18/04 A2992 RMK AO2 SLP125 T01830039,32.8974,-97.022,168,Dallas-Ft Worth Intl,CLR,[],VFR,,,1012.5,,,,,,,"Dallas-Ft Worth Intl, TX, US",US,United States,18.30426449702276
862,KDGW,2026-02-27 03:58:27.897000+00:00,1772164380,2026-02-27T04:00:00.000Z,6.7,-8.9,270,6.0,10+,1013.6,14,METAR,METAR KDGW 270353Z AUTO 27006KT 10SM CLR 07/M09 A2993 RMK AO2 SLP126 T00671089 $,42.796,-105.38,1503,Douglas/Converse Cnty,CLR,[],VFR,,,1012.6,,,,,,,"Douglas/Converse Cnty, WY, US",US,United States,4.4910499219524285
861,KDHN,2026-02-27 03:56:30.314000+00:00,1772164380,2026-02-27T04:00:00.000Z,17.2,16.1,200,8.0,10+,1014.6,6,METAR,METAR KDHN 270353Z AUTO 20008KT 10SM FEW095 17/16 A2996 RMK AO1 SLP141 T01720161,31.3177,-85.4432,113,Dothan Rgnl,FEW,"[{'cover': 'FEW', 'base': 9500}]",VFR,,,1014.1,,,,,,,"Dothan Rgnl, AL, US",US,United States,16.81610564102587
839,KDHT,2026-02-27 03:58:23.929000+00:00,1772164380,2026-02-27T04:00:00.000Z,10.6,-2.2,110,9.0,10+,1017.4,6,METAR,METAR KDHT 270353Z AUTO 11009KT 10SM CLR 11/M02 A3004 RMK AO2 SLP147 T01061022,36.0252,-102.5487,1217,Dalhart Muni,CLR,[],VFR,,,1014.7,,,,,,,"Dalhart Muni, TX, US",US,United States,8.480212775082757
799,KDIK,2026-02-27 04:00:19.657000+00:00,1772164560,2026-02-27T04:00:00.000Z,2.8,-6.1,240,13.0,10+,1004.1,14,METAR,METAR KDIK 270356Z AUTO 24013G18KT 10SM CLR 03/M06 A2965 RMK AO2 SLP056 T00281061 $,46.7997,-102.7971,788,Dickinson/Roosevelt,CLR,[],VFR,18.0,,1005.6,,,,,,,"Dickinson/Roosevelt , ND, US",US,United States,-2.1884237653301617
835,KDKK,2026-02-27 03:58:41.699000+00:00,1772164380,2026-02-27T04:00:00.000Z,-6.7,-8.3,0,0.0,10+,1014.3,6,METAR,METAR KDKK 270353Z AUTO 00000KT 10SM BKN120 M07/M08 A2995 RMK AO2 SLP154 T10671083,42.4932,-79.2762,205,Dunkirk/Chautauqua Cnty,BKN,"[{'cover': 'BKN', 'base': 12000}]",VFR,,,1015.4,,,,,,,"Dunkirk/Chautauqua Cnty, NY, US",US,United States,8.96261666666667
817,KDLF,2026-02-27 03:58:16.230000+00:00,1772164500,2026-02-27T04:00:00.000Z,22.1,0.6,10,9.0,10+,1009.6,14,METAR,METAR KDLF 270355Z AUTO 01009KT 10SM CLR 22/01 A2981 RMK AO2 SLP083 T02210006 $,29.3666,-100.7847,328,Laughlin AFB,CLR,[],VFR,,,1008.3,,,,,,,"Laughlin AFB, TX, US",US,United States,22.772827726251705
819,KDLH,2026-02-27 04:00:32.784000+00:00,1772164500,2026-02-27T04:00:00.000Z,-4.4,-7.2,240,7.0,10+,1005.2,12,METAR,METAR KDLH 270355Z 24007KT 10SM FEW075 M04/M07 A2968 RMK AO2 SLP074 T10441072 $,46.8435,-92.1866,434,Duluth Intl Arpt,FEW,"[{'cover': 'FEW', 'base': 7500}]",VFR,,,1007.4,,,,,,,"Duluth Intl Arpt, MN, US",US,United States,-9.352226274755502
844,KDLN,2026-02-27 03:58:24.433000+00:00,1772164380,2026-02-27T04:00:00.000Z,3.3,-10.6,200,10.0,10+,1018.7,6,METAR,METAR KDLN 270353Z AUTO 20010KT 10SM CLR 03/M11 A3008 RMK AO2 SLP190 T00331106,45.2584,-112.5546,1586,Dillon Arpt,CLR,[],VFR,,,1019.0,,,,,,,"Dillon Arpt, MT, US",US,United States,-0.8605915213471249
852,KDLS,2026-02-27 03:58:24.982000+00:00,1772164380,2026-02-27T04:00:00.000Z,9.4,-5.0,VRB,4.0,10+,1024.1,6,METAR,METAR KDLS 270353Z AUTO VRB04KT 10SM CLR 09/M05 A3024 RMK AO2 SLP241 T00941050,45.619,-121.1657,71,The Dalles Muni,CLR,[],VFR,,,1024.1,,,,,,,"The Dalles Muni, OR, US",US,United States,8.446578516980587
814,KDMA,2026-02-27 03:58:47.164000+00:00,1772164500,2026-02-27T04:00:00.000Z,23.0,4.0,270,9.0,10+,1016.0,44,METAR,METAR KDMA 270355Z 27009KT 10SM CLR 23/04 A3000 RMK AO2A SLPNO WND DATA ESTMD ALSTG ESTMD RVRNO TSNO $,32.165,-110.887,804,Tucson/Davis AFB,CLR,[],VFR,,,,,,,,,,"Tucson/Davis AFB, AZ, US",US,United States,23.89138020069102
840,KDMN,2026-02-27 03:58:39.833000+00:00,1772164380,2026-02-27T04:00:00.000Z,18.3,1.7,260,8.0,10+,1017.4,6,METAR,METAR KDMN 270353Z AUTO 26008KT 10SM CLR 18/02 A3004 RMK AO2 SLP117 T01830017,32.2592,-107.7206,1310,Deming Muni,CLR,[],VFR,,,1011.7,,,,,,,"Deming Muni, NM, US",US,United States,18.170465756951174
860,KDMO,2026-02-27 03:56:37.972000+00:00,1772164380,2026-02-27T04:00:00.000Z,9.4,-2.2,170,5.0,,1014.3,14,METAR,METAR KDMO 270353Z AUTO 17005KT CLR 09/M02 A2995 RMK AO2 SLP141 T00941022 $,38.712,-93.1747,271,Sedalia Mem,CLR,[],,,,1014.1,,,,,,,"Sedalia Mem, MO, US",US,United States,8.06411831172894
841,KDNL,2026-02-27 03:56:37.996000+00:00,1772164380,2026-02-27T04:00:00.000Z,15.6,15.6,150,6.0,9,1013.6,6,METAR,METAR KDNL 270353Z AUTO 15006KT 9SM -RA FEW003 OVC013 16/16 A2993 RMK AO2 SLP133 P0011 T01560156,33.4668,-82.0385,126,Augusta/Daniel Fld,OVC,"[{'cover': 'FEW', 'base': 300}, {'cover': 'OVC', 'base': 1300}]",MVFR,,-RA,1013.3,0.11,,,,,,"Augusta/Daniel Fld, GA, US",US,United States,15.204931777123496
811,KDNN,2026-02-27 03:58:21.385000+00:00,1772164500,2026-02-27T04:00:00.000Z,15.1,15.1,0,0.0,8,1012.6,6,METAR,METAR KDNN 270355Z AUTO 00000KT 8SM -RA OVC008 15/15 A2990 RMK AO2 LTG DSNT S AND SW RAB0351 P0000 T01510151,34.727,-84.8733,216,Dalton Muni,OVC,"[{'cover': 'OVC', 'base': 800}]",IFR,,-RA,,0.005,,,,,,"Dalton Muni, GA, US",US,United States,22.511316666666673
822,KDNS,2026-02-27 04:00:25.633000+00:00,1772164500,2026-02-27T04:00:00.000Z,1.0,0.0,130,3.0,10+,1011.6,6,METAR,METAR KDNS 270355Z AUTO 13003KT 10SM CLR 01/M00 A2987 RMK AO2,41.9842,-95.38,382,Denison Muni,CLR,[],VFR,,,,,,,,,,"Denison Muni, IA, US",US,United States,-0.6785780890595896
807,KDNV,2026-02-27 04:00:34.253000+00:00,1772164500,2026-02-27T04:00:00.000Z,3.8,0.2,140,3.0,10+,1013.6,6,METAR,METAR KDNV 270355Z AUTO 14003KT 10SM BKN070 04/00 A2993 RMK AO2 T00380002,40.2032,-87.5897,208,Danville/Vermillion Rgnl,BKN,"[{'cover': 'BKN', 'base': 7000}]",VFR,,,,,,,,,,"Danville/Vermillion Rgnl, IL, US",US,United States,2.520924004820261
816,KDOV,2026-02-27 03:58:27.672000+00:00,1772164500,2026-02-27T04:00:00.000Z,3.6,1.0,240,4.0,10+,1014.3,6,METAR,METAR KDOV 270355Z AUTO 24004KT 10SM OVC075 04/01 A2995 RMK AO2 SLP146 T00360010,39.13,-75.465,6,Dover AFB,OVC,"[{'cover': 'OVC', 'base': 7500}]",VFR,,,1014.6,,,,,,,"Dover AFB, DE, US",US,United States,1.6766478436594352
877,KDPA,2026-02-27 03:56:26.287000+00:00,1772164320,2026-02-27T04:00:00.000Z,-1.7,-3.3,170,3.0,10+,1011.6,4,METAR,METAR KDPA 270352Z 17003KT 10SM CLR M02/M03 A2987 RMK AO2 SLP124 T10171033,41.8964,-88.2512,228,Dupage Cnty Arpt,CLR,[],VFR,,,1012.4,,,,,,,"Dupage Cnty Arpt, IL, US",US,United States,-3.763812251015158
869,KDRA,2026-02-27 03:58:06.720000+00:00,1772164380,2026-02-27T04:00:00.000Z,15.6,3.3,60,3.0,10+,1020.7,6,METAR,METAR KDRA 270353Z AUTO 06003KT 10SM CLR 16/03 A3014 RMK AO2 SLP183 T01560033,36.621,-116.029,988,Mercury/Desert Rock,CLR,[],VFR,,,1018.3,,,,,,,"Mercury/Desert Rock, NV, US",US,United States,16.004539971885354
810,KDRI,2026-02-27 03:58:21.406000+00:00,1772164500,2026-02-27T04:00:00.000Z,17.3,17.3,0,0.0,8,1011.9,14,METAR,METAR KDRI 270355Z AUTO 00000KT 8SM -RA CLR 17/17 A2988 RMK AO2 P0000 T01730173 $,30.8344,-93.3358,59,Deridder/Beauregard Rgnl,CLR,[],VFR,,-RA,,0.005,,,,,,"Deridder/Beauregard Rgnl, LA, US",US,United States,23.878616666666673
803,KDRM,2026-02-27 03:58:38.572000+00:00,1772164500,2026-02-27T04:00:00.000Z,-2.3,-3.2,210,5.0,10+,1007.9,6,METAR,METAR KDRM 270355Z AUTO 21005KT 10SM OVC009 M02/M03 A2976 RMK AO2 T10231032,46.009,-83.743,201,Drummond Island Arpt,OVC,"[{'cover': 'OVC', 'base': 900}]",IFR,,,,,,,,,,"Drummond Island Arpt, MI, US",US,United States,-5.824549028161847
859,KDRO,2026-02-27 03:58:40.519000+00:00,1772164380,2026-02-27T04:00:00.000Z,7.2,-9.4,160,3.0,10+,1021.8,6,METAR,METAR KDRO 270353Z AUTO 16003KT 10SM CLR 07/M09 A3017 RMK AO2 SLP195 T00721094,37.1431,-107.7602,2021,Durango/La Plata Cnty,CLR,[],VFR,,,1019.5,,,,,,,"Durango/La Plata Cnty, CO, US",US,United States,6.406033690245801
836,KDRT,2026-02-27 03:58:39.940000+00:00,1772164380,2026-02-27T04:00:00.000Z,25.6,2.2,20,6.0,10+,1010.9,6,METAR,METAR KDRT 270353Z AUTO 02006KT 10SM CLR 26/02 A2985 RMK AO2 SLP097 T02560022,29.3784,-100.927,303,Del Rio Intl,CLR,[],VFR,,,1009.7,,,,,,,"Del Rio Intl, TX, US",US,United States,27.243001277315702
834,KDSM,2026-02-27 03:58:33.430000+00:00,1772164440,2026-02-27T04:00:00.000Z,6.1,-5.0,0,0.0,10+,1011.6,4,METAR,METAR KDSM 270354Z 00000KT 10SM CLR 06/M05 A2987 RMK AO2 SLP122 T00611050,41.5339,-93.6531,286,Des Moines Intl,CLR,[],VFR,,,1012.2,,,,,,,"Des Moines Intl, IA, US",US,United States,16.917816666666667
1098,KDSV,2026-02-27 03:58:21.425000+00:00,1772164440,2026-02-27T04:00:00.000Z,-6.1,-10.0,160,4.0,10+,1014.3,6,METAR,METAR KDSV 270354Z AUTO 16004KT 10SM CLR M06/M10 A2995 RMK AO2 SLP162 T10611100,42.5699,-77.7143,195,Dansville Muni,CLR,[],VFR,,,1016.2,,,,,,,"Dansville Muni, NY, US",US,United States,-9.645477592756983
1055,KDTA,2026-02-27 04:00:37.814000+00:00,1772164500,2026-02-27T04:00:00.000Z,7.0,-2.0,70,10.0,10+,1024.1,6,METAR,METAR KDTA 270355Z AUTO 07010KT 10SM CLR 07/M02 A3024 RMK AO1,39.3879,-112.5041,1452,Delta Muni,CLR,[],VFR,,,,,,,,,,"Delta Muni, UT, US",US,United States,3.776985346294433
1089,KDTL,2026-02-27 04:00:36.567000+00:00,1772164500,2026-02-27T04:00:00.000Z,-3.2,-3.2,180,4.0,10+,1003.8,6,METAR,METAR KDTL 270355Z AUTO 18004KT 10SM FEW120 M03/M03 A2964 RMK AO2 T10321032,46.8286,-95.8857,425,Detroit Lakes Arpt,FEW,"[{'cover': 'FEW', 'base': 12000}]",VFR,,,,,,,,,,"Detroit Lakes Arpt, MN, US",US,United States,-6.260512256096401
1136,KDTN,2026-02-27 03:56:38.062000+00:00,1772164380,2026-02-27T04:00:00.000Z,18.3,13.9,0,0.0,10+,1011.9,4,METAR,METAR KDTN 270353Z 00000KT 10SM CLR 18/14 A2988 RMK AO2 SLP115 T01830139,32.5429,-93.745,53,Shreveport/Downtown Arpt,CLR,[],VFR,,,1011.5,,,,,,,"Shreveport/Downtown Arpt, LA, US",US,United States,24.50011666666667
842,KDTS,2026-02-27 03:58:22.587000+00:00,1772164380,2026-02-27T04:00:00.000Z,19.4,17.8,190,6.0,10+,1013.6,6,METAR,METAR KDTS 270353Z AUTO 19006KT 10SM CLR 19/18 A2993 RMK AO2 SLP133 T01940178,30.3933,-86.4674,5,Destin Arpt,CLR,[],VFR,,,1013.3,,,,,,,"Destin Arpt, FL, US",US,United States,19.779398187196534
1134,KDTW,2026-02-27 03:58:24.743000+00:00,1772164380,2026-02-27T04:00:00.000Z,-3.3,-5.6,190,5.0,10+,1013.3,4,METAR,METAR KDTW 270353Z 19005KT 10SM CLR M03/M06 A2992 RMK AO2 SLP141 T10331056,42.2311,-83.3312,192,Detroit/Metro Wayne Cnty,CLR,[],VFR,,,1014.1,,,,,,,"Detroit/Metro Wayne Cnty, MI, US",US,United States,-7.011614612767898
1076,KDUA,2026-02-27 04:00:23.644000+00:00,1772164500,2026-02-27T04:00:00.000Z,15.0,2.0,10,6.0,10+,1015.3,6,METAR,METAR KDUA 270355Z AUTO 01006KT 10SM CLR 15/02 A2998 RMK AO2,33.9427,-96.3967,209,Durant/Eaker Fld,CLR,[],VFR,,,,,,,,,,"Durant/Eaker Fld, OK, US",US,United States,14.482647607111959
1081,KDUC,2026-02-27 04:00:23.674000+00:00,1772164500,2026-02-27T04:00:00.000Z,13.0,-1.0,0,0.0,10+,1015.0,6,METAR,METAR KDUC 270355Z AUTO 00000KT 10SM CLR 13/M01 A2997 RMK AO2,34.4778,-97.9616,339,Duncan/Halliburton Fld,CLR,[],VFR,,,,,,,,,,"Duncan/Halliburton Fld, OK, US",US,United States,21.206166666666665
1031,KDUG,2026-02-27 04:02:17.337000+00:00,1772164560,2026-02-27T04:00:00.000Z,18.3,1.7,340,11.0,10+,1018.4,38,METAR,METAR KDUG 270356Z AUTO 34011KT 10SM CLR 18/02 A3007 RMK AO2 SLP134 T01830017 TSNO,31.4725,-109.6022,1260,Douglas/Bisbee Intl,CLR,[],VFR,,,1013.4,,,,,,,"Douglas/Bisbee Intl, AZ, US",US,United States,17.839595844174212
1126,KDUJ,2026-02-27 03:58:42.769000+00:00,1772164380,2026-02-27T04:00:00.000Z,-2.8,-12.2,0,0.0,10+,1012.6,6,METAR,METAR KDUJ 270353Z AUTO 00000KT 10SM CLR M03/M12 A2990 RMK AO2 SLP147 T10281122,41.1795,-78.8933,552,Du Bois Rgnl,CLR,[],VFR,,,1014.7,,,,,,,"Du Bois Rgnl, PA, US",US,United States,11.38646666666667
1024,KDVL,2026-02-27 04:00:32.377000+00:00,1772164560,2026-02-27T04:00:00.000Z,-3.9,-4.4,0,0.0,10+,1001.8,70,METAR,METAR KDVL 270356Z AUTO 00000KT 10SM CLR M04/M04 A2958 RMK AO2 SLP044 T10391044 FZRANO,48.1136,-98.9034,439,Devils Lake Rgnl,CLR,[],VFR,,,1004.4,,,,,,,"Devils Lake Rgnl, ND, US",US,United States,10.702816666666669
1137,KDVN,2026-02-27 03:56:26.039000+00:00,1772164320,2026-02-27T04:00:00.000Z,-1.1,-2.8,0,0.0,8,1012.3,6,METAR,METAR KDVN 270352Z AUTO 00000KT 8SM CLR M01/M03 A2989 RMK AO2 SLP126 T10111028,41.6133,-90.5948,227,Davenport Muni,CLR,[],VFR,,,1012.6,,,,,,,"Davenport Muni, IA, US",US,United States,12.443016666666667
2676,KDVO,2026-02-27 04:00:24.197000+00:00,1772164500,2026-02-27T04:00:00.000Z,16.0,9.0,350,4.0,10+,1021.8,6,METAR,METAR KDVO 270355Z AUTO 35004KT 10SM CLR 16/09 A3017 RMK AO2,38.1417,-122.5547,1,Novato/Gnoss Fld,CLR,[],VFR,,,,,,,,,,"Novato/Gnoss Fld, CA, US",US,United States,16.15029273144948
2709,KDVP,2026-02-27 03:58:42.100000+00:00,1772164380,2026-02-27T04:00:00.000Z,2.3,-0.5,220,8.0,10+,1008.9,6,METAR,METAR KDVP 270353Z AUTO 22008KT 10SM 02/00 A2979 RMK AO2 T00231005,43.9905,-95.781,493,Slayton Muni,,,,,,,,,,,,,"Slayton Muni, MN, US",US,United States,-1.5293177474168198
1102,KDVT,2026-02-27 03:58:23.380000+00:00,1772164380,2026-02-27T04:00:00.000Z,24.4,6.1,130,3.0,10+,1014.0,4,METAR,METAR KDVT 270353Z 13003KT 10SM CLR 24/06 A2994 RMK AO2 SLP119 T02440061,33.6902,-112.0662,454,Phoenix/Deer Valley Arpt,CLR,[],VFR,,,1011.9,,,,,,,"Phoenix/Deer Valley Arpt, AZ, US",US,United States,26.060117981222042
1104,KDWH,2026-02-27 03:58:24.451000+00:00,1772164380,2026-02-27T04:00:00.000Z,22.2,18.9,0,0.0,10+,1011.3,4,METAR,METAR KDWH 270353Z 00000KT 10SM FEW025 BKN041 OVC055 22/19 A2986 RMK AO2 SLP110 T02220189,30.068,-95.5563,46,Houston/Hooks Mem,OVC,"[{'cover': 'FEW', 'base': 2500}, {'cover': 'BKN', 'base': 4100}, {'cover': 'OVC', 'base': 5500}]",VFR,,,1011.0,,,,,,,"Houston/Hooks Mem, TX, US",US,United States,26.923966666666672
1135,KDXR,2026-02-27 03:58:42.792000+00:00,1772164380,2026-02-27T04:00:00.000Z,-0.6,-7.2,50,4.0,10+,1014.6,14,METAR,METAR KDXR 270353Z AUTO 05004KT 10SM CLR M01/M07 A2996 RMK AO2 SLP147 T10061072 $,41.3721,-73.4834,138,Danbury Muni,CLR,[],VFR,,,1014.7,,,,,,,"Danbury Muni, CT, US",US,United States,-3.225715747366225
1093,KDYL,2026-02-27 03:58:21.441000+00:00,1772164440,2026-02-27T04:00:00.000Z,2.8,-9.4,360,3.0,10+,1014.0,6,METAR,METAR KDYL 270354Z AUTO 36003KT 10SM SCT110 03/M09 A2994 RMK AO2 SLP142 T00281094,40.3302,-75.1228,121,Doylestown Arpt,SCT,"[{'cover': 'SCT', 'base': 11000}]",VFR,,,1014.2,,,,,,,"Doylestown Arpt, PA, US",US,United States,1.3782446855774566
1060,KDYS,2026-02-27 03:58:23.113000+00:00,1772164500,2026-02-27T04:00:00.000Z,16.8,0.4,70,4.0,10+,1014.6,14,METAR,METAR KDYS 270355Z AUTO 07004KT 10SM CLR 17/00 A2996 RMK AO2 SLP132 T01680004 $,32.406,-99.85,544,Abilene/Dyess AFB,CLR,[],VFR,,,1013.2,,,,,,,"Abilene/Dyess AFB, TX, US",US,United States,17.084076272597233
1066,KEAN,2026-02-27 04:02:18.614000+00:00,1772164500,2026-02-27T04:00:00.000Z,10.5,-9.3,280,23.0,10+,1013.6,6,METAR,METAR KEAN 270355Z AUTO 28023G34KT 10SM CLR 11/M09 A2993 RMK AO2 T01051093,42.0563,-104.9386,1452,Wheatland/Phifer Fld,CLR,[],VFR,34.0,,,,,,,,,"Wheatland/Phifer Fld, WY, US",US,United States,6.5261543698152575
1037,KEAR,2026-02-27 04:00:32.469000+00:00,1772164560,2026-02-27T04:00:00.000Z,6.1,-3.9,200,9.0,10+,1011.9,6,METAR,METAR KEAR 270356Z AUTO 20009KT 10SM CLR 06/M04 A2988 RMK AO2 SLP127 T00611039,40.7193,-99.0086,649,Kearney Rgnl,CLR,[],VFR,,,1012.7,,,,,,,"Kearney Rgnl, NE, US",US,United States,2.887450402886217
1087,KEAT,2026-02-27 04:00:37.878000+00:00,1772164500,2026-02-27T04:00:00.000Z,7.2,-1.7,340,5.0,10+,1020.4,6,METAR,METAR KEAT 270355Z AUTO 34005KT 10SM CLR 07/M02 A3013 RMK AO2 SLP209 T00721017,47.3975,-120.2013,375,Wenatchee/Pangborn Mem,CLR,[],VFR,,,1020.9,,,,,,,"Wenatchee/Pangborn Mem, WA, US",US,United States,5.45257402559563
1041,KEAU,2026-02-27 04:00:26.875000+00:00,1772164560,2026-02-27T04:00:00.000Z,0.0,-2.2,180,4.0,10+,1008.2,6,METAR,METAR KEAU 270356Z AUTO 18004KT 10SM CLR 00/M02 A2977 RMK AO2 SLP092 T00001022,44.8665,-91.4881,271,Eau Claire/Chippewa Valley Rgnl,CLR,[],VFR,,,1009.2,,,,,,,"Eau Claire/Chippewa Valley Rgnl, WI, US",US,United States,-2.525378091505422
1077,KEBS,2026-02-27 04:00:13.591000+00:00,1772164500,2026-02-27T04:00:00.000Z,1.0,0.0,230,6.0,10+,1010.2,6,METAR,METAR KEBS 270355Z AUTO 23006KT 10SM CLR 01/00 A2983 RMK AO2,42.4372,-93.8725,340,Webster City Muni,CLR,[],VFR,,,,,,,,,,"Webster City Muni, IA, US",US,United States,-2.370649693157133
1096,KECG,2026-02-27 03:58:21.456000+00:00,1772164440,2026-02-27T04:00:00.000Z,8.3,8.3,360,13.0,10+,1014.0,6,METAR,METAR KECG 270354Z AUTO 36013KT 10SM OVC004 08/08 A2994 RMK AO2 RAE16 SLP139 P0001 T00830083,36.2572,-76.1716,2,Elizabeth City Rgnl,OVC,"[{'cover': 'OVC', 'base': 400}]",LIFR,,,1013.9,0.01,,,,,,"Elizabeth City Rgnl, NC, US",US,United States,4.854270279520484
1124,KECP,2026-02-27 03:56:38.256000+00:00,1772164380,2026-02-27T04:00:00.000Z,17.2,17.2,140,5.0,10+,1014.0,6,METAR,METAR KECP 270353Z AUTO 14005KT 10SM CLR 17/17 A2994 RMK AO2 SLP148 T01720172,30.3487,-85.7883,17,Panama City/NW Florida Beaches Intl,CLR,[],VFR,,,1014.8,,,,,,,"Panama City/NW Florida Beaches Intl, FL, US",US,United States,17.323229871656128
1090,KECS,2026-02-27 04:00:33.838000+00:00,1772164500,2026-02-27T04:00:00.000Z,5.0,-8.0,360,11.0,10+,1010.9,6,METAR,METAR KECS 270355Z AUTO 36011KT 10SM CLR 05/M08 A2985 RMK AO2,43.8845,-104.312,1273,Newcastle/Mondell Arpt,CLR,[],VFR,,,,,,,,,,"Newcastle/Mondell Arpt, WY, US",US,United States,1.0402430813723542
1043,KEDE,2026-02-27 03:58:47.356000+00:00,1772164500,2026-02-27T04:00:00.000Z,11.8,11.8,0,0.0,7,1014.0,6,METAR,METAR KEDE 270355Z AUTO 00000KT 7SM OVC009 12/12 A2994 RMK AO2 P0001 T01180118,36.0286,-76.5668,4,Edenton/Northeast Rgnl,OVC,"[{'cover': 'OVC', 'base': 900}]",IFR,,,,0.01,,,,,,"Edenton/Northeast Rgnl, NC, US",US,United States,20.460366666666673
1049,KEDN,2026-02-27 03:58:47.377000+00:00,1772164500,2026-02-27T04:00:00.000Z,17.5,16.0,190,4.0,10+,1013.3,6,METAR,METAR KEDN 270355Z AUTO 19004KT 10SM OVC100 18/16 A2992 RMK AO1 T01750160,31.299,-85.9,103,Enterprise Muni,OVC,"[{'cover': 'OVC', 'base': 10000}]",VFR,,,,,,,,,,"Enterprise Muni, AL, US",US,United States,17.90113687110151
1054,KEDW,2026-02-27 04:02:05.479000+00:00,1772164500,2026-02-27T04:00:00.000Z,18.5,10.3,290,6.0,40,1019.0,4,METAR,METAR KEDW 270355Z 29006KT 40SM FEW310 SCT380 19/10 A3009 RMK AO2A SLP178 T01850103,34.908,-117.874,698,Edwards AFB,SCT,"[{'cover': 'FEW', 'base': 31000}, {'cover': 'SCT', 'base': 38000}]",VFR,,,1017.8,,,,,,,"Edwards AFB, CA, US",US,United States,18.69597193217923
1035,KEED,2026-02-27 04:00:18.702000+00:00,1772164560,2026-02-27T04:00:00.000Z,26.1,2.2,320,8.0,10+,1016.0,6,METAR,METAR KEED 270356Z AUTO 32008KT 10SM CLR 26/02 A3000 RMK AO2 SLP134 T02610022,34.7678,-114.6184,271,Needles Arpt,CLR,[],VFR,,,1013.4,,,,,,,"Needles Arpt, CA, US",US,United States,27.774110215330577
1034,KEEN,2026-02-27 04:00:15.185000+00:00,1772164560,2026-02-27T04:00:00.000Z,-7.8,-10.0,10,3.0,10+,1014.3,70,METAR,METAR KEEN 270356Z AUTO 01003KT 10SM CLR M08/M10 A2995 RMK AO2 SLP151 T10781100 FZRANO,42.898,-72.2695,143,Keene/Hopkins Arpt,CLR,[],VFR,,,1015.1,,,,,,,"Keene/Hopkins Arpt, NH, US",US,United States,-10.73415609839627
1099,KEFD,2026-02-27 03:48:13.009000+00:00,1772164440,2026-02-27T04:00:00.000Z,20.0,19.0,70,4.0,5,1010.6,0,METAR,METAR KEFD 270354Z 07004KT 5SM BR FEW004 OVC040 20/19 A2984,29.606,-95.16,9,Houston/Ellington Arpt,OVC,"[{'cover': 'FEW', 'base': 400}, {'cover': 'OVC', 'base': 4000}]",MVFR,,BR,,,,,,,,"Houston/Ellington Arpt, TX, US",US,United States,20.819210437188218
1050,KEFK,2026-02-27 04:00:35.607000+00:00,1772164500,2026-02-27T04:00:00.000Z,-12.8,-15.7,0,0.0,10+,1014.3,6,METAR,METAR KEFK 270355Z AUTO 00000KT 10SM CLR M13/M16 A2995 RMK AO2 T11281157,44.8886,-72.2296,282,Newport/Northeast Kingdom Intl,CLR,[],VFR,,,,,,,,,,"Newport/Northeast Kingdom Intl, VT, US",US,United States,5.171466666666669
1033,KEGE,2026-02-27 04:00:33.058000+00:00,1772164560,2026-02-27T04:00:00.000Z,1.7,-5.0,120,4.0,10+,1024.5,78,METAR,METAR KEGE 270356Z AUTO 12004KT 10SM CLR 02/M05 A3025 RMK AO2 SLP229 T00171050 FZRANO $,39.6448,-106.9176,1993,Eagle Cnty Rgnl,CLR,[],VFR,,,1022.9,,,,,,,"Eagle Cnty Rgnl, CO, US",US,United States,-0.5410880665664605
1061,KEGI,2026-02-27 03:57:05.932000+00:00,1772164500,2026-02-27T04:00:00.000Z,17.1,16.3,180,5.0,7,1013.3,14,METAR,METAR KEGI 270355Z AUTO 18005KT 7SM CLR 17/16 A2992 RMK AO2 SLP132 T01710163 $,30.653,-86.525,59,Eglin AFB/Duke Fld,CLR,[],VFR,,,1013.2,,,,,,,"Eglin AFB/Duke Fld, FL, US",US,United States,17.204523313195526
1067,KEGV,2026-02-27 04:00:36.600000+00:00,1772164500,2026-02-27T04:00:00.000Z,-4.7,-7.0,0,0.0,10+,1006.2,6,METAR,METAR KEGV 270355Z AUTO 00000KT 10SM CLR M05/M07 A2971 RMK AO2 T10471070,45.9309,-89.267,499,Eagle River/Union Arpt,CLR,[],VFR,,,,,,,,,,"Eagle River/Union Arpt, WI, US",US,United States,10.20561666666667
1056,KEKM,2026-02-27 03:58:21.504000+00:00,1772164500,2026-02-27T04:00:00.000Z,-2.3,-4.2,0,0.0,9,1012.6,14,METAR,METAR KEKM 270355Z AUTO 00000KT 9SM BKN055 M02/M04 A2990 RMK AO2 T10231042 $,41.7222,-86.0,236,Elkhart Muni,BKN,"[{'cover': 'BKN', 'base': 5500}]",VFR,,,,,,,,,,"Elkhart Muni, IN, US",US,United States,11.69721666666667
1139,KEKN,2026-02-27 03:56:18.371000+00:00,1772164260,2026-02-27T04:00:00.000Z,0.6,0.6,0,0.0,2.5,1014.3,6,METAR,METAR KEKN 270351Z AUTO 00000KT 2 1/2SM BR BKN020 01/01 A2995 RMK AO2 SLP160 T00060006,38.8899,-79.8554,596,Elkins Arpt,BKN,"[{'cover': 'BKN', 'base': 2000}]",IFR,,BR,1016.0,,,,,,,"Elkins Arpt, WV, US",US,United States,13.49956666666667
1036,KEKO,2026-02-27 04:00:18.735000+00:00,1772164560,2026-02-27T04:00:00.000Z,3.9,-0.6,0,0.0,10+,1024.8,6,METAR,METAR KEKO 270356Z AUTO 00000KT 10SM CLR 04/M01 A3026 RMK AO2 SLP252 T00391006,40.824,-115.7863,1541,Elko Rgnl,CLR,[],VFR,,,1025.2,,,,,,,"Elko Rgnl, NV, US",US,United States,15.550516666666669
1073,KEKX,2026-02-27 04:00:28.780000+00:00,1772164500,2026-02-27T04:00:00.000Z,3.8,2.7,0,0.0,10+,1014.3,6,METAR,METAR KEKX 270355Z AUTO 00000KT 10SM CLR 04/03 A2995 RMK AO2 T00380027,37.6924,-85.9204,234,Elizabethtown/Addington Fld,CLR,[],VFR,,,,,,,,,,"Elizabethtown/Addington Fld, KY, US",US,United States,15.48836666666667
1080,KELA,2026-02-27 04:00:24.267000+00:00,1772164500,2026-02-27T04:00:00.000Z,16.5,16.2,60,3.0,7,1011.3,6,METAR,METAR KELA 270355Z AUTO 06003KT 7SM SCT040 17/16 A2986 RMK AO2 T01650162,29.602,-96.3239,56,Eagle Lake Arpt,SCT,"[{'cover': 'SCT', 'base': 4000}]",VFR,,,,,,,,,,"Eagle Lake Arpt, TX, US",US,United States,17.032951359203892
1111,KELD,2026-02-27 03:56:38.330000+00:00,1772164380,2026-02-27T04:00:00.000Z,15.6,15.0,0,0.0,5,1011.6,6,METAR,METAR KELD 270353Z AUTO 00000KT 5SM BR CLR 16/15 A2987 RMK AO2 SLP113 T01560150,33.2207,-92.814,76,El Dorado/S Arkansas Rgnl,CLR,[],MVFR,,BR,1011.3,,,,,,,"El Dorado/S Arkansas Rgnl, AR, US",US,United States,22.82206666666667
1057,KELK,2026-02-27 03:58:21.527000+00:00,1772164500,2026-02-27T04:00:00.000Z,11.4,-1.8,0,0.0,10+,1015.0,14,METAR,METAR KELK 270355Z AUTO 00000KT 10SM CLR 11/M02 A2997 RMK AO2 T01141018 $,35.4261,-99.3926,603,Elk City Rgnl,CLR,[],VFR,,,,,,,,,,"Elk City Rgnl, OK, US",US,United States,20.211766666666666
1112,KELM,2026-02-27 03:58:43.342000+00:00,1772164380,2026-02-27T04:00:00.000Z,-6.1,-9.4,0,0.0,10+,1014.0,4,METAR,METAR KELM 270353Z 00000KT 10SM CLR M06/M09 A2994 RMK AO2 SLP152 T10611094,42.1601,-76.89,287,Elmira-Corning Rgnl,CLR,[],VFR,,,1015.2,,,,,,,"Elmira-Corning Rgnl, NY, US",US,United States,9.335516666666669
1105,KELN,2026-02-27 03:58:24.472000+00:00,1772164380,2026-02-27T04:00:00.000Z,5.0,-1.1,320,13.0,10+,1022.1,6,METAR,METAR KELN 270353Z AUTO 32013KT 10SM CLR 05/M01 A3018 RMK AO2 SLP231 T00501011,47.0338,-120.5314,532,Ellensburg/Bowers Fld,CLR,[],VFR,,,1023.1,,,,,,,"Ellensburg/Bowers Fld, WA, US",US,United States,0.6286538526100967
2234,KELO,2026-02-27 03:58:17.191000+00:00,1772164500,2026-02-27T04:00:00.000Z,-5.0,-10.0,120,3.0,10+,1004.5,6,METAR,METAR KELO 270355Z AUTO 12003KT 10SM -SN SCT055 OVC075 M05/M10 A2966 RMK AO2,47.8287,-91.8371,438,Ely Muni,OVC,"[{'cover': 'SCT', 'base': 5500}, {'cover': 'OVC', 'base': 7500}]",VFR,,-SN,,,,,,,,"Ely Muni, MN, US",US,United States,-7.53465400451642
1140,KELP,2026-02-27 03:56:24.543000+00:00,1772164260,2026-02-27T04:00:00.000Z,18.9,0.6,340,3.0,10+,1015.7,4,METAR,METAR KELP 270351Z 34003KT 10SM FEW250 19/01 A2999 RMK AO2 SLP091 T01890006,31.8123,-106.3774,1205,El Paso Intl,FEW,"[{'cover': 'FEW', 'base': 25000}]",VFR,,,1009.1,,,,,,,"El Paso Intl, TX, US",US,United States,19.775381725386612
1107,KELY,2026-02-27 03:58:38.737000+00:00,1772164380,2026-02-27T04:00:00.000Z,2.2,-4.4,VRB,4.0,10+,1025.5,38,METAR,METAR KELY 270353Z AUTO VRB04KT 10SM CLR 02/M04 A3028 RMK AO2 SLP236 T00221044 TSNO,39.2954,-114.8466,1906,Ely/Yelland Fld,CLR,[],VFR,,,1023.6,,,,,,,"Ely/Yelland Fld, NV, US",US,United States,0.04252664665087656
1032,KELZ,2026-02-27 04:00:26.900000+00:00,1772164560,2026-02-27T04:00:00.000Z,-5.6,-11.7,250,3.0,10+,1012.3,14,METAR,METAR KELZ 270356Z AUTO 25003KT 10SM CLR M06/M12 A2989 RMK AO2 SLP151 T10561117 $,42.1077,-77.9842,639,Wellsville/Tarantine Fld,CLR,[],VFR,,,1015.1,,,,,,,"Wellsville/Tarantine Fld, NY, US",US,United States,-8.220261596062098
1147,KEMM,2026-02-27 04:02:19.651000+00:00,1772164200,2026-02-27T04:00:00.000Z,0.0,-4.0,260,5.0,10+,1024.1,6,METAR,METAR KEMM 270350Z AUTO 26005KT 10SM CLR 00/M04 A3024 RMK AO2,41.8224,-110.5555,2219,Kemmerer Muni,CLR,[],VFR,,,,,,,,,,"Kemmerer Muni, WY, US",US,United States,-3.0942981835679344
1175,KEMT,2026-02-27 03:46:41.247000+00:00,1772163900,2026-02-27T04:00:00.000Z,22.0,14.0,0,0.0,10+,1015.3,0,METAR,METAR KEMT 270345Z 00000KT 10SM CLR 22/14 A2998,34.0883,-118.0342,84,El Monte Arpt,CLR,[],VFR,,,,,,,,,,"El Monte Arpt, CA, US",US,United States,26.799666666666667
1042,KENL,2026-02-27 04:00:34.864000+00:00,1772164500,2026-02-27T04:00:00.000Z,4.6,2.3,0,0.0,10+,1013.6,6,METAR,METAR KENL 270355Z AUTO 00000KT 10SM CLR 05/02 A2993 RMK AO2 T00460023,38.5095,-89.09,161,Centralia Muni,CLR,[],VFR,,,,,,,,,,"Centralia Muni, IL, US",US,United States,15.98556666666667
1029,KENV,2026-02-27 04:00:12.750000+00:00,1772164560,2026-02-27T04:00:00.000Z,6.7,0.0,270,5.0,10+,1025.1,6,METAR,METAR KENV 270356Z AUTO 27005KT 10SM CLR 07/00 A3027 RMK AO2 SLP257 T00670000,40.7211,-114.0312,1291,Wendover Arpt,CLR,[],VFR,,,1025.7,,,,,,,"Wendover Arpt, UT, US",US,United States,4.859041233292605
1072,KEOK,2026-02-27 04:00:28.030000+00:00,1772164500,2026-02-27T04:00:00.000Z,5.0,-8.0,240,3.0,10+,1013.0,6,METAR,METAR KEOK 270355Z AUTO 24003KT 10SM FEW038 FEW044 SCT065 05/M08 A2991 RMK A01,40.4615,-91.4274,206,Keokuk Muni,SCT,"[{'cover': 'FEW', 'base': 3800}, {'cover': 'FEW', 'base': 4400}, {'cover': 'SCT', 'base': 6500}]",VFR,,,,,,,,,,"Keokuk Muni, IA, US",US,United States,3.8921391879116305
1101,KEPH,2026-02-27 03:58:42.462000+00:00,1772164380,2026-02-27T04:00:00.000Z,2.2,-3.3,230,8.0,10+,1019.7,6,METAR,METAR KEPH 270353Z AUTO 23008KT 10SM CLR 02/M03 A3011 RMK AO2 SLP208 T00221033,47.3078,-119.5155,382,Ephrata Muni,CLR,[],VFR,,,1020.8,,,,,,,"Ephrata Muni, WA, US",US,United States,-1.6524413943191203
1079,KEQA,2026-02-27 04:00:08.932000+00:00,1772164500,2026-02-27T04:00:00.000Z,10.0,-2.0,150,5.0,10+,1013.6,6,METAR,METAR KEQA 270355Z AUTO 15005KT 10SM CLR 10/M02 A2993 RMK AO2,37.7753,-96.8145,422,El Dorado/Thomas Mem,CLR,[],VFR,,,,,,,,,,"El Dorado/Thomas Mem, KS, US",US,United States,8.776357662492565
1141,KERI,2026-02-27 03:56:19.676000+00:00,1772164260,2026-02-27T04:00:00.000Z,-3.3,-8.3,190,4.0,10+,1014.3,4,METAR,METAR KERI 270351Z 19004KT 10SM OVC100 M03/M08 A2995 RMK AO2 SLP152 T10331083,42.0803,-80.1824,222,Erie Intl,OVC,"[{'cover': 'OVC', 'base': 10000}]",VFR,,,1015.2,,,,,,,"Erie Intl, PA, US",US,United States,-6.377235198739871
1086,KERV,2026-02-27 04:00:33.097000+00:00,1772164500,2026-02-27T04:00:00.000Z,20.3,11.7,40,11.0,10+,1013.6,6,METAR,METAR KERV 270355Z AUTO 04011G17KT 10SM CLR 20/12 A2993 RMK AO2 T02030117,29.9779,-99.0872,483,Kerrville Muni,CLR,[],VFR,17.0,,,,,,,,,"Kerrville Muni, TX, US",US,United States,20.365814304745925
1028,KESC,2026-02-27 04:00:15.208000+00:00,1772164560,2026-02-27T04:00:00.000Z,-3.3,-7.2,340,3.0,10+,1008.5,70,METAR,METAR KESC 270356Z AUTO 34003KT 10SM BKN055 M03/M07 A2978 RMK AO2 SLP096 T10331072 FZRANO,45.7225,-87.0893,180,Escanaba/Delta Cnty,BKN,"[{'cover': 'BKN', 'base': 5500}]",VFR,,,1009.6,,,,,,,"Escanaba/Delta Cnty, MI, US",US,United States,-5.592099161803649
1003,KESF,2026-02-27 04:02:32.461000+00:00,1772164800,2026-02-27T04:00:00.000Z,16.7,16.1,0,0.0,1.75,1011.3,6,SPECI,SPECI KESF 270400Z AUTO 00000KT 1 3/4SM BR CLR 17/16 A2986 RMK AO2 T01670161,31.3963,-92.2828,27,Alexandria/Esler Rgnl,CLR,[],IFR,,BR,,,,,,,,"Alexandria/Esler Rgnl, LA, US",US,United States,23.50571666666667
1074,KESN,2026-02-27 04:00:28.813000+00:00,1772164500,2026-02-27T04:00:00.000Z,3.9,2.4,0,0.0,8,1015.0,6,METAR,METAR KESN 270355Z AUTO 00000KT 8SM OVC060 04/02 A2997 RMK AO2 T00390024,38.804,-76.069,14,Easton Muni,OVC,"[{'cover': 'OVC', 'base': 6000}]",VFR,,,,,,,,,,"Easton Muni, MD, US",US,United States,15.550516666666669
1138,KEST,2026-02-27 03:56:26.305000+00:00,1772164320,2026-02-27T04:00:00.000Z,1.1,-5.0,230,6.0,10+,1009.6,6,METAR,METAR KEST 270352Z AUTO 23006KT 10SM CLR 01/M05 A2981 RMK AO2 SLP107 T00111050,43.4008,-94.7476,401,Estherville Muni,CLR,[],VFR,,,1010.7,,,,,,,"Estherville Muni, IA, US",US,United States,-2.250268998155212
1078,KETB,2026-02-27 04:00:13.131000+00:00,1772164500,2026-02-27T04:00:00.000Z,3.0,-3.0,240,7.0,10+,1010.2,6,METAR,METAR KETB 270355Z AUTO 24007KT 10SM CLR 03/M03 A2983 RMK AO2,43.4225,-88.1326,269,West Bend Muni,CLR,[],VFR,,,,,,,,,,"West Bend Muni, WI, US",US,United States,-0.3364539526780103
1051,KETN,2026-02-27 04:00:11.386000+00:00,1772164500,2026-02-27T04:00:00.000Z,13.0,1.9,30,5.0,10+,1015.0,6,METAR,METAR KETN 270355Z AUTO 03005KT 10SM CLR 13/02 A2997 RMK AO2 T01300019,32.4164,-98.8113,445,Eastland Muni,CLR,[],VFR,,,,,,,,,,"Eastland Muni, TX, US",US,United States,12.337554416310713
1022,KEUF,2026-02-27 04:02:04.631000+00:00,1772164680,2026-02-27T04:00:00.000Z,18.3,15.0,180,6.0,10+,1013.0,6,METAR,METAR KEUF 270358Z AUTO 18006KT 10SM OVC100 18/15 A2991 RMK AO1 SLP126 I1000 T01830150,31.9516,-85.1312,87,Eufaula/Weedon Fld,OVC,"[{'cover': 'OVC', 'base': 10000}]",VFR,,,1012.6,,,,,,,"Eufaula/Weedon Fld, AL, US",US,United States,18.45521054217539
1095,KEUG,2026-02-27 03:58:38.795000+00:00,1772164440,2026-02-27T04:00:00.000Z,3.9,2.8,270,3.0,10+,1026.8,4,METAR,METAR KEUG 270354Z 27003KT 10SM BKN200 04/03 A3032 RMK AO2 SLP270 T00390028,44.1331,-123.2156,109,Eugene/Mahlon Sweet Fld,BKN,"[{'cover': 'BKN', 'base': 20000}]",VFR,,,1027.0,,,,,,,"Eugene/Mahlon Sweet Fld, OR, US",US,United States,2.6351919367445475
1044,KEVM,2026-02-27 03:58:40.877000+00:00,1772164500,2026-02-27T04:00:00.000Z,-2.0,-5.5,0,0.0,10+,1004.8,6,METAR,METAR KEVM 270355Z AUTO 00000KT 10SM OVC085 M02/M05 A2967 RMK AO2 T10201055,47.4274,-92.4972,419,Eveleth Muni,OVC,"[{'cover': 'OVC', 'base': 8500}]",VFR,,,,,,,,,,"Eveleth Muni, MN, US",US,United States,11.88366666666667
1097,KEVV,2026-02-27 03:58:22.157000+00:00,1772164440,2026-02-27T04:00:00.000Z,5.0,3.3,0,0.0,10+,1014.0,4,METAR,METAR KEVV 270354Z 00000KT 10SM CLR 05/03 A2994 RMK AO2 SLP139 T00500033,38.0502,-87.5147,123,Evansville Rgnl,CLR,[],VFR,,,1013.9,,,,,,,"Evansville Rgnl, IN, US",US,United States,16.234166666666667
1114,KEVW,2026-02-27 03:58:23.399000+00:00,1772164380,2026-02-27T04:00:00.000Z,-1.1,-5.6,220,10.0,10+,1024.8,6,METAR,METAR KEVW 270353Z AUTO 22010KT 10SM CLR M01/M06 A3026 RMK AO2 SLP251 T10111056,41.2727,-111.0305,2178,Evanston/Uinta Cnty,CLR,[],VFR,,,1025.1,,,,,,,"Evanston/Uinta Cnty, WY, US",US,United States,-6.375547796380323
1133,KEWB,2026-02-27 03:58:43.366000+00:00,1772164380,2026-02-27T04:00:00.000Z,1.1,-5.6,350,6.0,10+,1013.6,14,METAR,METAR KEWB 270353Z AUTO 35006KT 10SM FEW120 01/M06 A2993 RMK AO2 SLP136 T00111056 $,41.6791,-70.9591,22,New Bedford Rgnl,FEW,"[{'cover': 'FEW', 'base': 12000}]",VFR,,,1013.6,,,,,,,"New Bedford Rgnl, MA, US",US,United States,-2.250268998155212
1038,KEWK,2026-02-27 03:58:55.637000+00:00,1772164560,2026-02-27T04:00:00.000Z,11.7,-3.3,220,5.0,10+,1014.3,14,METAR,METAR KEWK 270356Z AUTO 22005KT 10SM CLR 12/M03 A2995 RMK AO2 SLP137 T01171033 $,38.0621,-97.275,468,Newton City Arpt,CLR,[],VFR,,,1013.7,,,,,,,"Newton City Arpt, KS, US",US,United States,10.794369156322855
1094,KEWN,2026-02-27 03:58:22.172000+00:00,1772164440,2026-02-27T04:00:00.000Z,13.3,12.2,240,5.0,10+,1014.3,6,METAR,METAR KEWN 270354Z AUTO 24005KT 10SM FEW027 OVC055 13/12 A2995 RMK AO2 SLP143 T01330122,35.0684,-77.0478,3,New Bern/Coastal Carolina Rgnl,OVC,"[{'cover': 'FEW', 'base': 2700}, {'cover': 'OVC', 'base': 5500}]",VFR,,,1014.3,,,,,,,"New Bern/Coastal Carolina Rgnl, NC, US",US,United States,12.69367409169253
1142,KEWR,2026-02-27 03:56:19.695000+00:00,1772164260,2026-02-27T04:00:00.000Z,2.2,-5.6,10,11.0,10+,1014.3,12,METAR,METAR KEWR 270351Z 01011KT 10SM BKN120 BKN250 02/M06 A2995 RMK AO2 SLP139 T00221056 $,40.6828,-74.1692,2,Newark Intl,BKN,"[{'cover': 'BKN', 'base': 12000}, {'cover': 'BKN', 'base': 25000}]",VFR,,,1013.9,,,,,,,"Newark Intl, NJ, US",US,United States,-2.496462763428041
1127,KEYW,2026-02-27 03:56:38.557000+00:00,1772164380,2026-02-27T04:00:00.000Z,23.9,20.6,110,9.0,10+,1017.4,14,METAR,METAR KEYW 270353Z AUTO 11009KT 10SM SCT019 BKN055 BKN065 24/21 A3004 RMK AO2 SLP177 T02390206 $,24.5571,-81.7554,1,Key West Intl,BKN,"[{'cover': 'SCT', 'base': 1900}, {'cover': 'BKN', 'base': 5500}, {'cover': 'BKN', 'base': 6500}]",VFR,,,1017.7,,,,,,,"Key West Intl, FL, US",US,United States,25.009932675130322
1039,KFAM,2026-02-27 03:58:55.742000+00:00,1772164560,2026-02-27T04:00:00.000Z,6.1,3.3,0,0.0,10+,1014.0,14,METAR,METAR KFAM 270356Z AUTO 00000KT 10SM CLR 06/03 A2994 RMK AO2 SLP150 T00610033 $,37.7631,-90.4292,276,Farmington Rgnl,CLR,[],VFR,,,1015.0,,,,,,,"Farmington Rgnl, MO, US",US,United States,16.917816666666667
1128,KFAR,2026-02-27 03:58:39.814000+00:00,1772164380,2026-02-27T04:00:00.000Z,1.1,-1.7,180,8.0,10+,1003.8,12,METAR,METAR KFAR 270353Z 18008KT 10SM CLR 01/M02 A2964 RMK AO2 SLP047 T00111017 $,46.9242,-96.8119,276,Fargo/Hector Intl,CLR,[],VFR,,,1004.7,,,,,,,"Fargo/Hector Intl, ND, US",US,United States,-3.0068015102444217
1110,KFAT,2026-02-27 03:58:39.962000+00:00,1772164380,2026-02-27T04:00:00.000Z,19.4,13.9,330,3.0,10+,1021.4,4,METAR,METAR KFAT 270353Z 33003KT 10SM FEW200 19/14 A3016 RMK AO2 SLP211 T01940139,36.78,-119.7202,102,Fresno/Yosemite Intl,FEW,"[{'cover': 'FEW', 'base': 20000}]",VFR,,,1021.1,,,,,,,"Fresno/Yosemite Intl, CA, US",US,United States,20.346721385008017
1115,KFAY,2026-02-27 03:56:38.622000+00:00,1772164380,2026-02-27T04:00:00.000Z,13.3,13.3,210,5.0,7,1014.0,4,METAR,METAR KFAY 270353Z 21005KT 7SM FEW013 FEW024 OVC040 13/13 A2994 RMK AO2 SLP132 T01330133,34.9895,-78.88,57,Fayetteville Rgnl,OVC,"[{'cover': 'FEW', 'base': 1300}, {'cover': 'FEW', 'base': 2400}, {'cover': 'OVC', 'base': 4000}]",VFR,,,1013.2,,,,,,,"Fayetteville Rgnl, NC, US",US,United States,12.69367409169253
1062,KFBG,2026-02-27 03:58:47.559000+00:00,1772164500,2026-02-27T04:00:00.000Z,14.5,13.7,0,0.0,10+,1013.3,14,METAR,METAR KFBG 270355Z AUTO 00000KT 10SM OVC007 15/14 A2992 RMK AO2 LTG DSNT W SLP134 T01450137 $,35.131,-78.932,69,Fort Bragg/Simmons AAF,OVC,"[{'cover': 'OVC', 'base': 700}]",IFR,,,1013.4,,,,,,,"Fort Bragg/Simmons AAF, NC, US",US,United States,22.13841666666667
1091,KFBL,2026-02-27 04:00:36.634000+00:00,1772164500,2026-02-27T04:00:00.000Z,2.0,-1.0,210,3.0,10+,1008.5,6,METAR,METAR KFBL 270355Z AUTO 21003KT 10SM CLR 02/M01 A2978 RMK AO2,44.3298,-93.3119,318,Faribault Muni,CLR,[],VFR,,,,,,,,,,"Faribault Muni, MN, US",US,United States,0.4641012301832169
1058,KFBR,2026-02-27 04:02:21.348000+00:00,1772164500,2026-02-27T04:00:00.000Z,0.8,-5.1,250,4.0,10+,1025.1,6,METAR,METAR KFBR 270355Z AUTO 25004KT 10SM CLR 01/M05 A3027 RMK AO2 T00081051,41.3941,-110.406,2140,Fort Bridger Arpt,CLR,[],VFR,,,,,,,,,,"Fort Bridger Arpt, WY, US",US,United States,-1.59159455035768
1071,KFCH,2026-02-27 04:00:26.125000+00:00,1772164500,2026-02-27T04:00:00.000Z,19.0,17.0,0,0.0,10+,1021.8,6,METAR,METAR KFCH 270355Z AUTO 00000KT 10SM CLR 19/17 A3017 RMK A01,36.7338,-119.8204,85,Fresno/Chandler Exec,CLR,[],VFR,,,,,,,,,,"Fresno/Chandler Exec, CA, US",US,United States,24.93516666666667
1100,KFCM,2026-02-27 03:58:42.846000+00:00,1772164380,2026-02-27T04:00:00.000Z,-1.1,-2.8,180,3.0,9,1007.9,6,METAR,METAR KFCM 270353Z AUTO 18003KT 9SM CLR M01/M03 A2976 RMK AO2 SLP088 T10111028,44.8321,-93.4705,276,Eden Prairie/Flying,CLR,[],VFR,,,1008.8,,,,,,,"Eden Prairie/Flying, MN, US",US,United States,-3.078204659469483
1046,KFCS,2026-02-27 03:58:34.464000+00:00,1772164500,2026-02-27T04:00:00.000Z,5.7,-11.0,350,5.0,10+,1017.7,6,METAR,METAR KFCS 270355Z AUTO 35005KT 10SM CLR 06/M11 A3005 RMK AO2 SLP167 T00571110,38.6756,-104.751,1789,Fort Carson/Butts AAF,CLR,[],VFR,,,1016.7,,,,,,,"Fort Carson/Butts AAF, CO, US",US,United States,3.6719756486865567
1085,KFDK,2026-02-27 04:00:25.660000+00:00,1772164500,2026-02-27T04:00:00.000Z,0.2,0.2,0,0.0,1,1015.7,70,METAR,METAR KFDK 270355Z AUTO 00000KT 1SM BR CLR 00/00 A2999 RMK AO2 VIS 3/4V3 T00020002 FZRANO,39.4177,-77.3696,82,Frederick Muni,CLR,[],IFR,,BR,,,,,,,,"Frederick Muni, MD, US",US,United States,13.25096666666667
1122,KFDR,2026-02-27 03:56:38.666000+00:00,1772164380,2026-02-27T04:00:00.000Z,15.0,-2.2,80,7.0,10+,1014.0,6,METAR,METAR KFDR 270353Z AUTO 08007KT 10SM CLR 15/M02 A2994 RMK AO2 SLP130 T01501022,34.3531,-98.9876,378,Frederick Rgnl,CLR,[],VFR,,,1013.0,,,,,,,"Frederick Rgnl, OK, US",US,United States,14.28371738042063
1106,KFDY,2026-02-27 03:58:37.671000+00:00,1772164380,2026-02-27T04:00:00.000Z,-1.1,-6.1,170,6.0,10+,1013.6,6,METAR,METAR KFDY 270353Z AUTO 17006KT 10SM CLR M01/M06 A2993 RMK AO2 SLP140 T10111061,41.0137,-83.6681,247,Findlay Arpt,CLR,[],VFR,,,1014.0,,,,,,,"Findlay Arpt, OH, US",US,United States,-4.898644288197499
1069,KFET,2026-02-27 04:00:25.689000+00:00,1772164500,2026-02-27T04:00:00.000Z,2.1,-3.3,0,0.0,10+,1011.9,6,METAR,METAR KFET 270355Z AUTO 00000KT 10SM CLR 02/M03 A2988 RMK AO2 T00211033,41.4489,-96.5237,366,Fremont Muni,CLR,[],VFR,,,,,,,,,,"Fremont Muni, NE, US",US,United States,14.43181666666667
1092,KFFA,2026-02-27 03:58:55.862000+00:00,1772164500,2026-02-27T04:00:00.000Z,,,270,7.0,3,1013.3,6,METAR,METAR KFFA 270355Z AUTO 27007KT 3SM OVC005 A2992 RMK AO2,36.0165,-75.6739,2,First Flight Airport,OVC,"[{'cover': 'OVC', 'base': 500}]",IFR,,,,,,,,,,"First Flight Airport, NC, US",US,United States,
1070,KFFL,2026-02-27 04:00:25.724000+00:00,1772164500,2026-02-27T04:00:00.000Z,1.0,-7.0,200,3.0,10+,1012.3,6,METAR,METAR KFFL 270355Z AUTO 20003KT 10SM CLR 01/M07 A2989 RMK A01,41.0521,-91.9834,240,Fairfield Muni,CLR,[],VFR,,,,,,,,,,"Fairfield Muni, IA, US",US,United States,-0.6785780890595896
1065,KFFM,2026-02-27 03:58:17.226000+00:00,1772164500,2026-02-27T04:00:00.000Z,0.0,0.0,160,6.0,10+,1005.2,6,METAR,METAR KFFM 270355Z AUTO 16006KT 10SM CLR 00/M00 A2968 RMK AO2,46.2865,-96.1534,362,Fergus Falls/Mickelson Fld,CLR,[],VFR,,,,,,,,,,"Fergus Falls/Mickelson Fld, MN, US",US,United States,-3.5744566431763536
1047,KFFO,2026-02-27 03:58:34.220000+00:00,1772164500,2026-02-27T04:00:00.000Z,3.4,-3.9,0,0.0,10+,1014.3,6,METAR,METAR KFFO 270355Z AUTO 00000KT 10SM BKN090 03/M04 A2995 RMK AO2 SLP150 T00341039,39.837,-84.035,250,Wright Patterson AFB,BKN,"[{'cover': 'BKN', 'base': 9000}]",VFR,,,1015.0,,,,,,,"Wright Patterson AFB, OH, US",US,United States,15.239766666666668
1116,KFFT,2026-02-27 03:56:38.753000+00:00,1772164380,2026-02-27T04:00:00.000Z,,,,,,1014.3,206,METAR,METAR KFFT 270353Z AUTO A2995 RMK AO2 SLPNO PWINO FZRANO PNO $,38.1846,-84.9039,235,Frankfort/Capital City Arpt,,,,,,,,,,,,,"Frankfort/Capital City Arpt, KY, US",US,United States,
2504,KFFZ,2026-02-27 04:00:11.926000+00:00,1772164440,2026-02-27T04:00:00.000Z,22.2,7.8,100,3.0,10+,1014.0,38,METAR,METAR KFFZ 270354Z AUTO 10003KT 10SM CLR 22/08 A2994 RMK AO2 SLP119 T02220078 TSNO,33.4659,-111.7212,420,Mesa/Falcon Fld,CLR,[],VFR,,,1011.9,,,,,,,"Mesa/Falcon Fld, AZ, US",US,United States,23.54622347888787
1393,KFHR,2026-02-27 03:58:27.915000+00:00,1772164380,2026-02-27T04:00:00.000Z,8.9,2.8,290,8.0,10+,1024.1,6,METAR,METAR KFHR 270353Z AUTO 29008G17KT 240V330 10SM BKN120 09/03 A3024 RMK AO2 SLP240 T00890028,48.52,-123.0264,34,Friday Harbor Arpt,BKN,"[{'cover': 'BKN', 'base': 12000}]",VFR,17.0,,1024.0,,,,,,,"Friday Harbor Arpt, WA, US",US,United States,6.596842948134981
1063,KFHU,2026-02-27 03:58:16.636000+00:00,1772164500,2026-02-27T04:00:00.000Z,19.1,2.0,240,11.0,10+,1020.4,6,METAR,METAR KFHU 270355Z AUTO 24011KT 10SM CLR 19/02 A3013 RMK AO2 SLP149 T01910020,31.586,-110.348,1424,Fort Huachuca/Libby AAF,CLR,[],VFR,,,1014.9,,,,,,,"Fort Huachuca/Libby AAF, AZ, US",US,United States,18.85008322840289
1026,KFKL,2026-02-27 04:00:13.609000+00:00,1772164560,2026-02-27T04:00:00.000Z,-3.3,-8.9,0,0.0,10+,1013.3,70,METAR,METAR KFKL 270356Z AUTO 00000KT 10SM CLR M03/M09 A2992 RMK AO2 SLP154 T10331089 FZRANO,41.3805,-79.8603,468,Franklin/Lamberton Fld,CLR,[],VFR,,,1015.4,,,,,,,"Franklin/Lamberton Fld, PA, US",US,United States,11.075716666666667
1084,KFKN,2026-02-27 04:00:09.183000+00:00,1772164500,2026-02-27T04:00:00.000Z,7.1,5.9,40,6.0,5,1015.0,6,METAR,METAR KFKN 270355Z AUTO 04006KT 5SM BR OVC004 07/06 A2997 RMK AO2 T00710059,36.6984,-76.9032,9,Franklin/Rose Arpt,OVC,"[{'cover': 'OVC', 'base': 400}]",LIFR,,BR,,,,,,,,"Franklin/Rose Arpt, VA, US",US,United States,4.972572701960122
1132,KFLD,2026-02-27 03:58:41.723000+00:00,1772164380,2026-02-27T04:00:00.000Z,0.6,-4.4,220,8.0,10+,1009.2,6,METAR,METAR KFLD 270353Z AUTO 22008KT 10SM BKN110 01/M04 A2980 RMK AO2 SLP102 T00061044,43.7695,-88.4907,242,Fond Du Lac Cnty Arpt,BKN,"[{'cover': 'BKN', 'base': 11000}]",VFR,,,1010.2,,,,,,,"Fond Du Lac Cnty Arpt, WI, US",US,United States,-3.6224197447559194
1023,KFLG,2026-02-27 04:02:15.600000+00:00,1772164620,2026-02-27T04:00:00.000Z,5.0,-2.8,0,0.0,10+,1025.5,6,METAR,METAR KFLG 270357Z AUTO 00000KT 10SM CLR 05/M03 A3028 RMK AO2 SLP207 T00501028,35.1443,-111.6664,2134,Flagstaff/Pulliam Arpt,CLR,[],VFR,,,1020.7,,,,,,,"Flagstaff/Pulliam Arpt, AZ, US",US,United States,16.234166666666667
1103,KFLL,2026-02-27 03:58:17.603000+00:00,1772164380,2026-02-27T04:00:00.000Z,22.8,20.0,150,7.0,10+,1017.7,12,METAR,METAR KFLL 270353Z 15007KT 10SM SCT019 23/20 A3005 RMK AO2 SLP174 T02280200 $,26.0787,-80.1622,1,Ft Lauderdale-Hollywood Intl,SCT,"[{'cover': 'SCT', 'base': 1900}]",VFR,,,1017.4,,,,,,,"Ft Lauderdale-Hollywood Intl, FL, US",US,United States,23.786828746934752
1117,KFLO,2026-02-27 03:56:38.855000+00:00,1772164380,2026-02-27T04:00:00.000Z,14.4,13.9,210,7.0,10+,1014.0,4,METAR,METAR KFLO 270353Z 21007KT 10SM FEW050 14/14 A2994 RMK AO2 SLP136 T01440139,34.1877,-79.7308,43,Florence Rgnl,FEW,"[{'cover': 'FEW', 'base': 5000}]",VFR,,,1013.6,,,,,,,"Florence Rgnl, SC, US",US,United States,13.552708813765694
1083,KFME,2026-02-27 04:00:28.060000+00:00,1772164500,2026-02-27T04:00:00.000Z,0.0,0.0,0,0.0,10+,1016.0,6,METAR,METAR KFME 270355Z AUTO 00000KT 10SM SCT070 SCT100 00/00 A3000 RMK AO1,39.086,-76.757,43,Fort Meade/Tipton Fld,SCT,"[{'cover': 'SCT', 'base': 7000}, {'cover': 'SCT', 'base': 10000}]",VFR,,,,,,,,,,"Fort Meade/Tipton Fld, MD, US",US,United States,13.126666666666667
1174,KFMH,2026-02-27 03:37:19.276000+00:00,1772163900,2026-02-27T04:00:00.000Z,2.0,-2.0,340,6.0,10+,1013.6,0,METAR,METAR KFMH 270345Z 34006KT 10SM BKN120 02/M02 A2993,41.6608,-70.5221,35,Otis ANGB,BKN,"[{'cover': 'BKN', 'base': 12000}]",VFR,,,,,,,,,,"Otis ANGB, MA, US",US,United States,-1.1668427431379098
1109,KFMN,2026-02-27 03:58:39.856000+00:00,1772164380,2026-02-27T04:00:00.000Z,10.0,-7.2,240,3.0,10+,1021.1,4,METAR,METAR KFMN 270353Z 24003KT 10SM CLR 10/M07 A3015 RMK AO2 SLP191 T01001072,36.7435,-108.2293,1677,Farmington/Four Corners Rgnl,CLR,[],VFR,,,1019.1,,,,,,,"Farmington/Four Corners Rgnl, NM, US",US,United States,9.60553578412565
1131,KFMY,2026-02-27 03:56:38.899000+00:00,1772164380,2026-02-27T04:00:00.000Z,20.6,17.8,0,0.0,10+,1017.0,38,METAR,METAR KFMY 270353Z AUTO 00000KT 10SM CLR 21/18 A3003 RMK AO2 SLP170 T02060178 TSNO,26.584,-81.8615,4,Fort Myers/Page Fld,CLR,[],VFR,,,1017.0,,,,,,,"Fort Myers/Page Fld, FL, US",US,United States,25.929566666666673
1027,KFNL,2026-02-27 04:00:33.881000+00:00,1772164560,2026-02-27T04:00:00.000Z,9.4,-11.1,VRB,3.0,10+,1016.3,14,METAR,METAR KFNL 270356Z AUTO VRB03KT 10SM CLR 09/M11 A3001 RMK AO2 SLP129 T00941111 $,40.4427,-105.0097,1529,Fort Collins/N Colorado Rgnl,CLR,[],VFR,,,1012.9,,,,,,,"Fort Collins/N Colorado Rgnl, CO, US",US,United States,8.91992819257997
1108,KFNT,2026-02-27 03:58:39.484000+00:00,1772164380,2026-02-27T04:00:00.000Z,-2.8,-9.4,200,6.0,10+,1011.6,4,METAR,METAR KFNT 270353Z 20006KT 10SM CLR M03/M09 A2987 RMK AO2 SLP127 T10281094,42.9669,-83.75,235,Flint/Bishop Intl,CLR,[],VFR,,,1012.7,,,,,,,"Flint/Bishop Intl, MI, US",US,United States,-6.945116103230169
1025,KFOD,2026-02-27 04:00:36.650000+00:00,1772164560,2026-02-27T04:00:00.000Z,,,200,3.0,10+,1010.9,78,METAR,METAR KFOD 270356Z AUTO 20003KT 10SM CLR A2985 RMK AO2 SLPNO FZRANO $,42.549,-94.182,347,Fort Dodge Rgnl,CLR,[],VFR,,,,,,,,,,"Fort Dodge Rgnl, IA, US",US,United States,
1123,KFOE,2026-02-27 03:56:38.977000+00:00,1772164380,2026-02-27T04:00:00.000Z,5.0,0.0,0,0.0,10+,1013.3,12,METAR,METAR KFOE 270353Z 00000KT 10SM CLR 05/00 A2992 RMK AO2 SLP134 T00500000 $,38.9414,-95.6513,315,Topeka/Forbes Fld,CLR,[],VFR,,,1013.4,,,,,,,"Topeka/Forbes Fld, KS, US",US,United States,16.234166666666667
1130,KFOK,2026-02-27 03:58:42.869000+00:00,1772164380,2026-02-27T04:00:00.000Z,0.0,-3.9,340,4.0,10+,1014.3,4,METAR,METAR KFOK 270353Z 34004KT 10SM BKN120 00/M04 A2995 RMK AO2 SLP141 T00001039,40.8505,-72.6193,13,Westhampton/Gabreski Arpt,BKN,"[{'cover': 'BKN', 'base': 12000}]",VFR,,,1014.1,,,,,,,"Westhampton/Gabreski Arpt, NY, US",US,United States,-2.525378091505422
1075,KFOM,2026-02-27 04:01:34.115000+00:00,1772164500,2026-02-27T04:00:00.000Z,8.0,-3.0,170,5.0,10+,1024.5,6,METAR,METAR KFOM 270355Z AUTO 17005KT 10SM CLR 08/M03 A3025 RMK AO2,38.9618,-112.36,1519,Fillmore Muni,CLR,[],VFR,,,,,,,,,,"Fillmore Muni, UT, US",US,United States,6.402226493280468
1125,KFPR,2026-02-27 03:56:39.025000+00:00,1772164380,2026-02-27T04:00:00.000Z,19.4,17.2,170,3.0,10+,1017.4,6,METAR,METAR KFPR 270353Z AUTO 17003KT 10SM CLR 19/17 A3004 RMK AO2 SLP173 T01940172,27.4981,-80.3763,7,Ft Pierce/Treasure Coast Intl,CLR,[],VFR,,,1017.3,,,,,,,"Ft Pierce/Treasure Coast Intl, FL, US",US,United States,20.346721385008017
1398,KFRG,2026-02-27 03:58:40.898000+00:00,1772164380,2026-02-27T04:00:00.000Z,1.1,-3.3,10,6.0,10+,1014.0,4,METAR,METAR KFRG 270353Z 01006KT 10SM OVC120 01/M03 A2994 RMK AO2 SLP139 T00111033,40.7344,-73.4164,23,Farmingdale/Republic Arpt,OVC,"[{'cover': 'OVC', 'base': 12000}]",VFR,,,1013.9,,,,,,,"Farmingdale/Republic Arpt, NY, US",US,United States,-2.250268998155212
1369,KFRH,2026-02-27 03:56:20.089000+00:00,1772164500,2026-02-27T04:00:00.000Z,7.0,2.0,0,0.0,10+,1013.6,6,METAR,METAR KFRH 270355Z AUTO 00000KT 10SM CLR 07/02 A2993 RMK AO1,38.5034,-86.6442,241,French Lick Muni,CLR,[],VFR,,,,,,,,,,"French Lick Muni, IN, US",US,United States,17.47716666666667
1352,KFRI,2026-02-27 03:58:49.810000+00:00,1772164500,2026-02-27T04:00:00.000Z,6.0,-1.0,0,0.0,10+,1013.3,14,METAR,METAR KFRI 270355Z AUTO 00000KT 10SM CLR 06/M01 A2992 RMK AO2 SLPNO T00601010 $,39.0568,-96.7617,232,Ft Riley/Marshall Fld,CLR,[],VFR,,,,,,,,,,"Ft Riley/Marshall Fld, KS, US",US,United States,16.855666666666668
1333,KFRM,2026-02-27 04:00:13.627000+00:00,1772164560,2026-02-27T04:00:00.000Z,2.2,-3.9,240,7.0,10+,1009.6,70,METAR,METAR KFRM 270356Z AUTO 24007KT 10SM CLR 02/M04 A2981 RMK AO2 SLP110 T00221039 FZRANO,43.6455,-94.4168,353,Fairmont Muni,CLR,[],VFR,,,1011.0,,,,,,,"Fairmont Muni, MN, US",US,United States,-1.3111320415512513
1375,KFRR,2026-02-27 03:54:29.324000+00:00,1772164500,2026-02-27T04:00:00.000Z,3.2,1.6,0,0.0,10+,1014.0,6,METAR,METAR KFRR 270355Z AUTO 00000KT 10SM OVC090 03/02 A2994 RMK AO2 T00320016,38.9169,-78.2487,213,Front Royal/Warren Cnty,OVC,"[{'cover': 'OVC', 'base': 9000}]",VFR,,,,,,,,,,"Front Royal/Warren Cnty, VA, US",US,United States,15.11546666666667
1343,KFSD,2026-02-27 04:00:31.990000+00:00,1772164560,2026-02-27T04:00:00.000Z,0.0,-7.2,230,3.0,10+,1009.2,4,METAR,METAR KFSD 270356Z 23003KT 10SM CLR 00/M07 A2980 RMK AO2 SLP104 T00001072,43.5775,-96.7539,433,Sioux Falls/Foss Fld,CLR,[],VFR,,,1010.4,,,,,,,"Sioux Falls/Foss Fld, SD, US",US,United States,-1.8212574083023962
1354,KFSI,2026-02-27 03:58:23.166000+00:00,1772164500,2026-02-27T04:00:00.000Z,14.4,-2.5,0,0.0,10+,1013.3,14,METAR,METAR KFSI 270355Z AUTO 00000KT 10SM CLR 14/M02 A2992 RMK AO2 SLP125 T01441025 $,34.6457,-98.404,360,Fort Sill/Post AAF,CLR,[],VFR,,,1012.5,,,,,,,"Fort Sill/Post AAF, OK, US",US,United States,22.076266666666665
1367,KFSK,2026-02-27 04:02:08.770000+00:00,1772164500,2026-02-27T04:00:00.000Z,7.4,0.1,200,4.0,10+,1014.3,6,METAR,METAR KFSK 270355Z AUTO 20004KT 10SM CLR 07/00 A2995 RMK AO2 T00740001,37.796,-94.7676,276,Fort Scott Muni,CLR,[],VFR,,,,,,,,,,"Fort Scott Muni, KS, US",US,United States,6.112119664111223
1399,KFSM,2026-02-27 03:56:39.062000+00:00,1772164380,2026-02-27T04:00:00.000Z,15.0,2.2,0,0.0,10+,1014.0,12,METAR,METAR KFSM 270353Z 00000KT 10SM CLR 15/02 A2994 RMK AO2 SLP137 T01500022 $,35.3335,-94.3653,136,Fort Smith Rgnl,CLR,[],VFR,,,1013.7,,,,,,,"Fort Smith Rgnl, AR, US",US,United States,22.44916666666667
1423,KFST,2026-02-27 03:58:23.690000+00:00,1772164380,2026-02-27T04:00:00.000Z,18.3,-1.7,160,6.0,10+,1015.0,6,METAR,METAR KFST 270353Z AUTO 16006KT 10SM CLR 18/M02 A2997 RMK AO2 SLP109 T01831017,30.9119,-102.9171,917,Fort Stockton/Pecos Cnty,CLR,[],VFR,,,1010.9,,,,,,,"Fort Stockton/Pecos Cnty, TX, US",US,United States,18.45521054217539
1082,KFSW,2026-02-27 04:02:17.569000+00:00,1772164500,2026-02-27T04:00:00.000Z,6.0,-7.0,260,3.0,10+,1012.6,6,METAR,METAR KFSW 270355Z AUTO 26003KT 10SM CLR 06/M07 A2990 RMK AO2,40.6615,-91.3267,219,Fort Madison Muni,CLR,[],VFR,,,,,,,,,,"Fort Madison Muni, IA, US",US,United States,5.034818507154431
1355,KFTK,2026-02-27 03:58:27.274000+00:00,1772164500,2026-02-27T04:00:00.000Z,4.5,4.1,0,0.0,10+,1014.0,6,METAR,METAR KFTK 270355Z AUTO 00000KT 10SM CLR 05/04 A2994 RMK AO2 SLP144 T00450041,37.907,-85.973,225,Fort Knox/Godman AAF,CLR,[],VFR,,,1014.4,,,,,,,"Fort Knox/Godman AAF, KY, US",US,United States,15.923416666666668
1392,KFTW,2026-02-27 03:58:41.435000+00:00,1772164380,2026-02-27T04:00:00.000Z,16.7,3.3,350,5.0,10+,1013.6,4,METAR,METAR KFTW 270353Z 35005KT 10SM CLR 17/03 A2993 RMK AO2 SLP131 T01670033,32.8248,-97.364,213,Fort Worth/Meacham Intl,CLR,[],VFR,,,1013.1,,,,,,,"Fort Worth/Meacham Intl, TX, US",US,United States,16.729697079353105
1400,KFTY,2026-02-27 03:56:39.121000+00:00,1772164380,2026-02-27T04:00:00.000Z,14.4,14.4,0,0.0,0.75,1011.9,4,METAR,METAR KFTY 270353Z 00000KT 3/4SM +RA BR BKN021 BKN030 OVC060 14/14 A2988 RMK AO2 LTG DSNT W-N RAB37 SLP115 P0013 T01440144,33.7776,-84.5246,245,Atlanta/Fulton Cnty,OVC,"[{'cover': 'BKN', 'base': 2100}, {'cover': 'BKN', 'base': 3000}, {'cover': 'OVC', 'base': 6000}]",LIFR,,+RA BR,1011.5,0.13,,,,,,"Atlanta/Fulton Cnty, GA, US",US,United States,22.076266666666665
1394,KFUL,2026-02-27 03:58:23.417000+00:00,1772164380,2026-02-27T04:00:00.000Z,20.6,13.3,0,0.0,10+,1014.6,4,METAR,METAR KFUL 270353Z 00000KT 10SM CLR 21/13 A2996 RMK AO2 SLP144 T02060133,33.8715,-117.9856,23,Fullerton Muni,CLR,[],VFR,,,1014.4,,,,,,,"Fullerton Muni, CA, US",US,United States,25.929566666666673
4056,KFVE,2026-02-27 03:58:42.894000+00:00,1772164380,2026-02-27T04:00:00.000Z,-10.0,-12.2,320,12.0,2,1009.6,6,METAR,METAR KFVE 270353Z AUTO 32012KT 2SM -SN BR OVC019 M10/M12 A2981 RMK AO2 SNB0257 SLP108 P0000 T11001122,47.2852,-68.3072,299,Frenchville/N Aroostook Rgnl,OVC,"[{'cover': 'OVC', 'base': 1900}]",IFR,,-SN BR,1010.8,0.005,,,,,,"Frenchville/N Aroostook Rgnl, ME, US",US,United States,-18.25432425544447
1388,KFWA,2026-02-27 03:58:33.612000+00:00,1772164440,2026-02-27T04:00:00.000Z,0.0,-2.8,200,5.0,10+,1014.0,4,METAR,METAR KFWA 270354Z 20005KT 10SM BKN050 00/M03 A2994 RMK AO2 SLP146 T00001028,40.9725,-85.2064,243,Fort Wayne Intl,BKN,"[{'cover': 'BKN', 'base': 5000}]",VFR,,,1014.6,,,,,,,"Fort Wayne Intl, IN, US",US,United States,-3.0942981835679344
1414,KFXE,2026-02-27 03:56:39.188000+00:00,1772164380,2026-02-27T04:00:00.000Z,22.2,21.1,130,3.0,10+,1017.7,12,METAR,METAR KFXE 270353Z 13003KT 10SM CLR 22/21 A3005 RMK AO2 SLP177 T02220211 $,26.199,-80.1776,3,Ft Lauderdale Exec,CLR,[],VFR,,,1017.7,,,,,,,"Ft Lauderdale Exec, FL, US",US,United States,23.54622347888787
1373,KFXY,2026-02-27 04:00:25.758000+00:00,1772164500,2026-02-27T04:00:00.000Z,-3.0,-4.0,0,0.0,10+,1009.9,6,METAR,METAR KFXY 270355Z AUTO 00000KT 10SM CLR M03/M04 A2982 RMK AO2,43.2323,-93.6237,366,Forest City Muni,CLR,[],VFR,,,,,,,,,,"Forest City Muni, IA, US",US,United States,11.262166666666667
1376,KFYM,2026-02-27 04:00:09.488000+00:00,1772164500,2026-02-27T04:00:00.000Z,12.0,12.0,40,6.0,10+,1012.3,6,METAR,METAR KFYM 270355Z AUTO 04006KT 10SM BKN001 OVC055 12/12 A2989 RMK A01,35.0603,-86.5656,297,Fayetteville Muni,OVC,"[{'cover': 'BKN', 'base': 100}, {'cover': 'OVC', 'base': 5500}]",LIFR,,,,,,,,,,"Fayetteville Muni, TN, US",US,United States,10.871226757054302
1422,KFYV,2026-02-27 03:56:39.207000+00:00,1772164380,2026-02-27T04:00:00.000Z,6.7,2.2,0,0.0,10+,1015.0,6,METAR,METAR KFYV 270353Z AUTO 00000KT 10SM CLR 07/02 A2997 RMK AO2 SLP144 T00670022,36.0103,-94.1624,377,Fayetteville/Drake Fld,CLR,[],VFR,,,1014.4,,,,,,,"Fayetteville/Drake Fld, AR, US",US,United States,17.29071666666667
1339,KGAD,2026-02-27 03:58:49.915000+00:00,1772164560,2026-02-27T04:00:00.000Z,14.4,,140,6.0,,1012.3,142,METAR,METAR KGAD 270356Z AUTO 14006KT VCTS SCT028 BKN060 OVC070 14/ A2989 RMK AO2 LTG DSNT NE SLP125 P0027 T0144 PWINO $,33.9686,-86.0917,169,Gadsden/NE Alabama Rgnl,OVC,"[{'cover': 'SCT', 'base': 2800}, {'cover': 'BKN', 'base': 6000}, {'cover': 'OVC', 'base': 7000}]",,,VCTS,1012.5,0.27,,,,,,"Gadsden/NE Alabama Rgnl, AL, US",US,United States,13.760363437100425
1345,KGAI,2026-02-27 04:00:34.312000+00:00,1772164560,2026-02-27T04:00:00.000Z,1.7,,0,0.0,8,1015.0,70,METAR,METAR KGAI 270356Z AUTO 00000KT 8SM FEW090 02/ A2997 RMK AO2 SLP167 T0017 401110011 FZRANO,39.1696,-77.1653,151,Gaithersburg/Montgomery Cnty,FEW,"[{'cover': 'FEW', 'base': 9000}]",VFR,,,1016.7,,,11.1,1.1,,,"Gaithersburg/Montgomery Cnty, MD, US",US,United States,14.18321666666667
1334,KGBD,2026-02-27 03:58:49.945000+00:00,1772164560,2026-02-27T04:00:00.000Z,5.0,-1.7,220,4.0,10+,1014.3,14,METAR,METAR KGBD 270356Z AUTO 22004KT 10SM CLR 05/M02 A2995 RMK AO2 SLP147 T00501017 $,38.3405,-98.8591,573,Great Bend Muni,CLR,[],VFR,,,1014.7,,,,,,,"Great Bend Muni, KS, US",US,United States,3.310769040667986
1381,KGBG,2026-02-27 04:02:21.375000+00:00,1772164500,2026-02-27T04:00:00.000Z,-2.9,-2.9,0,0.0,10+,1013.3,6,METAR,METAR KGBG 270355Z AUTO 00000KT 10SM CLR M03/M03 A2992 RMK AO2 T10291029,40.9329,-90.4334,230,Galesburg Muni,CLR,[],VFR,,,,,,,,,,"Galesburg Muni, IL, US",US,United States,11.324316666666668
1397,KGCC,2026-02-27 03:58:40.051000+00:00,1772164380,2026-02-27T04:00:00.000Z,6.7,-8.9,240,14.0,10+,1009.9,6,METAR,METAR KGCC 270353Z AUTO 24014KT 10SM CLR 07/M09 A2982 RMK AO2 SLP097 T00671089,44.3398,-105.5416,1328,Gillette/Campbell Cnty,CLR,[],VFR,,,1009.7,,,,,,,"Gillette/Campbell Cnty, WY, US",US,United States,2.632708880690685
1836,KGCD,2026-02-27 04:02:19.692000+00:00,1772164500,2026-02-27T04:00:00.000Z,3.1,-3.5,100,7.0,10+,1024.1,6,METAR,METAR KGCD 270355Z AUTO 10007KT 10SM CLR 03/M03 A3024 RMK AO2 T00311035,44.4029,-118.9672,1122,John Day/Grant Cnty,CLR,[],VFR,,,,,,,,,,"John Day/Grant Cnty, OR, US",US,United States,-0.21461919156885323
1384,KGCK,2026-02-27 03:58:19.148000+00:00,1772164440,2026-02-27T04:00:00.000Z,7.8,-6.7,150,5.0,10+,1015.0,6,METAR,METAR KGCK 270354Z AUTO 15005KT 10SM CLR 08/M07 A2997 RMK AO2 SLP141 T00781067,37.9221,-100.723,877,Garden City Rgnl,CLR,[],VFR,,,1014.1,,,,,,,"Garden City Rgnl, KS, US",US,United States,6.164813376359256
1386,KGCN,2026-02-27 03:58:38.814000+00:00,1772164440,2026-02-27T04:00:00.000Z,2.8,-0.6,50,4.0,,1025.1,6,METAR,METAR KGCN 270354Z AUTO 05004KT CLR 03/M01 A3027 RMK AO2 SLP225 T00281006,35.9458,-112.1554,1993,Grand Canyon Park Arpt,CLR,[],,,,1022.5,,,,,,,"Grand Canyon Park Arpt, AZ, US",US,United States,0.7428643025116897
1377,KGCY,2026-02-27 04:00:09.556000+00:00,1772164500,2026-02-27T04:00:00.000Z,9.0,8.0,0,0.0,10+,1013.3,6,METAR,METAR KGCY 270355Z AUTO 00000KT 10SM BKN025 BKN030 OVC037 09/08 A2992 RMK A01,36.1924,-82.8135,488,Greeneville/Greene Cnty,OVC,"[{'cover': 'BKN', 'base': 2500}, {'cover': 'BKN', 'base': 3000}, {'cover': 'OVC', 'base': 3700}]",MVFR,,,,,,,,,,"Greeneville/Greene Cnty, TN, US",US,United States,18.72016666666667
1335,KGDV,2026-02-27 04:00:14.643000+00:00,1772164560,2026-02-27T04:00:00.000Z,4.4,-5.6,280,10.0,10+,1005.5,46,METAR,METAR KGDV 270356Z AUTO 28010KT 10SM CLR 04/M06 A2969 RMK AO2 SLP069 T00441056 TSNO $,47.1401,-104.8127,749,Glendive/Dawson Arpt,CLR,[],VFR,,,1006.9,,,,,,,"Glendive/Dawson Arpt, MT, US",US,United States,0.5181475474111765
1360,KGDW,2026-02-27 03:58:47.751000+00:00,1772164500,2026-02-27T04:00:00.000Z,-2.0,-8.0,220,7.0,10+,1010.2,6,METAR,METAR KGDW 270355Z AUTO 22007KT 10SM OVC039 M02/M08 A2983 RMK AO2,43.97,-84.475,234,Gladwin/Zettel Mem,OVC,"[{'cover': 'OVC', 'base': 3900}]",VFR,,,,,,,,,,"Gladwin/Zettel Mem, MI, US",US,United States,-6.42819200813577
1387,KGED,2026-02-27 03:58:19.178000+00:00,1772164440,2026-02-27T04:00:00.000Z,2.2,0.6,0,0.0,7,1015.0,14,METAR,METAR KGED 270354Z AUTO 00000KT 7SM OVC070 02/01 A2997 RMK AO2 SLP147 T00220006 $,38.6898,-75.3625,15,Georgetown/Sussex Cnty,OVC,"[{'cover': 'OVC', 'base': 7000}]",VFR,,,1014.7,,,,,,,"Georgetown/Sussex Cnty, DE, US",US,United States,14.493966666666665
1428,KGEG,2026-02-27 03:58:40.098000+00:00,1772164380,2026-02-27T04:00:00.000Z,5.6,-1.1,210,11.0,10+,1019.4,4,METAR,METAR KGEG 270353Z 21011G21KT 10SM FEW060 BKN160 BKN250 06/M01 A3010 RMK AO2 SLP209 T00561011,47.6217,-117.528,718,Spokane Intl,BKN,"[{'cover': 'FEW', 'base': 6000}, {'cover': 'BKN', 'base': 16000}, {'cover': 'BKN', 'base': 25000}]",VFR,21.0,,1020.9,,,,,,,"Spokane Intl, WA, US",US,United States,1.7981086195438678
1395,KGEY,2026-02-27 03:58:23.437000+00:00,1772164380,2026-02-27T04:00:00.000Z,9.4,-9.4,0,0.0,10+,1014.0,6,METAR,METAR KGEY 270353Z AUTO 00000KT 10SM CLR 09/M09 A2994 RMK AO2 SLP147 T00941094,44.5174,-108.0752,1191,Greybull/South Big Horn Arpt,CLR,[],VFR,,,1014.7,,,,,,,"Greybull/South Big Horn Arpt, WY, US",US,United States,18.968766666666667
1401,KGFK,2026-02-27 03:58:24.760000+00:00,1772164380,2026-02-27T04:00:00.000Z,-0.6,-2.8,190,6.0,10+,1002.5,4,METAR,METAR KGFK 270353Z 19006KT 10SM BKN100 M01/M03 A2960 RMK AO2 SLP036 T10061028,47.9428,-97.1829,256,Grand Forks Intl,BKN,"[{'cover': 'BKN', 'base': 10000}]",VFR,,,1003.6,,,,,,,"Grand Forks Intl, ND, US",US,United States,-4.296740813187881
1402,KGFL,2026-02-27 03:58:42.124000+00:00,1772164380,2026-02-27T04:00:00.000Z,-10.6,-13.3,0,0.0,10+,1015.7,14,METAR,METAR KGFL 270353Z AUTO 00000KT 10SM CLR M11/M13 A2999 RMK AO2 SLP166 T11061133 $,43.3385,-73.6102,99,Glens Falls/Warren Cnty,CLR,[],VFR,,,1016.6,,,,,,,"Glens Falls/Warren Cnty, NY, US",US,United States,6.538766666666669
1362,KGGE,2026-02-27 03:58:50.029000+00:00,1772164500,2026-02-27T04:00:00.000Z,13.0,12.0,220,5.0,10+,1015.3,6,METAR,METAR KGGE 270355Z AUTO 22005KT 10SM SCT050 SCT070 OVC100 13/12 A2998 RMK AO2 P0002,33.3138,-79.3187,9,Georgetown Cnty,OVC,"[{'cover': 'SCT', 'base': 5000}, {'cover': 'SCT', 'base': 7000}, {'cover': 'OVC', 'base': 10000}]",VFR,,,,0.02,,,,,,"Georgetown Cnty, SC, US",US,United States,12.337554416310713
1421,KGGG,2026-02-27 03:58:27.934000+00:00,1772164380,2026-02-27T04:00:00.000Z,17.2,13.9,300,3.0,10+,1011.9,6,METAR,METAR KGGG 270353Z AUTO 30003KT 10SM CLR 17/14 A2988 RMK AO2 SLP116 T01720139,32.3909,-94.714,107,Longview/Gregg Cnty,CLR,[],VFR,,,1011.6,,,,,,,"Longview/Gregg Cnty, TX, US",US,United States,17.832826882673842
1427,KGGW,2026-02-27 03:55:01.276000+00:00,1772164380,2026-02-27T04:00:00.000Z,7.2,-5.6,280,16.0,10+,1003.5,38,METAR,METAR KGGW 270353Z AUTO 28016KT 10SM CLR 07/M06 A2963 RMK AO2 SLP048 T00721056 TSNO ,48.2142,-106.6214,698,Glasgow Intl Arpt,CLR,[],VFR,,,1004.8,,,,,,,"Glasgow Intl Arpt, MT, US",US,United States,2.967546186326481
1420,KGIF,2026-02-27 03:56:39.381000+00:00,1772164380,2026-02-27T04:00:00.000Z,17.2,15.6,0,0.0,10+,1017.4,6,METAR,METAR KGIF 270353Z AUTO 00000KT 10SM FEW029 17/16 A3004 RMK AO1 SLP171 T01720156,28.0614,-81.7568,44,Winter Haven Rgnl,FEW,"[{'cover': 'FEW', 'base': 2900}]",VFR,,,1017.1,,,,,,,"Winter Haven Rgnl, FL, US",US,United States,23.81646666666667
1403,KGJT,2026-02-27 03:58:23.946000+00:00,1772164380,2026-02-27T04:00:00.000Z,6.1,-4.4,0,0.0,10+,1021.8,4,METAR,METAR KGJT 270353Z 00000KT 10SM CLR 06/M04 A3017 RMK AO2 SLP199 T00611044,39.1344,-108.5408,1475,Grand Junction Rgnl,CLR,[],VFR,,,1019.9,,,,,,,"Grand Junction Rgnl, CO, US",US,United States,16.917816666666667
2285,KGKJ,2026-02-27 03:58:24.781000+00:00,1772164380,2026-02-27T04:00:00.000Z,-3.9,-7.8,130,3.0,10+,1013.3,6,METAR,METAR KGKJ 270353Z AUTO 13003KT 10SM BKN090 M04/M08 A2992 RMK AO2 SLP149 T10391078,41.6258,-80.2123,428,Meadville Arpt,BKN,"[{'cover': 'BKN', 'base': 9000}]",VFR,,,1014.9,,,,,,,"Meadville Arpt, PA, US",US,United States,-6.277706753349332
1346,KGKT,2026-02-27 04:00:09.611000+00:00,1772164560,2026-02-27T04:00:00.000Z,10.0,10.0,0,0.0,10+,1014.0,6,METAR,METAR KGKT 270356Z AUTO 00000KT 10SM OVC021 10/10 A2994 RMK A01,35.8568,-83.5333,305,Gatlinburg-Pigeon Forge Arpt,OVC,"[{'cover': 'OVC', 'base': 2100}]",MVFR,,,,,,,,,,"Gatlinburg-Pigeon Forge Arpt, TN, US",US,United States,19.341666666666665
1419,KGLD,2026-02-27 03:56:39.471000+00:00,1772164380,2026-02-27T04:00:00.000Z,3.3,-6.1,260,7.0,10+,1014.6,6,METAR,METAR KGLD 270353Z AUTO 26007KT 10SM CLR 03/M06 A2996 RMK AO2 SLP140 T00331061,39.3673,-101.6932,1111,Goodland/Renner Fld,CLR,[],VFR,,,1014.0,,,,,,,"Goodland/Renner Fld, KS, US",US,United States,0.029050330649459017
1358,KGLE,2026-02-27 03:58:19.193000+00:00,1772164500,2026-02-27T04:00:00.000Z,12.7,2.4,350,6.0,10+,1015.0,6,METAR,METAR KGLE 270355Z AUTO 35006KT 10SM CLR 13/02 A2997 RMK AO2 T01270024,33.6525,-97.198,250,Gainesville Muni,CLR,[],VFR,,,,,,,,,,"Gainesville Muni, TX, US",US,United States,11.713891622067752
1418,KGLH,2026-02-27 03:56:39.491000+00:00,1772164380,2026-02-27T04:00:00.000Z,16.7,14.4,0,0.0,10+,1010.6,6,METAR,METAR KGLH 270353Z AUTO 00000KT 10SM BKN041 17/14 A2984 RMK AO2 SLP112 T01670144,33.4772,-90.9847,40,Greenville/Mid Delta Arpt,BKN,"[{'cover': 'BKN', 'base': 4100}]",VFR,,,1011.2,,,,,,,"Greenville/Mid Delta Arpt, MS, US",US,United States,23.50571666666667
1404,KGLR,2026-02-27 03:58:42.920000+00:00,1772164380,2026-02-27T04:00:00.000Z,-4.4,-5.6,220,8.0,10+,1008.2,6,METAR,METAR KGLR 270353Z AUTO 22008KT 10SM FEW029 OVC043 M04/M06 A2977 RMK AO2 SNE33 SLP101 P0000 T10441056,45.0166,-84.6894,403,Gaylord Rgnl,OVC,"[{'cover': 'FEW', 'base': 2900}, {'cover': 'OVC', 'base': 4300}]",VFR,,,1010.1,0.005,,,,,,"Gaylord Rgnl, MI, US",US,United States,-9.778602089870919
1430,KGLS,2026-02-27 03:56:20.759000+00:00,1772164320,2026-02-27T04:00:00.000Z,19.4,18.3,120,7.0,7,1011.3,6,METAR,METAR KGLS 270352Z AUTO 12007KT 7SM FEW036 19/18 A2986 RMK AO1 SLP111 T01940183,29.2704,-94.8642,2,Galveston/Scholes Intl,FEW,"[{'cover': 'FEW', 'base': 3600}]",VFR,,,1011.1,,,,,,,"Galveston/Scholes Intl, TX, US",US,United States,19.64444686922346
1368,KGLW,2026-02-27 04:02:08.848000+00:00,1772164500,2026-02-27T04:00:00.000Z,4.6,4.4,70,4.0,10+,1014.6,6,METAR,METAR KGLW 270355Z AUTO 07004KT 10SM CLR 05/04 A2996 RMK AO2 T00460044 401170045,37.0337,-85.9523,216,Glasgow Muni,CLR,[],VFR,,,,,,11.7,4.5,,,"Glasgow Muni, KY, US",US,United States,2.843877270094117
1323,KGMU,2026-02-27 04:02:32.483000+00:00,1772164800,2026-02-27T04:00:00.000Z,12.2,12.2,0,0.0,0.5,1013.0,6,SPECI,SPECI KGMU 270400Z AUTO 00000KT 1/2SM FG BKN009 OVC017 12/12 A2991 RMK AO2 T01220122,34.8487,-82.35,309,Greenville/Downtown Arpt,OVC,"[{'cover': 'BKN', 'base': 900}, {'cover': 'OVC', 'base': 1700}]",LIFR,,FG,,,,,,,,"Greenville/Downtown Arpt, SC, US",US,United States,20.708966666666665
1374,KGNG,2026-02-27 04:00:28.923000+00:00,1772164500,2026-02-27T04:00:00.000Z,5.0,0.0,270,5.0,10+,1024.8,6,METAR,METAR KGNG 270355Z AUTO 27005KT 10SM CLR 05/M00 A3026 RMK AO2,42.9155,-114.7655,1128,Gooding Muni,CLR,[],VFR,,,,,,,,,,"Gooding Muni, ID, US",US,United States,2.8410297394623205
1371,KGNT,2026-02-27 03:58:33.268000+00:00,1772164500,2026-02-27T04:00:00.000Z,7.3,-7.7,320,4.0,10+,1023.8,6,METAR,METAR KGNT 270355Z AUTO 32004KT 10SM CLR 07/M08 A3023 RMK AO2 T00731077,35.1653,-107.9021,1988,Grants-Milan Muni,CLR,[],VFR,,,,,,,,,,"Grants-Milan Muni, NM, US",US,United States,5.995396721467756
1405,KGNV,2026-02-27 03:56:39.573000+00:00,1772164380,2026-02-27T04:00:00.000Z,16.1,12.8,220,4.0,10+,1017.0,12,METAR,METAR KGNV 270353Z 22004KT 10SM CLR 16/13 A3003 RMK AO2 SLP167 T01610128 $,29.6917,-82.276,41,Gainesville Rgnl,CLR,[],VFR,,,1016.7,,,,,,,"Gainesville Rgnl, FL, US",US,United States,16.267015674092953
1406,KGOK,2026-02-27 03:56:39.596000+00:00,1772164380,2026-02-27T04:00:00.000Z,11.1,-2.2,VRB,3.0,10+,1014.6,14,METAR,METAR KGOK 270353Z AUTO VRB03KT 10SM CLR 11/M02 A2996 RMK AO2 SLP143 T01111022 $,35.8517,-97.4142,326,Guthrie-Edmond Rgnl,CLR,[],VFR,,,1014.3,,,,,,,"Guthrie-Edmond Rgnl, OK, US",US,United States,10.862483035292733
1349,KGON,2026-02-27 04:00:19.739000+00:00,1772164560,2026-02-27T04:00:00.000Z,1.7,-6.1,350,9.0,10+,1014.0,6,METAR,METAR KGON 270356Z AUTO 35009KT 10SM CLR 02/M06 A2994 RMK AO2 SLP137 T00171061,41.3279,-72.0489,2,Groton-New London Arpt,CLR,[],VFR,,,1013.7,,,,,,,"Groton-New London Arpt, CT, US",US,United States,-2.5810283610392935
1048,KGPI,2026-02-27 04:00:32.584000+00:00,1772164500,2026-02-27T04:00:00.000Z,5.0,-6.7,200,11.0,10+,1016.0,4,METAR,METAR KGPI 270355Z 20011KT 10SM OVC095 05/M07 A3000 RMK AO2 SLP175 T00501067,48.3041,-114.2643,903,Kalispell/Glacier Park Intl,OVC,"[{'cover': 'OVC', 'base': 9500}]",VFR,,,1017.5,,,,,,,"Kalispell/Glacier Park Intl, MT, US",US,United States,1.0402430813723542
1407,KGPT,2026-02-27 03:56:39.620000+00:00,1772164380,2026-02-27T04:00:00.000Z,18.3,17.2,0,0.0,8,1012.6,4,METAR,METAR KGPT 270353Z 00000KT 8SM SCT025 OVC070 18/17 A2990 RMK AO2 SLP123 T01830172,30.4121,-89.0809,5,Gulfport-Biloxi Intl,OVC,"[{'cover': 'SCT', 'base': 2500}, {'cover': 'OVC', 'base': 7000}]",VFR,,,1012.3,,,,,,,"Gulfport-Biloxi Intl, MS, US",US,United States,24.50011666666667
1415,KGRB,2026-02-27 03:58:37.691000+00:00,1772164380,2026-02-27T04:00:00.000Z,-0.6,-5.0,220,4.0,10+,1009.2,4,METAR,METAR KGRB 270353Z 22004KT 10SM CLR M01/M05 A2980 RMK AO2 SLP101 T10061050,44.4796,-88.137,209,Green Bay/Straubel Intl,CLR,[],VFR,,,1010.1,,,,,,,"Green Bay/Straubel Intl, WI, US",US,United States,-3.225715747366225
1347,KGRD,2026-02-27 04:00:16.237000+00:00,1772164560,2026-02-27T04:00:00.000Z,13.9,13.3,240,4.0,10+,1013.0,6,METAR,METAR KGRD 270356Z AUTO 24004KT 10SM FEW090 14/13 A2991 RMK AO2 SLP127 T01390133,34.254,-82.1526,188,Greenwood Cnty,FEW,"[{'cover': 'FEW', 'base': 9000}]",VFR,,,1012.7,,,,,,,"Greenwood Cnty, SC, US",US,United States,13.699110935936652
1361,KGRF,2026-02-27 03:58:27.566000+00:00,1772164500,2026-02-27T04:00:00.000Z,7.8,3.1,160,9.0,10+,1025.1,14,METAR,METAR KGRF 270355Z AUTO 16009KT 10SM CLR 08/03 A3027 RMK AO2 SLP256 T00780031 $,47.079,-122.58,91,Fort Lewis/Gray AAF,CLR,[],VFR,,,1025.6,,,,,,,"Fort Lewis/Gray AAF, WA, US",US,United States,5.000271743493793
1390,KGRI,2026-02-27 03:58:42.144000+00:00,1772164380,2026-02-27T04:00:00.000Z,4.4,-3.9,180,6.0,10+,1011.6,6,METAR,METAR KGRI 270353Z AUTO 18006KT 10SM CLR 04/M04 A2987 RMK AO2 SLP129 T00441039,40.9615,-98.313,562,Grand Island Rgnl,CLR,[],VFR,,,1012.9,,,,,,,"Grand Island Rgnl, NE, US",US,United States,1.722293936908217
1366,KGRK,2026-02-27 03:58:34.480000+00:00,1772164500,2026-02-27T04:00:00.000Z,19.5,13.9,350,8.0,10+,1013.3,6,METAR,METAR KGRK 270355Z AUTO 35008KT 10SM CLR 20/14 A2992 RMK AO2 SLP124 T01950139,31.0779,-97.8323,311,Killeen-Ft Hood Rgnl,CLR,[],VFR,,,1012.4,,,,,,,"Killeen-Ft Hood Rgnl, TX, US",US,United States,19.64794951977877
1378,KGRN,2026-02-27 04:00:28.115000+00:00,1772164500,2026-02-27T04:00:00.000Z,0.1,-5.6,260,8.0,10+,1010.2,6,METAR,METAR KGRN 270355Z AUTO 26008KT 10SM CLR 00/M06 A2983 RMK AO2 T00011056,42.8039,-102.181,1080,Gordon Muni,CLR,[],VFR,,,,,,,,,,"Gordon Muni, NE, US",US,United States,-4.2380379792674185
1417,KGRR,2026-02-27 03:58:39.513000+00:00,1772164380,2026-02-27T04:00:00.000Z,-1.7,-6.1,200,8.0,10+,1011.6,4,METAR,METAR KGRR 270353Z 20008KT 10SM FEW110 M02/M06 A2987 RMK AO2 SLP124 T10171061,42.8821,-85.523,239,Grand Rapids Intl,FEW,"[{'cover': 'FEW', 'base': 11000}]",VFR,,,1012.4,,,,,,,"Grand Rapids Intl, MI, US",US,United States,-6.454263623508814
1359,KGSB,2026-02-27 03:58:27.686000+00:00,1772164500,2026-02-27T04:00:00.000Z,14.4,13.4,250,5.0,10+,1013.3,14,METAR,METAR KGSB 270355Z AUTO 25005KT 10SM OVC011 14/13 A2992 RMK AO2 RAB0255E11 SLP135 P0001 T01440134 $,35.3445,-77.9458,33,Goldsboro/Johnson AFB,OVC,"[{'cover': 'OVC', 'base': 1100}]",MVFR,,,1013.5,0.01,,,,,,"Goldsboro/Johnson AFB, NC, US",US,United States,13.999446234759183
1396,KGSH,2026-02-27 03:58:24.799000+00:00,1772164380,2026-02-27T04:00:00.000Z,-0.6,-3.9,180,5.0,10+,1012.6,6,METAR,METAR KGSH 270353Z AUTO 18005KT 10SM BKN055 M01/M04 A2990 RMK AO2 SLP135 T10061039,41.5265,-85.7872,252,Goshen Muni,BKN,"[{'cover': 'BKN', 'base': 5500}]",VFR,,,1013.5,,,,,,,"Goshen Muni, IN, US",US,United States,-3.8065375343315586
1383,KGSO,2026-02-27 03:58:33.628000+00:00,1772164440,2026-02-27T04:00:00.000Z,7.2,7.2,30,3.0,0.25,1013.3,4,METAR,METAR KGSO 270354Z 03003KT 1/4SM R23L/0400V1000FT FG BKN001 BKN065 07/07 A2992 RMK AO2 SLP132 T00720072,36.0969,-79.9432,275,Greensboro Intl,BKN,"[{'cover': 'BKN', 'base': 100}, {'cover': 'BKN', 'base': 6500}]",LIFR,,FG,1013.2,,,,,,,"Greensboro Intl, NC, US",US,United States,6.406033690245801
1408,KGSP,2026-02-27 03:56:39.737000+00:00,1772164380,2026-02-27T04:00:00.000Z,13.3,12.8,200,5.0,7,1013.0,4,METAR,METAR KGSP 270353Z 20005KT 7SM BKN011 13/13 A2991 RMK AO2 SLP123 T01330128,34.8842,-82.2209,285,Greenville-Spartanburg Intl,BKN,"[{'cover': 'BKN', 'base': 1100}]",MVFR,,,1012.3,,,,,,,"Greenville-Spartanburg Intl, SC, US",US,United States,12.69367409169253
1391,KGTF,2026-02-27 03:58:41.455000+00:00,1772164380,2026-02-27T04:00:00.000Z,6.1,-10.0,220,16.0,10+,1009.6,4,METAR,METAR KGTF 270353Z 22016G22KT 10SM CLR 06/M10 A2981 RMK AO2 PK WND 24031/0256 SLP116 T00611100,47.4733,-111.3828,1117,Great Falls Intl,CLR,[],VFR,22.0,,1011.6,,,,,,,"Great Falls Intl, MT, US",US,United States,1.534520400428217
1340,KGTR,2026-02-27 03:58:50.138000+00:00,1772164560,2026-02-27T04:00:00.000Z,16.7,16.7,220,3.0,5,1010.2,14,METAR,METAR KGTR 270356Z AUTO 22003KT 5SM BR BKN030 OVC038 17/17 A2983 RMK AO2 LTG DSNT N AND NW SLP100 T01670167 $,33.456,-88.593,80,Golden Triangle Arpt,OVC,"[{'cover': 'BKN', 'base': 3000}, {'cover': 'OVC', 'base': 3800}]",MVFR,,BR,1010.0,,,,,,,"Golden Triangle Arpt, MS, US",US,United States,17.26148722305244
1338,KGUC,2026-02-27 04:00:33.950000+00:00,1772164560,2026-02-27T04:00:00.000Z,2.2,-6.1,350,6.0,10+,1024.8,78,METAR,METAR KGUC 270356Z AUTO 35006KT 10SM CLR 02/M06 A3026 RMK AO2 SLP227 T00221061 FZRANO $,38.5322,-106.9419,2337,Gunnison Arpt,CLR,[],VFR,,,1022.7,,,,,,,"Gunnison Arpt, CO, US",US,United States,-0.9260813531340695
1409,KGUP,2026-02-27 03:58:40.572000+00:00,1772164380,2026-02-27T04:00:00.000Z,3.9,-8.3,VRB,3.0,10+,1023.8,6,METAR,METAR KGUP 270353Z AUTO VRB03KT 10SM CLR 04/M08 A3023 RMK AO2 SLP202 T00391083,35.5086,-108.7932,1972,Gallup Muni,CLR,[],VFR,,,1020.2,,,,,,,"Gallup Muni, NM, US",US,United States,2.6351919367445475
1363,KGUS,2026-02-27 03:58:50.189000+00:00,1772164500,2026-02-27T04:00:00.000Z,2.4,-1.9,150,5.0,10+,1013.0,14,METAR,METAR KGUS 270355Z AUTO 15005KT 10SM OVC060 02/M02 A2991 RMK AO2 SLP138 T00241019 $,40.6375,-86.1631,245,Peru/Grissom ARB,OVC,"[{'cover': 'OVC', 'base': 6000}]",VFR,,,1013.8,,,,,,,"Peru/Grissom ARB, IN, US",US,United States,-0.24534078051340952
1410,KGUY,2026-02-27 03:56:39.804000+00:00,1772164380,2026-02-27T04:00:00.000Z,9.4,-1.1,0,0.0,10+,1016.0,14,METAR,METAR KGUY 270353Z AUTO 00000KT 10SM CLR 09/M01 A3000 RMK AO2 SLP140 T00941011 $,36.6819,-101.5052,950,Guymon Muni,CLR,[],VFR,,,1014.0,,,,,,,"Guymon Muni, OK, US",US,United States,18.968766666666667
1424,KGVL,2026-02-27 03:56:39.827000+00:00,1772164380,2026-02-27T04:00:00.000Z,13.9,12.8,310,3.0,1.75,1012.6,6,METAR,METAR KGVL 270353Z AUTO 31003KT 1 3/4SM BR OVC003 14/13 A2990 RMK AO2 SLP119 T01390128,34.2721,-83.8304,387,Gainesville/Gilmer Mem,OVC,"[{'cover': 'OVC', 'base': 300}]",LIFR,,BR,1011.9,,,,,,,"Gainesville/Gilmer Mem, GA, US",US,United States,14.061985129172585
1379,KGVT,2026-02-27 04:02:18.642000+00:00,1772164500,2026-02-27T04:00:00.000Z,15.0,6.0,350,8.0,10+,1013.6,6,METAR,METAR KGVT 270355Z AUTO 35008KT 10SM CLR 15/06 A2993 RMK AO2,33.0669,-96.0614,165,Greenville/Majors Arpt,CLR,[],VFR,,,,,,,,,,"Greenville/Majors Arpt, TX, US",US,United States,14.107385409175274
1425,KGWO,2026-02-27 03:56:28.201000+00:00,1772164380,2026-02-27T04:00:00.000Z,18.3,15.0,30,7.0,10+,1010.6,6,METAR,METAR KGWO 270353Z AUTO 03007KT 10SM VCTS SCT027 BKN034 OVC060 18/15 A2984 RMK AO2 LTG DSNT NE AND E SLP104 T01830150,33.4961,-90.0894,42,Greenwood/Leflore Arpt,OVC,"[{'cover': 'SCT', 'base': 2700}, {'cover': 'BKN', 'base': 3400}, {'cover': 'OVC', 'base': 6000}]",VFR,,VCTS,1010.4,,,,,,,"Greenwood/Leflore Arpt, MS, US",US,United States,18.30426449702276
1344,KGXY,2026-02-27 04:00:33.119000+00:00,1772164560,2026-02-27T04:00:00.000Z,3.3,-12.8,240,5.0,10+,1016.0,14,METAR,METAR KGXY 270356Z AUTO 24005KT 10SM CLR 03/M13 A3000 RMK AO2 SLP162 T00331128 $,40.4345,-104.6296,1420,Greeley/Weld Cnty Arpt,CLR,[],VFR,,,1016.2,,,,,,,"Greeley/Weld Cnty Arpt, CO, US",US,United States,0.8230182456320279
1353,KGYH,2026-02-27 03:58:47.896000+00:00,1772164500,2026-02-27T04:00:00.000Z,13.0,13.0,260,3.0,7,1012.6,6,METAR,METAR KGYH 270355Z AUTO 26003KT 7SM BKN007 13/13 A2990 RMK AO2 LTG DSNT NW,34.763,-82.375,283,Greenville/Donaldson Fld,BKN,"[{'cover': 'BKN', 'base': 700}]",IFR,,,,,,,,,,"Greenville/Donaldson Fld, SC, US",US,United States,13.03357374185406
2907,KGYI,2026-02-27 04:00:24.324000+00:00,1772164500,2026-02-27T04:00:00.000Z,16.1,1.4,10,3.0,10+,1014.3,14,METAR,METAR KGYI 270355Z AUTO 01003KT 10SM CLR 16/01 A2995 RMK AO2 T01610014 $,33.7231,-96.6714,227,Dennison/N Texas Rgnl,CLR,[],VFR,,,,,,,,,,"Dennison/N Texas Rgnl, TX, US",US,United States,16.575879631506762
1457,KGYR,2026-02-27 03:54:25.635000+00:00,1772164020,2026-02-27T04:00:00.000Z,25.0,7.0,230,7.0,10+,1013.3,0,METAR,METAR KGYR 270347Z 23007KT 10SM BKN250 25/07 A2992 RMK LAST,33.428,-112.368,292,Phoenix/Goodyear Muni,BKN,"[{'cover': 'BKN', 'base': 25000}]",VFR,,,,,,,,,,"Phoenix/Goodyear Muni, AZ, US",US,United States,26.467193491336168
1449,KGYY,2026-02-27 03:51:31.101000+00:00,1772164200,2026-02-27T04:00:00.000Z,3.0,1.0,210,5.0,10+,1012.3,0,METAR,METAR KGYY 270350Z 21005KT 10SM CLR 03/01 A2989,41.6121,-87.4091,179,Gary Intl,CLR,[],VFR,,,,,,,,,,"Gary Intl, IN, US",US,United States,0.46689857025021475
1364,KHAF,2026-02-27 04:00:33.982000+00:00,1772164500,2026-02-27T04:00:00.000Z,17.0,4.0,350,6.0,10+,1022.1,6,METAR,METAR KHAF 270355Z AUTO 35006G11KT 10SM CLR 17/04 A3018 RMK AO2,37.5136,-122.4996,11,Half Moon Bay Arpt,CLR,[],VFR,11.0,,,,,,,,,"Half Moon Bay Arpt, CA, US",US,United States,16.890261507150413
1356,KHAI,2026-02-27 04:00:34.922000+00:00,1772164500,2026-02-27T04:00:00.000Z,-2.0,-5.0,190,4.0,10+,1012.3,6,METAR,METAR KHAI 270355Z AUTO 19004KT 10SM CLR M02/M05 A2989 RMK AO2,41.9591,-85.5933,250,Three Rivers Muni,CLR,[],VFR,,,,,,,,,,"Three Rivers Muni, MI, US",US,United States,-4.8598369443747815
1416,KHAO,2026-02-27 03:58:42.510000+00:00,1772164380,2026-02-27T04:00:00.000Z,-0.6,-2.2,0,0.0,10+,1015.0,6,METAR,METAR KHAO 270353Z AUTO 00000KT 10SM CLR M01/M02 A2997 RMK AO2 SLP153 T10061022,39.3612,-84.5206,185,Hamilton/Butler Cnty,CLR,[],VFR,,,1015.3,,,,,,,"Hamilton/Butler Cnty, OH, US",US,United States,12.753766666666671
1426,KHBG,2026-02-27 03:56:28.261000+00:00,1772164380,2026-02-27T04:00:00.000Z,19.4,17.8,0,0.0,10+,1012.3,134,METAR,METAR KHBG 270353Z AUTO 00000KT 10SM BKN039 BKN090 19/18 A2989 RMK AO2 SLP117 T01940178 PWINO,31.2648,-89.2561,45,Hattiesburg/Chain Muni,BKN,"[{'cover': 'BKN', 'base': 3900}, {'cover': 'BKN', 'base': 9000}]",VFR,,,1011.7,,,,,,,"Hattiesburg/Chain Muni, MS, US",US,United States,25.18376666666667
1411,KHBR,2026-02-27 03:56:28.277000+00:00,1772164380,2026-02-27T04:00:00.000Z,11.1,-2.2,140,4.0,10+,1015.0,6,METAR,METAR KHBR 270353Z AUTO 14004KT 10SM CLR 11/M02 A2997 RMK AO2 SLP144 T01111022,34.9891,-99.0528,475,Hobart Muni,CLR,[],VFR,,,1014.4,,,,,,,"Hobart Muni, OK, US",US,United States,10.430868541919539
1608,KHDE,2026-02-27 04:00:35.658000+00:00,1772164500,2026-02-27T04:00:00.000Z,5.8,-5.4,190,9.0,10+,1012.3,6,METAR,METAR KHDE 270355Z AUTO 19009KT 10SM CLR 06/M05 A2989 RMK AO2 T00581054,40.4496,-99.3363,703,Holdrege/Brewster Fld,CLR,[],VFR,,,,,,,,,,"Holdrege/Brewster Fld, NE, US",US,United States,2.5145995780731076
1594,KHDN,2026-02-27 04:00:34.001000+00:00,1772164560,2026-02-27T04:00:00.000Z,2.8,-4.4,0,0.0,10+,1024.1,14,METAR,METAR KHDN 270356Z AUTO 00000KT 10SM CLR 03/M04 A3024 RMK AO2 SLP236 T00281044 $,40.4842,-107.2296,2012,Hayden/Yampa Valley Arpt,CLR,[],VFR,,,1023.6,,,,,,,"Hayden/Yampa Valley Arpt, CO, US",US,United States,14.866866666666668
2475,KHEF,2026-02-27 03:58:50.340000+00:00,1772164560,2026-02-27T04:00:00.000Z,1.1,0.6,0,0.0,5,1015.3,78,METAR,METAR KHEF 270356Z AUTO 00000KT 5SM BR FEW070 BKN090 01/01 A2998 RMK AO2 SLP161 T00110006 401170006 FZRANO $,38.724,-77.5175,53,Manassas Rgnl,BKN,"[{'cover': 'FEW', 'base': 7000}, {'cover': 'BKN', 'base': 9000}]",MVFR,,BR,1016.1,,,11.7,0.6,,,"Manassas Rgnl, VA, US",US,United States,13.810316666666667
1590,KHEZ,2026-02-27 03:58:50.387000+00:00,1772164560,2026-02-27T04:00:00.000Z,18.9,16.1,190,3.0,10+,1012.3,14,METAR,METAR KHEZ 270356Z AUTO 19003KT 10SM SCT028 BKN080 19/16 A2989 RMK AO2 SLP120 T01890161 $,31.6159,-91.2973,82,Natchez/Adams Cnty,BKN,"[{'cover': 'SCT', 'base': 2800}, {'cover': 'BKN', 'base': 8000}]",VFR,,,1012.0,,,,,,,"Natchez/Adams Cnty, MS, US",US,United States,19.775381725386612
1676,KHFD,2026-02-27 03:58:42.944000+00:00,1772164380,2026-02-27T04:00:00.000Z,-0.6,-8.3,360,5.0,10+,1015.0,4,METAR,METAR KHFD 270353Z 36005KT 10SM CLR M01/M08 A2997 RMK AO2 SLP149 T10061083,41.7352,-72.6512,3,Hartford/Brainard Arpt,CLR,[],VFR,,,1014.9,,,,,,,"Hartford/Brainard Arpt, CT, US",US,United States,-3.8065375343315586
1604,KHFF,2026-02-27 03:58:48.015000+00:00,1772164500,2026-02-27T04:00:00.000Z,12.7,12.4,180,3.0,0.63,1013.0,14,METAR,METAR KHFF 270355Z AUTO 18003KT 5/8SM BR BKN030 BKN210 13/12 A2991 RMK AO2 SLP131 T01270124 RVRNO $,35.0424,-79.4973,100,Mackall,BKN,"[{'cover': 'BKN', 'base': 3000}, {'cover': 'BKN', 'base': 21000}]",LIFR,,BR,1013.1,,,,,,,"Mackall, NC, US",US,United States,12.690769946081225
1663,KHGR,2026-02-27 03:58:41.745000+00:00,1772164380,2026-02-27T04:00:00.000Z,1.7,0.0,0,0.0,5,1014.3,14,METAR,METAR KHGR 270353Z AUTO 00000KT 5SM BR CLR 02/00 A2995 RMK AO2 SLP156 T00170000 $,39.7062,-77.7304,206,Hagerstown Rgnl,CLR,[],MVFR,,BR,1015.6,,,,,,,"Hagerstown Rgnl, MD, US",US,United States,14.18321666666667
1650,KHHR,2026-02-27 03:58:27.955000+00:00,1772164380,2026-02-27T04:00:00.000Z,18.9,13.9,0,0.0,10+,1015.0,4,METAR,METAR KHHR 270353Z 00000KT 10SM CLR 19/14 A2997 RMK AO2 SLP148 T01890139,33.9235,-118.3329,21,Hawthorne Muni,CLR,[],VFR,,,1014.8,,,,,,,"Hawthorne Muni, CA, US",US,United States,24.873016666666672
1618,KHHW,2026-02-27 04:02:19.733000+00:00,1772164500,2026-02-27T04:00:00.000Z,15.0,4.0,360,5.0,10+,1014.0,6,METAR,METAR KHHW 270355Z AUTO 36005KT 10SM CLR 15/04 A2994 RMK AO2,34.0308,-95.5401,178,Hugo/Stamper Muni,CLR,[],VFR,,,,,,,,,,"Hugo/Stamper Muni, OK, US",US,United States,14.711685585522819
1651,KHIB,2026-02-27 03:58:42.533000+00:00,1772164380,2026-02-27T04:00:00.000Z,-2.8,-5.6,180,3.0,10+,1004.1,6,METAR,METAR KHIB 270353Z AUTO 18003KT 10SM OVC090 M03/M06 A2965 RMK AO2 SLP061 T10281056,47.3804,-92.8325,409,Hibbing/Chisholm Arpt,OVC,"[{'cover': 'OVC', 'base': 9000}]",VFR,,,1006.1,,,,,,,"Hibbing/Chisholm Arpt, MN, US",US,United States,-5.020759502182245
1680,KHIE,2026-02-27 03:56:26.323000+00:00,1772164320,2026-02-27T04:00:00.000Z,-13.3,-16.1,0,0.0,10+,1013.3,6,METAR,METAR KHIE 270352Z AUTO 00000KT 10SM CLR M13/M16 A2992 RMK AO2 SLP152 T11331161,44.3659,-71.5522,321,Mt Washington Rgnl,CLR,[],VFR,,,1015.2,,,,,,,"Mt Washington Rgnl, NH, US",US,United States,4.860716666666668
1589,KHIF,2026-02-27 04:02:12.192000+00:00,1772164740,2026-02-27T04:00:00.000Z,6.1,-3.8,110,7.0,10+,1024.8,4,METAR,METAR KHIF 270359Z 11007KT 10SM CLR 06/M04 A3026 RMK AO2A SLP235 T00611038,41.111,-111.962,1461,Ogden/Hill AFB,CLR,[],VFR,,,1023.5,,,,,,,"Ogden/Hill AFB, UT, US",US,United States,3.4404236417058107
1619,KHII,2026-02-27 04:02:20.082000+00:00,1772164500,2026-02-27T04:00:00.000Z,27.0,1.0,360,6.0,10+,1015.0,6,METAR,METAR KHII 270355Z AUTO 36006KT 10SM CLR 27/01 A2997 RMK AO2,34.5659,-114.3522,241,Lake Havasu City Arpt,CLR,[],VFR,,,,,,,,,,"Lake Havasu City Arpt, AZ, US",US,United States,28.9283310073426
1646,KHIO,2026-02-27 03:58:23.243000+00:00,1772164380,2026-02-27T04:00:00.000Z,5.6,3.3,310,3.0,10+,1026.5,12,METAR,METAR KHIO 270353Z 31003KT 10SM CLR 06/03 A3031 RMK AO2 SLP266 T00560033 $,45.5476,-122.9557,62,Portland/Hillsboro Arpt,CLR,[],VFR,,,1026.6,,,,,,,"Portland/Hillsboro Arpt, OR, US",US,United States,4.57774677945731
1652,KHKS,2026-02-27 03:56:28.389000+00:00,1772164380,2026-02-27T04:00:00.000Z,17.2,15.0,0,0.0,10+,1011.3,6,METAR,METAR KHKS 270353Z AUTO 00000KT 10SM CLR 17/15 A2986 RMK AO2 SLP103 T01720150,32.3376,-90.2214,103,Jackson/Hawkins Fld,CLR,[],VFR,,,1010.3,,,,,,,"Jackson/Hawkins Fld, MS, US",US,United States,23.81646666666667
1659,KHKY,2026-02-27 03:56:28.404000+00:00,1772164380,2026-02-27T04:00:00.000Z,10.0,9.4,60,3.0,0.25,1013.3,6,METAR,METAR KHKY 270353Z AUTO 06003KT M1/4SM FG VV001 10/09 A2992 RMK AO2 SLP120 T01000094,35.742,-81.3822,357,Hickory Rgnl,OVX,"[{'cover': 'OVX', 'base': 100}]",LIFR,,FG,1012.0,,,,,,1.0,"Hickory Rgnl, NC, US",US,United States,9.60553578412565
1630,KHLB,2026-02-27 04:00:28.154000+00:00,1772164500,2026-02-27T04:00:00.000Z,1.0,1.0,0,0.0,10+,1014.0,6,METAR,METAR KHLB 270355Z AUTO 00000KT 10SM SCT050 BKN055 01/01 A2994 RMK A01,39.3463,-85.2602,297,Batesville Arpt,BKN,"[{'cover': 'SCT', 'base': 5000}, {'cover': 'BKN', 'base': 5500}]",VFR,,,,,,,,,,"Batesville Arpt, IN, US",US,United States,13.74816666666667
1647,KHLC,2026-02-27 03:58:33.643000+00:00,1772164380,2026-02-27T04:00:00.000Z,1.7,-4.4,280,3.0,10+,1013.6,6,METAR,METAR KHLC 270353Z AUTO 28003KT 10SM CLR 02/M04 A2993 RMK AO2 SLP142 T00171044,39.3741,-99.8299,667,Hill City Muni,CLR,[],VFR,,,1014.2,,,,,,,"Hill City Muni, KS, US",US,United States,0.12129743441037356
1653,KHLG,2026-02-27 03:58:41.770000+00:00,1772164380,2026-02-27T04:00:00.000Z,2.8,-9.4,0,0.0,10+,1014.3,6,METAR,METAR KHLG 270353Z AUTO 00000KT 10SM BKN100 03/M09 A2995 RMK AO2 SLP154 T00281094,40.1699,-80.6441,365,Wheeling/Ohio Cnty,BKN,"[{'cover': 'BKN', 'base': 10000}]",VFR,,,1015.4,,,,,,,"Wheeling/Ohio Cnty, WV, US",US,United States,14.866866666666668
1661,KHLN,2026-02-27 03:58:23.258000+00:00,1772164380,2026-02-27T04:00:00.000Z,7.8,-11.1,270,19.0,10+,1012.3,4,METAR,METAR KHLN 270353Z 27019G28KT 10SM CLR 08/M11 A2989 RMK AO2 PK WND 26031/0308 SLP150 T00781111,46.6045,-111.9892,1178,Helena Rgnl,CLR,[],VFR,28.0,,1015.0,,,,,,,"Helena Rgnl, MT, US",US,United States,3.3526337847544476
1606,KHMN,2026-02-27 03:58:27.585000+00:00,1772164500,2026-02-27T04:00:00.000Z,14.3,-0.6,30,7.0,10+,1018.0,12,METAR,METAR KHMN 270355Z 03007KT 10SM FEW200 14/M01 A3006 RMK AO2A SLP129 T01431006 $,32.852,-106.108,1240,Holloman AFB,FEW,"[{'cover': 'FEW', 'base': 20000}]",VFR,,,1012.9,,,,,,,"Holloman AFB, NM, US",US,United States,13.430874052656552
1631,KHMT,2026-02-27 03:59:46.809000+00:00,1772164500,2026-02-27T04:00:00.000Z,18.0,12.0,0,0.0,10+,1017.0,6,METAR,METAR KHMT 270355Z AUTO 00000KT 10SM CLR 18/12 A3003 RMK AO2,33.7303,-117.0272,462,Hemet/Ryan Arpt,CLR,[],VFR,,,,,,,,,,"Hemet/Ryan Arpt, CA, US",US,United States,24.313666666666666
1598,KHNB,2026-02-27 04:00:34.358000+00:00,1772164560,2026-02-27T04:00:00.000Z,3.9,3.9,120,4.0,10+,1014.0,6,METAR,METAR KHNB 270356Z AUTO 12004KT 10SM CLR 04/04 A2994 RMK AO2 SLP143 T00390039,38.2505,-86.9473,159,Huntingburg Arpt,CLR,[],VFR,,,1014.3,,,,,,,"Huntingburg Arpt, IN, US",US,United States,2.0268166715898417
1591,KHND,2026-02-27 04:00:14.690000+00:00,1772164560,2026-02-27T04:00:00.000Z,18.3,6.1,190,7.0,10+,1019.7,12,METAR,METAR KHND 270356Z 19007KT 10SM CLR 18/06 A3011 RMK AO2 SLP201 T01830061 $,35.9657,-115.1343,740,Henderson Exec,CLR,[],VFR,,,1020.1,,,,,,,"Henderson Exec, NV, US",US,United States,18.30426449702276
1615,KHOB,2026-02-27 03:58:29.652000+00:00,1772164500,2026-02-27T04:00:00.000Z,13.0,-3.0,180,3.0,10+,1015.7,6,METAR,METAR KHOB 270355Z AUTO 18003KT 10SM CLR 13/M03 A2999 RMK AO2,32.6797,-103.2222,1112,Hobbs Arpt,CLR,[],VFR,,,,,,,,,,"Hobbs Arpt, NM, US",US,United States,13.03357374185406
1603,KHON,2026-02-27 04:00:32.809000+00:00,1772164500,2026-02-27T04:00:00.000Z,2.2,-6.7,210,7.0,10+,1007.5,6,METAR,METAR KHON 270355Z AUTO 21007KT 10SM CLR 02/M07 A2975 RMK AO2 SLP083 T00221067,44.3792,-98.2227,391,Huron Rgnl,CLR,[],VFR,,,1008.3,,,,,,,"Huron Rgnl, SD, US",US,United States,-1.3111320415512513
1614,KHOP,2026-02-27 03:58:23.211000+00:00,1772164500,2026-02-27T04:00:00.000Z,8.1,5.2,110,4.0,10+,1013.0,6,METAR,METAR KHOP 270355Z AUTO 11004KT 10SM CLR 08/05 A2991 RMK AO2 SLP132 T00810052,36.672,-87.495,170,Fort Campbell,CLR,[],VFR,,,1013.2,,,,,,,"Fort Campbell, KY, US",US,United States,6.929180262615498
1654,KHOT,2026-02-27 03:56:28.455000+00:00,1772164380,2026-02-27T04:00:00.000Z,12.8,10.0,330,3.0,6,1013.0,6,METAR,METAR KHOT 270353Z AUTO 33003KT 6SM HZ CLR 13/10 A2991 RMK AO2 SLP125 T01280100,34.4755,-93.1041,153,Hot Springs Mem,CLR,[],VFR,,HZ,1012.5,,,,,,,"Hot Springs Mem, AR, US",US,United States,12.805037878005502
1645,KHOU,2026-02-27 03:58:27.974000+00:00,1772164380,2026-02-27T04:00:00.000Z,21.1,18.9,120,3.0,10+,1010.9,4,METAR,METAR KHOU 270353Z 12003KT 10SM BKN040 BKN055 21/19 A2985 RMK AO2 SLP114 T02110189,29.6458,-95.2821,13,Houston/Hobby Arpt,BKN,"[{'cover': 'BKN', 'base': 4000}, {'cover': 'BKN', 'base': 5500}]",VFR,,,1011.4,,,,,,,"Houston/Hobby Arpt, TX, US",US,United States,22.289276227720784
1602,KHPN,2026-02-27 04:00:19.829000+00:00,1772164560,2026-02-27T04:00:00.000Z,0.6,-7.2,360,8.0,10+,1013.6,4,METAR,METAR KHPN 270356Z 36008KT 10SM CLR 01/M07 A2993 RMK AO2 SLP142 T00061072,41.0624,-73.7045,113,White Plains/Westchester Cnty,CLR,[],VFR,,,1014.2,,,,,,,"White Plains/Westchester Cnty, NY, US",US,United States,-3.6224197447559194
1617,KHPT,2026-02-27 04:02:17.701000+00:00,1772164500,2026-02-27T04:00:00.000Z,0.0,-2.0,220,10.0,10+,1010.6,6,METAR,METAR KHPT 270355Z AUTO 22010KT 10SM CLR 00/M02 A2984 RMK AO2,42.7175,-93.2244,354,Hampton Muni,CLR,[],VFR,,,,,,,,,,"Hampton Muni, IA, US",US,United States,-4.996808727622021
1643,KHQM,2026-02-27 03:58:41.483000+00:00,1772164380,2026-02-27T04:00:00.000Z,8.3,6.1,210,9.0,10+,1026.5,6,METAR,METAR KHQM 270353Z AUTO 21009G18KT 10SM FEW023 SCT034 OVC042 08/06 A3031 RMK AO2 SLP267 T00830061,46.9729,-123.9308,4,Hoquiam/Bowerman Arpt,OVC,"[{'cover': 'FEW', 'base': 2300}, {'cover': 'SCT', 'base': 3400}, {'cover': 'OVC', 'base': 4200}]",VFR,18.0,,1026.7,,,,,,,"Hoquiam/Bowerman Arpt, WA, US",US,United States,5.621689784848971
1664,KHRI,2026-02-27 03:58:27.991000+00:00,1772164380,2026-02-27T04:00:00.000Z,5.6,-1.7,170,8.0,10+,1023.1,6,METAR,METAR KHRI 270353Z AUTO 17008KT 10SM CLR 06/M02 A3021 RMK AO2 SLP232 T00561017,45.8259,-119.2612,194,Hermiston Muni,CLR,[],VFR,,,1023.2,,,,,,,"Hermiston Muni, OR, US",US,United States,2.5337626003590805
1678,KHRL,2026-02-27 04:02:19.197000+00:00,1772164320,2026-02-27T04:00:00.000Z,21.7,20.0,170,11.0,8,1007.9,5,METAR,METAR KHRL 270352Z COR 17011KT 8SM CLR 22/20 A2976 RMK AO2 SLP075 T02170200,26.2303,-97.6556,9,Harlingen/Valley Intl,CLR,[],VFR,,,1007.5,,,,,,,"Harlingen/Valley Intl, TX, US",US,United States,22.134167227146122
1665,KHRO,2026-02-27 03:56:28.518000+00:00,1772164380,2026-02-27T04:00:00.000Z,13.3,2.2,290,4.0,10+,1014.3,14,METAR,METAR KHRO 270353Z AUTO 29004KT 10SM CLR 13/02 A2995 RMK AO2 SLP133 T01330022 $,36.2673,-93.1566,417,Harrison/Boone Cnty,CLR,[],VFR,,,1013.3,,,,,,,"Harrison/Boone Cnty, AR, US",US,United States,12.99877328007584
1624,KHSB,2026-02-27 04:00:37.106000+00:00,1772164500,2026-02-27T04:00:00.000Z,4.5,2.6,90,3.0,10+,1013.6,6,METAR,METAR KHSB 270355Z AUTO 09003KT 10SM CLR 05/03 A2993 RMK AO2 T00450026,37.8128,-88.5449,118,Harrisburg/Raleigh Arpt,CLR,[],VFR,,,,,,,,,,"Harrisburg/Raleigh Arpt, IL, US",US,United States,3.3207995282902263
1686,KHSE,2026-02-27 03:54:29.376000+00:00,1772164260,2026-02-27T04:00:00.000Z,11.1,10.6,250,8.0,5,1013.6,6,METAR,METAR KHSE 270351Z AUTO 25008G18KT 210V280 5SM BR BKN049 OVC065 11/11 A2993 RMK AO2 SLP136 T01110106,35.2324,-75.6223,4,Hatteras/Mitchell Fld,OVC,"[{'cover': 'BKN', 'base': 4900}, {'cover': 'OVC', 'base': 6500}]",MVFR,18.0,BR,1013.6,,,,,,,"Hatteras/Mitchell Fld, NC, US",US,United States,9.305563179985572
3657,KHSG,2026-02-27 04:02:20.111000+00:00,1772164500,2026-02-27T04:00:00.000Z,2.9,-10.2,240,3.0,10+,1015.0,6,METAR,METAR KHSG 270355Z AUTO 24003KT 10SM CLR 03/M10 A2997 RMK AO2 T00291102,43.7178,-108.3851,1497,Thermopolis/Hot Springs Cnty,CLR,[],VFR,,,,,,,,,,"Thermopolis/Hot Springs Cnty, WY, US",US,United States,1.4925126175017391
1655,KHSI,2026-02-27 03:58:42.554000+00:00,1772164380,2026-02-27T04:00:00.000Z,7.8,-5.0,180,6.0,10+,1012.3,6,METAR,METAR KHSI 270353Z AUTO 18006KT 10SM CLR 08/M05 A2989 RMK AO2 SLP124 T00781050,40.6002,-98.4264,592,Hastings Muni,CLR,[],VFR,,,1012.4,,,,,,,"Hastings Muni, NE, US",US,United States,5.815237566973563
1612,KHSP,2026-02-27 03:58:19.382000+00:00,1772164500,2026-02-27T04:00:00.000Z,2.2,2.0,260,9.0,3,1012.6,6,METAR,METAR KHSP 270355Z AUTO 26009KT 3SM BR BKN002 BKN009 OVC013 02/02 A2990 RMK AO2 T00220020,37.9531,-79.8285,1148,Hot Springs/Ingalls Fld,OVC,"[{'cover': 'BKN', 'base': 200}, {'cover': 'BKN', 'base': 900}, {'cover': 'OVC', 'base': 1300}]",LIFR,,BR,,,,,,,,"Hot Springs/Ingalls Fld, VA, US",US,United States,-1.9596103196841261
1622,KHST,2026-02-27 04:02:11.920000+00:00,1772164500,2026-02-27T04:00:00.000Z,21.6,19.9,100,3.0,10+,1017.4,4,METAR,METAR KHST 270355Z 10003KT 10SM FEW060 22/20 A3004 RMK AO2A SLP176 T02160199,25.49,-80.379,1,Homestead AFB,FEW,"[{'cover': 'FEW', 'base': 6000}]",VFR,,,1017.6,,,,,,,"Homestead AFB, FL, US",US,United States,22.86061588734218
1656,KHSV,2026-02-27 03:56:28.552000+00:00,1772164380,2026-02-27T04:00:00.000Z,13.9,12.2,50,6.0,10+,1011.3,4,METAR,METAR KHSV 270353Z 05006KT 10SM FEW018 BKN090 OVC140 14/12 A2986 RMK AO2 RAE08 SLP109 P0000 T01390122,34.6441,-86.7862,190,Huntsville Intl,OVC,"[{'cover': 'FEW', 'base': 1800}, {'cover': 'BKN', 'base': 9000}, {'cover': 'OVC', 'base': 14000}]",VFR,,,1010.9,0.005,,,,,,"Huntsville Intl, AL, US",US,United States,13.158459962090818
1627,KHTH,2026-02-27 04:00:28.948000+00:00,1772164500,2026-02-27T04:00:00.000Z,14.0,2.0,330,6.0,10+,1024.8,6,METAR,METAR KHTH 270355Z AUTO 33006KT 10SM CLR 14/02 A3026 RMK A01,38.5448,-118.6314,1281,Hawthorne Muni,CLR,[],VFR,,,,,,,,,,"Hawthorne Muni, NV, US",US,United States,13.278840657092745
1669,KHTL,2026-02-27 03:58:33.236000+00:00,1772164380,2026-02-27T04:00:00.000Z,-2.8,-7.2,240,4.0,10+,1009.2,6,METAR,METAR KHTL 270353Z AUTO 24004KT 10SM OVC038 M03/M07 A2980 RMK AO2 SLP110 T10281072,44.359,-84.6739,350,Houghton Lake/Blodgett Mem,OVC,"[{'cover': 'OVC', 'base': 3800}]",VFR,,,1011.0,,,,,,,"Houghton Lake/Blodgett Mem, MI, US",US,United States,-5.793620485522525
1685,KHTS,2026-02-27 03:56:18.393000+00:00,1772164260,2026-02-27T04:00:00.000Z,3.3,1.1,0,0.0,10+,1015.0,4,METAR,METAR KHTS 270351Z 00000KT 10SM FEW090 03/01 A2997 RMK AO2 SLP154 T00330011,38.3653,-82.5548,252,Huntington/Ferguson Fld,FEW,"[{'cover': 'FEW', 'base': 9000}]",VFR,,,1015.4,,,,,,,"Huntington/Ferguson Fld, WV, US",US,United States,15.177616666666665
1670,KHUF,2026-02-27 03:58:42.573000+00:00,1772164380,2026-02-27T04:00:00.000Z,1.7,0.6,0,0.0,10+,1014.0,4,METAR,METAR KHUF 270353Z 00000KT 10SM CLR 02/01 A2994 RMK AO2 SLP142 T00170006,39.4429,-87.3221,174,Terre Haute/Hulman Fld,CLR,[],VFR,,,1014.2,,,,,,,"Terre Haute/Hulman Fld, IN, US",US,United States,14.18321666666667
1666,KHUL,2026-02-27 03:58:37.712000+00:00,1772164380,2026-02-27T04:00:00.000Z,-6.7,-14.4,300,6.0,10+,1011.3,6,METAR,METAR KHUL 270353Z AUTO 30006KT 10SM CLR M07/M14 A2986 RMK AO2 SLP121 T10671144,46.1185,-67.7929,148,Houlton Intl,CLR,[],VFR,,,1012.1,,,,,,,"Houlton Intl, ME, US",US,United States,-11.639963208305135
1681,KHUT,2026-02-27 03:56:21.084000+00:00,1772164320,2026-02-27T04:00:00.000Z,7.2,1.1,0,0.0,10+,1014.0,4,METAR,METAR KHUT 270352Z 00000KT 10SM CLR 07/01 A2994 RMK AO2 SLP133 T00720011,38.0682,-97.8607,464,Hutchinson Muni,CLR,[],VFR,,,1013.3,,,,,,,"Hutchinson Muni, KS, US",US,United States,17.601466666666667
1633,KHVE,2026-02-27 04:02:20.142000+00:00,1772164500,2026-02-27T04:00:00.000Z,10.0,-6.0,0,0.0,10+,1022.8,6,METAR,METAR KHVE 270355Z AUTO 00000KT 10SM CLR 10/M06 A3020 RMK AO2,38.418,-110.7041,1351,Hanksville Arpt,CLR,[],VFR,,,,,,,,,,"Hanksville Arpt, UT, US",US,United States,19.341666666666665
1671,KHVN,2026-02-27 03:58:42.965000+00:00,1772164380,2026-02-27T04:00:00.000Z,0.6,-6.7,360,9.0,10+,1014.3,14,METAR,METAR KHVN 270353Z AUTO 36009KT 10SM CLR 01/M07 A2995 RMK AO2 SLP142 T00061067 $,41.259,-72.8891,4,New Haven/Tweed Arpt,CLR,[],VFR,,,1014.2,,,,,,,"New Haven/Tweed Arpt, CT, US",US,United States,-3.948148052020672
1668,KHVR,2026-02-27 03:58:39.624000+00:00,1772164380,2026-02-27T04:00:00.000Z,7.8,-6.1,270,26.0,10+,1006.2,6,METAR,METAR KHVR 270353Z AUTO 27026G35KT 10SM CLR 08/M06 A2971 RMK AO2 PK WND 29042/0310 SLP073 T00781061,48.5425,-109.7644,789,Havre/City Arpt,CLR,[],VFR,35.0,,1007.3,,,,,,,"Havre/City Arpt, MT, US",US,United States,2.6001143163413922
1620,KHVS,2026-02-27 04:02:09.424000+00:00,1772164500,2026-02-27T04:00:00.000Z,15.0,15.0,0,0.0,7,1013.6,6,METAR,METAR KHVS 270355Z AUTO 00000KT 7SM BKN006 OVC020 15/15 A2993 RMK AO2,34.4065,-80.1198,110,Hartsville Rgnl,OVC,"[{'cover': 'BKN', 'base': 600}, {'cover': 'OVC', 'base': 2000}]",IFR,,,,,,,,,,"Hartsville Rgnl, SC, US",US,United States,22.44916666666667
1638,KHWD,2026-02-27 03:58:19.400000+00:00,1772164440,2026-02-27T04:00:00.000Z,15.6,12.8,300,4.0,10+,1021.8,4,METAR,METAR KHWD 270354Z 30004KT 10SM CLR 16/13 A3017 RMK AO2 SLP225 T01560128,37.6589,-122.1212,9,Hayward Exec,CLR,[],VFR,,,1022.5,,,,,,,"Hayward Exec, CA, US",US,United States,15.683400960875613
1657,KHWO,2026-02-27 03:56:28.655000+00:00,1772164380,2026-02-27T04:00:00.000Z,22.8,19.4,140,3.0,10+,1018.0,14,METAR,METAR KHWO 270353Z AUTO 14003KT 10SM SCT018 23/19 A3006 RMK AO2 SLP177 T02280194 $,25.9996,-80.2412,2,Hollywood/North Perry Arpt,SCT,"[{'cover': 'SCT', 'base': 1800}]",VFR,,,1017.7,,,,,,,"Hollywood/North Perry Arpt, FL, US",US,United States,24.231831070433557
4033,KHWV,2026-02-27 04:00:19.854000+00:00,1772164560,2026-02-27T04:00:00.000Z,1.1,-3.9,360,5.0,10+,1014.3,198,METAR,METAR KHWV 270356Z AUTO 36005KT 10SM SCT120 01/M04 A2995 RMK AO2 SLP140 T00111039 PWINO FZRANO,40.8212,-72.8674,20,Brookhaven Arpt,SCT,"[{'cover': 'SCT', 'base': 12000}]",VFR,,,1014.0,,,,,,,"Brookhaven Arpt, NY, US",US,United States,-1.7885260405012795
1621,KHXD,2026-02-27 04:02:09.463000+00:00,1772164500,2026-02-27T04:00:00.000Z,16.0,12.0,210,6.0,10+,1015.0,6,METAR,METAR KHXD 270355Z AUTO 21006KT 10SM BKN070 OVC080 16/12 A2997 RMK AO2,32.2263,-80.6949,5,Hilton Head Arpt,OVC,"[{'cover': 'BKN', 'base': 7000}, {'cover': 'OVC', 'base': 8000}]",VFR,,,,,,,,,,"Hilton Head Arpt, SC, US",US,United States,15.686454557131176
1599,KHYA,2026-02-27 04:00:19.898000+00:00,1772164560,2026-02-27T04:00:00.000Z,2.2,-2.2,340,9.0,10+,1013.0,14,METAR,METAR KHYA 270356Z AUTO 34009KT 10SM OVC110 02/M02 A2991 RMK AO2 SLP127 T00221022 $,41.6719,-70.2697,11,Hyannis/Barnstable Muni,OVC,"[{'cover': 'OVC', 'base': 11000}]",VFR,,,1012.7,,,,,,,"Hyannis/Barnstable Muni, MA, US",US,United States,-1.9596103196841261
1658,KHYR,2026-02-27 03:58:42.167000+00:00,1772164380,2026-02-27T04:00:00.000Z,-5.6,-6.1,0,0.0,9,1006.9,6,METAR,METAR KHYR 270353Z AUTO 00000KT 9SM CLR M06/M06 A2973 RMK AO2 SLP088 T10561061,46.0303,-91.4427,369,Hayward Muni,CLR,[],VFR,,,1008.8,,,,,,,"Hayward Muni, WI, US",US,United States,9.64626666666667
1592,KHYS,2026-02-27 03:58:50.578000+00:00,1772164560,2026-02-27T04:00:00.000Z,5.6,-2.2,230,3.0,10+,1014.0,14,METAR,METAR KHYS 270356Z AUTO 23003KT 10SM CLR 06/M02 A2994 RMK AO2 SLP144 T00561022 $,38.8392,-99.2742,607,Hays Rgnl,CLR,[],VFR,,,1014.4,,,,,,,"Hays Rgnl, KS, US",US,United States,4.57774677945731
1609,KHZL,2026-02-27 04:00:35.688000+00:00,1772164500,2026-02-27T04:00:00.000Z,-3.0,-8.0,0,0.0,10+,1013.6,6,METAR,METAR KHZL 270355Z AUTO 00000KT 10SM CLR M03/M08 A2993 RMK AO2,40.9845,-75.9901,481,Hazleton Muni,CLR,[],VFR,,,,,,,,,,"Hazleton Muni, PA, US",US,United States,11.262166666666667
1607,KIAB,2026-02-27 03:58:22.954000+00:00,1772164500,2026-02-27T04:00:00.000Z,11.8,-2.4,190,3.0,10+,1013.3,6,METAR,METAR KIAB 270355Z AUTO 19003KT 10SM CLR 12/M02 A2992 RMK AO2 SLP134 T01181024,37.622,-97.268,413,McConnell AFB,CLR,[],VFR,,,1013.4,,,,,,,"McConnell AFB, KS, US",US,United States,11.662358558762707
1679,KIAD,2026-02-27 03:56:17.777000+00:00,1772164320,2026-02-27T04:00:00.000Z,1.7,1.1,0,0.0,10+,1015.0,4,METAR,METAR KIAD 270352Z 00000KT 10SM BKN090 02/01 A2997 RMK AO2 SLP149 T00170011,38.9348,-77.4473,90,Washington/Dulles Intl,BKN,"[{'cover': 'BKN', 'base': 9000}]",VFR,,,1014.9,,,,,,,"Washington/Dulles Intl, VA, US",US,United States,14.18321666666667
1672,KIAG,2026-02-27 03:58:22.530000+00:00,1772164380,2026-02-27T04:00:00.000Z,-7.2,-9.4,210,6.0,10+,1014.0,4,METAR,METAR KIAG 270353Z 21006KT 10SM CLR M07/M09 A2994 RMK AO2 SLP158 T10721094,43.1083,-78.9382,179,Niagara Falls Intl,CLR,[],VFR,,,1015.8,,,,,,,"Niagara Falls Intl, NY, US",US,United States,-12.241866683314745
1644,KIAH,2026-02-27 03:58:40.612000+00:00,1772164380,2026-02-27T04:00:00.000Z,21.7,19.4,0,0.0,10+,1011.3,4,METAR,METAR KIAH 270353Z 00000KT 10SM FEW028 SCT035 OVC060 22/19 A2986 RMK AO2 SLP111 T02170194,29.9844,-95.3607,27,Houston/Bush Intl,OVC,"[{'cover': 'FEW', 'base': 2800}, {'cover': 'SCT', 'base': 3500}, {'cover': 'OVC', 'base': 6000}]",VFR,,,1011.1,,,,,,,"Houston/Bush Intl, TX, US",US,United States,26.613216666666673
1625,KICL,2026-02-27 04:00:37.444000+00:00,1772164500,2026-02-27T04:00:00.000Z,-1.0,-6.0,190,4.0,10+,1012.6,6,METAR,METAR KICL 270355Z AUTO 19004KT 10SM CLR M01/M06 A2990 RMK AO2,40.7242,-95.0222,299,Clarinda/Schenck Fld,CLR,[],VFR,,,,,,,,,,"Clarinda/Schenck Fld, IA, US",US,United States,-3.692607517940104
1673,KICT,2026-02-27 03:56:28.754000+00:00,1772164380,2026-02-27T04:00:00.000Z,9.4,-2.2,0,0.0,10+,1013.6,4,METAR,METAR KICT 270353Z 00000KT 10SM CLR 09/M02 A2993 RMK AO2 SLP135 T00941022,37.6475,-97.43,428,Wichita/Eisenhower Arpt,CLR,[],VFR,,,1013.5,,,,,,,"Wichita/Eisenhower Arpt, KS, US",US,United States,18.968766666666667
1674,KIDA,2026-02-27 03:58:23.472000+00:00,1772164380,2026-02-27T04:00:00.000Z,4.4,-4.4,190,10.0,10+,1023.5,6,METAR,METAR KIDA 270353Z AUTO 19010KT 10SM CLR 04/M04 A3022 RMK AO2 SLP249 T00441044,43.5204,-112.0675,1444,Idaho Falls Rgnl,CLR,[],VFR,,,1024.9,,,,,,,"Idaho Falls Rgnl, ID, US",US,United States,0.5181475474111765
1611,KIDI,2026-02-27 03:58:19.507000+00:00,1772164500,2026-02-27T04:00:00.000Z,-5.0,-8.0,0,0.0,10+,1014.0,6,METAR,METAR KIDI 270355Z AUTO 00000KT 10SM SCT090 SCT110 M05/M08 A2994 RMK A01,40.6337,-79.1036,425,Indiana/Stewart Arpt,SCT,"[{'cover': 'SCT', 'base': 9000}, {'cover': 'SCT', 'base': 11000}]",VFR,,,,,,,,,,"Indiana/Stewart Arpt, PA, US",US,United States,10.019166666666669
1632,KIDP,2026-02-27 04:02:06.370000+00:00,1772164500,2026-02-27T04:00:00.000Z,7.0,1.0,170,3.0,10+,1014.0,6,METAR,METAR KIDP 270355Z AUTO 17003KT 10SM CLR 07/01 A2994 RMK AO2,37.1566,-95.7792,252,Independence Muni,CLR,[],VFR,,,,,,,,,,"Independence Muni, KS, US",US,United States,6.177497826397239
4067,KIEN,2026-02-27 03:56:26.346000+00:00,1772164320,2026-02-27T04:00:00.000Z,0.6,-6.7,190,4.0,10+,1009.6,6,METAR,METAR KIEN 270352Z AUTO 19004KT 10SM CLR 01/M07 A2981 RMK AO2 SLP114 T00061067,43.0262,-102.52,1002,Pine Ridge Strip,CLR,[],VFR,,,1011.4,,,,,,,"Pine Ridge Strip, SD, US",US,United States,-1.8250404356446106
1610,KIFA,2026-02-27 04:00:12.353000+00:00,1772164500,2026-02-27T04:00:00.000Z,1.1,-4.0,210,8.0,10+,1011.3,6,METAR,METAR KIFA 270355Z AUTO 21008KT 10SM CLR 01/M04 A2986 RMK AO2 T00111040,42.4691,-93.2651,344,Iowa Falls Muni,CLR,[],VFR,,,,,,,,,,"Iowa Falls Muni, IA, US",US,United States,-3.0068015102444217
1626,KIFP,2026-02-27 04:00:24.374000+00:00,1772164500,2026-02-27T04:00:00.000Z,24.0,3.0,50,5.0,10+,1015.3,6,METAR,METAR KIFP 270355Z AUTO 05005KT 10SM CLR 24/03 A2998 RMK AO2,35.1487,-114.5611,210,Bullhead City Intl,CLR,[],VFR,,,,,,,,,,"Bullhead City Intl, AZ, US",US,United States,25.39527584697727
1687,KIGM,2026-02-27 03:56:24.561000+00:00,1772164260,2026-02-27T04:00:00.000Z,16.7,2.8,100,7.0,10+,1020.4,6,METAR,METAR KIGM 270351Z AUTO 10007KT 10SM CLR 17/03 A3013 RMK AO2 SLP157 T01670028,35.2575,-113.9341,1045,Kingman Arpt,CLR,[],VFR,,,1015.7,,,,,,,"Kingman Arpt, AZ, US",US,United States,16.354908319276277
1613,KIKK,2026-02-27 04:02:21.401000+00:00,1772164500,2026-02-27T04:00:00.000Z,0.6,-1.2,0,0.0,10+,1013.0,6,METAR,METAR KIKK 270355Z AUTO 00000KT 10SM SCT060 01/M01 A2991 RMK AO2 T00061012,41.0687,-87.8537,188,Kankakee Arpt,SCT,"[{'cover': 'SCT', 'base': 6000}]",VFR,,,,,,,,,,"Kankakee Arpt, IL, US",US,United States,13.49956666666667
1684,KILG,2026-02-27 03:56:19.713000+00:00,1772164260,2026-02-27T04:00:00.000Z,3.3,1.1,240,4.0,10+,1015.0,12,METAR,METAR KILG 270351Z 24004KT 10SM BKN080 OVC100 03/01 A2997 RMK AO2 SLP147 T00330011 $,39.6744,-75.6057,22,Wilmington/New Castle Arpt,OVC,"[{'cover': 'BKN', 'base': 8000}, {'cover': 'OVC', 'base': 10000}]",VFR,,,1014.7,,,,,,,"Wilmington/New Castle Arpt, DE, US",US,United States,1.3264790157290287
1660,KILM,2026-02-27 03:56:28.784000+00:00,1772164380,2026-02-27T04:00:00.000Z,13.3,11.7,220,6.0,10+,1014.6,6,METAR,METAR KILM 270353Z AUTO 22006KT 10SM BKN039 OVC047 13/12 A2996 RMK AO2 SLP145 LAST T01330117,34.2668,-77.8999,9,Wilmington Intl,OVC,"[{'cover': 'BKN', 'base': 3900}, {'cover': 'OVC', 'base': 4700}]",VFR,,,1014.5,,,,,,,"Wilmington Intl, NC, US",US,United States,12.436175792079283
1637,KILN,2026-02-27 03:58:19.554000+00:00,1772164440,2026-02-27T04:00:00.000Z,0.6,-2.8,0,0.0,10+,1014.3,6,METAR,METAR KILN 270354Z AUTO 00000KT 10SM CLR 01/M03 A2995 RMK AO2 SLP164 T00061028,39.4308,-83.777,325,Wilmington Arpt,CLR,[],VFR,,,1016.4,,,,,,,"Wilmington Arpt, OH, US",US,United States,13.49956666666667
1675,KIML,2026-02-27 03:58:40.982000+00:00,1772164380,2026-02-27T04:00:00.000Z,7.2,-8.9,,,10+,1013.3,6,METAR,METAR KIML 270353Z AUTO 10SM CLR 07/M09 A2992 RMK AO2 SLP133 T00721089,40.5106,-101.6243,997,Imperial Muni,CLR,[],VFR,,,1013.3,,,,,,,"Imperial Muni, NE, US",US,United States,
2245,KIMS,2026-02-27 04:02:20.739000+00:00,1772164500,2026-02-27T04:00:00.000Z,1.0,1.0,0,0.0,10+,1015.0,6,METAR,METAR KIMS 270355Z AUTO 00000KT 10SM SCT070 01/01 A2997 RMK AO2,38.7515,-85.4689,244,Madison Muni,SCT,"[{'cover': 'SCT', 'base': 7000}]",VFR,,,,,,,,,,"Madison Muni, IN, US",US,United States,13.74816666666667
1642,KIMT,2026-02-27 03:58:19.574000+00:00,1772164440,2026-02-27T04:00:00.000Z,-6.7,-8.9,0,0.0,10+,1006.5,6,METAR,METAR KIMT 270354Z AUTO 00000KT 10SM CLR M07/M09 A2972 RMK AO2 SLP085 T10671089,45.8134,-88.1129,343,Iron Mountain/Ford Arpt,CLR,[],VFR,,,1008.5,,,,,,,"Iron Mountain/Ford Arpt, MI, US",US,United States,8.96261666666667
1636,KIND,2026-02-27 03:58:20.229000+00:00,1772164440,2026-02-27T04:00:00.000Z,6.1,0.0,0,0.0,10+,1014.0,4,METAR,METAR KIND 270354Z 00000KT 10SM BKN065 OVC080 06/00 A2994 RMK AO2 SLP142 T00610000,39.7252,-86.2816,242,Indianapolis Intl,OVC,"[{'cover': 'BKN', 'base': 6500}, {'cover': 'OVC', 'base': 8000}]",VFR,,,1014.2,,,,,,,"Indianapolis Intl, IN, US",US,United States,16.917816666666667
1635,KINL,2026-02-27 03:58:33.661000+00:00,1772164440,2026-02-27T04:00:00.000Z,-4.4,-7.2,130,5.0,10+,1003.1,6,METAR,METAR KINL 270354Z AUTO 13005KT 10SM OVC070 M04/M07 A2962 RMK AO2 SLP052 T10441072,48.5594,-93.3955,353,International Falls/Einarson Fld,OVC,"[{'cover': 'OVC', 'base': 7000}]",VFR,,,1005.2,,,,,,,"International Falls/Einarson Fld, MN, US",US,United States,-8.317386755834555
1616,KINS,2026-02-27 04:00:07.191000+00:00,1772164500,2026-02-27T04:00:00.000Z,17.8,2.1,250,10.0,10+,1020.1,12,METAR,METAR KINS 270355Z 25010KT 10SM CLR 18/02 A3012 RMK AO2A SLP174 T01780021 $,36.586,-115.69,954,Indian Springs/Creech AFB,CLR,[],VFR,,,1017.4,,,,,,,"Indian Springs/Creech AFB, NV, US",US,United States,17.313696203194098
1641,KINT,2026-02-27 03:58:19.635000+00:00,1772164440,2026-02-27T04:00:00.000Z,5.6,5.6,0,0.0,0.25,1014.0,6,METAR,METAR KINT 270354Z AUTO 00000KT M1/4SM FG VV001 06/06 A2994 RMK AO2 SLP138 T00560056,36.1335,-80.2244,292,Winston-Salem/Reynolds Arpt,OVX,"[{'cover': 'OVX', 'base': 100}]",LIFR,,FG,1013.8,,,,,,1.0,"Winston-Salem/Reynolds Arpt, NC, US",US,United States,16.607066666666668
1597,KINW,2026-02-27 04:00:32.011000+00:00,1772164560,2026-02-27T04:00:00.000Z,11.7,-1.7,330,3.0,10+,1021.8,6,METAR,METAR KINW 270356Z AUTO 33003KT 10SM CLR 12/M02 A3017 RMK AO2 SLP187 T01171017,35.0279,-110.7221,1492,Winslow/Lindberg Rgnl,CLR,[],VFR,,,1018.7,,,,,,,"Winslow/Lindberg Rgnl, AZ, US",US,United States,11.54809062683842
1683,KIOW,2026-02-27 03:58:24.077000+00:00,1772164320,2026-02-27T04:00:00.000Z,-2.8,-6.1,0,0.0,8,1012.6,6,METAR,METAR KIOW 270352Z AUTO 00000KT 8SM CLR M03/M06 A2990 RMK AO2 SLP134 T10281061,41.6394,-91.5446,199,Iowa City Muni,CLR,[],VFR,,,1013.4,,,,,,,"Iowa City Muni, IA, US",US,United States,11.38646666666667
1667,KIPL,2026-02-27 03:58:28.006000+00:00,1772164380,2026-02-27T04:00:00.000Z,24.4,8.3,250,3.0,10+,1013.0,6,METAR,METAR KIPL 270353Z AUTO 25003KT 10SM CLR 24/08 A2991 RMK AO2 SLP129 T02440083,32.8346,-115.5766,-16,Imperial Cnty Arpt,CLR,[],VFR,,,1012.9,,,,,,,"Imperial Cnty Arpt, CA, US",US,United States,26.060117981222042
1640,KIPT,2026-02-27 03:58:19.678000+00:00,1772164440,2026-02-27T04:00:00.000Z,-2.8,-6.1,0,0.0,10+,1014.3,6,METAR,METAR KIPT 270354Z AUTO 00000KT 10SM CLR M03/M06 A2995 RMK AO2 SLP146 T10281061,41.243,-76.9217,160,Williamsport Rgnl,CLR,[],VFR,,,1014.6,,,,,,,"Williamsport Rgnl, PA, US",US,United States,11.38646666666667
1605,KIRK,2026-02-27 03:58:50.830000+00:00,1772164500,2026-02-27T04:00:00.000Z,3.3,-5.0,0,0.0,10+,1013.0,6,METAR,METAR KIRK 270355Z AUTO 00000KT 10SM OVC090 03/M05 A2991 RMK AO2 SLP138 T00331050,40.0966,-92.5469,292,Kirksville Rgnl,OVC,"[{'cover': 'OVC', 'base': 9000}]",VFR,,,1013.8,,,,,,,"Kirksville Rgnl, MO, US",US,United States,15.177616666666665
1628,KIRS,2026-02-27 04:00:12.385000+00:00,1772164500,2026-02-27T04:00:00.000Z,-2.0,-6.0,170,4.0,10+,1012.3,6,METAR,METAR KIRS 270355Z AUTO 17004KT 10SM CLR M02/M06 A2989 RMK AO2,41.8154,-85.4376,282,Sturgis/Kirsh Muni,CLR,[],VFR,,,,,,,,,,"Sturgis/Kirsh Muni, MI, US",US,United States,-4.8598369443747815
1820,KISM,2026-02-27 03:58:50.871000+00:00,1772164560,2026-02-27T04:00:00.000Z,17.2,14.4,0,0.0,10+,1017.4,14,METAR,METAR KISM 270356Z AUTO 00000KT 10SM CLR 17/14 A3004 RMK AO2 SLP173 T01720144 402560083 $,28.2924,-81.4371,25,Kissimmee Muni,CLR,[],VFR,,,1017.3,,,25.6,8.3,,,"Kissimmee Muni, FL, US",US,United States,23.81646666666667
1839,KISO,2026-02-27 04:02:11.285000+00:00,1772164500,2026-02-27T04:00:00.000Z,12.8,12.5,220,4.0,10+,1014.3,6,METAR,METAR KISO 270355Z AUTO 22004KT 10SM SCT015 BKN021 OVC047 13/13 A2995 RMK AO2 T01280125,35.324,-77.6187,27,Kinston Rgnl,OVC,"[{'cover': 'SCT', 'base': 1500}, {'cover': 'BKN', 'base': 2100}, {'cover': 'OVC', 'base': 4700}]",MVFR,,,,,,,,,,"Kinston Rgnl, NC, US",US,United States,12.415158566858501
1828,KISP,2026-02-27 04:00:26.944000+00:00,1772164560,2026-02-27T04:00:00.000Z,-0.6,-3.3,340,7.0,9,1014.0,4,METAR,METAR KISP 270356Z 34007KT 9SM BKN120 BKN250 M01/M03 A2994 RMK AO2 SLP137 T10061033,40.7939,-73.1018,25,Islip/Macarthur Arpt,BKN,"[{'cover': 'BKN', 'base': 12000}, {'cover': 'BKN', 'base': 25000}]",VFR,,,1013.7,,,,,,,"Islip/Macarthur Arpt, NY, US",US,United States,-4.722505352607594
1842,KISW,2026-02-27 03:58:20.245000+00:00,1772164440,2026-02-27T04:00:00.000Z,-2.2,-5.0,220,4.0,10+,1009.2,6,METAR,METAR KISW 270354Z AUTO 22004KT 10SM FEW120 M02/M05 A2980 RMK AO2 SLP104 T10221050,44.3591,-89.837,311,Wisconsin Rapids/S Wood Cnty,FEW,"[{'cover': 'FEW', 'base': 12000}]",VFR,,,1010.4,,,,,,,"Wisconsin Rapids/S Wood Cnty, WI, US",US,United States,-5.093282829661722
1833,KITH,2026-02-27 04:00:19.932000+00:00,1772164560,2026-02-27T04:00:00.000Z,-10.6,-11.7,90,4.0,10+,1013.6,6,METAR,METAR KITH 270356Z AUTO 09004KT 10SM CLR M11/M12 A2993 RMK AO2 SLP154 T11061117,42.4931,-76.4569,338,Ithaca/Tompkins Rgnl,CLR,[],VFR,,,1015.4,,,,,,,"Ithaca/Tompkins Rgnl, NY, US",US,United States,-14.898010011713044
400,KIWA,2026-02-27 03:51:31.238000+00:00,1772164200,2026-02-27T04:00:00.000Z,24.0,6.0,0,0.0,10+,1014.6,0,METAR,METAR KIWA 270350Z 00000KT 10SM CLR 24/06 A2996,33.3008,-111.6437,420,Phoenix/Mesa Gateway Arpt,CLR,[],VFR,,,,,,,,,,"Phoenix/Mesa Gateway Arpt, AZ, US",US,United States,28.042666666666666
1824,KIWD,2026-02-27 04:00:33.431000+00:00,1772164560,2026-02-27T04:00:00.000Z,-11.1,-12.2,0,0.0,5,1006.2,70,METAR,METAR KIWD 270356Z AUTO 00000KT 5SM BR BKN041 M11/M12 A2971 RMK AO2 SLP084 T11111122 FZRANO,46.5321,-90.126,373,Ironwood/Iron Cnty,BKN,"[{'cover': 'BKN', 'base': 4100}]",MVFR,,BR,1008.4,,,,,,,"Ironwood/Iron Cnty, MI, US",US,United States,6.228016666666668
1847,KIWI,2026-02-27 03:58:41.790000+00:00,1772164380,2026-02-27T04:00:00.000Z,-1.7,-11.1,VRB,3.0,10+,1014.3,6,METAR,METAR KIWI 270353Z AUTO VRB03KT 10SM CLR M02/M11 A2995 RMK AO2 SLP142 T10171111,43.9639,-69.7114,16,Wiscasset Arpt,CLR,[],VFR,,,1014.2,,,,,,,"Wiscasset Arpt, ME, US",US,United States,-3.763812251015158
1849,KIXD,2026-02-27 03:56:28.866000+00:00,1772164380,2026-02-27T04:00:00.000Z,7.2,-1.7,180,4.0,10+,1013.6,12,METAR,METAR KIXD 270353Z 18004KT 10SM CLR 07/M02 A2993 RMK AO2 SLP137 T00721017 $,38.8221,-94.8902,322,Olathe/New Century Arpt,CLR,[],VFR,,,1013.7,,,,,,,"Olathe/New Century Arpt, KS, US",US,United States,5.8786737788242895
3405,KIZA,2026-02-27 04:02:16.010000+00:00,1772164500,2026-02-27T04:00:00.000Z,19.0,13.0,210,5.0,10+,1017.0,6,METAR,METAR KIZA 270355Z AUTO 21005KT 10SM CLR 19/13 A3003 RMK AO2,34.6059,-120.0761,200,Santa Ynez Arpt,CLR,[],VFR,,,,,,,,,,"Santa Ynez Arpt, CA, US",US,United States,19.459947923947013
1385,KIZG,2026-02-27 03:58:19.732000+00:00,1772164440,2026-02-27T04:00:00.000Z,-5.0,-13.9,0,0.0,10+,1013.6,14,METAR,METAR KIZG 270354Z AUTO 00000KT 10SM CLR M05/M14 A2993 RMK AO2 SLP142 T10501139 $,43.9899,-70.9501,138,Fryeburg/Eastern Slopes Rgnl,CLR,[],VFR,,,1014.2,,,,,,,"Fryeburg/Eastern Slopes Rgnl, ME, US",US,United States,10.019166666666669
1821,KJAC,2026-02-27 04:00:36.294000+00:00,1772164560,2026-02-27T04:00:00.000Z,0.0,-8.9,260,4.0,10+,1022.4,4,METAR,METAR KJAC 270356Z 26004KT 10SM CLR 00/M09 A3019 RMK AO2 SLP254 T00001089,43.6129,-110.7366,1967,Jackson Hole Arpt,CLR,[],VFR,,,1025.4,,,,,,,"Jackson Hole Arpt, WY, US",US,United States,-2.525378091505422
1840,KJAN,2026-02-27 03:58:33.676000+00:00,1772164440,2026-02-27T04:00:00.000Z,16.7,15.0,170,4.0,10+,1010.9,4,METAR,METAR KJAN 270354Z 17004KT 10SM BKN170 17/15 A2985 RMK AO2 SLP106 T01670150,32.3198,-90.0778,92,Jackson/Evers Intl,BKN,"[{'cover': 'BKN', 'base': 17000}]",VFR,,,1010.6,,,,,,,"Jackson/Evers Intl, MS, US",US,United States,16.96735332995376
1837,KJAS,2026-02-27 04:02:20.191000+00:00,1772164500,2026-02-27T04:00:00.000Z,16.0,16.0,20,3.0,0.25,1011.6,6,METAR,METAR KJAS 270355Z AUTO 02003KT M1/4SM FG 16/16 A2987 RMK AO2,30.8904,-94.0332,60,Jasper/Bell Fld,,,,,FG,,,,,,,,"Jasper/Bell Fld, TX, US",US,United States,16.46161169958247
1831,KJAX,2026-02-27 04:00:32.028000+00:00,1772164560,2026-02-27T04:00:00.000Z,15.0,10.0,210,5.0,10+,1015.7,12,METAR,METAR KJAX 270356Z 21005KT 10SM OVC250 15/10 A2999 RMK AO2 SLP156 T01500100 $,30.4953,-81.6937,8,Jacksonville Intl,OVC,"[{'cover': 'OVC', 'base': 25000}]",VFR,,,1015.6,,,,,,,"Jacksonville Intl, FL, US",US,United States,14.711685585522819
1850,KJBR,2026-02-27 03:56:28.883000+00:00,1772164380,2026-02-27T04:00:00.000Z,10.0,7.8,50,3.0,5,1013.0,14,METAR,METAR KJBR 270353Z AUTO 05003KT 5SM BR CLR 10/08 A2991 RMK AO2 SLP129 T01000078 $,35.8357,-90.6442,79,Jonesboro Muni,CLR,[],MVFR,,BR,1012.9,,,,,,,"Jonesboro Muni, AR, US",US,United States,9.60553578412565
1853,KJCT,2026-02-27 03:56:16.755000+00:00,1772164260,2026-02-27T04:00:00.000Z,18.3,7.2,50,6.0,10+,1014.6,14,METAR,METAR KJCT 270351Z AUTO 05006KT 10SM CLR 18/07 A2996 RMK AO2 SLP114 T01830072 $,30.5105,-99.7665,522,Junction/Kimble Cnty,CLR,[],VFR,,,1011.4,,,,,,,"Junction/Kimble Cnty, TX, US",US,United States,18.45521054217539
1882,KJDN,2026-02-27 03:54:20.120000+00:00,1772164080,2026-02-27T04:00:00.000Z,1.7,-6.7,250,4.0,,1005.5,6,METAR,METAR KJDN 270348Z AUTO 25004KT 02/M07 A2969 RMK AO1 SLP074 T00171067,47.3259,-106.9488,802,Jordan Arpt,,,,,,1007.4,,,,,,,"Jordan Arpt, MT, US",US,United States,-0.5410880665664605
1851,KJEF,2026-02-27 03:56:28.899000+00:00,1772164380,2026-02-27T04:00:00.000Z,5.0,-0.6,0,0.0,10+,1014.0,6,METAR,METAR KJEF 270353Z AUTO 00000KT 10SM CLR 05/M01 A2994 RMK AO2 SLP131 T00501006,38.5945,-92.1567,167,Jefferson City Mem,CLR,[],VFR,,,1013.1,,,,,,,"Jefferson City Mem, MO, US",US,United States,16.234166666666667
1854,KJFK,2026-02-27 03:58:17.619000+00:00,1772164260,2026-02-27T04:00:00.000Z,1.7,-1.7,20,6.0,10+,1014.0,12,METAR,METAR KJFK 270351Z 02006KT 10SM BKN120 BKN250 02/M02 A2994 RMK AO2 SLP140 T00171017 $,40.6392,-73.7639,3,New York/JF Kennedy Intl,BKN,"[{'cover': 'BKN', 'base': 12000}, {'cover': 'BKN', 'base': 25000}]",VFR,,,1014.0,,,,,,,"New York/JF Kennedy Intl, NY, US",US,United States,-1.5279848281436752
1822,KJHW,2026-02-27 04:00:15.355000+00:00,1772164560,2026-02-27T04:00:00.000Z,-7.8,-9.4,200,4.0,10+,1013.0,70,METAR,METAR KJHW 270356Z AUTO 20004KT 10SM BKN100 M08/M09 A2991 RMK AO2 SLP158 T10781094 FZRANO,42.1534,-79.2541,520,Jamestown/Chautauqua Cnty,BKN,"[{'cover': 'BKN', 'base': 10000}]",VFR,,,1015.8,,,,,,,"Jamestown/Chautauqua Cnty, NY, US",US,United States,-11.629767617695936
1380,KJKA,2026-02-27 04:02:06.590000+00:00,1772164500,2026-02-27T04:00:00.000Z,19.0,18.0,170,3.0,8,1013.3,6,METAR,METAR KJKA 270355Z AUTO 17003KT 8SM FEW010 19/18 A2992 RMK AO2,30.291,-87.661,5,Gulf Shores/Edwards Arpt,FEW,"[{'cover': 'FEW', 'base': 1000}]",VFR,,,,,,,,,,"Gulf Shores/Edwards Arpt, AL, US",US,United States,19.889649657310887
1843,KJLN,2026-02-27 03:58:33.694000+00:00,1772164380,2026-02-27T04:00:00.000Z,7.8,1.7,180,3.0,10+,1014.6,6,METAR,METAR KJLN 270353Z AUTO 18003KT 10SM CLR 08/02 A2996 RMK AO2 SLP144 T00780017,37.1522,-94.4952,297,Joplin Rgnl,CLR,[],VFR,,,1014.4,,,,,,,"Joplin Rgnl, MO, US",US,United States,7.091641281791476
1829,KJMS,2026-02-27 04:00:26.964000+00:00,1772164560,2026-02-27T04:00:00.000Z,1.7,-2.2,240,8.0,10+,1002.8,6,METAR,METAR KJMS 270356Z AUTO 24008KT 10SM CLR 02/M02 A2961 RMK AO2 SLP044 T00171022,46.9259,-98.6704,455,Jamestown Rgnl,CLR,[],VFR,,,1004.4,,,,,,,"Jamestown Rgnl, ND, US",US,United States,-2.268059628830618
1834,KJOT,2026-02-27 04:00:10.755000+00:00,1772164500,2026-02-27T04:00:00.000Z,-0.8,-2.5,0,0.0,10+,1013.0,6,METAR,METAR KJOT 270355Z AUTO 00000KT 10SM CLR M01/M02 A2991 RMK AO2 T10081025,41.5175,-88.179,175,Joliet Rgnl,CLR,[],VFR,,,,,,,,,,"Joliet Rgnl, IL, US",US,United States,12.629466666666668
3829,KJQF,2026-02-27 03:58:48.490000+00:00,1772164500,2026-02-27T04:00:00.000Z,12.0,12.0,360,3.0,3,1014.3,6,METAR,METAR KJQF 270355Z AUTO 36003KT 3SM BR OVC005 12/12 A2995 RMK AO2,35.3896,-80.7074,204,Concord Rgnl,OVC,"[{'cover': 'OVC', 'base': 500}]",IFR,,BR,,,,,,,,"Concord Rgnl, NC, US",US,United States,11.89089442261126
1835,KJSO,2026-02-27 03:58:19.892000+00:00,1772164500,2026-02-27T04:00:00.000Z,20.6,15.7,10,3.0,9,1011.6,14,METAR,METAR KJSO 270355Z AUTO 01003KT 9SM CLR 21/16 A2987 RMK AO2 T02060157 $,31.869,-95.2145,204,Jacksonvil0e/Cherokee Cnty,CLR,[],VFR,,,,,,,,,,"Jacksonvil0e/Cherokee Cnty, TX, US",US,United States,21.717936568099383
1841,KJST,2026-02-27 03:58:20.275000+00:00,1772164440,2026-02-27T04:00:00.000Z,-1.1,-10.0,250,6.0,10+,1012.3,6,METAR,METAR KJST 270354Z AUTO 25006KT 10SM CLR M01/M10 A2989 RMK AO2 SLP146 T10111100,40.3149,-78.8307,695,Johnstown/Murtha Arpt,CLR,[],VFR,,,1014.6,,,,,,,"Johnstown/Murtha Arpt, PA, US",US,United States,-4.898644288197499
1838,KJVL,2026-02-27 04:02:17.752000+00:00,1772164500,2026-02-27T04:00:00.000Z,0.0,-4.0,210,5.0,10+,1011.6,6,METAR,METAR KJVL 270355Z AUTO 21005KT 10SM CLR 00/M04 A2987 RMK AO2,42.6213,-89.0419,244,Janesville/S Wisconsin Rgnl,CLR,[],VFR,,,,,,,,,,"Janesville/S Wisconsin Rgnl, WI, US",US,United States,-3.0942981835679344
1830,KJXN,2026-02-27 04:00:26.990000+00:00,1772164560,2026-02-27T04:00:00.000Z,-2.8,-8.3,210,3.0,10+,1012.6,6,METAR,METAR KJXN 270356Z AUTO 21003KT 10SM CLR M03/M08 A2990 RMK AO2 SLP137 T10281083,42.259,-84.4589,303,Jackson Cnty,CLR,[],VFR,,,1013.7,,,,,,,"Jackson Cnty, MI, US",US,United States,-5.020759502182245
1825,KKLS,2026-02-27 04:00:12.872000+00:00,1772164560,2026-02-27T04:00:00.000Z,6.7,3.3,40,3.0,10+,1027.5,6,METAR,METAR KKLS 270356Z AUTO 04003KT 10SM BKN040 07/03 A3034 RMK AO2 SLP278 T00670033,46.118,-122.898,4,Kelso/Longview Arpt,BKN,"[{'cover': 'BKN', 'base': 4000}]",VFR,,,1027.8,,,,,,,"Kelso/Longview Arpt, WA, US",US,United States,5.834694030624396
2021,KLAA,2026-02-27 03:58:23.294000+00:00,1772164380,2026-02-27T04:00:00.000Z,4.4,-4.4,VRB,3.0,10+,1015.3,6,METAR,METAR KLAA 270353Z AUTO VRB03KT 10SM CLR 04/M04 A2998 RMK AO2 SLP147 T00441044,38.0718,-102.6875,1129,Lamar Muni,CLR,[],VFR,,,1014.7,,,,,,,"Lamar Muni, CO, US",US,United States,3.2065315963659438
2016,KLAF,2026-02-27 03:58:20.062000+00:00,1772164440,2026-02-27T04:00:00.000Z,3.3,-1.1,130,3.0,10+,1013.3,6,METAR,METAR KLAF 270354Z AUTO 13003KT 10SM BKN060 OVC075 03/M01 A2992 RMK AO2 SLP136 T00331011,40.4124,-86.9474,182,Lafayette/Purdue Univ Arpt,OVC,"[{'cover': 'BKN', 'base': 6000}, {'cover': 'OVC', 'base': 7500}]",VFR,,,1013.6,,,,,,,"Lafayette/Purdue Univ Arpt, IN, US",US,United States,1.9495843451988568
2009,KLAM,2026-02-27 04:02:20.254000+00:00,1772164500,2026-02-27T04:00:00.000Z,11.6,-7.0,250,7.0,10+,1021.4,14,METAR,METAR KLAM 270355Z AUTO 25007KT 10SM CLR 12/M07 A3016 RMK AO2 T01161070 $,35.8789,-106.2621,2166,Los Alamos Arpt,CLR,[],VFR,,,,,,,,,,"Los Alamos Arpt, NM, US",US,United States,10.141335502709344
2023,KLAN,2026-02-27 03:58:39.452000+00:00,1772164380,2026-02-27T04:00:00.000Z,-1.7,-7.2,200,7.0,10+,1011.9,4,METAR,METAR KLAN 270353Z 20007KT 10SM SCT110 M02/M07 A2988 RMK AO2 SLP129 T10171072,42.7761,-84.5997,261,Lansing/Capital City Arpt,SCT,"[{'cover': 'SCT', 'base': 11000}]",VFR,,,1012.9,,,,,,,"Lansing/Capital City Arpt, MI, US",US,United States,-6.0626877248083035
2024,KLAR,2026-02-27 03:58:28.021000+00:00,1772164380,2026-02-27T04:00:00.000Z,3.9,-10.0,240,33.0,10+,1017.0,6,METAR,METAR KLAR 270353Z AUTO 24033G47KT 10SM CLR 04/M10 A3003 RMK AO2 PK WND 24055/0330 SLP138 T00391100,41.3165,-105.6729,2217,Laramie Rgnl,CLR,[],VFR,47.0,,1013.8,,,,,,,"Laramie Rgnl, WY, US",US,United States,-3.404674107583771
1991,KLAS,2026-02-27 04:00:18.861000+00:00,1772164560,2026-02-27T04:00:00.000Z,21.7,5.6,220,4.0,10+,1018.7,4,METAR,METAR KLAS 270356Z 22004KT 10SM SCT250 22/06 A3008 RMK AO2 SLP172 T02170056,36.0719,-115.1634,662,Las Vegas/Reid Intl,SCT,"[{'cover': 'SCT', 'base': 25000}]",VFR,,,1017.2,,,,,,,"Las Vegas/Reid Intl, NV, US",US,United States,22.803500462127175
2025,KLAW,2026-02-27 03:56:37.065000+00:00,1772164380,2026-02-27T04:00:00.000Z,10.0,-1.7,0,0.0,10+,1014.6,6,METAR,METAR KLAW 270353Z AUTO 00000KT 10SM CLR 10/M02 A2996 RMK AO2 SLP143 T01001017,34.5577,-98.4172,328,Lawton-Fort Sill Rgnl,CLR,[],VFR,,,1014.3,,,,,,,"Lawton-Fort Sill Rgnl, OK, US",US,United States,19.341666666666665
2020,KLAX,2026-02-27 03:58:40.120000+00:00,1772164380,2026-02-27T04:00:00.000Z,17.8,14.4,120,4.0,10+,1015.0,4,METAR,METAR KLAX 270353Z 12004KT 10SM FEW250 18/14 A2997 RMK AO2 SLP147 T01780144,33.9382,-118.3866,30,Los Angeles Intl,FEW,"[{'cover': 'FEW', 'base': 25000}]",VFR,,,1014.7,,,,,,,"Los Angeles Intl, CA, US",US,United States,18.251305699031914
2039,KLBB,2026-02-27 03:58:39.643000+00:00,1772164380,2026-02-27T04:00:00.000Z,12.8,-1.7,120,10.0,10+,1015.7,4,METAR,METAR KLBB 270353Z 12010KT 10SM CLR 13/M02 A2999 RMK AO2 SLP125 T01281017,33.6658,-101.8233,996,Lubbock Intl Arpt,CLR,[],VFR,,,1012.5,,,,,,,"Lubbock Intl Arpt, TX, US",US,United States,11.046700436110916
2006,KLBE,2026-02-27 03:58:20.078000+00:00,1772164500,2026-02-27T04:00:00.000Z,-3.0,-7.0,0,0.0,10+,1014.6,6,METAR,METAR KLBE 270355Z AUTO 00000KT 10SM BKN095 M03/M07 A2996 RMK AO2,40.2767,-79.4039,345,Latrobe/Palmer Rgnl,BKN,"[{'cover': 'BKN', 'base': 9500}]",VFR,,,,,,,,,,"Latrobe/Palmer Rgnl, PA, US",US,United States,11.262166666666667
2034,KLBF,2026-02-27 03:58:42.188000+00:00,1772164380,2026-02-27T04:00:00.000Z,0.0,-4.4,350,3.0,10+,1011.6,14,METAR,METAR KLBF 270353Z AUTO 35003KT 10SM CLR 00/M04 A2987 RMK AO2 SLP131 T00001044 $,41.122,-100.6689,843,N Platte/Lee Bird Fld,CLR,[],VFR,,,1013.1,,,,,,,"N Platte/Lee Bird Fld, NE, US",US,United States,-1.8212574083023962
1981,KLBL,2026-02-27 03:58:51.006000+00:00,1772164560,2026-02-27T04:00:00.000Z,7.2,-2.8,0,0.0,10+,1016.7,14,METAR,METAR KLBL 270356Z AUTO 00000KT 10SM CLR 07/M03 A3002 RMK AO2 SLP163 T00721028 $,37.0375,-100.9574,877,Liberal/Mid America Rgnl,CLR,[],VFR,,,1016.3,,,,,,,"Liberal/Mid America Rgnl, KS, US",US,United States,17.601466666666667
1990,KLBT,2026-02-27 04:00:18.435000+00:00,1772164560,2026-02-27T04:00:00.000Z,13.9,13.3,210,3.0,7,1014.0,6,METAR,METAR KLBT 270356Z AUTO 21003KT 7SM -RA BKN027 OVC033 14/13 A2994 RMK AO2 RAB52 SLP137 P0001 T01390133,34.6082,-79.059,37,Lumberton Muni,OVC,"[{'cover': 'BKN', 'base': 2700}, {'cover': 'OVC', 'base': 3300}]",MVFR,,-RA,1013.7,0.01,,,,,,"Lumberton Muni, NC, US",US,United States,14.061985129172585
1966,KLBX,2026-02-27 04:02:32.505000+00:00,1772164800,2026-02-27T04:00:00.000Z,20.0,18.9,110,3.0,7,1011.3,6,SPECI,SPECI KLBX 270400Z AUTO 11003KT 7SM FEW018 BKN028 OVC036 20/19 A2986 RMK AO1 T02000189,29.1154,-95.4632,4,Angleton/Texas Gulf Coast Rgnl,OVC,"[{'cover': 'FEW', 'base': 1800}, {'cover': 'BKN', 'base': 2800}, {'cover': 'OVC', 'base': 3600}]",MVFR,,,,,,,,,,"Angleton/Texas Gulf Coast Rgnl, TX, US",US,United States,21.032328976553696
2030,KLCH,2026-02-27 03:56:37.166000+00:00,1772164380,2026-02-27T04:00:00.000Z,20.0,18.9,0,0.0,8,1011.9,4,METAR,METAR KLCH 270353Z 00000KT 8SM BKN046 OVC055 20/19 A2988 RMK AO2 SLP124 T02000189,30.1255,-93.2277,2,Lake Charles Rgnl,OVC,"[{'cover': 'BKN', 'base': 4600}, {'cover': 'OVC', 'base': 5500}]",VFR,,,1012.4,,,,,,,"Lake Charles Rgnl, LA, US",US,United States,25.556666666666672
1989,KLCI,2026-02-27 04:00:36.666000+00:00,1772164560,2026-02-27T04:00:00.000Z,-6.7,-12.2,0,0.0,10+,1014.0,70,METAR,METAR KLCI 270356Z AUTO 00000KT 10SM CLR M07/M12 A2994 RMK AO2 SLP145 T10671122 FZRANO,43.5718,-71.4254,166,Laconia Muni,CLR,[],VFR,,,1014.5,,,,,,,"Laconia Muni, NH, US",US,United States,8.96261666666667
1998,KLCK,2026-02-27 04:00:35.105000+00:00,1772164500,2026-02-27T04:00:00.000Z,4.1,-4.7,0,0.0,10+,1014.6,6,METAR,METAR KLCK 270355Z AUTO 00000KT 10SM OVC095 04/M05 A2996 RMK AO2 T00411047,39.83,-82.919,225,Columbus/Rickenbacker Intl,OVC,"[{'cover': 'OVC', 'base': 9500}]",VFR,,,,,,,,,,"Columbus/Rickenbacker Intl, OH, US",US,United States,15.67481666666667
2010,KLCQ,2026-02-27 04:02:06.834000+00:00,1772164500,2026-02-27T04:00:00.000Z,17.0,12.0,190,5.0,10+,1016.0,6,METAR,METAR KLCQ 270355Z AUTO 19005KT 10SM OVC060 17/12 A3000 RMK AO2,30.1838,-82.5684,59,Lake City/Gateway Arpt,OVC,"[{'cover': 'OVC', 'base': 6000}]",VFR,,,,,,,,,,"Lake City/Gateway Arpt, FL, US",US,United States,17.08581675473492
2015,KLDJ,2026-02-27 03:54:21.787000+00:00,1772164500,2026-02-27T04:00:00.000Z,3.4,-7.1,10,3.0,10+,1014.0,6,METAR,METAR KLDJ 270355Z AUTO 01003KT 10SM BKN120 03/M07 A2994 RMK AO2 T00341071,40.6162,-74.2451,6,Linden Arpt,BKN,"[{'cover': 'BKN', 'base': 12000}]",VFR,,,,,,,,,,"Linden Arpt, NJ, US",US,United States,2.0638522771231393
2000,KLDM,2026-02-27 04:00:19.198000+00:00,1772164500,2026-02-27T04:00:00.000Z,1.0,-2.0,200,10.0,10+,1009.9,6,METAR,METAR KLDM 270355Z AUTO 20010KT 10SM CLR 01/M02 A2982 RMK AO2,43.9614,-86.4107,194,Ludington/Mason Cnty,CLR,[],VFR,,,,,,,,,,"Ludington/Mason Cnty, MI, US",US,United States,-3.743409574205386
2026,KLEE,2026-02-27 03:56:37.190000+00:00,1772164380,2026-02-27T04:00:00.000Z,14.4,12.8,0,0.0,10+,1017.0,6,METAR,METAR KLEE 270353Z AUTO 00000KT 10SM CLR 14/13 A3003 RMK AO2 SLP166 T01440128,28.8214,-81.8006,21,Leesburg Muni,CLR,[],VFR,,,1016.6,,,,,,,"Leesburg Muni, FL, US",US,United States,22.076266666666665
1982,KLEW,2026-02-27 04:00:35.704000+00:00,1772164560,2026-02-27T04:00:00.000Z,-4.4,-11.1,350,4.0,10+,1014.0,70,METAR,METAR KLEW 270356Z AUTO 35004KT 10SM CLR M04/M11 A2994 RMK AO2 SLP149 T10441111 FZRANO,44.0444,-70.2853,81,Auburn-Lewiston Muni,CLR,[],VFR,,,1014.9,,,,,,,"Auburn-Lewiston Muni, ME, US",US,United States,-7.661187567818025
2018,KLEX,2026-02-27 03:58:33.716000+00:00,1772164440,2026-02-27T04:00:00.000Z,2.8,2.2,140,5.0,10+,1014.6,4,METAR,METAR KLEX 270354Z 14005KT 10SM CLR 03/02 A2996 RMK AO2 SLP152 T00280022,38.0339,-84.6114,294,Lexington/Blue Grass Arpt,CLR,[],VFR,,,1015.2,,,,,,,"Lexington/Blue Grass Arpt, KY, US",US,United States,0.22948545332901127
2004,KLFI,2026-02-27 04:02:38.350000+00:00,1772164500,2026-02-27T04:00:00.000Z,6.1,4.4,20,5.0,6,1014.6,12,METAR,METAR KLFI 270355Z 02005KT 6SM BR OVC018 06/04 A2996 RMK AO2A CIG 017 RWY08 SLP152 T00610044 $,37.088,-76.349,2,Langley AFB,OVC,"[{'cover': 'OVC', 'base': 1800}]",MVFR,,BR,1015.2,,,,,,,"Langley AFB, VA, US",US,United States,4.146801882528975
2031,KLFK,2026-02-27 03:58:28.217000+00:00,1772164380,2026-02-27T04:00:00.000Z,17.2,16.1,0,0.0,6,1011.9,6,METAR,METAR KLFK 270353Z AUTO 00000KT 6SM BR FEW060 17/16 A2988 RMK AO2 SLP113 T01720161,31.2359,-94.7546,87,Lufkin/Angelina Cnty,FEW,"[{'cover': 'FEW', 'base': 6000}]",VFR,,BR,1011.3,,,,,,,"Lufkin/Angelina Cnty, TX, US",US,United States,23.81646666666667
2032,KLFT,2026-02-27 03:56:37.228000+00:00,1772164380,2026-02-27T04:00:00.000Z,20.6,18.3,170,4.0,10+,1011.9,6,METAR,METAR KLFT 270353Z AUTO 17004KT 10SM OVC060 21/18 A2988 RMK AO2 SLP117 T02060183,30.1986,-91.9896,9,Lafayette Rgnl,OVC,"[{'cover': 'OVC', 'base': 6000}]",VFR,,,1011.7,,,,,,,"Lafayette Rgnl, LA, US",US,United States,21.519548093049025
2041,KLGA,2026-02-27 03:56:20.105000+00:00,1772164260,2026-02-27T04:00:00.000Z,2.8,-5.0,20,9.0,10+,1014.0,12,METAR,METAR KLGA 270351Z 02009KT 10SM SCT120 SCT250 03/M05 A2994 RMK AO2 SLP139 T00281050 $,40.7794,-73.8803,9,New York/La Guardia Arpt,SCT,"[{'cover': 'SCT', 'base': 12000}, {'cover': 'SCT', 'base': 25000}]",VFR,,,1013.9,,,,,,,"New York/La Guardia Arpt, NY, US",US,United States,-1.213908670057917
2019,KLGB,2026-02-27 03:58:28.235000+00:00,1772164380,2026-02-27T04:00:00.000Z,18.9,13.3,320,3.0,10+,1014.6,4,METAR,METAR KLGB 270353Z 32003KT 10SM CLR 19/13 A2996 RMK AO2 SLP144 T01890133,33.8118,-118.1472,10,Long Beach Arpt,CLR,[],VFR,,,1014.4,,,,,,,"Long Beach Arpt, CA, US",US,United States,19.775381725386612
2011,KLGC,2026-02-27 04:02:06.872000+00:00,1772164500,2026-02-27T04:00:00.000Z,15.0,15.0,0,0.0,1.75,1013.0,6,METAR,METAR KLGC 270355Z AUTO 00000KT 1 3/4SM RA BKN014 OVC020 15/15 A2991 RMK AO2 P0032,33.0093,-85.0717,209,La Grange/Callaway Arpt,OVC,"[{'cover': 'BKN', 'base': 1400}, {'cover': 'OVC', 'base': 2000}]",IFR,,RA,,0.32,,,,,,"La Grange/Callaway Arpt, GA, US",US,United States,22.44916666666667
1983,KLGD,2026-02-27 04:00:12.889000+00:00,1772164560,2026-02-27T04:00:00.000Z,5.6,-5.6,200,9.0,10+,1023.5,14,METAR,METAR KLGD 270356Z AUTO 20009KT 10SM CLR 06/M06 A3022 RMK AO2 SLPNO T00561056 $,45.2906,-118.0088,827,La Grande/Union Cnty,CLR,[],VFR,,,,,,,,,,"La Grande/Union Cnty, OR, US",US,United States,2.266032361531044
2005,KLGF,2026-02-27 03:56:44.556000+00:00,1772164500,2026-02-27T04:00:00.000Z,25.7,6.3,340,7.0,10+,1013.3,14,METAR,METAR KLGF 270355Z AUTO 34007KT 10SM CLR 26/06 A2992 RMK AO2 SLP130 T02570063 $,32.868,-114.393,118,Laguna,CLR,[],VFR,,,1013.0,,,,,,,"Laguna, AZ, US",US,United States,27.32003681910025
2040,KLGU,2026-02-27 03:56:19.924000+00:00,1772164260,2026-02-27T04:00:00.000Z,4.4,-1.7,0,0.0,10+,1024.1,6,METAR,METAR KLGU 270351Z AUTO 00000KT 10SM CLR 04/M02 A3024 RMK AO2 SLP241 T00441017,41.7865,-111.8519,1359,Logan/Cache Arpt,CLR,[],VFR,,,1024.1,,,,,,,"Logan/Cache Arpt, UT, US",US,United States,15.861266666666666
2008,KLHW,2026-02-27 03:58:27.347000+00:00,1772164500,2026-02-27T04:00:00.000Z,19.3,12.1,210,6.0,10+,1014.3,12,METAR,METAR KLHW 270355Z 21006KT 10SM FEW080 SCT110 19/12 A2995 RMK AO2A SLP145 T01930121 $,31.8872,-81.5625,14,Ft Stewart/Mid Coast Rgnl,SCT,"[{'cover': 'FEW', 'base': 8000}, {'cover': 'SCT', 'base': 11000}]",VFR,,,1014.5,,,,,,,"Ft Stewart/Mid Coast Rgnl, GA, US",US,United States,19.659017492194614
1997,KLHZ,2026-02-27 03:58:48.621000+00:00,1772164500,2026-02-27T04:00:00.000Z,11.0,11.0,0,0.0,0.5,1014.6,6,METAR,METAR KLHZ 270355Z AUTO 00000KT 1/2SM FG OVC006 11/11 A2996 RMK AO2,36.0229,-78.3341,104,Louisburg/Franklin Cnty,OVC,"[{'cover': 'OVC', 'base': 600}]",LIFR,,FG,,,,,,,,"Louisburg/Franklin Cnty, NC, US",US,United States,19.963166666666666
2012,KLIC,2026-02-27 04:00:32.605000+00:00,1772164500,2026-02-27T04:00:00.000Z,-3.9,-13.9,0,0.0,10+,1017.7,6,METAR,METAR KLIC 270355Z AUTO 00000KT 10SM CLR M04/M14 A3005 RMK AO2 SLP169 T10391139,39.2733,-103.6674,1635,Limon Muni,CLR,[],VFR,,,1016.9,,,,,,,"Limon Muni, CO, US",US,United States,10.702816666666669
2027,KLIT,2026-02-27 03:56:37.302000+00:00,1772164380,2026-02-27T04:00:00.000Z,15.0,12.2,10,3.0,7,1012.6,4,METAR,METAR KLIT 270353Z 01003KT 7SM BKN070 OVC085 15/12 A2990 RMK AO2 SLP126 T01500122,34.7273,-92.2358,77,Little Rock/Clinton Natl,OVC,"[{'cover': 'BKN', 'base': 7000}, {'cover': 'OVC', 'base': 8500}]",VFR,,,1012.6,,,,,,,"Little Rock/Clinton Natl, AR, US",US,United States,15.318932380339671
2014,KLKP,2026-02-27 04:01:05.426000+00:00,1772164500,2026-02-27T04:00:00.000Z,-13.0,-14.0,0,0.0,10+,1012.3,6,METAR,METAR KLKP 270355Z AUTO 00000KT 10SM FEW021 OVC027 M13/M14 A2989 RMK AO2,44.265,-73.963,533,Lake Placid Arpt,OVC,"[{'cover': 'FEW', 'base': 2100}, {'cover': 'OVC', 'base': 2700}]",MVFR,,,,,,,,,,"Lake Placid Arpt, NY, US",US,United States,5.047166666666669
2226,KLKU,2026-02-27 03:58:20.127000+00:00,1772164500,2026-02-27T04:00:00.000Z,5.0,4.4,0,0.0,10+,1015.3,6,METAR,METAR KLKU 270355Z AUTO 00000KT 10SM OVC050 05/04 A2998 RMK AO2 T00500044,38.0085,-77.9681,146,Louisa/Freeman Fld,OVC,"[{'cover': 'OVC', 'base': 5000}]",VFR,,,,,,,,,,"Louisa/Freeman Fld, VA, US",US,United States,16.234166666666667
2033,KLKV,2026-02-27 03:56:17.870000+00:00,1772164380,2026-02-27T04:00:00.000Z,7.8,0.0,0,0.0,10+,1024.8,6,METAR,METAR KLKV 270353Z AUTO 00000KT 10SM FEW090 08/00 A3026 RMK AO2 SLP262 T00780000,42.1538,-120.4027,1440,Lakeview/Lake Cnty,FEW,"[{'cover': 'FEW', 'base': 9000}]",VFR,,,1026.2,,,,,,,"Lakeview/Lake Cnty, OR, US",US,United States,17.974366666666665
574,KLLJ,2026-02-27 04:00:12.907000+00:00,1772164500,2026-02-27T04:00:00.000Z,1.1,-12.8,0,0.0,10+,1022.1,6,METAR,METAR KLLJ 270355Z AUTO 00000KT 10SM CLR 01/M13 A3018 RMK AO2 SLP240 T00111128,44.523,-114.2161,1535,Challis Arpt,CLR,[],VFR,,,1024.0,,,,,,,"Challis Arpt, ID, US",US,United States,13.810316666666667
2013,KLMS,2026-02-27 04:00:21.176000+00:00,1772164500,2026-02-27T04:00:00.000Z,19.0,17.0,230,5.0,10+,1011.3,6,METAR,METAR KLMS 270355Z AUTO 23005KT 10SM SCT033 19/17 A2986 RMK AO2 LTG DSNT N AND NE,33.15,-89.063,169,Louisville/Winston Cnty,SCT,"[{'cover': 'SCT', 'base': 3300}]",VFR,,,,,,,,,,"Louisville/Winston Cnty, MS, US",US,United States,19.459947923947013
2038,KLMT,2026-02-27 03:58:41.504000+00:00,1772164380,2026-02-27T04:00:00.000Z,8.3,0.0,0,0.0,10+,1024.5,4,METAR,METAR KLMT 270353Z 00000KT 10SM BKN075 08/00 A3025 RMK AO2 SLP245 LAST T00830000,42.147,-121.7255,1246,Klamath Falls Intl,BKN,"[{'cover': 'BKN', 'base': 7500}]",VFR,,,1024.5,,,,,,,"Klamath Falls Intl, OR, US",US,United States,18.285116666666667
1996,KLNA,2026-02-27 03:58:48.645000+00:00,1772164500,2026-02-27T04:00:00.000Z,23.1,17.6,150,5.0,10+,1017.7,6,METAR,METAR KLNA 270355Z AUTO 15005KT 10SM SCT017 23/18 A3005 RMK AO2 T02310176 402640148,26.5925,-80.0848,3,Lantana/Palm Beach Cnty,SCT,"[{'cover': 'SCT', 'base': 1700}]",VFR,,,,,,26.4,14.8,,,"Lantana/Palm Beach Cnty, FL, US",US,United States,24.32691682083182
2022,KLND,2026-02-27 03:58:39.726000+00:00,1772164380,2026-02-27T04:00:00.000Z,3.9,-10.6,210,3.0,10+,1017.4,6,METAR,METAR KLND 270353Z AUTO 21003KT 10SM CLR 04/M11 A3004 RMK AO2 SLP168 T00391106,42.8154,-108.726,1700,Lander/Hunt Fld,CLR,[],VFR,,,1016.8,,,,,,,"Lander/Hunt Fld, WY, US",US,United States,2.6351919367445475
2258,KLNK,2026-02-27 03:58:20.142000+00:00,1772164440,2026-02-27T04:00:00.000Z,3.3,-2.8,0,0.0,10+,1012.3,6,METAR,METAR KLNK 270354Z AUTO 00000KT 10SM CLR 03/M03 A2989 RMK AO2 SLP127 T00331028,40.8478,-96.7647,357,Lincoln Arpt,CLR,[],VFR,,,1012.7,,,,,,,"Lincoln Arpt, NE, US",US,United States,15.177616666666665
2227,KLNN,2026-02-27 04:02:17.804000+00:00,1772164500,2026-02-27T04:00:00.000Z,-2.3,-8.9,0,0.0,10+,1014.3,6,METAR,METAR KLNN 270355Z AUTO 00000KT 10SM OVC090 M02/M09 A2995 RMK AO1 T10231089,41.6839,-81.3896,190,Willoughby/Lake Cnty Exec,OVC,"[{'cover': 'OVC', 'base': 9000}]",VFR,,,,,,,,,,"Willoughby/Lake Cnty Exec, OH, US",US,United States,11.69721666666667
2217,KLNP,2026-02-27 03:58:20.164000+00:00,1772164500,2026-02-27T04:00:00.000Z,3.0,3.0,330,3.0,3,1014.3,6,METAR,METAR KLNP 270355Z AUTO 33003KT 3SM BR OVC003 03/03 A2995 RMK AO2,36.9884,-82.524,817,Wise/Lonesome Pine Arpt,OVC,"[{'cover': 'OVC', 'base': 300}]",LIFR,,BR,,,,,,,,"Wise/Lonesome Pine Arpt, VA, US",US,United States,1.6067805494260137
2208,KLNR,2026-02-27 04:00:27.014000+00:00,1772164560,2026-02-27T04:00:00.000Z,-3.3,-5.0,0,0.0,10+,1010.9,6,METAR,METAR KLNR 270356Z AUTO 00000KT 10SM CLR M03/M05 A2985 RMK AO2 SLP112 T10331050,43.2111,-90.1874,218,Lone Rock/Tri Cnty Rgnl,CLR,[],VFR,,,1011.2,,,,,,,"Lone Rock/Tri Cnty Rgnl, WI, US",US,United States,11.075716666666667
2259,KLNS,2026-02-27 03:58:43.394000+00:00,1772164380,2026-02-27T04:00:00.000Z,0.6,-5.0,270,4.0,10+,1014.3,4,METAR,METAR KLNS 270353Z 27004KT 10SM CLR 01/M05 A2995 RMK AO2 SLP144 T00061050,40.1206,-76.2944,122,Lancaster Arpt,CLR,[],VFR,,,1014.4,,,,,,,"Lancaster Arpt, PA, US",US,United States,-1.8250404356446106
2262,KLOL,2026-02-27 03:58:28.425000+00:00,1772164380,2026-02-27T04:00:00.000Z,10.6,-0.6,90,8.0,10+,1023.8,6,METAR,METAR KLOL 270353Z AUTO 09008KT 10SM CLR 11/M01 A3023 RMK AO2 SLP238 T01061006,40.0684,-118.5702,1191,Lovelock/Derby Fld,CLR,[],VFR,,,1023.8,,,,,,,"Lovelock/Derby Fld, NV, US",US,United States,8.689944945474075
326,KLOM,2026-02-27 04:02:20.796000+00:00,1772164500,2026-02-27T04:00:00.000Z,0.4,-7.2,0,0.0,10+,1014.3,6,METAR,METAR KLOM 270355Z AUTO 00000KT 10SM SCT110 00/M07 A2995 RMK AO2 T00041072,40.1376,-75.2684,87,Philadelphia/Wings Field Arpt,SCT,"[{'cover': 'SCT', 'base': 11000}]",VFR,,,,,,,,,,"Philadelphia/Wings Field Arpt, PA, US",US,United States,13.375266666666667
2229,KLOT,2026-02-27 04:02:20.815000+00:00,1772164500,2026-02-27T04:00:00.000Z,1.0,0.0,190,5.0,10+,1012.6,6,METAR,METAR KLOT 270355Z AUTO 19005KT 10SM CLR 01/M00 A2990 RMK AO2,41.6031,-88.1017,205,Romeoville/Lewis Univ Arpt,CLR,[],VFR,,,,,,,,,,"Romeoville/Lewis Univ Arpt, IL, US",US,United States,-1.9072325989618832
2286,KLOU,2026-02-27 03:56:37.426000+00:00,1772164380,2026-02-27T04:00:00.000Z,5.6,3.3,130,3.0,10+,1014.6,6,METAR,METAR KLOU 270353Z AUTO 13003KT 10SM CLR 06/03 A2996 RMK AO2 SLP148 T00560033,38.2302,-85.6629,165,Louisville/Bowman Fld,CLR,[],VFR,,,1014.8,,,,,,,"Louisville/Bowman Fld, KY, US",US,United States,4.57774677945731
2269,KLOZ,2026-02-27 03:56:37.455000+00:00,1772164380,2026-02-27T04:00:00.000Z,2.8,2.8,0,0.0,10+,1015.3,6,METAR,METAR KLOZ 270353Z AUTO 00000KT 10SM OVC014 03/03 A2998 RMK AO2 SLP156 T00280028,37.0896,-84.0688,361,London-Corbin Arpt,OVC,"[{'cover': 'OVC', 'base': 1400}]",MVFR,,,1015.6,,,,,,,"London-Corbin Arpt, KY, US",US,United States,14.866866666666668
2295,KLPC,2026-02-27 03:54:25.678000+00:00,1772164260,2026-02-27T04:00:00.000Z,22.8,10.0,VRB,4.0,10+,1017.7,6,METAR,METAR KLPC 270351Z AUTO VRB04KT 10SM CLR 23/10 A3005 RMK AO2 SLP175 T02280100,34.6647,-120.4642,26,Lompoc Arpt,CLR,[],VFR,,,1017.5,,,,,,,"Lompoc Arpt, CA, US",US,United States,24.087452831205326
2222,KLQK,2026-02-27 03:58:51.199000+00:00,1772164500,2026-02-27T04:00:00.000Z,11.7,10.6,0,0.0,2,1012.6,6,METAR,METAR KLQK 270355Z AUTO 00000KT 2SM BR OVC018 12/11 A2990 RMK AO2 VIS 1V4 T01170106,34.8069,-82.7047,291,Pickens Cnty,OVC,"[{'cover': 'OVC', 'base': 1800}]",IFR,,BR,,,,,,,,"Pickens Cnty, SC, US",US,United States,20.39821666666667
2198,KLRD,2026-02-27 04:00:36.310000+00:00,1772164560,2026-02-27T04:00:00.000Z,29.4,5.6,20,19.0,10+,1008.2,12,METAR,METAR KLRD 270356Z 02019KT 10SM CLR 29/06 A2977 RMK AO2 SLP075 T02940056 $,27.551,-99.4614,150,Laredo Intl,CLR,[],VFR,,,1007.5,,,,,,,"Laredo Intl, TX, US",US,United States,31.9022677342338
2320,KLRF,2026-02-27 03:54:26.520000+00:00,1772163900,2026-02-27T03:45:00.000Z,13.0,12.0,0,0.0,5,1012.3,15,SPECI,SPECI KLRF 270345Z COR AUTO 00000KT 5SM BR SCT080 13/12 A2989 RMK AO2 VIS 2V5 SLP124 $,34.92,-92.131,85,Little Rock AFB,SCT,"[{'cover': 'SCT', 'base': 8000}]",MVFR,,BR,1012.4,,,,,,,"Little Rock AFB, AR, US",US,United States,21.206166666666665
2211,KLRJ,2026-02-27 04:00:10.792000+00:00,1772164500,2026-02-27T04:00:00.000Z,-1.0,-9.0,0,0.0,10+,1009.9,6,METAR,METAR KLRJ 270355Z AUTO 00000KT 10SM CLR M01/M09 A2982 RMK AO2,42.7771,-96.195,363,Le Mars Muni,CLR,[],VFR,,,,,,,,,,"Le Mars Muni, IA, US",US,United States,12.505166666666668
2228,KLRU,2026-02-27 03:58:17.500000+00:00,1772164500,2026-02-27T04:00:00.000Z,16.5,-0.7,270,8.0,10+,1017.7,6,METAR,METAR KLRU 270355Z AUTO 27008KT 10SM CLR 17/M01 A3005 RMK AO2 T01651007,32.2884,-106.9131,1355,Las Cruces Intl,CLR,[],VFR,,,,,,,,,,"Las Cruces Intl, NM, US",US,United States,15.954240112709783
2221,KLSB,2026-02-27 04:00:11.994000+00:00,1772164500,2026-02-27T04:00:00.000Z,16.0,0.0,0,0.0,10+,1018.4,6,METAR,METAR KLSB 270355Z AUTO 00000KT 10SM CLR 16/00 A3007 RMK AO2,32.334,-108.6955,1308,Lordsburg Muni,CLR,[],VFR,,,,,,,,,,"Lordsburg Muni, NM, US",US,United States,23.070666666666664
2216,KLSF,2026-02-27 03:58:27.364000+00:00,1772164500,2026-02-27T04:00:00.000Z,19.6,15.2,190,5.0,10+,1011.6,6,METAR,METAR KLSF 270355Z AUTO 19005KT 10SM SCT065 20/15 A2987 RMK AO2 SLP119 T01960152,32.3239,-84.9826,68,Fort Benning/Lawson AAF,SCT,"[{'cover': 'SCT', 'base': 6500}]",VFR,,,1011.9,,,,,,,"Fort Benning/Lawson AAF, GA, US",US,United States,20.17218727471064
2215,KLTS,2026-02-27 03:58:23.226000+00:00,1772164500,2026-02-27T04:00:00.000Z,14.1,-2.8,0,0.0,10+,1014.0,14,METAR,METAR KLTS 270355Z AUTO 00000KT 10SM CLR 14/M03 A2994 RMK AO2 SLP132 T01411028 $,34.666,-99.27,416,Altus AFB,CLR,[],VFR,,,1013.2,,,,,,,"Altus AFB, OK, US",US,United States,21.889816666666665
2220,KLUF,2026-02-27 03:58:48.739000+00:00,1772164500,2026-02-27T04:00:00.000Z,24.7,5.9,0,0.0,10+,1012.6,12,METAR,METAR KLUF 270355Z 00000KT 10SM FEW250 25/06 A2990 RMK AO2A SLP116 T02470059 $,33.538,-112.38,333,Phoenix/Luke AFB,FEW,"[{'cover': 'FEW', 'base': 25000}]",VFR,,,1011.6,,,,,,,"Phoenix/Luke AFB, AZ, US",US,United States,28.477716666666666
2287,KLUK,2026-02-27 03:58:43.446000+00:00,1772164380,2026-02-27T04:00:00.000Z,1.1,0.6,0,0.0,10+,1015.3,4,METAR,METAR KLUK 270353Z 00000KT 10SM CLR 01/01 A2998 RMK AO2 SLP156 T00110006,39.106,-84.4161,144,Cincinnati/Lunken Fld,CLR,[],VFR,,,1015.6,,,,,,,"Cincinnati/Lunken Fld, OH, US",US,United States,13.810316666666667
2233,KLUL,2026-02-27 04:02:07.143000+00:00,1772164500,2026-02-27T04:00:00.000Z,19.4,18.1,220,4.0,10+,1011.9,6,METAR,METAR KLUL 270355Z AUTO 22004KT 10SM BKN035 BKN044 OVC080 19/18 A2988 RMK A02 T01940181,31.6682,-89.1705,74,Laurel/Hesler-Noble Fld,OVC,"[{'cover': 'BKN', 'base': 3500}, {'cover': 'BKN', 'base': 4400}, {'cover': 'OVC', 'base': 8000}]",VFR,,,,,,,,,,"Laurel/Hesler-Noble Fld, MS, US",US,United States,20.118872781327404
2270,KLVK,2026-02-27 03:58:28.270000+00:00,1772164380,2026-02-27T04:00:00.000Z,16.1,11.1,0,0.0,10+,1021.8,4,METAR,METAR KLVK 270353Z 00000KT 10SM CLR 16/11 A3017 RMK AO2 SLP214 T01610111,37.6931,-121.8149,120,Livermore Muni,CLR,[],VFR,,,1021.4,,,,,,,"Livermore Muni, CA, US",US,United States,23.13281666666667
2213,KLVL,2026-02-27 03:58:35.162000+00:00,1772164500,2026-02-27T04:00:00.000Z,7.5,6.2,0,0.0,10+,1015.0,6,METAR,METAR KLVL 270355Z AUTO 00000KT 10SM SCT006 SCT010 OVC018 08/06 A2997 RMK AO1 T00750062,36.7723,-77.7925,98,Lawrenceville Muni,OVC,"[{'cover': 'SCT', 'base': 600}, {'cover': 'SCT', 'base': 1000}, {'cover': 'OVC', 'base': 1800}]",MVFR,,,,,,,,,,"Lawrenceville Muni, VA, US",US,United States,17.787916666666675
2288,KLVM,2026-02-27 03:58:28.449000+00:00,1772164380,2026-02-27T04:00:00.000Z,7.8,-8.9,230,37.0,10+,1011.9,6,METAR,METAR KLVM 270353Z AUTO 23037G57KT 10SM CLR 08/M09 A2988 RMK AO2 PK WND 22057/0346 SLP115 T00781089,45.6984,-110.4415,1418,Livingston/Mission Fld,CLR,[],VFR,57.0,,1011.5,,,,,,,"Livingston/Mission Fld, MT, US",US,United States,1.7072513487722911
2266,KLVS,2026-02-27 03:58:28.292000+00:00,1772164380,2026-02-27T04:00:00.000Z,8.3,-10.0,0,0.0,10+,1020.7,14,METAR,METAR KLVS 270353Z AUTO 00000KT 10SM CLR 08/M10 A3014 RMK AO2 SLP144 T00831100 $,35.6558,-105.1385,2095,Las Vegas Muni,CLR,[],VFR,,,1014.4,,,,,,,"Las Vegas Muni, NM, US",US,United States,18.285116666666667
2240,KLWB,2026-02-27 04:02:17.830000+00:00,1772164500,2026-02-27T04:00:00.000Z,5.0,3.0,230,3.0,10+,1014.3,6,METAR,METAR KLWB 270355Z AUTO 23003KT 10SM OVC024 05/03 A2995 RMK AO2,37.8633,-80.3923,702,Lewisburg/Greenbrier Valley Arpt,OVC,"[{'cover': 'OVC', 'base': 2400}]",MVFR,,,,,,,,,,"Lewisburg/Greenbrier Valley Arpt, WV, US",US,United States,3.8921391879116305
2293,KLWC,2026-02-27 03:56:17.891000+00:00,1772164320,2026-02-27T04:00:00.000Z,3.3,-1.7,0,0.0,10+,1013.3,6,METAR,METAR KLWC 270352Z AUTO 00000KT 10SM CLR 03/M02 A2992 RMK AO1 SLP136 T00331017,39.0078,-95.2115,252,Lawrence Muni,CLR,[],VFR,,,1013.6,,,,,,,"Lawrence Muni, KS, US",US,United States,15.177616666666665
2256,KLWM,2026-02-27 03:58:35.873000+00:00,1772164440,2026-02-27T04:00:00.000Z,-1.7,-10.0,320,5.0,10+,1014.6,6,METAR,METAR KLWM 270354Z AUTO 32005KT 10SM CLR M02/M10 A2996 RMK AO2 SLP146 T10171100,42.7125,-71.1256,42,Lawrence Muni,CLR,[],VFR,,,1014.6,,,,,,,"Lawrence Muni, MA, US",US,United States,-5.112309677398213
2205,KLWS,2026-02-27 04:00:32.055000+00:00,1772164560,2026-02-27T04:00:00.000Z,5.6,-2.8,0,0.0,10+,1021.1,6,METAR,METAR KLWS 270356Z AUTO 00000KT 10SM CLR 06/M03 A3015 RMK AO2 SLP222 T00561028,46.3746,-117.0153,435,Lewiston/Nez Perce Cnty,CLR,[],VFR,,,1022.2,,,,,,,"Lewiston/Nez Perce Cnty, ID, US",US,United States,16.607066666666668
2251,KLWT,2026-02-27 03:58:38.878000+00:00,1772164440,2026-02-27T04:00:00.000Z,7.2,-10.0,250,16.0,10+,1009.9,6,METAR,METAR KLWT 270354Z AUTO 25016KT 10SM BKN110 07/M10 A2982 RMK AO2 SLP100 T00721100,47.0544,-109.4565,1254,Lewistown Muni,BKN,"[{'cover': 'BKN', 'base': 11000}]",VFR,,,1010.0,,,,,,,"Lewistown Muni, MT, US",US,United States,2.967546186326481
2271,KLWV,2026-02-27 03:58:42.213000+00:00,1772164380,2026-02-27T04:00:00.000Z,3.3,2.2,30,3.0,10+,1014.0,6,METAR,METAR KLWV 270353Z AUTO 03003KT 10SM CLR 03/02 A2994 RMK AO2 SLP140 T00330022,38.7604,-87.599,128,Lawrenceville-Vincennes Intl,CLR,[],VFR,,,1014.0,,,,,,,"Lawrenceville-Vincennes Intl, IL, US",US,United States,1.9495843451988568
2248,KLXN,2026-02-27 04:00:19.269000+00:00,1772164500,2026-02-27T04:00:00.000Z,4.5,-5.9,190,5.0,10+,1011.9,6,METAR,METAR KLXN 270355Z AUTO 19005KT 10SM CLR 05/M06 A2988 RMK AO2 T00451059,40.7915,-99.775,734,Lexington/Kelly Fld,CLR,[],VFR,,,,,,,,,,"Lexington/Kelly Fld, NE, US",US,United States,2.2474969471592963
2263,KLXV,2026-02-27 03:58:39.984000+00:00,1772164380,2026-02-27T04:00:00.000Z,-2.8,-9.4,VRB,3.0,10+,1026.2,6,METAR,METAR KLXV 270353Z AUTO VRB03KT 10SM CLR M03/M09 A3030 RMK AO2 SLP206 T10281094,39.228,-106.3162,3027,Leadville/Lake Cnty,CLR,[],VFR,,,1020.6,,,,,,,"Leadville/Lake Cnty, CO, US",US,United States,-5.020759502182245
2257,KLYH,2026-02-27 03:58:33.875000+00:00,1772164440,2026-02-27T04:00:00.000Z,6.1,5.0,VRB,3.0,10+,1015.0,6,METAR,METAR KLYH 270354Z AUTO VRB03KT 10SM OVC020 06/05 A2997 RMK AO2 SLP148 T00610050,37.3213,-79.2065,282,Lynchburg/Glenn Fld,OVC,"[{'cover': 'OVC', 'base': 2000}]",MVFR,,,1014.8,,,,,,,"Lynchburg/Glenn Fld, VA, US",US,United States,5.149086439078713
2247,KLYO,2026-02-27 03:59:00.436000+00:00,1772164500,2026-02-27T04:00:00.000Z,7.8,-0.3,340,3.0,10+,1014.0,6,METAR,METAR KLYO 270355Z AUTO 34003KT 10SM CLR 08/00 A2994 RMK AO2 T00781003,38.343,-98.2266,515,Lyons/Rice Cnty,CLR,[],VFR,,,,,,,,,,"Lyons/Rice Cnty, KS, US",US,United States,7.091641281791476
2199,KLZU,2026-02-27 03:58:51.344000+00:00,1772164560,2026-02-27T04:00:00.000Z,13.3,13.3,0,0.0,,1011.9,142,METAR,METAR KLZU 270356Z AUTO 00000KT FEW110 13/13 A2988 RMK AO2 LTG DSNT W SLP126 T01330133 PWINO $,33.9828,-83.9585,316,Lawrenceville/Gwinnett Cnty,FEW,"[{'cover': 'FEW', 'base': 11000}]",,,,1012.6,,,,,,,"Lawrenceville/Gwinnett Cnty, GA, US",US,United States,21.392616666666665
2261,KMAE,2026-02-27 03:58:28.311000+00:00,1772164380,2026-02-27T04:00:00.000Z,16.7,13.9,320,4.0,10+,1021.4,6,METAR,METAR KMAE 270353Z AUTO 32004KT 10SM CLR 17/14 A3016 RMK AO2 SLP211 T01670139,36.9851,-120.1107,77,Madera Muni,CLR,[],VFR,,,1021.1,,,,,,,"Madera Muni, CA, US",US,United States,16.96735332995376
2268,KMAF,2026-02-27 03:58:28.466000+00:00,1772164380,2026-02-27T04:00:00.000Z,18.9,1.7,90,11.0,10+,1014.6,4,METAR,METAR KMAF 270353Z 09011KT 10SM CLR 19/02 A2996 RMK AO2 SLP113 T01890017,31.9475,-102.2086,874,Midland Intl,CLR,[],VFR,,,1011.3,,,,,,,"Midland Intl, TX, US",US,United States,18.59746138234573
2244,KMAW,2026-02-27 03:52:08.926000+00:00,1772164500,2026-02-27T04:00:00.000Z,9.0,7.0,0,0.0,10+,1013.6,6,METAR,METAR KMAW 270355Z AUTO 00000KT 10SM CLR 09/07 A2993 RMK AO1,36.5945,-89.9865,88,Malden Rgnl,CLR,[],VFR,,,,,,,,,,"Malden Rgnl, MO, US",US,United States,18.72016666666667
2291,KMBG,2026-02-27 03:56:24.638000+00:00,1772164320,2026-02-27T04:00:00.000Z,1.7,-5.6,120,5.0,10+,1005.2,6,METAR,METAR KMBG 270352Z AUTO 12005KT 10SM CLR 02/M06 A2968 RMK AO2 SLP062 T00171056,45.543,-100.404,515,Mobridge Muni,CLR,[],VFR,,,1006.2,,,,,,,"Mobridge Muni, SD, US",US,United States,-1.0762866897376453
2206,KMBL,2026-02-27 04:00:37.481000+00:00,1772164560,2026-02-27T04:00:00.000Z,-0.6,-3.9,0,0.0,10+,1009.9,70,METAR,METAR KMBL 270356Z AUTO 00000KT 10SM OVC048 M01/M04 A2982 RMK AO2 SLP106 T10061039 400171183 FZRANO,44.2714,-86.2378,187,Manistee/Blacker Arpt,OVC,"[{'cover': 'OVC', 'base': 4800}]",VFR,,,1010.6,,,1.7,-18.3,,,"Manistee/Blacker Arpt, MI, US",US,United States,12.753766666666671
2289,KMBS,2026-02-27 03:58:42.241000+00:00,1772164380,2026-02-27T04:00:00.000Z,-2.2,-7.2,210,5.0,10+,1011.6,6,METAR,METAR KMBS 270353Z AUTO 21005KT 10SM CLR M02/M07 A2987 RMK AO2 SLP123 T10221072,43.5281,-84.0813,201,Saginaw Intl,CLR,[],VFR,,,1012.3,,,,,,,"Saginaw Intl, MI, US",US,United States,-5.705842469701243
2225,KMBY,2026-02-27 03:58:36.003000+00:00,1772164500,2026-02-27T04:00:00.000Z,3.0,-3.0,0,0.0,10+,1013.6,6,METAR,METAR KMBY 270355Z AUTO 00000KT 10SM CLR 03/M03 A2993 RMK AO2,39.464,-92.4244,263,Moberly/Bradley Arpt,CLR,[],VFR,,,,,,,,,,"Moberly/Bradley Arpt, MO, US",US,United States,14.991166666666667
2290,KMCB,2026-02-27 03:56:37.770000+00:00,1772164380,2026-02-27T04:00:00.000Z,19.4,17.8,0,0.0,10+,1011.9,6,METAR,METAR KMCB 270353Z AUTO 00000KT 10SM BKN043 OVC050 19/18 A2988 RMK AO2 SLP114 T01940178,31.1823,-90.4721,124,McComb/Lewis Fld,OVC,"[{'cover': 'BKN', 'base': 4300}, {'cover': 'OVC', 'base': 5000}]",VFR,,,1011.4,,,,,,,"McComb/Lewis Fld, MS, US",US,United States,25.18376666666667
2231,KMCC,2026-02-27 04:02:05.601000+00:00,1772164500,2026-02-27T04:00:00.000Z,16.0,14.0,280,5.0,10+,1021.8,6,METAR,METAR KMCC 270355Z AUTO 28005KT 10SM CLR 16/14 A3017 RMK AO2,38.678,-121.403,21,McClellan AFB,CLR,[],VFR,,,,,,,,,,"McClellan AFB, CA, US",US,United States,15.898751170128858
2210,KMCD,2026-02-27 04:00:35.732000+00:00,1772164500,2026-02-27T04:00:00.000Z,-2.0,-3.0,220,8.0,10+,1007.2,6,METAR,METAR KMCD 270355Z AUTO 22008KT 10SM OVC009 M02/M03 A2974 RMK AO2,45.866,-84.634,228,Mackinac Isl Arpt,OVC,"[{'cover': 'OVC', 'base': 900}]",IFR,,,,,,,,,,"Mackinac Isl Arpt, MI, US",US,United States,-6.823634564215714
2267,KMCE,2026-02-27 03:58:28.328000+00:00,1772164380,2026-02-27T04:00:00.000Z,16.1,13.3,0,0.0,10+,1020.7,6,METAR,METAR KMCE 270353Z AUTO 00000KT 10SM CLR 16/13 A3014 RMK AO2 SLP208 T01610133,37.286,-120.5179,49,Merced/Macready Fld,CLR,[],VFR,,,1020.8,,,,,,,"Merced/Macready Fld, CA, US",US,United States,23.13281666666667
2296,KMCF,2026-02-27 03:59:01.463000+00:00,1772164200,2026-02-27T03:50:00.000Z,15.0,14.0,0,0.0,0.5,1016.3,6,SPECI,SPECI KMCF 270350Z AUTO 00000KT 1/2SM R23/1600V6000FT FG CLR 15/14 A3001 RMK AO2 VIS 1/2V1 1/4 SLP165,27.8598,-82.5132,3,Tampa/MacDill AFB,CLR,[],LIFR,,FG,1016.5,,,,,,,"Tampa/MacDill AFB, FL, US",US,United States,22.44916666666667
2272,KMCI,2026-02-27 03:56:40.779000+00:00,1772164380,2026-02-27T04:00:00.000Z,9.4,-2.2,200,5.0,10+,1012.6,4,METAR,METAR KMCI 270353Z 20005KT 10SM CLR 09/M02 A2990 RMK AO2 SLP126 T00941022,39.2975,-94.7309,308,Kansas City Intl,CLR,[],VFR,,,1012.6,,,,,,,"Kansas City Intl, MO, US",US,United States,8.06411831172894
2273,KMCK,2026-02-27 03:58:24.815000+00:00,1772164380,2026-02-27T04:00:00.000Z,6.1,-7.2,230,7.0,10+,1013.0,6,METAR,METAR KMCK 270353Z AUTO 23007KT 10SM CLR 06/M07 A2991 RMK AO2 SLP133 T00611072,40.204,-100.5904,780,McCook Muni,CLR,[],VFR,,,1013.3,,,,,,,"McCook Muni, NE, US",US,United States,3.4404236417058107
2284,KMCN,2026-02-27 03:56:30.742000+00:00,1772164380,2026-02-27T04:00:00.000Z,16.1,16.1,100,3.0,9,1013.0,14,METAR,METAR KMCN 270353Z AUTO 10003KT 9SM OVC041 16/16 A2991 RMK AO2 SLP126 T01610161 $,32.6889,-83.6529,104,Macon/Middle Georgia Rgnl,OVC,"[{'cover': 'OVC', 'base': 4100}]",VFR,,,1012.6,,,,,,,"Macon/Middle Georgia Rgnl, GA, US",US,United States,16.575879631506762
2265,KMCO,2026-02-27 03:58:17.635000+00:00,1772164380,2026-02-27T04:00:00.000Z,16.7,13.3,0,0.0,10+,1017.0,4,METAR,METAR KMCO 270353Z 00000KT 10SM FEW035 17/13 A3003 RMK AO2 SLP168 T01670133,28.4182,-81.3241,27,Orlando Intl,FEW,"[{'cover': 'FEW', 'base': 3500}]",VFR,,,1016.8,,,,,,,"Orlando Intl, FL, US",US,United States,23.50571666666667
2281,KMCW,2026-02-27 03:58:42.602000+00:00,1772164380,2026-02-27T04:00:00.000Z,-2.8,-3.3,190,6.0,6,1009.6,6,METAR,METAR KMCW 270353Z AUTO 19006KT 6SM BR CLR M03/M03 A2981 RMK AO2 SLP102 T10281033,43.1543,-93.3262,363,Mason City Muni,CLR,[],VFR,,BR,1010.2,,,,,,,"Mason City Muni, IA, US",US,United States,-6.945116103230169
2218,KMDD,2026-02-27 04:00:11.520000+00:00,1772164500,2026-02-27T04:00:00.000Z,19.2,1.1,110,6.0,10+,1015.3,6,METAR,METAR KMDD 270355Z AUTO 11006KT 10SM CLR 19/01 A2998 RMK AO2 T01920011,32.0359,-102.0995,853,Midland Airpark,CLR,[],VFR,,,,,,,,,,"Midland Airpark, TX, US",US,United States,19.538636797192694
4046,KMDS,2026-02-27 03:58:17.323000+00:00,1772164500,2026-02-27T04:00:00.000Z,2.0,-6.0,220,8.0,10+,1008.2,38,METAR,METAR KMDS 270355Z AUTO 22008KT 10SM CLR 02/M06 A2977 RMK AO2 TSNO,44.0141,-97.0817,524,Madison Muni,CLR,[],VFR,,,,,,,,,,"Madison Muni, SD, US",US,United States,-1.8986886881237177
2209,KMDT,2026-02-27 04:00:19.962000+00:00,1772164560,2026-02-27T04:00:00.000Z,-2.8,-5.6,0,0.0,10+,1014.6,4,METAR,METAR KMDT 270356Z 00000KT 10SM FEW110 M03/M06 A2996 RMK AO2 SLP148 T10281056,40.1962,-76.7725,91,Harrisburg Intl,FEW,"[{'cover': 'FEW', 'base': 11000}]",VFR,,,1014.8,,,,,,,"Harrisburg Intl, PA, US",US,United States,11.38646666666667
2260,KMDW,2026-02-27 03:58:41.810000+00:00,1772164380,2026-02-27T04:00:00.000Z,2.2,-1.7,210,9.0,10+,1012.3,4,METAR,METAR KMDW 270353Z 21009G18KT 10SM CLR 02/M02 A2989 RMK AO2 SLP130 T00221017,41.7841,-87.7552,186,Chicago/Midway Intl,CLR,[],VFR,18.0,,1013.0,,,,,,,"Chicago/Midway Intl, IL, US",US,United States,-1.9596103196841261
2237,KMDZ,2026-02-27 04:00:36.695000+00:00,1772164500,2026-02-27T04:00:00.000Z,-1.3,-4.0,220,5.0,10+,1007.5,134,METAR,METAR KMDZ 270355Z AUTO 22005KT 10SM CLR M01/M04 A2975 RMK AO2 T10131040 PWINO,45.1013,-90.3064,446,Medford/Taylor Cnty,CLR,[],VFR,,,,,,,,,,"Medford/Taylor Cnty, WI, US",US,United States,-4.637483443555794
2197,KMEI,2026-02-27 04:02:07.852000+00:00,1772164680,2026-02-27T04:00:00.000Z,18.3,17.2,200,6.0,8,1011.3,4,METAR,METAR KMEI 270358Z 20006KT 8SM SCT029 BKN035 BKN047 18/17 A2986 RMK AO2 SLP107 T01830172,32.3348,-88.7507,90,Meridian/Key Fld,BKN,"[{'cover': 'SCT', 'base': 2900}, {'cover': 'BKN', 'base': 3500}, {'cover': 'BKN', 'base': 4700}]",VFR,,,1010.7,,,,,,,"Meridian/Key Fld, MS, US",US,United States,18.45521054217539
2255,KMEM,2026-02-27 03:58:36.051000+00:00,1772164440,2026-02-27T04:00:00.000Z,14.4,11.1,50,9.0,10+,1011.9,12,METAR,METAR KMEM 270354Z 05009KT 10SM CLR 14/11 A2988 RMK AO2 SLP114 T01440111 $,35.0564,-89.9864,78,Memphis Intl,CLR,[],VFR,,,1011.4,,,,,,,"Memphis Intl, TN, US",US,United States,13.20298988938206
2243,KMER,2026-02-27 03:59:13.970000+00:00,1772164500,2026-02-27T04:00:00.000Z,,,0,0.0,10+,,0,METAR,METAR KMER 270355Z 00000KT 10SM CLR,37.392,-120.577,58,Castle AFB,CLR,[],VFR,,,,,,,,,,"Castle AFB, CA, US",US,United States,
2239,KMEV,2026-02-27 04:00:24.850000+00:00,1772164500,2026-02-27T04:00:00.000Z,11.0,4.0,90,6.0,10+,1025.5,6,METAR,METAR KMEV 270355Z AUTO 09006KT 10SM SCT070 11/04 A3028 RMK AO2,38.9963,-119.75,1437,Minden-Tahoe Arpt,SCT,"[{'cover': 'SCT', 'base': 7000}]",VFR,,,,,,,,,,"Minden-Tahoe Arpt, NV, US",US,United States,9.667419807035076
2294,KMFD,2026-02-27 03:56:24.707000+00:00,1772164320,2026-02-27T04:00:00.000Z,-1.1,-5.6,180,3.0,10+,1013.6,14,METAR,METAR KMFD 270352Z AUTO 18003KT 10SM FEW070 M01/M06 A2993 RMK AO2 SLP148 T10111056 $,40.8204,-82.5177,394,Mansfield/Lahm Rgnl,FEW,"[{'cover': 'FEW', 'base': 7000}]",VFR,,,1014.8,,,,,,,"Mansfield/Lahm Rgnl, OH, US",US,United States,-3.078204659469483
2283,KMFE,2026-02-27 03:58:23.962000+00:00,1772164380,2026-02-27T04:00:00.000Z,23.3,19.4,150,11.0,10+,1007.5,12,METAR,METAR KMFE 270353Z 15011KT 10SM CLR 23/19 A2975 RMK AO2 SLP073 T02330194 $,26.1791,-98.2445,29,McAllen/Miller Intl,CLR,[],VFR,,,1007.3,,,,,,,"McAllen/Miller Intl, TX, US",US,United States,24.155141995603486
2252,KMFI,2026-02-27 03:58:36.098000+00:00,1772164440,2026-02-27T04:00:00.000Z,-1.1,-3.9,250,6.0,10+,1008.2,6,METAR,METAR KMFI 270354Z AUTO 25006KT 10SM BKN110 M01/M04 A2977 RMK AO2 SLP100 T10111039,44.6379,-90.1875,383,Marshfield Muni,BKN,"[{'cover': 'BKN', 'base': 11000}]",VFR,,,1010.0,,,,,,,"Marshfield Muni, WI, US",US,United States,-4.898644288197499
2264,KMFR,2026-02-27 03:58:23.492000+00:00,1772164380,2026-02-27T04:00:00.000Z,11.7,7.8,290,5.0,10+,1024.5,4,METAR,METAR KMFR 270353Z 29005KT 10SM BKN060 BKN100 12/08 A3025 RMK AO2 SLP247 T01170078,42.375,-122.877,397,Medford/Rogue Valley Intl,BKN,"[{'cover': 'BKN', 'base': 6000}, {'cover': 'BKN', 'base': 10000}]",VFR,,,1024.7,,,,,,,"Medford/Rogue Valley Intl, OR, US",US,United States,10.794369156322855
2242,KMFV,2026-02-27 03:54:23.661000+00:00,1772164500,2026-02-27T04:00:00.000Z,4.5,3.7,10,3.0,4,1014.3,6,METAR,METAR KMFV 270355Z AUTO 01003KT 4SM BR SCT005 OVC031 05/04 A2995 RMK AO2 T00450037,37.646,-75.763,13,Melfa/Accomack Cnty,OVC,"[{'cover': 'SCT', 'base': 500}, {'cover': 'OVC', 'base': 3100}]",MVFR,,BR,,,,,,,,"Melfa/Accomack Cnty, VA, US",US,United States,3.3207995282902263
2230,KMGC,2026-02-27 04:02:20.839000+00:00,1772164500,2026-02-27T04:00:00.000Z,1.0,-2.0,200,5.0,10+,1013.0,6,METAR,METAR KMGC 270355Z AUTO 20005KT 10SM CLR 01/M02 A2991 RMK AO2,41.7048,-86.8183,199,Michigan City Muni,CLR,[],VFR,,,,,,,,,,"Michigan City Muni, IN, US",US,United States,-1.9072325989618832
2207,KMGE,2026-02-27 04:02:11.504000+00:00,1772164560,2026-02-27T03:56:00.000Z,15.0,15.0,0,0.0,1.63,1011.6,14,SPECI,SPECI KMGE 270356Z AUTO 00000KT 1 5/8SM TS SCT015 BKN035 OVC050 15/15 A2987 RMK AO2 RAE55 SLP112 $,33.9189,-84.5267,309,Marietta/Dobbins AFB,OVC,"[{'cover': 'SCT', 'base': 1500}, {'cover': 'BKN', 'base': 3500}, {'cover': 'OVC', 'base': 5000}]",IFR,,TS,1011.2,,,,,,,"Marietta/Dobbins AFB, GA, US",US,United States,22.44916666666667
2253,KMGJ,2026-02-27 03:58:36.115000+00:00,1772164440,2026-02-27T04:00:00.000Z,-2.2,-8.9,30,7.0,10+,1014.6,6,METAR,METAR KMGJ 270354Z AUTO 03007KT 10SM CLR M02/M09 A2996 RMK AO2 SLP149 T10221089,41.5091,-74.2645,106,Montgomery/Orange Cnty,CLR,[],VFR,,,1014.9,,,,,,,"Montgomery/Orange Cnty, NY, US",US,United States,-6.671861530354085
2275,KMGM,2026-02-27 03:56:30.835000+00:00,1772164380,2026-02-27T04:00:00.000Z,17.2,16.7,180,4.0,5,1011.6,4,METAR,METAR KMGM 270353Z 18004KT 5SM BR OVC045 17/17 A2987 RMK AO2 RAB0256E06 SLP114 P0000 T01720167,32.2997,-86.4074,64,Montgomery Rgnl,OVC,"[{'cover': 'OVC', 'base': 4500}]",MVFR,,BR,1011.4,0.005,,,,,,"Montgomery Rgnl, AL, US",US,United States,17.5509680431711
2212,KMGR,2026-02-27 03:58:36.141000+00:00,1772164500,2026-02-27T04:00:00.000Z,16.8,15.2,210,7.0,9,1015.0,14,METAR,METAR KMGR 270355Z AUTO 21007KT 9SM SCT016 17/15 A2997 RMK AO2 T01680152 $,31.0835,-83.8035,86,Moultrie Muni,SCT,"[{'cover': 'SCT', 'base': 1600}]",VFR,,,,,,,,,,"Moultrie Muni, GA, US",US,United States,16.47674308038543
2282,KMGW,2026-02-27 03:58:37.732000+00:00,1772164380,2026-02-27T04:00:00.000Z,-0.6,-1.7,190,4.0,10+,1014.6,4,METAR,METAR KMGW 270353Z 19004KT 10SM OVC090 M01/M02 A2996 RMK AO2 SLP158 T10061017,39.6498,-79.9206,375,Morgantown Muni,OVC,"[{'cover': 'OVC', 'base': 9000}]",VFR,,,1015.8,,,,,,,"Morgantown Muni, WV, US",US,United States,-3.225715747366225
2276,KMGY,2026-02-27 03:58:41.833000+00:00,1772164380,2026-02-27T04:00:00.000Z,3.9,-2.8,20,3.0,10+,1014.3,6,METAR,METAR KMGY 270353Z AUTO 02003KT 10SM CLR 04/M03 A2995 RMK AO2 SLP147 T00391028,39.5918,-84.2263,290,Dayton/Wright Brothers Arpt,CLR,[],VFR,,,1014.7,,,,,,,"Dayton/Wright Brothers Arpt, OH, US",US,United States,2.6351919367445475
2277,KMHE,2026-02-27 03:58:42.982000+00:00,1772164380,2026-02-27T04:00:00.000Z,1.7,-7.8,200,7.0,10+,1008.9,6,METAR,METAR KMHE 270353Z AUTO 20007KT 10SM CLR 02/M08 A2979 RMK AO2 SLP097 T00171078,43.7743,-98.0384,397,Mitchell Muni,CLR,[],VFR,,,1009.7,,,,,,,"Mitchell Muni, SD, US",US,United States,-1.9203058470970231
2292,KMHK,2026-02-27 03:56:21.119000+00:00,1772164320,2026-02-27T04:00:00.000Z,3.3,-1.7,0,0.0,10+,1013.3,12,METAR,METAR KMHK 270352Z 00000KT 10SM CLR 03/M02 A2992 RMK AO2 SLP139 T00331017 $,39.1346,-96.6789,320,Manhattan Rgnl,CLR,[],VFR,,,1013.9,,,,,,,"Manhattan Rgnl, KS, US",US,United States,15.177616666666665
2224,KMHL,2026-02-27 03:58:36.170000+00:00,1772164500,2026-02-27T04:00:00.000Z,7.0,-1.0,0,0.0,10+,1013.6,6,METAR,METAR KMHL 270355Z AUTO 00000KT 10SM CLR 07/M01 A2993 RMK AO2,39.093,-93.2024,236,Marshall Muni,CLR,[],VFR,,,,,,,,,,"Marshall Muni, MO, US",US,United States,17.47716666666667
2235,KMHR,2026-02-27 04:02:12.239000+00:00,1772164500,2026-02-27T04:00:00.000Z,17.0,17.0,290,6.0,10+,1021.1,6,METAR,METAR KMHR 270355Z AUTO 29006KT 10SM CLR 17/17 A3015 RMK AO2,38.56,-121.284,30,Sacramento/Mather Fld,CLR,[],VFR,,,,,,,,,,"Sacramento/Mather Fld, CA, US",US,United States,16.890261507150413
2278,KMHT,2026-02-27 03:58:37.752000+00:00,1772164380,2026-02-27T04:00:00.000Z,-4.4,-10.6,0,0.0,10+,1013.6,4,METAR,METAR KMHT 270353Z 00000KT 10SM CLR M04/M11 A2993 RMK AO2 SLP154 T10441106,42.9245,-71.4377,68,Manchester Rgnl,CLR,[],VFR,,,1015.4,,,,,,,"Manchester Rgnl, NH, US",US,United States,10.392066666666667
2241,KMHV,2026-02-27 04:02:17.365000+00:00,1772164500,2026-02-27T04:00:00.000Z,16.5,9.7,310,6.0,10+,1020.7,14,METAR,METAR KMHV 270355Z AUTO 31006KT 10SM CLR 17/10 A3014 RMK AO2 T01650097 $,35.0626,-118.1572,841,Mojave Arpt,CLR,[],VFR,,,,,,,,,,"Mojave Arpt, CA, US",US,United States,16.288358032140803
2279,KMIA,2026-02-27 03:56:30.934000+00:00,1772164380,2026-02-27T04:00:00.000Z,21.1,19.4,110,4.0,10+,1018.0,12,METAR,METAR KMIA 270353Z 11004KT 10SM FEW020 SCT070 21/19 A3006 RMK AO2 SLP178 T02110194 $,25.7881,-80.3169,1,Miami Intl,SCT,"[{'cover': 'FEW', 'base': 2000}, {'cover': 'SCT', 'base': 7000}]",VFR,,,1017.8,,,,,,,"Miami Intl, FL, US",US,United States,22.10316280626636
2232,KMIB,2026-02-27 04:02:05.629000+00:00,1772164500,2026-02-27T04:00:00.000Z,2.2,-2.5,270,11.0,10+,999.7,4,METAR,METAR KMIB 270355Z 27011KT 10SM CLR 02/M02 A2952 RMK AO2A SLP016 T00221025,48.4062,-101.3413,505,Minot AFB,CLR,[],VFR,,,1001.6,,,,,,,"Minot AFB, ND, US",US,United States,-2.496462763428041
2280,KMIE,2026-02-27 03:58:37.770000+00:00,1772164380,2026-02-27T04:00:00.000Z,4.4,-1.7,180,3.0,10+,1013.6,6,METAR,METAR KMIE 270353Z AUTO 18003KT 10SM SCT070 OVC095 04/M02 A2993 RMK AO2 SLP138 T00441017,40.2345,-85.3936,286,Muncie/Johnson Fld,OVC,"[{'cover': 'SCT', 'base': 7000}, {'cover': 'OVC', 'base': 9500}]",VFR,,,1013.8,,,,,,,"Muncie/Johnson Fld, IN, US",US,United States,3.2065315963659438
2254,KMIV,2026-02-27 03:58:36.187000+00:00,1772164440,2026-02-27T04:00:00.000Z,0.6,-0.6,0,0.0,10+,1014.3,6,METAR,METAR KMIV 270354Z AUTO 00000KT 10SM OVC080 01/M01 A2995 RMK AO2 SLP143 T00061006,39.3662,-75.0778,18,Millville Muni,OVC,"[{'cover': 'OVC', 'base': 8000}]",VFR,,,1014.3,,,,,,,"Millville Muni, NJ, US",US,United States,13.49956666666667
2200,KMJX,2026-02-27 04:00:34.408000+00:00,1772164560,2026-02-27T04:00:00.000Z,2.2,0.6,270,4.0,10+,1014.3,78,METAR,METAR KMJX 270356Z AUTO 27004KT 10SM SCT090 OVC110 02/01 A2995 RMK AO2 SLP147 T00220006 FZRANO $,39.9235,-74.297,22,Toms River/Miller Arpt,OVC,"[{'cover': 'SCT', 'base': 9000}, {'cover': 'OVC', 'base': 11000}]",VFR,,,1014.7,,,,,,,"Toms River/Miller Arpt, NJ, US",US,United States,0.04252664665087656
2250,KMKC,2026-02-27 03:58:44.628000+00:00,1772164440,2026-02-27T04:00:00.000Z,7.8,0.0,0,0.0,10+,1013.0,4,METAR,METAR KMKC 270354Z 00000KT 10SM CLR 08/00 A2991 RMK AO2 SLP128 T00780000,39.1279,-94.5892,228,Kansas City/Wheeler Downtown Arpt,CLR,[],VFR,,,1012.8,,,,,,,"Kansas City/Wheeler Downtown Arpt, MO, US",US,United States,17.974366666666665
2536,KMKE,2026-02-27 03:56:26.395000+00:00,1772164320,2026-02-27T04:00:00.000Z,1.1,-5.0,230,7.0,10+,1010.2,4,METAR,METAR KMKE 270352Z 23007KT 10SM CLR 01/M05 A2983 RMK AO2 SLP111 T00111050,42.9549,-87.9045,203,Milwaukee/Mitchell Intl,CLR,[],VFR,,,1011.1,,,,,,,"Milwaukee/Mitchell Intl, WI, US",US,United States,-2.65131441375196
2497,KMKG,2026-02-27 04:00:32.697000+00:00,1772164500,2026-02-27T04:00:00.000Z,0.6,-3.9,200,11.0,10+,1011.3,4,METAR,METAR KMKG 270355Z 20011KT 10SM SCT200 01/M04 A2986 RMK AO2 SLP118 LAST T00061039 VISNO RWY 14,43.1711,-86.2369,190,Muskegon Cnty Arpt,SCT,"[{'cover': 'SCT', 'base': 20000}]",VFR,,,1011.8,,,,,,,"Muskegon Cnty Arpt, MI, US",US,United States,-4.517437531885405
2521,KMKL,2026-02-27 03:56:31.033000+00:00,1772164380,2026-02-27T04:00:00.000Z,11.1,8.9,80,4.0,10+,1013.3,14,METAR,METAR KMKL 270353Z AUTO 08004KT 10SM SCT090 11/09 A2992 RMK AO1 SLP131 T01110089 $,35.5933,-88.917,130,Jackson/McKellar Rgnl,SCT,"[{'cover': 'SCT', 'base': 9000}]",VFR,,,1013.1,,,,,,,"Jackson/McKellar Rgnl, TN, US",US,United States,10.430868541919539
2476,KMKY,2026-02-27 03:58:51.602000+00:00,1772164560,2026-02-27T04:00:00.000Z,18.9,17.8,0,0.0,10+,1017.7,6,METAR,METAR KMKY 270356Z AUTO 00000KT 10SM CLR 19/18 A3005 RMK AO2 SLP175 T01890178,25.999,-81.674,2,Marco Island Arpt,CLR,[],VFR,,,1017.5,,,,,,,"Marco Island Arpt, FL, US",US,United States,24.873016666666672
2522,KMLB,2026-02-27 03:56:31.069000+00:00,1772164380,2026-02-27T04:00:00.000Z,20.6,16.7,190,7.0,10+,1017.4,4,METAR,METAR KMLB 270353Z 19007KT 10SM FEW037 FEW075 21/17 A3004 RMK AO2 SLP170 T02060167,28.0997,-80.6356,7,Melbourne Intl,FEW,"[{'cover': 'FEW', 'base': 3700}, {'cover': 'FEW', 'base': 7500}]",VFR,,,1017.0,,,,,,,"Melbourne Intl, FL, US",US,United States,21.106464002533333
2523,KMLC,2026-02-27 03:56:31.089000+00:00,1772164380,2026-02-27T04:00:00.000Z,9.4,2.2,30,3.0,10+,1014.6,6,METAR,METAR KMLC 270353Z AUTO 03003KT 10SM CLR 09/02 A2996 RMK AO2 SLP142 T00940022,34.8824,-95.7815,231,McAlester Rgnl,CLR,[],VFR,,,1014.2,,,,,,,"McAlester Rgnl, OK, US",US,United States,8.91992819257997
2537,KMLI,2026-02-27 03:56:26.077000+00:00,1772164320,2026-02-27T04:00:00.000Z,-3.3,-5.0,0,0.0,10+,1012.3,4,METAR,METAR KMLI 270352Z 00000KT 10SM CLR M03/M05 A2989 RMK AO2 SLP130 T10331050,41.4482,-90.5237,174,Moline/Quad City Intl,CLR,[],VFR,,,1013.0,,,,,,,"Moline/Quad City Intl, IL, US",US,United States,11.075716666666667
2510,KMLS,2026-02-27 03:58:24.002000+00:00,1772164380,2026-02-27T04:00:00.000Z,4.4,-6.1,280,9.0,10+,1006.2,6,METAR,METAR KMLS 270353Z AUTO 28009KT 10SM CLR 04/M06 A2971 RMK AO2 SLP074 T00441061,46.4265,-105.8834,800,Miles City/Wiley Fld,CLR,[],VFR,,,1007.4,,,,,,,"Miles City/Wiley Fld, MT, US",US,United States,0.7746290622786292
2529,KMLU,2026-02-27 04:00:29.360000+00:00,1772164380,2026-02-27T04:00:00.000Z,18.9,16.1,220,4.0,9,1011.3,4,METAR,METAR KMLU 270353Z 22004KT 9SM CLR 19/16 A2986 RMK AO2 SLP111 T01890161,32.5155,-92.0299,22,Monroe Rgnl,CLR,[],VFR,,,1011.1,,,,,,,"Monroe Rgnl, LA, US",US,United States,19.535258068110057
2488,KMMH,2026-02-27 03:58:38.936000+00:00,1772164500,2026-02-27T04:00:00.000Z,6.0,0.0,270,9.0,10+,1028.2,6,METAR,METAR KMMH 270355Z AUTO 27009KT 10SM CLR 06/00 A3036 RMK AO2,37.6253,-118.8384,2167,Mammoth/Yosemite Arpt,CLR,[],VFR,,,,,,,,,,"Mammoth/Yosemite Arpt, CA, US",US,United States,2.763166794615179
2499,KMMI,2026-02-27 04:00:21.565000+00:00,1772164500,2026-02-27T04:00:00.000Z,11.0,9.0,50,5.0,10+,1013.0,6,METAR,METAR KMMI 270355Z AUTO 05005KT 10SM FEW026 OVC065 11/09 A2991 RMK A01,35.3952,-84.5612,252,Athens/McMinn Cnty,OVC,"[{'cover': 'FEW', 'base': 2600}, {'cover': 'OVC', 'base': 6500}]",VFR,,,,,,,,,,"Athens/McMinn Cnty, TN, US",US,United States,9.963423247098614
2481,KMML,2026-02-27 04:00:37.503000+00:00,1772164560,2026-02-27T04:00:00.000Z,0.6,-4.4,210,9.0,10+,1007.9,70,METAR,METAR KMML 270356Z AUTO 21009KT 10SM CLR 01/M04 A2976 RMK AO2 SLP090 T00061044 FZRANO,44.4504,-95.8215,358,Marshall Muni,CLR,[],VFR,,,1009.0,,,,,,,"Marshall Muni, MN, US",US,United States,-3.948148052020672
2486,KMMT,2026-02-27 03:58:53.653000+00:00,1772164500,2026-02-27T04:00:00.000Z,16.3,14.5,240,3.0,10+,1013.0,14,METAR,METAR KMMT 270355Z AUTO 24003KT 10SM SCT012 SCT029 16/15 A2991 RMK AO2 RAE47 SLP131 P0005 T01630145 $,33.922,-80.802,76,Columbia/McEntire JNGB,SCT,"[{'cover': 'SCT', 'base': 1200}, {'cover': 'SCT', 'base': 2900}]",VFR,,,1013.1,0.05,,,,,,"Columbia/McEntire JNGB, SC, US",US,United States,16.80441549535532
2494,KMMU,2026-02-27 04:02:19.274000+00:00,1772164500,2026-02-27T04:00:00.000Z,-2.0,-5.0,30,3.0,10+,1014.3,6,METAR,METAR KMMU 270355Z AUTO 03003KT 10SM SCT120 M02/M05 A2995 RMK AO2,40.7989,-74.4164,55,Morristown Muni,SCT,"[{'cover': 'SCT', 'base': 12000}]",VFR,,,,,,,,,,"Morristown Muni, NJ, US",US,United States,-4.106616046788002
2473,KMNM,2026-02-27 04:00:19.984000+00:00,1772164620,2026-02-27T04:00:00.000Z,-1.1,-6.1,240,5.0,10+,1008.9,78,METAR,METAR KMNM 270357Z AUTO 24005KT 10SM CLR M01/M06 A2979 RMK AO2 SLP094 T10111061 FZRANO PNO $,45.126,-87.639,188,Menominee/Twin Cnty,CLR,[],VFR,,,1009.4,,,,,,,"Menominee/Twin Cnty, MI, US",US,United States,-4.400070326634589
2532,KMNN,2026-02-27 03:58:41.041000+00:00,1772164380,2026-02-27T04:00:00.000Z,-0.6,-3.3,180,5.0,10+,1014.0,14,METAR,METAR KMNN 270353Z AUTO 18005KT 10SM SCT046 M01/M03 A2994 RMK AO2 SLP150 T10061033 $,40.6158,-83.0673,301,Marion Muni,SCT,"[{'cover': 'SCT', 'base': 4600}]",VFR,,,1015.0,,,,,,,"Marion Muni, OH, US",US,United States,-3.8065375343315586
2483,KMOB,2026-02-27 04:00:32.073000+00:00,1772164560,2026-02-27T04:00:00.000Z,17.8,16.7,180,7.0,7,1013.0,4,METAR,METAR KMOB 270356Z 18007KT 7SM FEW031 BKN100 18/17 A2991 RMK AO2 SLP127 T01780167,30.6882,-88.2459,67,Mobile Rgnl,BKN,"[{'cover': 'FEW', 'base': 3100}, {'cover': 'BKN', 'base': 10000}]",VFR,,,1012.7,,,,,,,"Mobile Rgnl, AL, US",US,United States,17.695090691476985
2514,KMOD,2026-02-27 03:58:24.025000+00:00,1772164380,2026-02-27T04:00:00.000Z,17.2,13.3,310,6.0,10+,1021.1,4,METAR,METAR KMOD 270353Z 31006KT 10SM CLR 17/13 A3015 RMK AO2 SLP209 T01720133,37.6254,-120.9549,25,Modesto/Sham Fld,CLR,[],VFR,,,1020.9,,,,,,,"Modesto/Sham Fld, CA, US",US,United States,17.131022897154242
2507,KMOT,2026-02-27 04:00:34.430000+00:00,1772164440,2026-02-27T04:00:00.000Z,3.3,-3.3,230,14.0,10+,1001.1,4,METAR,METAR KMOT 270354Z 23014KT 10SM CLR 03/M03 A2956 RMK AO2 SLP026 T00331033,48.252,-101.269,507,Minot Intl,CLR,[],VFR,,,1002.6,,,,,,,"Minot Intl, ND, US",US,United States,-1.7476816607991748
2492,KMPZ,2026-02-27 04:02:21.425000+00:00,1772164500,2026-02-27T04:00:00.000Z,0.0,-6.0,0,0.0,10+,1012.6,6,METAR,METAR KMPZ 270355Z AUTO 00000KT 10SM CLR 00/M06 A2990 RMK AO2,40.9453,-91.5122,222,Mount Pleasant Muni,CLR,[],VFR,,,,,,,,,,"Mount Pleasant Muni, IA, US",US,United States,13.126666666666667
2503,KMQB,2026-02-27 04:00:33.465000+00:00,1772164500,2026-02-27T04:00:00.000Z,-0.1,-6.3,290,7.0,10+,1014.0,6,METAR,METAR KMQB 270355Z AUTO 29007KT 10SM CLR 00/M06 A2994 RMK AO2 T10011063,40.5176,-90.6481,205,Macomb Muni,CLR,[],VFR,,,,,,,,,,"Macomb Muni, IL, US",US,United States,-4.113331547061822
2219,KMQI,2026-02-27 03:59:00.702000+00:00,1772164500,2026-02-27T04:00:00.000Z,11.6,10.8,310,5.0,10+,1014.0,6,METAR,METAR KMQI 270355Z AUTO 31005KT 10SM BKN007 OVC014 12/11 A2994 RMK AO2 T01160108,35.9188,-75.6989,3,Manteo/Dare Cnty,OVC,"[{'cover': 'BKN', 'base': 700}, {'cover': 'OVC', 'base': 1400}]",IFR,,,,,,,,,,"Manteo/Dare Cnty, NC, US",US,United States,10.67566259786224
812,KMQS,2026-02-27 03:58:36.308000+00:00,1772164500,2026-02-27T04:00:00.000Z,0.2,-6.5,0,0.0,10+,1014.0,6,METAR,METAR KMQS 270355Z AUTO 00000KT 10SM CLR 00/M06 A2994 RMK AO2 T00021065,39.9773,-75.8605,200,Coatesville/Chester Cnty,CLR,[],VFR,,,,,,,,,,"Coatesville/Chester Cnty, PA, US",US,United States,13.25096666666667
2482,KMQY,2026-02-27 03:58:53.742000+00:00,1772164560,2026-02-27T04:00:00.000Z,5.0,5.0,330,3.0,6,1014.0,6,METAR,METAR KMQY 270356Z AUTO 33003KT 6SM BR CLR 05/05 A2994 RMK AO2 SLP147 T00500050,36.0029,-86.5144,156,Smyrna Arpt,CLR,[],VFR,,BR,1014.7,,,,,,,"Smyrna Arpt, TN, US",US,United States,3.8921391879116305
2469,KMRB,2026-02-27 04:02:21.559000+00:00,1772164740,2026-02-27T03:59:00.000Z,-1.1,-2.2,220,3.0,0.75,1014.3,6,SPECI,SPECI KMRB 270359Z AUTO 22003KT 3/4SM BR VV002 M01/M02 A2995 RMK AO2 T10111022,39.4037,-77.975,165,Martinsburg/E West Virginia Rgnl,OVX,"[{'cover': 'OVX', 'base': 200}]",LIFR,,BR,,,,,,,2.0,"Martinsburg/E West Virginia Rgnl, WV, US",US,United States,-3.078204659469483
2548,KMRC,2026-02-27 04:00:21.652000+00:00,1772164200,2026-02-27T04:00:00.000Z,10.0,10.0,360,3.0,10+,1011.9,6,METAR,METAR KMRC 270350Z AUTO 36003KT 10SM CLR 10/10 A2988 RMK A01,35.5579,-87.1778,205,Columbia/Maury Cnty,CLR,[],VFR,,,,,,,,,,"Columbia/Maury Cnty, TN, US",US,United States,9.60553578412565
2446,KMRF,2026-02-27 04:02:20.025000+00:00,1772164860,2026-02-27T04:01:00.000Z,16.1,-1.1,10,5.0,10+,1019.4,14,METAR,METAR KMRF 270401Z AUTO 01005KT 10SM CLR 16/M01 A3010 RMK AO2 SLP133 T01611011 $,30.3707,-104.0117,1476,Marfa Muni,CLR,[],VFR,,,1013.3,,,,,,,"Marfa Muni, TX, US",US,United States,16.017457728589473
2508,KMRY,2026-02-27 03:58:38.954000+00:00,1772164440,2026-02-27T04:00:00.000Z,16.1,10.0,70,3.0,10+,1021.1,4,METAR,METAR KMRY 270354Z 07003KT 10SM CLR 16/10 A3015 RMK AO2 SLP220 T01610100,36.5904,-121.8488,51,Monterey Rgnl,CLR,[],VFR,,,1022.0,,,,,,,"Monterey Rgnl, CA, US",US,United States,16.575879631506762
2526,KMSL,2026-02-27 03:56:36.164000+00:00,1772164380,2026-02-27T04:00:00.000Z,14.4,11.7,30,6.0,8,1011.3,14,METAR,METAR KMSL 270353Z AUTO 03006KT 8SM -RA FEW055 SCT075 OVC090 14/12 A2986 RMK AO2 RAB45 SLP109 P0000 T01440117 $,34.7439,-87.5997,170,Muscle Shoals/NW Alabama Rgnl,OVC,"[{'cover': 'FEW', 'base': 5500}, {'cover': 'SCT', 'base': 7500}, {'cover': 'OVC', 'base': 9000}]",VFR,,-RA,1010.9,0.005,,,,,,"Muscle Shoals/NW Alabama Rgnl, AL, US",US,United States,13.760363437100425
2517,KMSN,2026-02-27 03:58:39.707000+00:00,1772164380,2026-02-27T04:00:00.000Z,-2.2,-5.6,0,0.0,10+,1010.2,4,METAR,METAR KMSN 270353Z 00000KT 10SM CLR M02/M06 A2983 RMK AO2 SLP114 T10221056,43.1407,-89.3452,262,Madison/Dane Cnty Rgnl,CLR,[],VFR,,,1011.4,,,,,,,"Madison/Dane Cnty Rgnl, WI, US",US,United States,11.759366666666667
2533,KMSO,2026-02-27 03:58:40.282000+00:00,1772164380,2026-02-27T04:00:00.000Z,5.6,-7.2,320,4.0,10+,1018.7,4,METAR,METAR KMSO 270353Z 32004KT 10SM CLR 06/M07 A3008 RMK AO2 SLP204 T00561072,46.9208,-114.0938,974,Missoula Intl,CLR,[],VFR,,,1020.4,,,,,,,"Missoula Intl, MT, US",US,United States,4.011106696528799
2534,KMSP,2026-02-27 03:58:37.822000+00:00,1772164380,2026-02-27T04:00:00.000Z,2.2,-1.7,220,3.0,8,1008.5,4,METAR,METAR KMSP 270353Z 22003KT 8SM FEW200 02/M02 A2978 RMK AO2 SLP092 T00221017,44.8852,-93.2313,255,Minneapolis-St Paul Intl,FEW,"[{'cover': 'FEW', 'base': 20000}]",VFR,,,1009.2,,,,,,,"Minneapolis-St Paul Intl, MN, US",US,United States,0.6926370940317739
2518,KMSS,2026-02-27 03:58:37.850000+00:00,1772164380,2026-02-27T04:00:00.000Z,-11.1,-14.4,0,0.0,10+,1015.7,6,METAR,METAR KMSS 270353Z AUTO 00000KT 10SM OVC045 M11/M14 A2999 RMK AO2 SLP165 T11111144,44.9334,-74.8484,60,Massena Intl,OVC,"[{'cover': 'OVC', 'base': 4500}]",VFR,,,1016.5,,,,,,,"Massena Intl, NY, US",US,United States,6.228016666666668
2527,KMSY,2026-02-27 03:56:36.284000+00:00,1772164380,2026-02-27T04:00:00.000Z,18.9,18.3,180,5.0,8,1012.6,12,METAR,METAR KMSY 270353Z 18005KT 8SM FEW008 SCT020 SCT250 19/18 A2990 RMK AO2 SLP126 T01890183 $,29.9974,-90.2777,0,New Orleans/Armstrong Intl,SCT,"[{'cover': 'FEW', 'base': 800}, {'cover': 'SCT', 'base': 2000}, {'cover': 'SCT', 'base': 25000}]",VFR,,,1012.6,,,,,,,"New Orleans/Armstrong Intl, LA, US",US,United States,19.34124136548642
2480,KMTC,2026-02-27 03:54:17.919000+00:00,1772164560,2026-02-27T04:00:00.000Z,-5.2,-8.9,170,6.0,10+,1011.9,12,METAR,METAR KMTC 270356Z 17006KT 10SM FEW095 M05/M09 A2988 RMK AO2A SLP132 T10521089 $,42.6045,-82.8353,177,Selfridge ANGB,FEW,"[{'cover': 'FEW', 'base': 9500}]",VFR,,,1013.2,,,,,,,"Selfridge ANGB, MI, US",US,United States,-9.834252783276302
2519,KMTH,2026-02-27 03:56:36.304000+00:00,1772164380,2026-02-27T04:00:00.000Z,22.8,21.1,110,7.0,10+,1017.4,14,METAR,METAR KMTH 270353Z AUTO 11007KT 10SM OVC055 23/21 A3004 RMK AO2 SLP171 T02280211 $,24.7263,-81.0477,1,Marathon Arpt,OVC,"[{'cover': 'OVC', 'base': 5500}]",VFR,,,1017.1,,,,,,,"Marathon Arpt, FL, US",US,United States,23.786828746934752
2511,KMTJ,2026-02-27 03:58:37.871000+00:00,1772164380,2026-02-27T04:00:00.000Z,4.4,-4.4,140,7.0,10+,1023.8,6,METAR,METAR KMTJ 270353Z AUTO 14007KT 10SM CLR 04/M04 A3023 RMK AO2 SLP210 T00441044,38.5054,-107.8981,1755,Montrose Rgnl,CLR,[],VFR,,,1021.0,,,,,,,"Montrose Rgnl, CO, US",US,United States,1.3692327028501654
2489,KMTN,2026-02-27 04:00:19.319000+00:00,1772164500,2026-02-27T04:00:00.000Z,3.0,2.2,0,0.0,4,1016.0,6,METAR,METAR KMTN 270355Z AUTO 00000KT 4SM BR SCT100 03/02 A3000 RMK AO2 T00300022 401011012,39.3214,-76.4065,2,Baltimore/Martin State Arpt,SCT,"[{'cover': 'SCT', 'base': 10000}]",MVFR,,BR,,,,10.1,-1.2,,,"Baltimore/Martin State Arpt, MD, US",US,United States,14.991166666666667
2520,KMTO,2026-02-27 03:58:41.878000+00:00,1772164380,2026-02-27T04:00:00.000Z,4.4,2.2,150,7.0,10+,1013.0,6,METAR,METAR KMTO 270353Z AUTO 15007KT 10SM CLR 04/02 A2991 RMK AO2 SLP132 T00440022,39.4744,-88.2724,216,Mattoon/Coles Cnty,CLR,[],VFR,,,1013.2,,,,,,,"Mattoon/Coles Cnty, IL, US",US,United States,1.3692327028501654
2509,KMTP,2026-02-27 03:58:06.631000+00:00,1772164440,2026-02-27T04:00:00.000Z,2.2,-2.2,340,5.0,,1014.3,6,METAR,METAR KMTP 270354Z AUTO 34005KT 02/M02 A2995 RMK AO1 SLP140 T00221022,41.073,-71.9235,2,Montauk Arpt,,,,,,1014.0,,,,,,,"Montauk Arpt, NY, US",US,United States,-0.4827538974346229
2484,KMUI,2026-02-27 03:58:34.551000+00:00,1772164500,2026-02-27T04:00:00.000Z,-0.3,-4.9,0,0.0,10+,1013.6,6,METAR,METAR KMUI 270355Z AUTO 00000KT 10SM CLR M00/M05 A2993 RMK AO2 SLP142 T10031049,40.4381,-76.5643,146,Fort Indiantown Gap/Muir AAF,CLR,[],VFR,,,1014.2,,,,,,,"Fort Indiantown Gap/Muir AAF, PA, US",US,United States,12.94021666666667
2485,KMUO,2026-02-27 03:58:34.154000+00:00,1772164500,2026-02-27T04:00:00.000Z,3.6,-2.0,290,4.0,10+,1024.5,12,METAR,METAR KMUO 270355Z 29004KT 10SM CLR 04/M02 A3025 RMK AO2A SLP258 T00361020 $,43.03,-115.859,915,Mountain Home AFB,CLR,[],VFR,,,1025.8,,,,,,,"Mountain Home AFB, ID, US",US,United States,1.6766478436594352
2506,KMVL,2026-02-27 03:58:33.893000+00:00,1772164440,2026-02-27T04:00:00.000Z,-13.3,-16.1,0,0.0,10+,1015.3,6,METAR,METAR KMVL 270354Z AUTO 00000KT 10SM CLR M13/M16 A2998 RMK AO2 SLPNO T11331161,44.5328,-72.6152,226,Morrisville-Stowe State Arpt,CLR,[],VFR,,,,,,,,,,"Morrisville-Stowe State Arpt, VT, US",US,United States,4.860716666666668
2516,KMVY,2026-02-27 03:58:41.061000+00:00,1772164380,2026-02-27T04:00:00.000Z,1.7,-1.1,350,3.0,10+,1013.3,6,METAR,METAR KMVY 270353Z AUTO 35003KT 10SM OVC110 02/M01 A2992 RMK AO2 SLP132 T00171011,41.393,-70.6159,18,Marthas Vineyard Arpt,OVC,"[{'cover': 'OVC', 'base': 11000}]",VFR,,,1013.2,,,,,,,"Marthas Vineyard Arpt, MA, US",US,United States,0.12129743441037356
2487,KMWA,2026-02-27 04:00:35.756000+00:00,1772164500,2026-02-27T04:00:00.000Z,3.2,0.4,0,0.0,10+,1013.6,6,METAR,METAR KMWA 270355Z AUTO 00000KT 10SM CLR 03/00 A2993 RMK AO2 T00320004,37.7544,-89.0118,142,Marion Rgnl,CLR,[],VFR,,,,,,,,,,"Marion Rgnl, IL, US",US,United States,15.11546666666667
2502,KMWC,2026-02-27 04:00:35.129000+00:00,1772164500,2026-02-27T04:00:00.000Z,0.0,-4.0,230,5.0,10+,1010.9,6,METAR,METAR KMWC 270355Z AUTO 23005KT 10SM CLR 00/M04 A2985 RMK AO2,43.1095,-88.0343,225,Milwaukee/Timmerman Arpt,CLR,[],VFR,,,,,,,,,,"Milwaukee/Timmerman Arpt, WI, US",US,United States,-3.0942981835679344
2538,KMWH,2026-02-27 03:56:25.941000+00:00,1772164320,2026-02-27T04:00:00.000Z,7.2,-2.8,230,13.0,10+,1020.4,4,METAR,METAR KMWH 270352Z 23013G22KT 10SM CLR 07/M03 A3013 RMK AO2 SLP210 T00721028,47.193,-119.3146,355,Moses Lake/Grant Cnty,CLR,[],VFR,22.0,,1021.0,,,,,,,"Moses Lake/Grant Cnty, WA, US",US,United States,3.4457314705503586
2530,KMWL,2026-02-27 03:58:23.732000+00:00,1772164380,2026-02-27T04:00:00.000Z,17.8,2.8,10,4.0,10+,1014.0,6,METAR,METAR KMWL 270353Z AUTO 01004KT 10SM CLR 18/03 A2994 RMK AO2 SLP130 T01780028,32.7816,-98.0602,288,Mineral Wells Arpt,CLR,[],VFR,,,1013.0,,,,,,,"Mineral Wells Arpt, TX, US",US,United States,18.251305699031914
2490,KMWO,2026-02-27 04:00:10.832000+00:00,1772164500,2026-02-27T04:00:00.000Z,1.0,-2.0,360,3.0,10+,1015.0,6,METAR,METAR KMWO 270355Z AUTO 36003KT 10SM CLR 01/M02 A2997 RMK AO2,39.5324,-84.3974,197,Middletown/Hook Fld,CLR,[],VFR,,,,,,,,,,"Middletown/Hook Fld, OH, US",US,United States,-0.6785780890595896
2501,KMXF,2026-02-27 03:59:00.806000+00:00,1772164500,2026-02-27T04:00:00.000Z,17.8,16.8,0,0.0,10+,1010.6,6,METAR,METAR KMXF 270355Z AUTO 00000KT 10SM BKN041 OVC050 18/17 A2984 RMK AO2 RAB0256E08DZB08E10RAB10E22 SLP107 P0002 T01780168,32.3877,-86.3724,47,Maxwell AFB,OVC,"[{'cover': 'BKN', 'base': 4100}, {'cover': 'OVC', 'base': 5000}]",VFR,,,1010.7,0.02,,,,,,"Maxwell AFB, AL, US",US,United States,24.189366666666672
2531,KMYF,2026-02-27 03:58:24.546000+00:00,1772164380,2026-02-27T04:00:00.000Z,18.9,11.7,40,3.0,10+,1015.3,4,METAR,METAR KMYF 270353Z 04003KT 10SM CLR 19/12 A2998 RMK AO2 SLP149 T01890117,32.8145,-117.1375,128,San Diego/Montgomery Arpt,CLR,[],VFR,,,1014.9,,,,,,,"San Diego/Montgomery Arpt, CA, US",US,United States,19.775381725386612
2541,KMYL,2026-02-27 03:56:18.447000+00:00,1772164260,2026-02-27T04:00:00.000Z,-2.2,-10.6,40,3.0,10+,1024.1,14,METAR,METAR KMYL 270351Z AUTO 04003KT 10SM CLR M02/M11 A3024 RMK AO2 SLP283 T10221106 $,44.8943,-116.0998,1532,McCall Muni,CLR,[],VFR,,,1028.3,,,,,,,"McCall Muni, ID, US",US,United States,-4.335151910636566
2525,KMYR,2026-02-27 03:56:17.979000+00:00,1772164380,2026-02-27T04:00:00.000Z,15.0,12.2,240,7.0,10+,1015.3,12,METAR,METAR KMYR 270353Z 24007KT 10SM -RA BKN055 BKN080 OVC100 15/12 A2998 RMK AO2 RAB15 SLP152 P0001 T01500122 401670117 $,33.6769,-78.9325,7,Myrtle Beach Intl,OVC,"[{'cover': 'BKN', 'base': 5500}, {'cover': 'BKN', 'base': 8000}, {'cover': 'OVC', 'base': 10000}]",VFR,,-RA,1015.2,0.01,,16.7,11.7,,,"Myrtle Beach Intl, SC, US",US,United States,14.28371738042063
2512,KMYV,2026-02-27 03:58:24.060000+00:00,1772164380,2026-02-27T04:00:00.000Z,15.6,13.3,350,3.0,10+,1022.1,6,METAR,METAR KMYV 270353Z AUTO 35003KT 10SM CLR 16/13 A3018 RMK AO2 SLP223 T01560133,39.102,-121.5688,18,Marysville/Yuba Cnty,CLR,[],VFR,,,1022.3,,,,,,,"Marysville/Yuba Cnty, CA, US",US,United States,16.004539971885354
2500,KMZJ,2026-02-27 03:59:46.917000+00:00,1772164500,2026-02-27T04:00:00.000Z,19.0,4.0,0,0.0,10+,1016.0,6,METAR,METAR KMZJ 270355Z AUTO 00000KT 10SM CLR 19/04 A3000 RMK AO2,32.5147,-111.3346,574,Marana/Pinal Aprk,CLR,[],VFR,,,,,,,,,,"Marana/Pinal Aprk, AZ, US",US,United States,24.93516666666667
2493,KMZZ,2026-02-27 04:02:21.486000+00:00,1772164500,2026-02-27T04:00:00.000Z,1.6,-2.0,170,3.0,10+,1014.0,6,METAR,METAR KMZZ 270355Z AUTO 17003KT 10SM OVC060 02/M02 A2994 RMK AO2 T00161020,40.4863,-85.6859,260,Marion Muni,OVC,"[{'cover': 'OVC', 'base': 6000}]",VFR,,,,,,,,,,"Marion Muni, IN, US",US,United States,0.007029502486099027
2495,KNBG,2026-02-27 04:02:14.219000+00:00,1772164500,2026-02-27T04:00:00.000Z,20.0,18.9,220,8.0,9,1012.6,12,METAR,METAR KNBG 270355Z 22008KT 9SM -RA SCT014 BKN028 OVC050 20/19 A2990 RMK AO2 RAB51 SLP124 P0000 T02000189 $,29.837,-90.024,0,New Orleans,OVC,"[{'cover': 'SCT', 'base': 1400}, {'cover': 'BKN', 'base': 2800}, {'cover': 'OVC', 'base': 5000}]",MVFR,,-RA,1012.4,0.005,,,,,,"New Orleans , LA, US",US,United States,20.263567754290275
2515,KNEW,2026-02-27 03:56:36.455000+00:00,1772164380,2026-02-27T04:00:00.000Z,20.0,18.3,200,10.0,10+,1013.0,4,METAR,METAR KNEW 270353Z 20010KT 10SM OVC022 20/18 A2991 RMK AO1 SLP120 T02000183,30.0494,-90.029,1,New Orleans/Lakefront Arpt,OVC,"[{'cover': 'OVC', 'base': 2200}]",MVFR,,,1012.0,,,,,,,"New Orleans/Lakefront Arpt, LA, US",US,United States,20.07117434071069
2474,KNFL,2026-02-27 04:02:12.305000+00:00,1772164620,2026-02-27T04:00:00.000Z,10.0,1.1,0,0.0,10+,1024.1,12,METAR,METAR KNFL 270357Z 00000KT 10SM FEW150 BKN250 10/01 A3024 RMK AO2 SLP201 T01000011 PNO $,39.417,-118.705,1199,Fallon,BKN,"[{'cover': 'FEW', 'base': 15000}, {'cover': 'BKN', 'base': 25000}]",VFR,,,1020.1,,,,,,,"Fallon , NV, US",US,United States,19.341666666666665
1429,KNFW,2026-02-27 03:58:27.606000+00:00,1772164320,2026-02-27T04:00:00.000Z,16.7,5.0,310,5.0,10+,1014.0,12,METAR,METAR KNFW 270352Z 31005KT 10SM CLR 17/05 A2994 RMK AO2 SLP121 T01670050 $,32.781,-97.436,188,Fort Worth/Carswell NAS,CLR,[],VFR,,,1012.1,,,,,,,"Fort Worth/Carswell NAS, TX, US",US,United States,16.729697079353105
2479,KNGP,2026-02-27 04:02:04.592000+00:00,1772164560,2026-02-27T04:00:00.000Z,21.1,20.0,150,8.0,5,1008.9,4,METAR,METAR KNGP 270356Z 15008KT 5SM BR FEW008 BKN010 21/20 A2979 RMK AO2 SLP088 T02110200,27.688,-97.292,5,Corpus Christi/Truax Fld NAS,BKN,"[{'cover': 'FEW', 'base': 800}, {'cover': 'BKN', 'base': 1000}]",MVFR,,BR,1008.8,,,,,,,"Corpus Christi/Truax Fld NAS, TX, US",US,United States,21.61792787021557
2470,KNGU,2026-02-27 04:02:13.036000+00:00,1772164740,2026-02-27T04:00:00.000Z,5.0,4.4,20,7.0,0.75,1015.0,4,METAR,METAR KNGU 270359Z 02007KT 3/4SM BR OVC003 05/04 A2997 RMK AO2 SFC VIS 2 SLP147 T00500044,36.937,-76.281,3,Norfolk NAS,OVC,"[{'cover': 'OVC', 'base': 300}]",LIFR,,BR,1014.7,,,,,,,"Norfolk NAS, VA, US",US,United States,2.1002412695051
2535,KNHK,2026-02-27 04:00:05.551000+00:00,1772164320,2026-02-27T04:00:00.000Z,3.9,2.8,0,0.0,10+,1015.0,4,METAR,METAR KNHK 270352Z 00000KT 10SM OVC060 04/03 A2997 RMK AO2 SLP150 T00390028,38.284,-76.408,5,Patuxent River NAS,OVC,"[{'cover': 'OVC', 'base': 6000}]",VFR,,,1015.0,,,,,,,"Patuxent River NAS, MD, US",US,United States,15.550516666666669
2513,KNIP,2026-02-27 04:00:05.606000+00:00,1772164380,2026-02-27T04:00:00.000Z,18.9,11.1,230,3.0,10+,1016.3,12,METAR,METAR KNIP 270353Z 23003KT 10SM SCT080 SCT250 19/11 A3001 RMK AO2 SLP157 T01890111 $,30.2346,-81.6746,3,Jacksonville,SCT,"[{'cover': 'SCT', 'base': 8000}, {'cover': 'SCT', 'base': 25000}]",VFR,,,1015.7,,,,,,,"Jacksonville , FL, US",US,United States,19.775381725386612
2644,KNJK,2026-02-27 04:02:11.624000+00:00,1772164560,2026-02-27T04:00:00.000Z,24.4,6.1,200,4.0,10+,1013.6,12,METAR,METAR KNJK 270356Z 20004KT 10SM CLR 24/06 A2993 RMK AO2 SLP151 T02440061 $,32.823,-115.668,-15,El Centro,CLR,[],VFR,,,1015.1,,,,,,,"El Centro, CA, US",US,United States,25.95501991350081
2674,KNKX,2026-02-27 04:02:05.184000+00:00,1772164500,2026-02-27T04:00:00.000Z,15.0,12.2,60,4.0,7,1015.3,12,METAR,METAR KNKX 270355Z 06004KT 7SM CLR 15/12 A2998 RMK AO2 SLP148 T01500122 $,32.865,-117.137,138,Miramar,CLR,[],VFR,,,1014.8,,,,,,,"Miramar , CA, US",US,United States,14.983063305014802
2652,KNLC,2026-02-27 04:02:14.341000+00:00,1772164560,2026-02-27T04:00:00.000Z,16.1,13.3,320,6.0,10+,1021.4,4,METAR,METAR KNLC 270356Z 32006KT 10SM SCT150 16/13 A3016 RMK AO2 SLP213 RH/80 T01610133,36.3024,-119.9397,69,Lemoore,SCT,"[{'cover': 'SCT', 'base': 15000}]",VFR,,,1021.3,,,,,,,"Lemoore , CA, US",US,United States,15.806835252133105
2649,KNPA,2026-02-27 04:02:12.092000+00:00,1772164560,2026-02-27T04:00:00.000Z,17.8,17.2,200,4.0,10+,1013.3,14,METAR,METAR KNPA 270356Z AUTO 20004KT 10SM OVC029 18/17 A2992 RMK AO2 SLP133 T01780172 $,30.356,-87.323,6,Pensacola,OVC,"[{'cover': 'OVC', 'base': 2900}]",MVFR,,,1013.3,,,,,,,"Pensacola , FL, US",US,United States,18.251305699031914
2732,KNQA,2026-02-27 03:48:42.575000+00:00,1772164200,2026-02-27T04:00:00.000Z,12.0,11.0,80,4.0,10+,1011.9,0,METAR,METAR KNQA 270350Z 08004KT 10SM CLR 12/11 A2988,35.3619,-89.8612,90,Millington Rgnl,CLR,[],VFR,,,,,,,,,,"Millington Rgnl, TN, US",US,United States,11.481375025710763
2651,KNQI,2026-02-27 04:02:13.153000+00:00,1772164560,2026-02-27T04:00:00.000Z,21.7,18.3,40,7.0,10+,1008.2,12,METAR,METAR KNQI 270356Z 04007KT 10SM CLR 22/18 A2977 RMK AO2 SLP078 T02170183 $,27.507,-97.81,15,Kingsville,CLR,[],VFR,,,1007.8,,,,,,,"Kingsville, TX, US",US,United States,22.446646374734044
2700,KNQX,2026-02-27 03:56:27.132000+00:00,1772164380,2026-02-27T04:00:00.000Z,22.8,20.0,,,10+,1017.4,14,METAR,METAR KNQX 270353Z AUTO 10SM FEW022 BKN055 OVC065 23/20 A3004 RMK AO2 SLP170 T02280200 $,24.5801,-81.6829,2,Key West,OVC,"[{'cover': 'FEW', 'base': 2200}, {'cover': 'BKN', 'base': 5500}, {'cover': 'OVC', 'base': 6500}]",VFR,,,1017.0,,,,,,,"Key West , FL, US",US,United States,
2712,KNRB,2026-02-27 04:00:07.359000+00:00,1772164320,2026-02-27T04:00:00.000Z,17.2,11.1,250,3.0,10+,1016.0,12,METAR,METAR KNRB 270352Z 25003KT 10SM SCT250 17/11 A3000 RMK AO2 SLP157 T01720111 $,30.396,-81.423,4,Mayport,SCT,"[{'cover': 'SCT', 'base': 25000}]",VFR,,,1015.7,,,,,,,"Mayport , FL, US",US,United States,17.832826882673842
2698,KNRS,2026-02-27 03:58:27.624000+00:00,1772164380,2026-02-27T04:00:00.000Z,14.4,13.3,0,0.0,10+,1015.3,4,METAR,METAR KNRS 270353Z 00000KT 10SM FEW250 14/13 A2998 RMK AO2 SLP152 T01440133,32.563,-117.1109,15,Imperial Beach,FEW,"[{'cover': 'FEW', 'base': 25000}]",VFR,,,1015.2,,,,,,,"Imperial Beach, CA, US",US,United States,22.076266666666665
2658,KNSE,2026-02-27 04:02:19.839000+00:00,1772164560,2026-02-27T04:00:00.000Z,17.2,16.7,180,5.0,10+,1013.3,12,METAR,METAR KNSE 270356Z 18005KT 10SM SCT029 BKN090 17/17 A2992 RMK AO2 SLP119 T01720167 $,30.728,-87.022,56,Milton/Whiting N,BKN,"[{'cover': 'SCT', 'base': 2900}, {'cover': 'BKN', 'base': 9000}]",VFR,,,1011.9,,,,,,,"Milton/Whiting N, FL, US",US,United States,17.323229871656128
2661,KNTD,2026-02-27 04:02:05.273000+00:00,1772164500,2026-02-27T04:00:00.000Z,17.8,14.4,350,8.0,10+,1015.0,12,METAR,METAR KNTD 270355Z 35008KT 10SM FEW280 18/14 A2997 RMK AO2 SLP149 T01780144 $,34.124,-119.123,1,Pt Mugu,FEW,"[{'cover': 'FEW', 'base': 28000}]",VFR,,,1014.9,,,,,,,"Pt Mugu , CA, US",US,United States,17.55484752243968
2650,KNTU,2026-02-27 04:02:12.129000+00:00,1772164560,2026-02-27T04:00:00.000Z,6.1,5.6,20,8.0,5,1014.3,4,METAR,METAR KNTU 270356Z 02008KT 5SM BR OVC005 06/06 A2995 RMK AO2 SLP143 T00610056,36.8209,-76.0277,6,Oceana,OVC,"[{'cover': 'OVC', 'base': 500}]",IFR,,BR,1014.3,,,,,,,"Oceana, VA, US",US,United States,3.149380834870582
2671,KNUQ,2026-02-27 04:02:12.429000+00:00,1772164500,2026-02-27T04:00:00.000Z,18.0,8.0,60,3.0,10+,1021.8,6,METAR,METAR KNUQ 270355Z AUTO 06003KT 10SM CLR 18/08 A3017 RMK AO2,37.4059,-122.0491,9,Moffett Fed Airfld,CLR,[],VFR,,,,,,,,,,"Moffett Fed Airfld, CA, US",US,United States,18.74697033806809
2689,KNUW,2026-02-27 04:00:05.723000+00:00,1772164380,2026-02-27T04:00:00.000Z,8.3,5.0,250,4.0,10+,1024.5,12,METAR,METAR KNUW 270353Z 25004KT 10SM SCT020 BKN030 OVC050 08/05 A3025 RMK AO2 SLP247 T00830050 $,48.355,-122.664,14,Whidbey Island,OVC,"[{'cover': 'SCT', 'base': 2000}, {'cover': 'BKN', 'base': 3000}, {'cover': 'OVC', 'base': 5000}]",MVFR,,,1024.7,,,,,,,"Whidbey Island, WA, US",US,United States,7.162626147902437
2710,KNZY,2026-02-27 04:00:05.751000+00:00,1772164320,2026-02-27T04:00:00.000Z,18.3,12.2,340,4.0,10+,1014.6,4,METAR,METAR KNZY 270352Z 34004KT 10SM FEW250 18/12 A2996 RMK AO2 SLP146 T01830122,32.6922,-117.2098,4,San Diego/North Island NAS,FEW,"[{'cover': 'FEW', 'base': 25000}]",VFR,,,1014.6,,,,,,,"San Diego/North Island NAS, CA, US",US,United States,18.83492041224925
2643,KOAJ,2026-02-27 03:58:53.919000+00:00,1772164560,2026-02-27T04:00:00.000Z,11.7,11.7,210,6.0,10+,1014.6,14,METAR,METAR KOAJ 270356Z AUTO 21006KT 10SM BKN047 BKN060 12/12 A2996 RMK AO2 SLP148 T01170117 $,34.8251,-77.6189,26,Jacksonville/Ellis Arpt,BKN,"[{'cover': 'BKN', 'base': 4700}, {'cover': 'BKN', 'base': 6000}]",VFR,,,1014.8,,,,,,,"Jacksonville/Ellis Arpt, NC, US",US,United States,10.510084672048533
2691,KOAK,2026-02-27 03:58:40.331000+00:00,1772164380,2026-02-27T04:00:00.000Z,16.7,12.8,310,6.0,10+,1021.8,4,METAR,METAR KOAK 270353Z 31006KT 10SM FEW250 17/13 A3017 RMK AO2 SLP217 T01670128,37.7178,-122.233,3,Oakland Intl,FEW,"[{'cover': 'FEW', 'base': 25000}]",VFR,,,1021.7,,,,,,,"Oakland Intl, CA, US",US,United States,16.529119422144635
2665,KOAR,2026-02-27 04:02:20.324000+00:00,1772164500,2026-02-27T04:00:00.000Z,15.0,11.0,0,0.0,10+,1021.1,6,METAR,METAR KOAR 270355Z AUTO 00000KT 10SM CLR 15/11 A3015 RMK AO2,36.6815,-121.7574,41,Marina Muni,CLR,[],VFR,,,,,,,,,,"Marina Muni, CA, US",US,United States,22.44916666666667
2680,KOBE,2026-02-27 04:02:07.569000+00:00,1772164500,2026-02-27T04:00:00.000Z,19.0,19.0,170,4.0,10+,1017.0,6,METAR,METAR KOBE 270355Z AUTO 17004KT 10SM SCT070 19/19 A3003 RMK AO2,27.2663,-80.8487,11,Okeechobee Cnty Arpt,SCT,"[{'cover': 'SCT', 'base': 7000}]",VFR,,,,,,,,,,"Okeechobee Cnty Arpt, FL, US",US,United States,19.651981010753524
2718,KOCF,2026-02-27 03:54:23.758000+00:00,1772164260,2026-02-27T04:00:00.000Z,12.2,8.9,160,3.0,10+,1016.7,14,METAR,METAR KOCF 270351Z AUTO 16003KT 10SM CLR 12/09 A3002 RMK AO2 SLP165 T01220089 402670044 PNO $,29.1636,-82.221,24,Ocala Rgnl,CLR,[],VFR,,,1016.5,,,26.7,4.4,,,"Ocala Rgnl, FL, US",US,United States,12.119430286459815
2646,KOCH,2026-02-27 04:00:33.180000+00:00,1772164560,2026-02-27T04:00:00.000Z,15.6,15.0,0,0.0,,1012.3,14,METAR,METAR KOCH 270356Z AUTO 00000KT CLR 16/15 A2989 RMK AO2 SLP124 T01560150 RVRNO $,31.5809,-94.7081,105,Nacogdoches Rgnl,CLR,[],,,,1012.4,,,,,,,"Nacogdoches Rgnl, TX, US",US,United States,22.82206666666667
2668,KOCW,2026-02-27 04:02:07.635000+00:00,1772164500,2026-02-27T04:00:00.000Z,12.5,11.5,0,0.0,10+,1014.3,6,METAR,METAR KOCW 270355Z AUTO 00000KT 10SM OVC007 13/12 A2995 RMK AO2 T01250115,35.5703,-77.05,10,Washington/Warren Arpt,OVC,"[{'cover': 'OVC', 'base': 700}]",IFR,,,,,,,,,,"Washington/Warren Arpt, NC, US",US,United States,20.895416666666666
2666,KOEO,2026-02-27 04:02:18.123000+00:00,1772164500,2026-02-27T04:00:00.000Z,-2.3,-4.3,0,0.0,10+,1008.9,134,METAR,METAR KOEO 270355Z AUTO 00000KT 10SM CLR M02/M04 A2979 RMK AO2 T10231043 PWINO,45.3108,-92.6948,269,Osceola/Simenstad Muni,CLR,[],VFR,,,,,,,,,,"Osceola/Simenstad Muni, WI, US",US,United States,11.69721666666667
2677,KOFF,2026-02-27 04:00:05.804000+00:00,1772164500,2026-02-27T04:00:00.000Z,0.7,-3.4,0,0.0,10+,1011.6,12,METAR,METAR KOFF 270355Z 00000KT 10SM CLR 01/M03 A2987 RMK AO2A SLP127 T00071034 RVRNO $,41.122,-95.91,308,Bellevue/Offutt AFB,CLR,[],VFR,,,1012.7,,,,,,,"Bellevue/Offutt AFB, NE, US",US,United States,13.561716666666667
2654,KOFK,2026-02-27 04:00:32.097000+00:00,1772164560,2026-02-27T04:00:00.000Z,-0.6,-7.2,180,3.0,10+,1010.6,6,METAR,METAR KOFK 270356Z AUTO 18003KT 10SM CLR M01/M07 A2984 RMK AO2 SLP118 T10061072,41.9799,-97.4335,476,Norfolk/Stefan Mem,CLR,[],VFR,,,1011.8,,,,,,,"Norfolk/Stefan Mem, NE, US",US,United States,-2.506864999848073
2663,KOGA,2026-02-27 04:00:10.869000+00:00,1772164500,2026-02-27T04:00:00.000Z,0.5,-6.8,240,7.0,10+,1013.0,6,METAR,METAR KOGA 270355Z AUTO 24007KT 10SM CLR 01/M07 A2991 RMK AO2 T00051068,41.1164,-101.7679,991,Ogalla/Searle Fld,CLR,[],VFR,,,,,,,,,,"Ogalla/Searle Fld, NE, US",US,United States,-3.3823229804068906
2704,KOGB,2026-02-27 03:56:36.524000+00:00,1772164380,2026-02-27T04:00:00.000Z,15.6,14.4,230,10.0,7,1014.6,6,METAR,METAR KOGB 270353Z AUTO 23010KT 7SM RA FEW065 OVC085 16/14 A2996 RMK AO2 SLP145 P0005 T01560144,33.4637,-80.8534,59,Orangeburg Muni,OVC,"[{'cover': 'FEW', 'base': 6500}, {'cover': 'OVC', 'base': 8500}]",VFR,,RA,1014.5,0.05,,,,,,"Orangeburg Muni, SC, US",US,United States,14.556218065677497
2688,KOGD,2026-02-27 03:58:23.511000+00:00,1772164380,2026-02-27T04:00:00.000Z,5.0,-1.7,170,7.0,10+,1024.5,6,METAR,METAR KOGD 270353Z AUTO 17007KT 10SM CLR 05/M02 A3025 RMK AO2 SLP235 T00501017,41.1941,-112.0168,1356,Ogden/Hinckley Arpt,CLR,[],VFR,,,1023.5,,,,,,,"Ogden/Hinckley Arpt, UT, US",US,United States,2.1002412695051
2669,KOGS,2026-02-27 04:02:18.151000+00:00,1772164500,2026-02-27T04:00:00.000Z,-16.0,-18.0,0,0.0,10+,1014.6,6,METAR,METAR KOGS 270355Z AUTO 00000KT 10SM FEW041 M16/M18 A2996 RMK AO2,44.68,-75.4642,88,Ogdensburg Intl,FEW,"[{'cover': 'FEW', 'base': 4100}]",VFR,,,,,,,,,,"Ogdensburg Intl, NY, US",US,United States,3.1826666666666665
2660,KOIC,2026-02-27 03:58:15.110000+00:00,1772164500,2026-02-27T04:00:00.000Z,-10.0,-11.0,310,3.0,10+,1014.0,6,METAR,METAR KOIC 270355Z AUTO 31003KT 10SM CLR M10/M11 A2994 RMK AO2,42.5642,-75.5269,311,Norwich/Eaton Arpt,CLR,[],VFR,,,,,,,,,,"Norwich/Eaton Arpt, NY, US",US,United States,-13.24805060073044
2705,KOJC,2026-02-27 03:56:36.562000+00:00,1772164380,2026-02-27T04:00:00.000Z,7.2,-1.1,0,0.0,10+,1013.3,6,METAR,METAR KOJC 270353Z AUTO 00000KT 10SM CLR 07/M01 A2992 RMK AO2 SLP133 T00721011,38.85,-94.7395,328,Olathe/Johnson Cnty,CLR,[],VFR,,,1013.3,,,,,,,"Olathe/Johnson Cnty, KS, US",US,United States,17.601466666666667
2713,KOKB,2026-02-27 03:58:28.484000+00:00,1772164320,2026-02-27T04:00:00.000Z,13.9,12.8,0,0.0,10+,1015.0,6,METAR,METAR KOKB 270352Z AUTO 00000KT 10SM CLR 14/13 A2997 RMK AO2 SLP148 T01390128,33.2195,-117.3496,7,Oceanside Muni,CLR,[],VFR,,,1014.8,,,,,,,"Oceanside Muni, CA, US",US,United States,21.76551666666667
2714,KOKC,2026-02-27 03:56:20.787000+00:00,1772164320,2026-02-27T04:00:00.000Z,12.8,-2.8,0,0.0,10+,1014.6,4,METAR,METAR KOKC 270352Z 00000KT 10SM CLR 13/M03 A2996 RMK AO2 SLP141 T01281028,35.3843,-97.6003,391,Oklahoma City/Will Rogers Intl,CLR,[],VFR,,,1014.1,,,,,,,"Oklahoma City/Will Rogers Intl, OK, US",US,United States,21.08186666666667
2746,KOKH,2026-02-27 03:40:21.791000+00:00,1772163360,2026-02-27T03:36:00.000Z,8.0,5.0,260,4.0,10+,1024.5,6,METAR,METAR KOKH 270336Z AUTO 26004KT 10SM OVC035 08/05 A3025 RMK AO2,48.2515,-122.674,193,Oak Harbor,OVC,"[{'cover': 'OVC', 'base': 3500}]",VFR,,,,,,,,,,"Oak Harbor, WA, US",US,United States,6.812457319972031
2655,KOKK,2026-02-27 04:00:37.535000+00:00,1772164560,2026-02-27T04:00:00.000Z,1.7,-1.1,160,3.0,10+,1014.0,78,METAR,METAR KOKK 270356Z AUTO 16003KT 10SM BKN060 OVC070 02/M01 A2994 RMK AO2 SLP146 T00171011 400611044 FZRANO $,40.5304,-86.055,251,Kokomo Muni,OVC,"[{'cover': 'BKN', 'base': 6000}, {'cover': 'OVC', 'base': 7000}]",VFR,,,1014.6,,,6.1,-4.4,,,"Kokomo Muni, IN, US",US,United States,0.12129743441037356
2759,KOKM,2026-02-27 03:42:10.714000+00:00,1772163300,2026-02-27T03:35:00.000Z,9.1,2.2,0,0.0,4,1014.6,6,METAR,METAR KOKM 270335Z AUTO 00000KT 4SM HZ CLR 09/02 A2996 RMK AO2 T00910022,35.6713,-95.9514,215,Okmulgee Rgnl,CLR,[],MVFR,,HZ,,,,,,,,"Okmulgee Rgnl, OK, US",US,United States,18.78231666666667
4052,KOKV,2026-02-27 03:52:08.957000+00:00,1772164500,2026-02-27T04:00:00.000Z,0.0,0.0,0,0.0,4,1014.3,6,METAR,METAR KOKV 270355Z AUTO 00000KT 4SM BR CLR 00/00 A2995 RMK AO2,39.1406,-78.1391,213,Winchester Rgnl,CLR,[],MVFR,,BR,,,,,,,,"Winchester Rgnl, VA, US",US,United States,13.126666666666667
2702,KOLF,2026-02-27 03:58:23.311000+00:00,1772164380,2026-02-27T04:00:00.000Z,3.9,-3.9,230,9.0,10+,1004.1,6,METAR,METAR KOLF 270353Z AUTO 23009KT 10SM CLR 04/M04 A2965 RMK AO2 SLP056 T00391039,48.0942,-105.5784,605,Wolf Point/Clayton Arpt,CLR,[],VFR,,,1005.6,,,,,,,"Wolf Point/Clayton Arpt, MT, US",US,United States,0.15321102092346373
2684,KOLM,2026-02-27 03:58:38.979000+00:00,1772164440,2026-02-27T04:00:00.000Z,7.2,2.8,220,5.0,10+,1026.5,4,METAR,METAR KOLM 270354Z 22005KT 10SM CLR 07/03 A3031 RMK AO2 SLP264 T00720028,46.9737,-122.9049,58,Olympia Rgnl,CLR,[],VFR,,,1026.4,,,,,,,"Olympia Rgnl, WA, US",US,United States,5.45257402559563
2683,KOLS,2026-02-27 03:58:38.995000+00:00,1772164440,2026-02-27T04:00:00.000Z,18.3,1.1,0,0.0,10+,1018.4,6,METAR,METAR KOLS 270354Z AUTO 00000KT 10SM CLR 18/01 A3007 RMK AO2 SLP135 T01830011,31.4208,-110.8465,1194,Nogales Intl,CLR,[],VFR,,,1013.5,,,,,,,"Nogales Intl, AZ, US",US,United States,24.50011666666667
2653,KOLU,2026-02-27 04:00:13.358000+00:00,1772164560,2026-02-27T04:00:00.000Z,1.7,-4.4,0,0.0,10+,1011.9,70,METAR,METAR KOLU 270356Z AUTO 00000KT 10SM CLR 02/M04 A2988 RMK AO2 SLP130 T00171044 FZRANO,41.4472,-97.3391,438,Columbus Muni,CLR,[],VFR,,,1013.0,,,,,,,"Columbus Muni, NE, US",US,United States,14.18321666666667
2664,KOLV,2026-02-27 03:58:35.185000+00:00,1772164500,2026-02-27T04:00:00.000Z,13.0,13.0,30,6.0,8,1011.6,6,METAR,METAR KOLV 270355Z AUTO 03006KT 8SM CLR 13/13 A2987 RMK A01,34.9808,-89.7851,124,Olive Branch Arpt,CLR,[],VFR,,,,,,,,,,"Olive Branch Arpt, MS, US",US,United States,12.075033707073512
2711,KOMA,2026-02-27 03:56:26.413000+00:00,1772164320,2026-02-27T04:00:00.000Z,4.4,-2.8,0,0.0,10+,1011.6,4,METAR,METAR KOMA 270352Z 00000KT 10SM CLR 04/M03 A2987 RMK AO2 SLP122 T00441028,41.3119,-95.9018,299,Omaha/Eppley Fld,CLR,[],VFR,,,1012.2,,,,,,,"Omaha/Eppley Fld, NE, US",US,United States,15.861266666666666
2687,KOMK,2026-02-27 03:58:40.353000+00:00,1772164380,2026-02-27T04:00:00.000Z,7.8,-2.2,170,9.0,10+,1017.4,6,METAR,METAR KOMK 270353Z AUTO 17009KT 10SM CLR 08/M02 A3004 RMK AO2 SLP179 T00781022,48.4611,-119.5209,395,Omak Arpt,CLR,[],VFR,,,1017.9,,,,,,,"Omak Arpt, WA, US",US,United States,5.000271743493793
2673,KONL,2026-02-27 04:00:36.776000+00:00,1772164500,2026-02-27T04:00:00.000Z,1.1,-7.8,210,4.0,10+,1010.6,6,METAR,METAR KONL 270355Z AUTO 21004KT 10SM CLR 01/M08 A2984 RMK AO2 T00111078,42.4691,-98.6903,619,O'Neill Muni,CLR,[],VFR,,,,,,,,,,"O'Neill Muni, NE, US",US,United States,-1.2414257224272736
2690,KONO,2026-02-27 03:58:23.781000+00:00,1772164380,2026-02-27T04:00:00.000Z,2.8,-1.7,0,0.0,10+,1024.8,6,METAR,METAR KONO 270353Z AUTO 00000KT 10SM CLR 03/M02 A3026 RMK AO2 SLP266 T00281017,44.0142,-117.0081,668,Ontario Muni,CLR,[],VFR,,,1026.6,,,,,,,"Ontario Muni, OR, US",US,United States,14.866866666666668
2672,KONP,2026-02-27 04:00:34.130000+00:00,1772164500,2026-02-27T04:00:00.000Z,3.0,2.0,110,3.0,10+,1027.5,6,METAR,METAR KONP 270355Z AUTO 11003KT 10SM CLR 03/02 A3034 RMK AO2,44.5825,-124.0575,43,Newport Muni,CLR,[],VFR,,,,,,,,,,"Newport Muni, OR, US",US,United States,1.6067805494260137
2692,KONT,2026-02-27 03:58:40.380000+00:00,1772164380,2026-02-27T04:00:00.000Z,22.2,14.4,VRB,4.0,10+,1015.7,12,METAR,METAR KONT 270353Z VRB04KT 10SM SCT280 22/14 A2999 RMK AO2 SLP146 T02220144 $,34.0531,-117.5769,279,Ontario Intl,SCT,"[{'cover': 'SCT', 'base': 28000}]",VFR,,,1014.6,,,,,,,"Ontario Intl, CA, US",US,United States,23.387115175344515
2695,KOPF,2026-02-27 03:56:36.679000+00:00,1772164380,2026-02-27T04:00:00.000Z,21.1,18.9,90,3.0,10+,1018.0,12,METAR,METAR KOPF 270353Z 09003KT 10SM SCT017 21/19 A3006 RMK AO2 SLP180 T02110189 $,25.9102,-80.2828,1,Miami/Opa Locka Arpt,SCT,"[{'cover': 'SCT', 'base': 1700}]",VFR,,,1018.0,,,,,,,"Miami/Opa Locka Arpt, FL, US",US,United States,22.289276227720784
2496,KOQU,2026-02-27 04:02:18.263000+00:00,1772164500,2026-02-27T04:00:00.000Z,2.0,-6.0,350,12.0,10+,1013.6,6,METAR,METAR KOQU 270355Z AUTO 35012KT 10SM OVC110 02/M06 A2993 RMK AO2,41.5995,-71.4111,6,N Kingston/Quonset Arpt,OVC,"[{'cover': 'OVC', 'base': 11000}]",VFR,,,,,,,,,,"N Kingston/Quonset Arpt, RI, US",US,United States,-2.989075467446002
2716,KORD,2026-02-27 03:56:19.786000+00:00,1772164260,2026-02-27T04:00:00.000Z,2.2,-3.3,210,5.0,10+,1011.6,4,METAR,METAR KORD 270351Z 21005KT 10SM CLR 02/M03 A2987 RMK AO2 SLP121 T00221033,41.9602,-87.9316,202,Chicago/O'Hare Intl,CLR,[],VFR,,,1012.1,,,,,,,"Chicago/O'Hare Intl, IL, US",US,United States,-0.4827538974346229
2717,KORF,2026-02-27 03:54:27.334000+00:00,1772164260,2026-02-27T04:00:00.000Z,4.4,4.4,360,7.0,2,1014.3,4,METAR,METAR KORF 270351Z 36007KT 2SM BR OVC002 04/04 A2995 RMK AO2 SLP143 T00440044,36.9037,-76.1927,5,Norfolk Intl,OVC,"[{'cover': 'OVC', 'base': 200}]",LIFR,,BR,1014.3,,,,,,,"Norfolk Intl, VA, US",US,United States,1.3692327028501654
2682,KORH,2026-02-27 03:58:33.734000+00:00,1772164440,2026-02-27T04:00:00.000Z,-3.9,-10.6,310,9.0,10+,1012.6,12,METAR,METAR KORH 270354Z 31009KT 10SM CLR M04/M11 A2990 RMK AO2 SLP138 T10391106 $,42.2706,-71.8731,306,Worcester Muni,CLR,[],VFR,,,1013.8,,,,,,,"Worcester Muni, MA, US",US,United States,-9.540910424217218
2706,KORL,2026-02-27 03:56:36.704000+00:00,1772164380,2026-02-27T04:00:00.000Z,17.8,13.9,0,0.0,10+,1017.0,6,METAR,METAR KORL 270353Z AUTO 00000KT 10SM SCT039 18/14 A3003 RMK AO2 SLP171 T01780139,28.5465,-81.3354,32,Orlando/Executive,SCT,"[{'cover': 'SCT', 'base': 3900}]",VFR,,,1017.1,,,,,,,"Orlando/Executive, FL, US",US,United States,24.189366666666672
1045,KORS,2026-02-27 03:58:35.326000+00:00,1772164500,2026-02-27T04:00:00.000Z,10.0,2.0,200,9.0,10+,1023.1,6,METAR,METAR KORS 270355Z AUTO 20009G17KT 170V230 10SM OVC120 10/02 A3021 RMK AO2,48.7081,-122.9092,7,Eastsound/Orcas Island Arpt,OVC,"[{'cover': 'OVC', 'base': 12000}]",VFR,17.0,,,,,,,,,"Eastsound/Orcas Island Arpt, WA, US",US,United States,7.7345111254565495
2675,KOSC,2026-02-27 04:02:17.302000+00:00,1772164500,2026-02-27T04:00:00.000Z,-4.0,-7.0,230,4.0,10+,1010.6,6,METAR,METAR KOSC 270355Z AUTO 23004KT 10SM BKN036 OVC043 M04/M07 A2984 RMK AO2,44.453,-83.396,191,Wurtsmith,OVC,"[{'cover': 'BKN', 'base': 3600}, {'cover': 'OVC', 'base': 4300}]",VFR,,,,,,,,,,"Wurtsmith, MI, US",US,United States,-7.194295797244146
2693,KOSH,2026-02-27 03:58:41.905000+00:00,1772164380,2026-02-27T04:00:00.000Z,0.6,-3.9,0,0.0,10+,1009.2,6,METAR,METAR KOSH 270353Z AUTO 00000KT 10SM CLR 01/M04 A2980 RMK AO2 SLP105 T00061039,43.9669,-88.5582,239,Oshkosh/Wittman Rgnl,CLR,[],VFR,,,1010.5,,,,,,,"Oshkosh/Wittman Rgnl, WI, US",US,United States,13.49956666666667
2641,KOTH,2026-02-27 04:00:33.200000+00:00,1772164560,2026-02-27T04:00:00.000Z,8.9,7.2,360,4.0,10+,1026.2,4,METAR,METAR KOTH 270356Z 36004KT 10SM CLR 09/07 A3030 RMK AO2 SLP261 T00890072,43.4194,-124.2438,3,North Bend/SW Oregon Rgnl,CLR,[],VFR,,,1026.1,,,,,,,"North Bend/SW Oregon Rgnl, OR, US",US,United States,7.862963803763247
2694,KOTM,2026-02-27 03:58:41.078000+00:00,1772164380,2026-02-27T04:00:00.000Z,2.8,-7.8,190,4.0,10+,1011.9,6,METAR,METAR KOTM 270353Z AUTO 19004KT 10SM CLR 03/M08 A2988 RMK AO2 SLP125 T00281078,41.1008,-92.4445,254,Ottumwa Rgnl,CLR,[],VFR,,,1012.5,,,,,,,"Ottumwa Rgnl, IA, US",US,United States,0.7428643025116897
2670,KOUN,2026-02-27 04:02:09.585000+00:00,1772164500,2026-02-27T04:00:00.000Z,12.2,-2.4,0,0.0,10+,1014.3,6,METAR,METAR KOUN 270355Z AUTO 00000KT 10SM CLR 12/M02 A2995 RMK AO2 T01221024,35.2436,-97.4713,359,Norman/Univ Oklahoma Arpt,CLR,[],VFR,,,,,,,,,,"Norman/Univ Oklahoma Arpt, OK, US",US,United States,20.708966666666665
2707,KOVE,2026-02-27 03:58:23.330000+00:00,1772164380,2026-02-27T04:00:00.000Z,16.1,12.2,10,3.0,10+,1022.4,6,METAR,METAR KOVE 270353Z AUTO 01003KT 10SM CLR 16/12 A3019 RMK AO2 SLP225 T01610122,39.4943,-121.6225,56,Oroville Muni,CLR,[],VFR,,,1022.5,,,,,,,"Oroville Muni, CA, US",US,United States,16.575879631506762
2659,KOWA,2026-02-27 04:00:35.817000+00:00,1772164500,2026-02-27T04:00:00.000Z,2.2,-2.1,190,8.0,10+,1007.9,6,METAR,METAR KOWA 270355Z AUTO 19008KT 10SM CLR 02/M02 A2976 RMK AO2 T00221021,44.1191,-93.2569,345,Owatonna/Degner Rgnl,CLR,[],VFR,,,,,,,,,,"Owatonna/Degner Rgnl, MN, US",US,United States,-1.6524413943191203
2656,KOWB,2026-02-27 03:58:54.295000+00:00,1772164560,2026-02-27T04:00:00.000Z,7.8,3.3,100,4.0,10+,1014.0,4,METAR,METAR KOWB 270356Z 10004KT 10SM CLR 08/03 A2994 RMK AO2 SLP141 T00780033,37.7297,-87.1683,121,Owensboro/Daviess Cnty,CLR,[],VFR,,,1014.1,,,,,,,"Owensboro/Daviess Cnty, KY, US",US,United States,6.579011434685091
2686,KOWD,2026-02-27 03:58:41.097000+00:00,1772164380,2026-02-27T04:00:00.000Z,-5.6,-8.3,0,0.0,10+,1014.3,6,METAR,METAR KOWD 270353Z AUTO 00000KT 10SM CLR M06/M08 A2995 RMK AO2 SLP144 T10561083,42.1912,-71.1732,14,Norwood Mem,CLR,[],VFR,,,1014.4,,,,,,,"Norwood Mem, MA, US",US,United States,9.64626666666667
2708,KOXB,2026-02-27 03:58:37.907000+00:00,1772164380,2026-02-27T04:00:00.000Z,3.9,0.6,360,4.0,10+,1014.6,6,METAR,METAR KOXB 270353Z AUTO 36004KT 10SM OVC046 04/01 A2996 RMK AO2 SLP145 T00390006,38.3091,-75.1234,2,Ocean City Muni,OVC,"[{'cover': 'OVC', 'base': 4600}]",VFR,,,1014.5,,,,,,,"Ocean City Muni, MD, US",US,United States,2.0268166715898417
2642,KOXC,2026-02-27 04:00:33.578000+00:00,1772164560,2026-02-27T04:00:00.000Z,-3.3,-7.8,20,5.0,10+,1014.0,78,METAR,METAR KOXC 270356Z AUTO 02005KT 10SM CLR M03/M08 A2994 RMK AO2 SLP159 T10331078 FZRANO $,41.4741,-73.1353,211,Oxford Arpt,CLR,[],VFR,,,1015.9,,,,,,,"Oxford Arpt, CT, US",US,United States,-7.011614612767898
2809,KOXD,2026-02-27 03:28:06.385000+00:00,1772162340,2026-02-27T03:19:00.000Z,4.0,-1.0,170,3.0,10+,1014.3,6,METAR,METAR KOXD 270319Z AUTO 17003KT 10SM SCT075 04/M01 A2995 RMK AO2,39.5047,-84.7838,317,Oxford/Miami Univ Arpt,SCT,"[{'cover': 'SCT', 'base': 7500}]",VFR,,,,,,,,,,"Oxford/Miami Univ Arpt, OH, US",US,United States,2.749459868668822
2715,KOXR,2026-02-27 03:56:18.470000+00:00,1772164260,2026-02-27T04:00:00.000Z,17.2,13.3,0,0.0,10+,1015.3,12,METAR,METAR KOXR 270351Z 00000KT 10SM CLR 17/13 A2998 RMK AO2 SLP149 T01720133 $,34.2001,-119.2042,12,Oxnard Arpt,CLR,[],VFR,,,1014.9,,,,,,,"Oxnard Arpt, CA, US",US,United States,23.81646666666667
2898,KOZA,2026-02-27 04:02:18.815000+00:00,1772164500,2026-02-27T04:00:00.000Z,17.0,1.0,20,4.0,10+,1015.7,6,METAR,METAR KOZA 270355Z AUTO 02004KT 10SM CLR 17/01 A2999 RMK AO2,30.7312,-101.2033,721,Ozona Muni,CLR,[],VFR,,,,,,,,,,"Ozona Muni, TX, US",US,United States,17.31752215788417
2891,KOZR,2026-02-27 03:58:54.387000+00:00,1772164500,2026-02-27T04:00:00.000Z,17.7,16.0,170,7.0,10+,1012.6,6,METAR,METAR KOZR 270355Z AUTO 17007KT 10SM OVC095 18/16 A2990 RMK AO2 SLP126 T01770160,31.2767,-85.7105,90,Ozark/Cairns AAF,OVC,"[{'cover': 'OVC', 'base': 9500}]",VFR,,,1012.6,,,,,,,"Ozark/Cairns AAF, AL, US",US,United States,17.57325593036782
2932,KPAE,2026-02-27 03:58:23.349000+00:00,1772164380,2026-02-27T04:00:00.000Z,7.8,4.4,200,11.0,10+,1024.5,4,METAR,METAR KPAE 270353Z 20011KT 10SM BKN017 08/04 A3025 RMK AO2 SLP247 T00780044,47.9232,-122.2831,166,Everett/Paine Fld,BKN,"[{'cover': 'BKN', 'base': 1700}]",MVFR,,,1024.7,,,,,,,"Everett/Paine Fld, WA, US",US,United States,4.576948926172737
2933,KPAH,2026-02-27 03:56:36.876000+00:00,1772164380,2026-02-27T04:00:00.000Z,5.6,4.4,0,0.0,10+,1013.0,4,METAR,METAR KPAH 270353Z 00000KT 10SM CLR 06/04 A2991 RMK AO2 SLP128 T00560044,37.0652,-88.7793,125,Paducah/Barkley Rgnl,CLR,[],VFR,,,1012.8,,,,,,,"Paducah/Barkley Rgnl, KY, US",US,United States,16.607066666666668
2906,KPAM,2026-02-27 04:00:07.086000+00:00,1772164500,2026-02-27T04:00:00.000Z,18.8,17.1,200,9.0,10+,1013.6,14,METAR,METAR KPAM 270355Z AUTO 20009KT 10SM BKN026 19/17 A2993 RMK AO2 RAB13E26 SLP138 P0000 T01880171 $,30.071,-85.577,4,Tyndall AFB,BKN,"[{'cover': 'BKN', 'base': 2600}]",MVFR,,,1013.8,0.005,,,,,,"Tyndall AFB, FL, US",US,United States,18.671468653307574
2903,KPAN,2026-02-27 04:00:26.293000+00:00,1772164500,2026-02-27T04:00:00.000Z,15.0,2.0,VRB,1.0,10+,1022.1,6,METAR,METAR KPAN 270355Z AUTO VRB01KT 10SM CLR 15/02 A3018 RMK AO2,34.2551,-111.3379,1575,Payson Arpt,CLR,[],VFR,,,,,,,,,,"Payson Arpt, AZ, US",US,United States,16.46829616067674
2976,KPAO,2026-02-27 03:59:11.058000+00:00,1772164020,2026-02-27T04:00:00.000Z,16.0,12.0,320,3.0,10+,1021.8,0,METAR,METAR KPAO 270347Z 32003KT 10SM SCT100 16/12 A3017,37.458,-122.112,2,Palo Alto Arpt,SCT,"[{'cover': 'SCT', 'base': 10000}]",VFR,,,,,,,,,,"Palo Alto Arpt, CA, US",US,United States,16.46161169958247
2934,KPBF,2026-02-27 03:56:36.901000+00:00,1772164380,2026-02-27T04:00:00.000Z,15.0,12.2,330,4.0,10+,1012.3,6,METAR,METAR KPBF 270353Z AUTO 33004KT 10SM CLR 15/12 A2989 RMK AO2 SLP118 T01500122,34.1798,-91.9344,63,Pine Bluff/Grider Fld,CLR,[],VFR,,,1011.8,,,,,,,"Pine Bluff/Grider Fld, AR, US",US,United States,14.983063305014802
2948,KPBG,2026-02-27 03:58:42.301000+00:00,1772164380,2026-02-27T04:00:00.000Z,-11.1,-14.4,220,3.0,10+,1016.0,6,METAR,METAR KPBG 270353Z AUTO 22003KT 10SM OVC047 M11/M14 A3000 RMK AO2 SLP163 T11111144,44.6392,-73.4631,61,Plattsburgh Intl,OVC,"[{'cover': 'OVC', 'base': 4700}]",VFR,,,1016.3,,,,,,,"Plattsburgh Intl, NY, US",US,United States,-14.504997851897523
2931,KPBI,2026-02-27 03:58:17.650000+00:00,1772164380,2026-02-27T04:00:00.000Z,22.2,18.9,170,6.0,10+,1017.7,4,METAR,METAR KPBI 270353Z 17006KT 10SM FEW020 22/19 A3005 RMK AO2 SLP175 T02220189,26.6851,-80.0992,4,Palm Beach Intl,FEW,"[{'cover': 'FEW', 'base': 2000}]",VFR,,,1017.5,,,,,,,"Palm Beach Intl, FL, US",US,United States,23.150057647250357
2885,KPBX,2026-02-27 03:59:00.896000+00:00,1772164500,2026-02-27T04:00:00.000Z,5.5,3.9,360,3.0,10+,1015.3,6,METAR,METAR KPBX 270355Z AUTO 36003KT 10SM OVC010 06/04 A2998 RMK AO2 T00550039,37.5587,-82.5674,447,Pikeville/Pike Cnty,OVC,"[{'cover': 'OVC', 'base': 1000}]",MVFR,,,,,,,,,,"Pikeville/Pike Cnty, KY, US",US,United States,4.463478847533027
2886,KPDC,2026-02-27 04:00:35.179000+00:00,1772164500,2026-02-27T04:00:00.000Z,-1.2,-2.8,0,0.0,10+,1011.3,6,METAR,METAR KPDC 270355Z AUTO 00000KT 10SM CLR M01/M03 A2986 RMK AO2 T10121028,43.0194,-91.1212,201,Prairie Du Chien Muni,CLR,[],VFR,,,,,,,,,,"Prairie Du Chien Muni, WI, US",US,United States,12.38086666666667
2880,KPDK,2026-02-27 04:00:18.552000+00:00,1772164560,2026-02-27T03:56:00.000Z,15.0,13.3,0,0.0,1,1011.9,4,SPECI,SPECI KPDK 270356Z 00000KT 1SM VCTS BR FEW003 SCT021 BKN060 15/13 A2988 RMK AO2 LTG DSNT NW T01500133,33.8783,-84.298,299,Atlanta/Dekalb-Peachtree Arpt,BKN,"[{'cover': 'FEW', 'base': 300}, {'cover': 'SCT', 'base': 2100}, {'cover': 'BKN', 'base': 6000}]",IFR,,VCTS BR,,,,,,,,"Atlanta/Dekalb-Peachtree Arpt, GA, US",US,United States,22.44916666666667
2953,KPDT,2026-02-27 03:53:51.271000+00:00,1772164380,2026-02-27T04:00:00.000Z,7.0,-1.0,140,3.0,10+,1023.8,0,METAR,METAR KPDT 270353Z 14003KT 10SM CLR 07/M01 A3023,45.6975,-118.8345,453,Pendleton/E Oregon Rgnl,CLR,[],VFR,,,,,,,,,,"Pendleton/E Oregon Rgnl, OR, US",US,United States,6.177497826397239
2930,KPDX,2026-02-27 03:58:39.876000+00:00,1772164380,2026-02-27T04:00:00.000Z,6.7,2.8,0,0.0,10+,1026.5,4,METAR,METAR KPDX 270353Z 00000KT 10SM BKN250 07/03 A3031 RMK AO2 SLP265 T00670028,45.5958,-122.6092,7,Portland Intl,BKN,"[{'cover': 'BKN', 'base': 25000}]",VFR,,,1026.5,,,,,,,"Portland Intl, OR, US",US,United States,17.29071666666667
2887,KPEQ,2026-02-27 04:00:14.764000+00:00,1772164500,2026-02-27T04:00:00.000Z,17.4,-2.6,170,4.0,10+,1014.3,134,METAR,METAR KPEQ 270355Z AUTO 17004KT 10SM 17/M03 A2995 RMK AO2 T01741026 PWINO,31.382,-103.5117,794,Pecos Muni,,,,,,,,,,,,,"Pecos Muni, TX, US",US,United States,17.784413928458033
2947,KPGA,2026-02-27 03:58:40.151000+00:00,1772164380,2026-02-27T04:00:00.000Z,18.9,-13.3,310,8.0,10+,1020.4,6,METAR,METAR KPGA 270353Z AUTO 31008G19KT 10SM CLR 19/M13 A3013 RMK AO2 SLP161 T01891133,36.9211,-111.4487,1310,Page Muni,CLR,[],VFR,19.0,,1016.1,,,,,,,"Page Muni, AZ, US",US,United States,18.909207638364975
2943,KPGD,2026-02-27 03:56:41.797000+00:00,1772164380,2026-02-27T04:00:00.000Z,16.7,16.1,140,4.0,7,1017.4,6,METAR,METAR KPGD 270353Z AUTO 14004KT 7SM CLR 17/16 A3004 RMK AO2 SLP171 T01670161,26.9185,-81.9939,7,Punta Gorda Arpt,CLR,[],VFR,,,1017.1,,,,,,,"Punta Gorda Arpt, FL, US",US,United States,16.96735332995376
2900,KPGV,2026-02-27 04:02:11.377000+00:00,1772164500,2026-02-27T04:00:00.000Z,13.0,12.0,300,2.0,10+,1014.0,6,METAR,METAR KPGV 270355Z AUTO 30002KT 10SM -DZ SCT006 SCT012 OVC018 13/12 A2994 RMK AO2,35.6374,-77.3851,6,Greenville/Pitt Arpt,OVC,"[{'cover': 'SCT', 'base': 600}, {'cover': 'SCT', 'base': 1200}, {'cover': 'OVC', 'base': 1800}]",MVFR,,-DZ,,,,,,,,"Greenville/Pitt Arpt, NC, US",US,United States,13.546933938644262
2946,KPHD,2026-02-27 03:58:24.848000+00:00,1772164380,2026-02-27T04:00:00.000Z,-1.7,-5.6,100,3.0,10+,1014.6,6,METAR,METAR KPHD 270353Z AUTO 10003KT 10SM BKN080 M02/M06 A2996 RMK AO2 SLP153 T10171056,40.4703,-81.4218,272,New Philadelphia/Clever Fld,BKN,"[{'cover': 'BKN', 'base': 8000}]",VFR,,,1015.3,,,,,,,"New Philadelphia/Clever Fld, OH, US",US,United States,-3.763812251015158
2916,KPHF,2026-02-27 03:58:35.420000+00:00,1772164440,2026-02-27T04:00:00.000Z,6.1,5.0,30,3.0,4,1014.6,6,METAR,METAR KPHF 270354Z AUTO 03003KT 4SM BR OVC021 06/05 A2996 RMK AO2 SLP145 T00610050,37.1322,-76.494,12,Newport News/Williamsburg Intl,OVC,"[{'cover': 'OVC', 'base': 2100}]",MVFR,,BR,1014.5,,,,,,,"Newport News/Williamsburg Intl, VA, US",US,United States,5.149086439078713
2917,KPHL,2026-02-27 03:58:35.436000+00:00,1772164440,2026-02-27T04:00:00.000Z,4.4,0.6,250,5.0,10+,1014.6,4,METAR,METAR KPHL 270354Z 25005KT 10SM SCT085 OVC100 04/01 A2996 RMK AO2 SLP146 T00440006,39.8733,-75.2268,2,Philadelphia Intl,OVC,"[{'cover': 'SCT', 'base': 8500}, {'cover': 'OVC', 'base': 10000}]",VFR,,,1014.6,,,,,,,"Philadelphia Intl, PA, US",US,United States,2.1287903886986865
2901,KPHN,2026-02-27 04:00:34.482000+00:00,1772164500,2026-02-27T04:00:00.000Z,-4.0,-9.0,190,3.0,10+,1012.6,6,METAR,METAR KPHN 270355Z AUTO 19003KT 10SM CLR M04/M09 A2990 RMK AO2,42.9103,-82.5332,195,Port Huron/St Clair Cnty,CLR,[],VFR,,,,,,,,,,"Port Huron/St Clair Cnty, MI, US",US,United States,-6.391974685273611
2888,KPHP,2026-02-27 04:00:32.718000+00:00,1772164500,2026-02-27T04:00:00.000Z,0.0,-8.9,280,5.0,10+,1007.9,6,METAR,METAR KPHP 270355Z AUTO 28005KT 10SM CLR 00/M09 A2976 RMK AO2 SLP088 T00001089,44.051,-101.6014,673,Philip Muni,CLR,[],VFR,,,1008.8,,,,,,,"Philip Muni, SD, US",US,United States,-3.0942981835679344
2908,KPHT,2026-02-27 04:00:20.393000+00:00,1772164500,2026-02-27T04:00:00.000Z,9.0,8.0,120,5.0,10+,1013.6,6,METAR,METAR KPHT 270355Z AUTO 12005KT 10SM FEW023 BKN028 BKN043 09/08 A2993 RMK A01,36.3322,-88.3871,172,Paris/Henry Cnty,BKN,"[{'cover': 'FEW', 'base': 2300}, {'cover': 'BKN', 'base': 2800}, {'cover': 'BKN', 'base': 4300}]",MVFR,,,,,,,,,,"Paris/Henry Cnty, TN, US",US,United States,7.589292077886522
2959,KPHX,2026-02-27 03:56:19.937000+00:00,1772164260,2026-02-27T04:00:00.000Z,26.1,6.1,0,0.0,10+,1013.0,4,METAR,METAR KPHX 270351Z 00000KT 10SM SCT250 26/06 A2991 RMK AO2 SLP115 T02610061,33.4278,-112.0037,338,Phoenix/Sky Harbor Intl,SCT,"[{'cover': 'SCT', 'base': 25000}]",VFR,,,1011.5,,,,,,,"Phoenix/Sky Harbor Intl, AZ, US",US,United States,29.347816666666674
2920,KPIA,2026-02-27 04:00:32.298000+00:00,1772164440,2026-02-27T04:00:00.000Z,0.0,-0.6,0,0.0,10+,1013.0,4,METAR,METAR KPIA 270354Z 00000KT 10SM CLR 00/M01 A2991 RMK AO2 SLP134 T00001006,40.6675,-89.6842,200,Peoria Intl,CLR,[],VFR,,,1013.4,,,,,,,"Peoria Intl, IL, US",US,United States,13.126666666666667
2873,KPIB,2026-02-27 03:58:54.536000+00:00,1772164560,2026-02-27T04:00:00.000Z,19.4,18.3,200,5.0,10+,1012.3,14,METAR,METAR KPIB 270356Z AUTO 20005KT 10SM SCT040 BKN070 BKN085 19/18 A2989 RMK AO2 SLP121 T01940183 $,31.4727,-89.3384,91,Hattiesburg/Laurel Rgnl,BKN,"[{'cover': 'SCT', 'base': 4000}, {'cover': 'BKN', 'base': 7000}, {'cover': 'BKN', 'base': 8500}]",VFR,,,1012.1,,,,,,,"Hattiesburg/Laurel Rgnl, MS, US",US,United States,19.934774157789438
2935,KPIE,2026-02-27 03:56:41.830000+00:00,1772164380,2026-02-27T04:00:00.000Z,18.3,16.7,170,4.0,10+,1016.7,4,METAR,METAR KPIE 270353Z 17004KT 10SM CLR 18/17 A3002 RMK AO2 SLP164 T01830167,27.9126,-82.6856,1,St Petersburg-Clearwater Intl,CLR,[],VFR,,,1016.4,,,,,,,"St Petersburg-Clearwater Intl, FL, US",US,United States,18.83492041224925
2924,KPIH,2026-02-27 03:58:41.528000+00:00,1772164380,2026-02-27T04:00:00.000Z,3.9,-3.3,210,8.0,10+,1023.5,4,METAR,METAR KPIH 270353Z 21008KT 10SM CLR 04/M03 A3022 RMK AO2 SLP242 T00391033,42.9197,-112.5723,1357,Pocatello Rgnl,CLR,[],VFR,,,1024.2,,,,,,,"Pocatello Rgnl, ID, US",US,United States,0.44066060301998294
2911,KPIM,2026-02-27 04:02:09.730000+00:00,1772164500,2026-02-27T04:00:00.000Z,16.0,16.0,180,6.0,7,1012.6,6,METAR,METAR KPIM 270355Z AUTO 18006KT 7SM -DZ BKN013 BKN019 OVC025 16/16 A2990 RMK AO2 P0018,32.8421,-84.8766,274,Pine Mountain/Harris Cnty,OVC,"[{'cover': 'BKN', 'base': 1300}, {'cover': 'BKN', 'base': 1900}, {'cover': 'OVC', 'base': 2500}]",MVFR,,-DZ,,0.18,,,,,,"Pine Mountain/Harris Cnty, GA, US",US,United States,15.686454557131176
2922,KPIR,2026-02-27 03:58:41.931000+00:00,1772164380,2026-02-27T04:00:00.000Z,1.7,-7.8,190,3.0,10+,1007.2,6,METAR,METAR KPIR 270353Z AUTO 19003KT 10SM CLR 02/M08 A2974 RMK AO2 SLP083 T00171078,44.3819,-100.2864,524,Pierre Muni,CLR,[],VFR,,,1008.3,,,,,,,"Pierre Muni, SD, US",US,United States,0.12129743441037356
2960,KPIT,2026-02-27 03:56:20.122000+00:00,1772164260,2026-02-27T04:00:00.000Z,-1.1,-8.3,0,0.0,10+,1014.0,4,METAR,METAR KPIT 270351Z 00000KT 10SM SCT090 M01/M08 A2994 RMK AO2 SLP157 T10111083,40.4814,-80.2083,339,Pittsburgh Intl,SCT,"[{'cover': 'SCT', 'base': 9000}]",VFR,,,1015.7,,,,,,,"Pittsburgh Intl, PA, US",US,United States,12.443016666666667
2949,KPKB,2026-02-27 03:58:37.927000+00:00,1772164380,2026-02-27T04:00:00.000Z,2.8,0.0,0,0.0,10+,1015.0,4,METAR,METAR KPKB 270353Z 00000KT 10SM OVC090 03/00 A2997 RMK AO2 SLP156 T00280000,39.3395,-81.4438,245,Parkersburg/Mid Ohio Valley Rgnl,OVC,"[{'cover': 'OVC', 'base': 9000}]",VFR,,,1015.6,,,,,,,"Parkersburg/Mid Ohio Valley Rgnl, WV, US",US,United States,14.866866666666668
2926,KPKD,2026-02-27 03:58:41.142000+00:00,1772164380,2026-02-27T04:00:00.000Z,-5.0,-6.7,200,4.0,10+,1004.1,6,METAR,METAR KPKD 270353Z AUTO 20004KT 10SM CLR M05/M07 A2965 RMK AO2 SLP063 T10501067,46.8971,-95.0695,439,Park Rapids/Konshok Fld,CLR,[],VFR,,,1006.3,,,,,,,"Park Rapids/Konshok Fld, MN, US",US,United States,-8.361525223678829
2918,KPLN,2026-02-27 03:58:35.488000+00:00,1772164440,2026-02-27T04:00:00.000Z,-2.8,-4.4,230,4.0,10+,1008.2,6,METAR,METAR KPLN 270354Z AUTO 23004KT 10SM SCT018 M03/M04 A2977 RMK AO2 SLP094 T10281044,45.5644,-84.7929,215,Pellston Rgnl,SCT,"[{'cover': 'SCT', 'base': 1800}]",VFR,,,1009.4,,,,,,,"Pellston Rgnl, MI, US",US,United States,-5.793620485522525
2890,KPLR,2026-02-27 03:58:35.510000+00:00,1772164500,2026-02-27T04:00:00.000Z,17.0,17.0,0,0.0,5,1011.6,6,METAR,METAR KPLR 270355Z AUTO 00000KT 5SM BR OVC008 17/17 A2987 RMK A01,33.5608,-86.2463,145,Pell City/St Clair Cnty,OVC,"[{'cover': 'OVC', 'base': 800}]",IFR,,BR,,,,,,,,"Pell City/St Clair Cnty, AL, US",US,United States,23.692166666666672
2941,KPMD,2026-02-27 03:58:24.564000+00:00,1772164380,2026-02-27T04:00:00.000Z,15.6,9.4,240,4.0,10+,1020.7,4,METAR,METAR KPMD 270353Z 24004KT 10SM CLR 16/09 A3014 RMK AO2 SLP193 T01560094,34.6294,-118.0831,764,Palmdale Rgnl,CLR,[],VFR,,,1019.3,,,,,,,"Palmdale Rgnl, CA, US",US,United States,15.683400960875613
2899,KPMH,2026-02-27 04:02:20.891000+00:00,1772164500,2026-02-27T04:00:00.000Z,0.0,0.0,0,0.0,3,1015.3,6,METAR,METAR KPMH 270355Z AUTO 00000KT 3SM BR CLR 00/M00 A2998 RMK AO2,38.8387,-82.8494,200,Portsmouth Rgnl,CLR,[],MVFR,,BR,,,,,,,,"Portsmouth Rgnl, OH, US",US,United States,13.126666666666667
2912,KPNA,2026-02-27 04:02:18.850000+00:00,1772164500,2026-02-27T04:00:00.000Z,-2.0,-6.0,0,0.0,10+,1023.1,6,METAR,METAR KPNA 270355Z AUTO 00000KT 10SM CLR M02/M06 A3021 RMK AO2,42.7929,-109.8051,2158,Pinedale/Wentz Fld,CLR,[],VFR,,,,,,,,,,"Pinedale/Wentz Fld, WY, US",US,United States,11.88366666666667
2936,KPNC,2026-02-27 03:56:41.952000+00:00,1772164380,2026-02-27T04:00:00.000Z,6.1,-0.6,0,0.0,10+,1014.3,6,METAR,METAR KPNC 270353Z AUTO 00000KT 10SM CLR 06/M01 A2995 RMK AO2 SLP140 T00611006,36.7369,-97.1024,304,Ponca City Rgnl,CLR,[],VFR,,,1014.0,,,,,,,"Ponca City Rgnl, OK, US",US,United States,16.917816666666667
2919,KPNE,2026-02-27 03:58:35.553000+00:00,1772164440,2026-02-27T04:00:00.000Z,4.4,-8.3,290,3.0,10+,1014.6,38,METAR,METAR KPNE 270354Z AUTO 29003KT 10SM FEW090 OVC110 04/M08 A2996 RMK AO2 SLP147 T00441083 TSNO,40.0789,-75.0133,32,Philadelphia/NE Arpt,OVC,"[{'cover': 'FEW', 'base': 9000}, {'cover': 'OVC', 'base': 11000}]",VFR,,,1014.7,,,,,,,"Philadelphia/NE Arpt, PA, US",US,United States,3.2065315963659438
2937,KPNS,2026-02-27 03:56:41.980000+00:00,1772164380,2026-02-27T04:00:00.000Z,18.3,17.2,200,4.0,10+,1013.3,6,METAR,METAR KPNS 270353Z AUTO 20004KT 10SM FEW018 BKN028 18/17 A2992 RMK AO2 SLP133 T01830172,30.478,-87.1869,34,Pensacola Intl,BKN,"[{'cover': 'FEW', 'base': 1800}, {'cover': 'BKN', 'base': 2800}]",MVFR,,,1013.3,,,,,,,"Pensacola Intl, FL, US",US,United States,18.83492041224925
2910,KPOB,2026-02-27 04:00:05.895000+00:00,1772164500,2026-02-27T04:00:00.000Z,14.2,13.7,0,0.0,10+,1013.6,14,METAR,METAR KPOB 270355Z AUTO 00000KT 10SM OVC006 14/14 A2993 RMK AO2 SLP138 T01420137 $,35.175,-79.008,57,Pope AAF,OVC,"[{'cover': 'OVC', 'base': 600}]",IFR,,,1013.8,,,,,,,"Pope AAF, NC, US",US,United States,21.95196666666667
2975,KPOC,2026-02-27 03:50:42.634000+00:00,1772164020,2026-02-27T04:00:00.000Z,21.0,14.0,0,0.0,10+,1016.0,0,METAR,METAR KPOC 270347Z 00000KT 10SM CLR 21/14 A3000,34.0928,-117.7795,304,La Verne/Brackett Fld,CLR,[],VFR,,,,,,,,,,"La Verne/Brackett Fld, CA, US",US,United States,26.178166666666666
2892,KPOE,2026-02-27 04:00:05.946000+00:00,1772164500,2026-02-27T04:00:00.000Z,18.9,18.2,0,0.0,8,1011.3,6,METAR,METAR KPOE 270355Z AUTO 00000KT 8SM CLR 19/18 A2986 RMK AO2 SLP112 T01890182,31.047,-93.194,98,Fort Polk AAF,CLR,[],VFR,,,1011.2,,,,,,,"Fort Polk AAF, LA, US",US,United States,24.873016666666672
2950,KPOF,2026-02-27 03:56:41.999000+00:00,1772164380,2026-02-27T04:00:00.000Z,6.7,6.1,0,0.0,10+,1013.3,6,METAR,METAR KPOF 270353Z AUTO 00000KT 10SM CLR 07/06 A2992 RMK AO2 SLP133 T00670061,36.7697,-90.3224,99,Poplar Bluff Muni,CLR,[],VFR,,,1013.3,,,,,,,"Poplar Bluff Muni, MO, US",US,United States,17.29071666666667
2938,KPOU,2026-02-27 03:58:37.945000+00:00,1772164380,2026-02-27T04:00:00.000Z,-2.8,-8.9,350,5.0,10+,1015.3,4,METAR,METAR KPOU 270353Z 35005KT 10SM CLR M03/M09 A2998 RMK AO2 SLP150 T10281089,41.6257,-73.8816,45,Poughkeepsie/Hudson Valley Rgnl,CLR,[],VFR,,,1015.0,,,,,,,"Poughkeepsie/Hudson Valley Rgnl, NY, US",US,United States,-6.418081820464869
2895,KPOY,2026-02-27 04:02:16.251000+00:00,1772164500,2026-02-27T04:00:00.000Z,6.0,-11.0,250,27.0,10+,1013.6,6,METAR,METAR KPOY 270355Z AUTO 25027G35KT 10SM CLR 06/M11 A2993 RMK AO2,44.8641,-108.79,1547,Powell Muni,CLR,[],VFR,35.0,,,,,,,,,"Powell Muni, WY, US",US,United States,0.054964215890412525
2913,KPPA,2026-02-27 04:02:20.383000+00:00,1772164500,2026-02-27T04:00:00.000Z,12.0,-1.5,140,9.0,10+,1016.3,6,METAR,METAR KPPA 270355Z AUTO 14009KT 10SM CLR 12/M01 A3001 RMK AO2 T01201015,35.6139,-100.9972,989,Pampa/Lefors Fld,CLR,[],VFR,,,,,,,,,,"Pampa/Lefors Fld, TX, US",US,United States,10.220183290877243
2955,KPPF,2026-02-27 03:56:18.060000+00:00,1772164320,2026-02-27T04:00:00.000Z,3.9,-0.6,0,0.0,10+,1014.3,6,METAR,METAR KPPF 270352Z AUTO 00000KT 10SM CLR 04/M01 A2995 RMK AO2 SLP143 T00391006,37.3281,-95.5045,265,Parsons/Tri City Arpt,CLR,[],VFR,,,1014.3,,,,,,,"Parsons/Tri City Arpt, KS, US",US,United States,15.550516666666669
2249,KPPO,2026-02-27 04:02:20.919000+00:00,1772164500,2026-02-27T04:00:00.000Z,0.0,0.0,210,3.0,10+,1012.6,6,METAR,METAR KPPO 270355Z AUTO 21003KT 10SM OVC060 M00/M00 A2990 RMK AO2,41.5705,-86.7333,242,La Porte Muni,OVC,"[{'cover': 'OVC', 'base': 6000}]",VFR,,,,,,,,,,"La Porte Muni, IN, US",US,United States,-1.8212574083023962
2874,KPQI,2026-02-27 04:00:35.834000+00:00,1772164560,2026-02-27T04:00:00.000Z,-7.8,-12.8,270,11.0,10+,1011.6,6,METAR,METAR KPQI 270356Z AUTO 27011KT 10SM SCT037 M08/M13 A2987 RMK AO2 SNE01B30E42 SLP149 P0000 T10781128,46.697,-68.054,154,Presque Isle Intl,SCT,"[{'cover': 'SCT', 'base': 3700}]",VFR,,,1014.9,0.005,,,,,,"Presque Isle Intl, ME, US",US,United States,-15.12755506628658
2945,KPQL,2026-02-27 03:56:42.033000+00:00,1772164380,2026-02-27T04:00:00.000Z,15.0,15.0,0,0.0,0.75,1013.0,6,METAR,METAR KPQL 270353Z AUTO 00000KT 3/4SM BR OVC027 15/15 A2991 RMK AO2 SLP129 T01500150,30.463,-88.5316,4,Pascagoula/Lott Intl,OVC,"[{'cover': 'OVC', 'base': 2700}]",LIFR,,BR,1012.9,,,,,,,"Pascagoula/Lott Intl, MS, US",US,United States,22.44916666666667
2951,KPRC,2026-02-27 03:58:41.228000+00:00,1772164380,2026-02-27T04:00:00.000Z,13.3,1.1,270,5.0,10+,1022.1,6,METAR,METAR KPRC 270353Z AUTO 27005KT 10SM CLR 13/01 A3018 RMK AO2 SLP170 T01330011,34.6491,-112.4223,1528,Prescott/Love Fld,CLR,[],VFR,,,1017.0,,,,,,,"Prescott/Love Fld, AZ, US",US,United States,12.69367409169253
2914,KPRO,2026-02-27 04:02:20.961000+00:00,1772164500,2026-02-27T04:00:00.000Z,1.1,-2.5,0,0.0,10+,1010.9,14,METAR,METAR KPRO 270355Z AUTO 00000KT 10SM CLR 01/M02 A2985 RMK AO2 T00111025 $,41.8278,-94.1637,308,Perry Muni,CLR,[],VFR,,,,,,,,,,"Perry Muni, IA, US",US,United States,13.810316666666667
2889,KPRX,2026-02-27 04:00:33.221000+00:00,1772164500,2026-02-27T04:00:00.000Z,16.1,3.9,,,10+,1013.6,6,METAR,METAR KPRX 270355Z AUTO 10SM CLR 16/04 A2993 RMK AO2 SLP132 T01610039,33.636,-95.4514,165,Paris/Cox Fld,CLR,[],VFR,,,1013.2,,,,,,,"Paris/Cox Fld, TX, US",US,United States,
2939,KPSC,2026-02-27 03:58:24.582000+00:00,1772164380,2026-02-27T04:00:00.000Z,10.0,-2.8,240,9.0,10+,1022.4,4,METAR,METAR KPSC 270353Z 24009KT 10SM CLR 10/M03 A3019 RMK AO2 SLP223 T01001028,46.2695,-119.1182,121,Pasco/Tri Cities Arpt,CLR,[],VFR,,,1022.3,,,,,,,"Pasco/Tri Cities Arpt, WA, US",US,United States,7.7345111254565495
2904,KPSK,2026-02-27 03:54:27.413000+00:00,1772164500,2026-02-27T04:00:00.000Z,4.1,3.2,0,0.0,10+,1014.3,6,METAR,METAR KPSK 270355Z AUTO 00000KT 10SM BKN021 04/03 A2995 RMK AO2 T00410032,37.1337,-80.6789,629,Dublin/New River Valley Arpt,BKN,"[{'cover': 'BKN', 'base': 2100}]",MVFR,,,,,,,,,,"Dublin/New River Valley Arpt, VA, US",US,United States,15.67481666666667
2893,KPSM,2026-02-27 03:58:52.691000+00:00,1772164500,2026-02-27T04:00:00.000Z,-1.6,-11.5,290,6.0,10+,1013.6,4,METAR,METAR KPSM 270355Z 29006KT 10SM CLR M02/M11 A2993 RMK AO2A SLP139 T10161115,43.0677,-70.8127,34,Portsmouth Intl,CLR,[],VFR,,,1013.9,,,,,,,"Portsmouth Intl, NH, US",US,United States,-5.500547763207106
2894,KPSN,2026-02-27 04:02:15.740000+00:00,1772164500,2026-02-27T04:00:00.000Z,17.0,14.0,,,6,1012.6,6,METAR,METAR KPSN 270355Z AUTO 6SM HZ BKN035 OVC044 17/14 A2990 RMK AO2,31.7784,-95.7048,124,Palestine Muni,OVC,"[{'cover': 'BKN', 'base': 3500}, {'cover': 'OVC', 'base': 4400}]",VFR,,HZ,,,,,,,,"Palestine Muni, TX, US",US,United States,
2896,KPSO,2026-02-27 04:02:20.413000+00:00,1772164500,2026-02-27T04:00:00.000Z,1.0,-7.0,320,3.0,10+,1023.1,6,METAR,METAR KPSO 270355Z AUTO 32003KT 10SM CLR 01/M07 A3021 RMK AO2,37.291,-107.0557,2332,Pagosa Springs/Stevens Fld,CLR,[],VFR,,,,,,,,,,"Pagosa Springs/Stevens Fld, CO, US",US,United States,-0.6785780890595896
2929,KPSP,2026-02-27 03:58:23.800000+00:00,1772164380,2026-02-27T04:00:00.000Z,29.4,6.1,290,4.0,10+,1015.7,12,METAR,METAR KPSP 270353Z 29004KT 10SM CLR 29/06 A2999 RMK AO2 SLP151 T02940061 $,33.8222,-116.5043,123,Palm Springs Intl,CLR,[],VFR,,,1015.1,,,,,,,"Palm Springs Intl, CA, US",US,United States,31.791167045674214
2925,KPSX,2026-02-27 03:58:41.245000+00:00,1772164380,2026-02-27T04:00:00.000Z,22.2,20.0,90,5.0,8,1010.6,6,METAR,METAR KPSX 270353Z AUTO 09005KT 8SM OVC013 22/20 A2984 RMK AO2 SLP103 T02220200,28.7248,-96.2535,4,Palacios Muni,OVC,"[{'cover': 'OVC', 'base': 1300}]",MVFR,,,1010.3,,,,,,,"Palacios Muni, TX, US",US,United States,23.258557794686382
2909,KPTB,2026-02-27 03:52:08.986000+00:00,1772164500,2026-02-27T04:00:00.000Z,6.0,4.2,0,0.0,10+,1015.3,6,METAR,METAR KPTB 270355Z AUTO 00000KT 10SM OVC025 06/04 A2998 RMK AO2 T00600042,37.1803,-77.5081,56,Petersburg/Dinwiddie Cnty,OVC,"[{'cover': 'OVC', 'base': 2500}]",MVFR,,,,,,,,,,"Petersburg/Dinwiddie Cnty, VA, US",US,United States,16.855666666666668
2952,KPTK,2026-02-27 03:54:21.948000+00:00,1772164380,2026-02-27T04:00:00.000Z,-2.0,-9.0,210,5.0,10+,1011.9,0,METAR,METAR KPTK 270353Z 21005KT 10SM SCT090 OVC180 M02/M09 A2988 RMK SLPNO T10201090,42.6632,-83.41,295,Pontiac/Oakland Intl,OVC,"[{'cover': 'SCT', 'base': 9000}, {'cover': 'OVC', 'base': 18000}]",VFR,,,,,,,,,,"Pontiac/Oakland Intl, MI, US",US,United States,-5.4684293527800305
2876,KPTN,2026-02-27 03:58:52.710000+00:00,1772164560,2026-02-27T04:00:00.000Z,20.6,20.6,190,6.0,10+,1012.6,14,METAR,METAR KPTN 270356Z AUTO 19006KT 10SM FEW008 BKN055 21/21 A2990 RMK AO2 SLPNO T02060206 $,29.71,-91.3381,2,Patterson/Williams Mem,BKN,"[{'cover': 'FEW', 'base': 800}, {'cover': 'BKN', 'base': 5500}]",VFR,,,,,,,,,,"Patterson/Williams Mem, LA, US",US,United States,21.223966527219602
2877,KPTV,2026-02-27 04:00:36.378000+00:00,1772164560,2026-02-27T04:00:00.000Z,18.3,15.6,50,3.0,10+,1021.8,14,METAR,METAR KPTV 270356Z AUTO 05003KT 10SM OVC042 18/16 A3017 RMK AO2 SLP218 T01830156 $,36.0273,-119.0629,132,Porterville Muni,OVC,"[{'cover': 'OVC', 'base': 4200}]",VFR,,,1021.8,,,,,,,"Porterville Muni, CA, US",US,United States,19.089774133840926
2915,KPTW,2026-02-27 03:58:35.570000+00:00,1772164440,2026-02-27T04:00:00.000Z,-1.1,-7.2,0,0.0,10+,1014.6,6,METAR,METAR KPTW 270354Z AUTO 00000KT 10SM CLR M01/M07 A2996 RMK AO2 SLP146 T10111072,40.238,-75.5549,88,Pottstown/Heritage Fld,CLR,[],VFR,,,1014.6,,,,,,,"Pottstown/Heritage Fld, PA, US",US,United States,12.443016666666667
2927,KPUB,2026-02-27 03:58:40.631000+00:00,1772164380,2026-02-27T04:00:00.000Z,6.7,-9.4,260,8.0,10+,1017.0,12,METAR,METAR KPUB 270353Z 26008KT 10SM CLR 07/M09 A3003 RMK AO2 SLP158 T00671094 $,38.2887,-104.5057,1441,Pueblo Mem Arpt,CLR,[],VFR,,,1015.8,,,,,,,"Pueblo Mem Arpt, CO, US",US,United States,3.8881227162843777
2923,KPUC,2026-02-27 03:58:41.548000+00:00,1772164380,2026-02-27T04:00:00.000Z,3.9,-7.2,360,7.0,10+,1022.8,6,METAR,METAR KPUC 270353Z AUTO 36007KT 10SM CLR 04/M07 A3020 RMK AO2 SLP224 T00391072,39.6089,-110.7555,1777,Price/Buck Fld,CLR,[],VFR,,,1022.4,,,,,,,"Price/Buck Fld, UT, US",US,United States,0.7600588973043977
2928,KPUW,2026-02-27 03:58:41.265000+00:00,1772164380,2026-02-27T04:00:00.000Z,4.4,-5.6,240,5.0,10+,1021.4,6,METAR,METAR KPUW 270353Z AUTO 24005KT 10SM CLR 04/M06 A3016 RMK AO2 SLP234 T00441056,46.7438,-117.1158,774,Pullman/Moscow Rgnl,CLR,[],VFR,,,1023.4,,,,,,,"Pullman/Moscow Rgnl, WA, US",US,United States,2.1287903886986865
2958,KPVD,2026-02-27 03:56:18.411000+00:00,1772164260,2026-02-27T04:00:00.000Z,1.1,-6.7,350,5.0,10+,1014.3,12,METAR,METAR KPVD 270351Z 35005KT 10SM BKN130 01/M07 A2995 RMK AO2 SLP141 T00111067 $,41.7225,-71.4325,15,Providence/Green Mem,BKN,"[{'cover': 'BKN', 'base': 13000}]",VFR,,,1014.1,,,,,,,"Providence/Green Mem, RI, US",US,United States,-1.7885260405012795
3003,KPVF,2026-02-27 03:46:09.220000+00:00,1772163300,2026-02-27T03:35:00.000Z,16.0,12.0,0,0.0,10+,1023.8,6,METAR,METAR KPVF 270335Z AUTO 00000KT 10SM CLR 16/12 A3023 RMK AO1,38.7222,-120.757,788,Placerville Arpt,CLR,[],VFR,,,,,,,,,,"Placerville Arpt, CA, US",US,United States,23.070666666666664
2875,KPVU,2026-02-27 04:00:14.792000+00:00,1772164560,2026-02-27T04:00:00.000Z,6.1,0.0,360,6.0,10+,1025.1,4,METAR,METAR KPVU 270356Z 36006KT 10SM CLR 06/00 A3027 RMK AO2 SLP248 T00610000,40.224,-111.7252,1370,Provo Muni,CLR,[],VFR,,,1024.8,,,,,,,"Provo Muni, UT, US",US,United States,3.768765751940898
2897,KPVW,2026-02-27 04:02:20.451000+00:00,1772164500,2026-02-27T04:00:00.000Z,23.0,14.0,0,0.0,9,,6,METAR,METAR KPVW 270355Z AUTO 00000KT 9SM CLR 23/14 A3401 RMK AO2,34.169,-101.723,1029,Plainview/Hale Cnty,CLR,[],VFR,,,,,,,,,,"Plainview/Hale Cnty, TX, US",US,United States,27.42116666666667
2944,KPWA,2026-02-27 03:56:42.183000+00:00,1772164380,2026-02-27T04:00:00.000Z,8.3,-0.6,0,0.0,10+,1014.6,4,METAR,METAR KPWA 270353Z 00000KT 10SM CLR 08/M01 A2996 RMK AO2 SLP143 T00831006,35.5411,-97.6472,390,Oklahoma City/Wiley Post Arpt,CLR,[],VFR,,,1014.3,,,,,,,"Oklahoma City/Wiley Post Arpt, OK, US",US,United States,18.285116666666667
2905,KPWD,2026-02-27 03:59:53.007000+00:00,1772164500,2026-02-27T04:00:00.000Z,3.0,-3.0,270,12.0,10+,1001.8,6,METAR,METAR KPWD 270355Z AUTO 27012KT 10SM CLR 03/M03 A2958 RMK AO2,48.7912,-104.5253,690,Plentywood/Sher-Wood Arpt,CLR,[],VFR,,,,,,,,,,"Plentywood/Sher-Wood Arpt, MT, US",US,United States,-1.7169714017794706
2956,KPWK,2026-02-27 03:56:26.433000+00:00,1772164320,2026-02-27T04:00:00.000Z,2.2,-3.3,210,4.0,10+,1012.3,6,METAR,METAR KPWK 270352Z AUTO 21004KT 10SM CLR 02/M03 A2989 RMK AO2 SLP127 T00221033,42.1208,-87.9048,194,Chicago Exec,CLR,[],VFR,,,1012.7,,,,,,,"Chicago Exec, IL, US",US,United States,0.04252664665087656
2957,KPWM,2026-02-27 03:56:20.140000+00:00,1772164260,2026-02-27T04:00:00.000Z,-4.4,-11.7,310,6.0,10+,1014.0,12,METAR,METAR KPWM 270351Z 31006KT 10SM SCT140 M04/M12 A2994 RMK AO2 SLP139 T10441117 $,43.6424,-70.3044,15,Portland Intl,SCT,"[{'cover': 'SCT', 'base': 14000}]",VFR,,,1013.9,,,,,,,"Portland Intl, ME, US",US,United States,-8.87120722326093
2878,KPWT,2026-02-27 04:00:34.162000+00:00,1772164560,2026-02-27T04:00:00.000Z,6.7,5.6,210,8.0,10+,1024.5,14,METAR,METAR KPWT 270356Z AUTO 21008KT 10SM BKN012 07/06 A3025 RMK AO2 SLP251 T00670056 PNO $,47.4942,-122.7594,143,Bremerton Arpt,BKN,"[{'cover': 'BKN', 'base': 1200}]",MVFR,,,1025.1,,,,,,,"Bremerton Arpt, WA, US",US,United States,3.8881227162843777
2954,KPYM,2026-02-27 03:56:26.112000+00:00,1772164320,2026-02-27T04:00:00.000Z,0.0,-5.0,330,3.0,10+,1013.6,14,METAR,METAR KPYM 270352Z AUTO 33003KT 10SM CLR 00/M05 A2993 RMK AO2 SLP139 T00001050 $,41.9085,-70.7278,42,Plymouth Muni,CLR,[],VFR,,,1013.9,,,,,,,"Plymouth Muni, MA, US",US,United States,-1.8212574083023962
3168,KRAC,2026-02-27 03:58:41.959000+00:00,1772164380,2026-02-27T04:00:00.000Z,1.1,-5.0,240,7.0,10+,1011.3,6,METAR,METAR KRAC 270353Z AUTO 24007KT 10SM CLR 01/M05 A2986 RMK AO2 SLP119 T00111050,42.7586,-87.8178,203,Racine/Batten Intl,CLR,[],VFR,,,1011.9,,,,,,,"Racine/Batten Intl, WI, US",US,United States,-2.65131441375196
3174,KRAL,2026-02-27 03:58:23.817000+00:00,1772164380,2026-02-27T04:00:00.000Z,22.2,13.9,0,0.0,10+,1015.7,4,METAR,METAR KRAL 270353Z 00000KT 10SM CLR 22/14 A2999 RMK AO2 SLP144 T02220139,33.9528,-117.4352,254,Riverside Muni,CLR,[],VFR,,,1014.4,,,,,,,"Riverside Muni, CA, US",US,United States,26.923966666666672
3193,KRAP,2026-02-27 03:56:26.128000+00:00,1772164320,2026-02-27T04:00:00.000Z,1.7,-9.4,0,0.0,10+,1008.2,4,METAR,METAR KRAP 270352Z 00000KT 10SM CLR 02/M09 A2977 RMK AO2 SLP098 T00171094,44.0458,-103.0544,965,Rapid City Rgnl,CLR,[],VFR,,,1009.8,,,,,,,"Rapid City Rgnl, SD, US",US,United States,14.18321666666667
3170,KRBD,2026-02-27 03:58:41.283000+00:00,1772164380,2026-02-27T04:00:00.000Z,19.4,4.4,360,4.0,10+,1013.3,6,METAR,METAR KRBD 270353Z AUTO 36004KT 10SM CLR 19/04 A2992 RMK AO2 SLP125 T01940044,32.6782,-96.8677,200,Dallas/Executive Arpt,CLR,[],VFR,,,1012.5,,,,,,,"Dallas/Executive Arpt, TX, US",US,United States,20.118872781327404
3171,KRBG,2026-02-27 03:58:40.661000+00:00,1772164380,2026-02-27T04:00:00.000Z,7.8,6.1,0,0.0,10+,1025.8,6,METAR,METAR KRBG 270353Z AUTO 00000KT 10SM CLR 08/06 A3029 RMK AO2 SLP260 T00780061,43.2337,-123.3578,152,Roseburg Rgnl,CLR,[],VFR,,,1026.0,,,,,,,"Roseburg Rgnl, OR, US",US,United States,17.974366666666665
3167,KRBL,2026-02-27 03:58:53.563000+00:00,1772164440,2026-02-27T04:00:00.000Z,16.1,13.3,340,3.0,10+,1022.4,6,METAR,METAR KRBL 270354Z AUTO 34003KT 10SM BKN080 16/13 A3019 RMK AO2 SLP221 T01610133,40.1519,-122.2548,107,Red Bluff Muni,BKN,"[{'cover': 'BKN', 'base': 8000}]",VFR,,,1022.1,,,,,,,"Red Bluff Muni, CA, US",US,United States,16.575879631506762
3135,KRBW,2026-02-27 03:58:53.593000+00:00,1772164500,2026-02-27T04:00:00.000Z,,,50,4.0,7,1015.3,6,METAR,METAR KRBW 270355Z AUTO 05004KT 7SM BKN050 BKN065 OVC075 A2998 RMK AO2,32.921,-80.64,30,Walterboro/Lowcountry Rgnl,OVC,"[{'cover': 'BKN', 'base': 5000}, {'cover': 'BKN', 'base': 6500}, {'cover': 'OVC', 'base': 7500}]",VFR,,,,,,,,,,"Walterboro/Lowcountry Rgnl, SC, US",US,United States,
3134,KRCA,2026-02-27 03:58:34.934000+00:00,1772164500,2026-02-27T04:00:00.000Z,3.5,-8.8,270,7.0,10+,1007.2,6,METAR,METAR KRCA 270355Z AUTO 27007KT 10SM CLR 04/M09 A2974 RMK AO2 SLP087 T00351088,44.155,-103.118,993,Ellsworth AFB,CLR,[],VFR,,,1008.7,,,,,,,"Ellsworth AFB, SD, US",US,United States,0.2727198528677693
3146,KRCR,2026-02-27 04:02:20.993000+00:00,1772164500,2026-02-27T04:00:00.000Z,3.0,-2.0,190,4.0,10+,1013.0,6,METAR,METAR KRCR 270355Z AUTO 19004KT 10SM SCT060 OVC070 03/M02 A2991 RMK AO2,41.0651,-86.1864,240,Rochester/Fulton Cnty,OVC,"[{'cover': 'SCT', 'base': 6000}, {'cover': 'OVC', 'base': 7000}]",VFR,,,,,,,,,,"Rochester/Fulton Cnty, IN, US",US,United States,0.9763101877986221
3176,KRDD,2026-02-27 03:58:41.574000+00:00,1772164380,2026-02-27T04:00:00.000Z,15.6,12.2,0,0.0,10+,1022.1,4,METAR,METAR KRDD 270353Z 00000KT 10SM SCT070 16/12 A3018 RMK AO2 SLP218 T01560122,40.5146,-122.2977,152,Redding Muni,SCT,"[{'cover': 'SCT', 'base': 7000}]",VFR,,,1021.8,,,,,,,"Redding Muni, CA, US",US,United States,22.82206666666667
3164,KRDG,2026-02-27 03:58:35.610000+00:00,1772164440,2026-02-27T04:00:00.000Z,1.1,-6.1,360,4.0,9,1014.0,4,METAR,METAR KRDG 270354Z 36004KT 9SM SCT110 01/M06 A2994 RMK AO2 SLP147 T00111061,40.3734,-75.9592,101,Reading/Spaatz Fld,SCT,"[{'cover': 'SCT', 'base': 11000}]",VFR,,,1014.7,,,,,,,"Reading/Spaatz Fld, PA, US",US,United States,-1.2414257224272736
3128,KRDM,2026-02-27 04:00:18.893000+00:00,1772164560,2026-02-27T04:00:00.000Z,1.7,-7.2,0,0.0,10+,1023.5,4,METAR,METAR KRDM 270356Z 00000KT 10SM CLR 02/M07 A3022 RMK AO2 SLP252 T00171072,44.2558,-121.1407,930,Redmond Muni,CLR,[],VFR,,,1025.2,,,,,,,"Redmond Muni, OR, US",US,United States,14.18321666666667
3145,KRDR,2026-02-27 04:02:14.609000+00:00,1772164500,2026-02-27T04:00:00.000Z,-0.4,-2.8,190,5.0,10+,1001.4,12,METAR,METAR KRDR 270355Z 19005KT 10SM SCT110 M00/M03 A2957 RMK AO2A SLP029 T10041028 $,47.9477,-97.4029,276,Grand Forks AFB,SCT,"[{'cover': 'SCT', 'base': 11000}]",VFR,,,1002.9,,,,,,,"Grand Forks AFB, ND, US",US,United States,-3.5691244174103534
3198,KRDU,2026-02-27 03:54:27.477000+00:00,1772164260,2026-02-27T04:00:00.000Z,12.2,12.2,0,0.0,6,1014.0,12,METAR,METAR KRDU 270351Z 00000KT 6SM BR BKN008 BKN012 OVC032 12/12 A2994 RMK AO2 SLP138 T01220122 $,35.8923,-78.782,121,Raleigh-Durham Intl,OVC,"[{'cover': 'BKN', 'base': 800}, {'cover': 'BKN', 'base': 1200}, {'cover': 'OVC', 'base': 3200}]",IFR,,BR,1013.8,,,,,,,"Raleigh-Durham Intl, NC, US",US,United States,20.708966666666665
3194,KREO,2026-02-27 03:58:13.492000+00:00,1772164320,2026-02-27T04:00:00.000Z,4.4,-0.6,50,6.0,,1023.1,6,METAR,METAR KREO 270352Z AUTO 05006KT 04/M01 A3021 RMK AO1 SLP245 T00441006,42.5902,-117.8646,1237,Rome/State Arpt,,,,,,1024.5,,,,,,,"Rome/State Arpt, OR, US",US,United States,1.722293936908217
3163,KRFD,2026-02-27 03:58:33.777000+00:00,1772164440,2026-02-27T04:00:00.000Z,-3.3,-5.6,170,3.0,10+,1012.6,4,METAR,METAR KRFD 270354Z 17003KT 10SM CLR M03/M06 A2990 RMK AO2 SLP133 T10331056,42.1915,-89.0876,222,Rockford Intl,CLR,[],VFR,,,1013.3,,,,,,,"Rockford Intl, IL, US",US,United States,-5.592099161803649
3180,KRHI,2026-02-27 03:58:37.968000+00:00,1772164380,2026-02-27T04:00:00.000Z,-5.0,-7.2,260,3.0,10+,1006.5,6,METAR,METAR KRHI 270353Z AUTO 26003KT 10SM CLR M05/M07 A2972 RMK AO2 SLP091 T10501072,45.6315,-89.4822,493,Rhinelander/Oneida Cnty,CLR,[],VFR,,,1009.1,,,,,,,"Rhinelander/Oneida Cnty, WI, US",US,United States,-7.53465400451642
3224,KRHV,2026-02-27 03:48:42.625000+00:00,1772164020,2026-02-27T04:00:00.000Z,18.0,8.0,270,4.0,10+,1022.1,0,METAR,METAR KRHV 270347Z 27004KT 10SM SCT100 18/08 A3018,37.3331,-121.82,37,San Jose/Reid-Hillview Arpt,SCT,"[{'cover': 'SCT', 'base': 10000}]",VFR,,,,,,,,,,"San Jose/Reid-Hillview Arpt, CA, US",US,United States,18.484751584318847
3162,KRIC,2026-02-27 03:58:33.793000+00:00,1772164440,2026-02-27T04:00:00.000Z,5.6,3.9,0,0.0,9,1015.3,12,METAR,METAR KRIC 270354Z 00000KT 9SM SCT018 BKN033 OVC050 06/04 A2998 RMK AO2 SLP157 T00560039 $,37.5115,-77.3234,51,Richmond Intl,OVC,"[{'cover': 'SCT', 'base': 1800}, {'cover': 'BKN', 'base': 3300}, {'cover': 'OVC', 'base': 5000}]",VFR,,,1015.7,,,,,,,"Richmond Intl, VA, US",US,United States,16.607066666666668
3179,KRIL,2026-02-27 03:58:24.597000+00:00,1772164380,2026-02-27T04:00:00.000Z,2.8,-2.2,150,3.0,10+,1023.1,6,METAR,METAR KRIL 270353Z AUTO 15003KT 10SM CLR 03/M02 A3021 RMK AO2 SLP228 T00281022,39.5279,-107.7197,1683,Rifle/Garfield Cnty,CLR,[],VFR,,,1022.8,,,,,,,"Rifle/Garfield Cnty, CO, US",US,United States,1.3782446855774566
3152,KRIV,2026-02-27 04:00:06.011000+00:00,1772164500,2026-02-27T04:00:00.000Z,18.2,10.5,10,6.0,10+,1015.7,6,METAR,METAR KRIV 270355Z AUTO 01006KT 10SM CLR 18/11 A2999 RMK AO2 SLP149 T01820105,33.878,-117.244,454,Riverside/March ARB,CLR,[],VFR,,,1014.9,,,,,,,"Riverside/March ARB, CA, US",US,United States,18.334829847173463
3181,KRIW,2026-02-27 03:58:40.003000+00:00,1772164380,2026-02-27T04:00:00.000Z,6.1,-11.1,310,17.0,10+,1017.0,6,METAR,METAR KRIW 270353Z AUTO 31017G25KT 10SM CLR 06/M11 A3003 RMK AO2 PK WND 31034/0256 SLP160 T00611111,43.0622,-108.4471,1662,Riverton Rgnl,CLR,[],VFR,25.0,,1016.0,,,,,,,"Riverton Rgnl, WY, US",US,United States,1.384577313707401
3127,KRKD,2026-02-27 04:00:12.466000+00:00,1772164560,2026-02-27T04:00:00.000Z,-1.7,-10.0,VRB,3.0,10+,1013.6,70,METAR,METAR KRKD 270356Z AUTO VRB03KT 10SM CLR M02/M10 A2993 RMK AO2 SLP136 T10171100 FZRANO,44.0611,-69.1014,15,Rockland/Knox Cnty,CLR,[],VFR,,,1013.6,,,,,,,"Rockland/Knox Cnty, ME, US",US,United States,-3.763812251015158
3173,KRKP,2026-02-27 03:58:40.408000+00:00,1772164380,2026-02-27T04:00:00.000Z,21.1,20.0,90,5.0,4,1009.9,6,METAR,METAR KRKP 270353Z AUTO 09005KT 4SM BR OVC010 21/20 A2982 RMK AO2 SLP099 T02110200,28.0837,-97.0467,8,Rockport/Aransas Cnty,OVC,"[{'cover': 'OVC', 'base': 1000}]",MVFR,,BR,1009.9,,,,,,,"Rockport/Aransas Cnty, TX, US",US,United States,21.95278565161973
3159,KRKS,2026-02-27 03:58:44.542000+00:00,1772164440,2026-02-27T04:00:00.000Z,2.2,-6.1,260,21.0,10+,1023.5,6,METAR,METAR KRKS 270354Z AUTO 26021G31KT 10SM CLR 02/M06 A3022 RMK AO2 PK WND 26033/0317 SLP236 T00221061,41.5947,-109.0529,2062,Rock Springs/SW Wyoming Rgnl,CLR,[],VFR,31.0,,1023.6,,,,,,,"Rock Springs/SW Wyoming Rgnl, WY, US",US,United States,-4.348450435534968
3188,KRME,2026-02-27 03:58:41.981000+00:00,1772164380,2026-02-27T04:00:00.000Z,-11.1,-12.8,0,0.0,10+,1016.0,4,METAR,METAR KRME 270353Z 00000KT 10SM CLR M11/M13 A3000 RMK AO2 SLP165 T11111128,43.2242,-75.3956,146,Rome/Griffiss Intl,CLR,[],VFR,,,1016.5,,,,,,,"Rome/Griffiss Intl, NY, US",US,United States,6.228016666666668
3182,KRMG,2026-02-27 03:56:42.401000+00:00,1772164380,2026-02-27T04:00:00.000Z,17.2,15.0,0,0.0,4,1011.9,6,METAR,METAR KRMG 270353Z AUTO 00000KT 4SM -RA BR BKN065 OVC075 17/15 A2988 RMK AO2 LTG DSNT ALQDS RAB04 SLP113 P0010 T01720150,34.3483,-85.1616,196,Rome/Russell Arpt,OVC,"[{'cover': 'BKN', 'base': 6500}, {'cover': 'OVC', 'base': 7500}]",MVFR,,-RA BR,1011.3,0.1,,,,,,"Rome/Russell Arpt, GA, US",US,United States,23.81646666666667
3154,KRNC,2026-02-27 04:00:20.471000+00:00,1772164500,2026-02-27T04:00:00.000Z,7.0,7.0,0,0.0,9,1012.6,6,METAR,METAR KRNC 270355Z AUTO 00000KT 9SM SCT055 BKN090 07/07 A2990 RMK A01,35.6991,-85.8402,310,McMinnville/Warren Cnty,BKN,"[{'cover': 'SCT', 'base': 5500}, {'cover': 'BKN', 'base': 9000}]",VFR,,,,,,,,,,"McMinnville/Warren Cnty, TN, US",US,United States,17.47716666666667
3133,KRND,2026-02-27 03:58:34.969000+00:00,1772164500,2026-02-27T04:00:00.000Z,23.1,13.8,10,11.0,10+,1011.3,6,METAR,METAR KRND 270355Z AUTO 01011KT 10SM CLR 23/14 A2986 RMK AO2 SLP105 T02310138,29.537,-98.268,224,Randolph AFB,CLR,[],VFR,,,1010.5,,,,,,,"Randolph AFB, TX, US",US,United States,23.90252014954631
3203,KRNH,2026-02-27 04:02:16.386000+00:00,1772164200,2026-02-27T04:00:00.000Z,-1.4,-2.9,0,0.0,10+,1008.2,6,METAR,METAR KRNH 270350Z AUTO 00000KT 10SM CLR M01/M03 A2977 RMK AO2 T10141029,45.1476,-92.5335,302,New Richmond Muni,CLR,[],VFR,,,,,,,,,,"New Richmond Muni, WI, US",US,United States,12.25656666666667
3142,KRNO,2026-02-27 04:00:32.448000+00:00,1772164500,2026-02-27T04:00:00.000Z,13.9,3.9,300,6.0,10+,1025.5,4,METAR,METAR KRNO 270355Z 30006KT 10SM SCT120 14/04 A3028 RMK AO2 SLP232 T01390039,39.5077,-119.7683,1344,Reno/Tahoe Intl,SCT,"[{'cover': 'SCT', 'base': 12000}]",VFR,,,1023.2,,,,,,,"Reno/Tahoe Intl, NV, US",US,United States,13.158459962090818
3175,KRNT,2026-02-27 03:58:23.365000+00:00,1772164380,2026-02-27T04:00:00.000Z,10.0,3.3,200,6.0,10+,1025.1,4,METAR,METAR KRNT 270353Z 20006KT 10SM BKN034 10/03 A3027 RMK AO2 SLP256 T01000033,47.4951,-122.2144,7,Renton Muni,BKN,"[{'cover': 'BKN', 'base': 3400}]",VFR,,,1025.6,,,,,,,"Renton Muni, WA, US",US,United States,8.463612857015855
3161,KROA,2026-02-27 03:58:33.810000+00:00,1772164440,2026-02-27T04:00:00.000Z,5.6,5.0,30,4.0,10+,1015.0,4,METAR,METAR KROA 270354Z 03004KT 10SM CLR 06/05 A2997 RMK AO2 SLP149 T00560050,37.3172,-79.9737,349,Roanoke Rgnl,CLR,[],VFR,,,1014.9,,,,,,,"Roanoke Rgnl, VA, US",US,United States,4.011106696528799
3160,KROC,2026-02-27 03:58:33.839000+00:00,1772164440,2026-02-27T04:00:00.000Z,-7.8,-10.0,0,0.0,10+,1014.6,4,METAR,METAR KROC 270354Z 00000KT 10SM SCT250 M08/M10 A2996 RMK AO2 SLP158 T10781100,43.1172,-77.6754,166,Rochester Intl Arpt,SCT,"[{'cover': 'SCT', 'base': 25000}]",VFR,,,1015.8,,,,,,,"Rochester Intl Arpt, NY, US",US,United States,8.278966666666669
3125,KROG,2026-02-27 04:00:18.618000+00:00,1772164680,2026-02-27T04:00:00.000Z,11.1,1.1,340,3.0,10+,1015.0,38,METAR,METAR KROG 270358Z AUTO 34003KT 10SM CLR 11/01 A2997 RMK AO2 SLP145 T01110011 TSNO,36.3749,-94.1078,407,Rogers Muni/Carter Fld,CLR,[],VFR,,,1014.5,,,,,,,"Rogers Muni/Carter Fld, AR, US",US,United States,10.862483035292733
3199,KROW,2026-02-27 03:56:18.491000+00:00,1772164260,2026-02-27T04:00:00.000Z,15.0,-1.7,260,4.0,10+,1015.0,6,METAR,METAR KROW 270351Z AUTO 26004KT 10SM CLR 15/M02 A2997 RMK AO2 SLP108 T01501017,33.3074,-104.5082,1105,Roswell/Ind Arpt,CLR,[],VFR,,,1010.8,,,,,,,"Roswell/Ind Arpt, NM, US",US,United States,14.983063305014802
3141,KROX,2026-02-27 04:00:35.867000+00:00,1772164500,2026-02-27T04:00:00.000Z,-4.6,-5.3,190,6.0,10+,1001.8,6,METAR,METAR KROX 270355Z AUTO 19006KT 10SM FEW080 M05/M05 A2958 RMK AO2 T10461053,48.856,-95.6949,320,Roseau/Billberg Fld,FEW,"[{'cover': 'FEW', 'base': 8000}]",VFR,,,,,,,,,,"Roseau/Billberg Fld, MN, US",US,United States,-9.111968613264771
3132,KRPD,2026-02-27 04:00:19.416000+00:00,1772164500,2026-02-27T04:00:00.000Z,-2.6,-3.9,0,0.0,10+,1008.2,6,METAR,METAR KRPD 270355Z AUTO 00000KT 10SM CLR M03/M04 A2977 RMK AO2 T10261039,45.4186,-91.7764,334,Rice Lake Rgnl,CLR,[],VFR,,,,,,,,,,"Rice Lake Rgnl, WI, US",US,United States,11.510766666666667
4041,KRQB,2026-02-27 04:00:10.924000+00:00,1772164500,2026-02-27T04:00:00.000Z,-3.0,-7.0,VRB,4.0,10+,1010.2,6,METAR,METAR KRQB 270355Z AUTO VRB04KT 10SM FEW095 M03/M07 A2983 RMK AO2,43.722,-85.498,282,Big Rapids/Roben Hood Arpt,FEW,"[{'cover': 'FEW', 'base': 9500}]",VFR,,,,,,,,,,"Big Rapids/Roben Hood Arpt, MI, US",US,United States,-6.027066370809465
3139,KRQO,2026-02-27 03:59:01.221000+00:00,1772164500,2026-02-27T04:00:00.000Z,10.0,1.0,220,6.0,10+,1015.0,6,METAR,METAR KRQO 270355Z AUTO 22006KT 10SM CLR 10/01 A2997 RMK AO2,35.4709,-98.0061,431,El Reno Rgnl,CLR,[],VFR,,,,,,,,,,"El Reno Rgnl, OK, US",US,United States,8.463612857015855
3136,KRRL,2026-02-27 04:00:37.198000+00:00,1772164500,2026-02-27T04:00:00.000Z,-5.6,-8.3,0,0.0,10+,1007.2,38,METAR,METAR KRRL 270355Z AUTO 00000KT 10SM CLR M06/M08 A2974 RMK AO2 T10561083 TSNO,45.1985,-89.71,397,Merrill Muni,CLR,[],VFR,,,,,,,,,,"Merrill Muni, WI, US",US,United States,9.64626666666667
3140,KRRT,2026-02-27 04:00:15.420000+00:00,1772164500,2026-02-27T04:00:00.000Z,-6.0,-7.0,170,3.0,7,1001.8,6,METAR,METAR KRRT 270355Z AUTO 17003KT 7SM SCT120 M06/M07 A2958 RMK AO2,48.9318,-95.3405,327,Warroad Intl,SCT,"[{'cover': 'SCT', 'base': 12000}]",VFR,,,,,,,,,,"Warroad Intl, MN, US",US,United States,-8.677333323759221
3183,KRSL,2026-02-27 03:56:42.472000+00:00,1772164380,2026-02-27T04:00:00.000Z,5.6,-1.7,190,7.0,10+,1013.3,6,METAR,METAR KRSL 270353Z AUTO 19007KT 10SM CLR 06/M02 A2992 RMK AO2 SLP136 T00561017,38.8725,-98.8093,569,Russell Muni,CLR,[],VFR,,,1013.6,,,,,,,"Russell Muni, KS, US",US,United States,2.831249836160031
3144,KRSN,2026-02-27 03:58:35.706000+00:00,1772164500,2026-02-27T04:00:00.000Z,17.8,17.6,0,0.0,9,1011.3,6,METAR,METAR KRSN 270355Z AUTO 00000KT 9SM CLR 18/18 A2986 RMK AO2 T01780176,32.5159,-92.5899,86,Ruston Rgnl,CLR,[],VFR,,,,,,,,,,"Ruston Rgnl, LA, US",US,United States,24.189366666666672
3158,KRST,2026-02-27 03:58:44.573000+00:00,1772164440,2026-02-27T04:00:00.000Z,-0.6,-1.7,190,9.0,6,1008.2,4,METAR,METAR KRST 270354Z 19009KT 6SM BR CLR M01/M02 A2977 RMK AO2 SLP098 T10061017,43.904,-92.4921,398,Rochester Intl,CLR,[],VFR,,BR,1009.8,,,,,,,"Rochester Intl, MN, US",US,United States,-5.439551351273081
3187,KRSW,2026-02-27 03:56:42.490000+00:00,1772164380,2026-02-27T04:00:00.000Z,20.6,18.3,170,5.0,10+,1017.4,12,METAR,METAR KRSW 270353Z 17005KT 10SM CLR 21/18 A3004 RMK AO2 SLP168 T02060183 $,26.538,-81.7567,8,Ft Myers/SW Florida Intl,CLR,[],VFR,,,1016.8,,,,,,,"Ft Myers/SW Florida Intl, FL, US",US,United States,21.359252859316705
3178,KRTN,2026-02-27 03:58:23.837000+00:00,1772164380,2026-02-27T04:00:00.000Z,1.7,-8.9,10,5.0,10+,1019.7,6,METAR,METAR KRTN 270353Z AUTO 01005KT 10SM CLR 02/M09 A3011 RMK AO2 SLP173 T00171089,36.7418,-104.5076,1939,Raton/Crews Fld,CLR,[],VFR,,,1017.3,,,,,,,"Raton/Crews Fld, NM, US",US,United States,-1.0762866897376453
3393,KRUQ,2026-02-27 04:02:10.354000+00:00,1772164500,2026-02-27T04:00:00.000Z,11.5,11.0,0,0.0,4,1013.6,6,METAR,METAR KRUQ 270355Z AUTO 00000KT 4SM BR OVC004 12/11 A2993 RMK AO2 T01150110,35.6442,-80.5236,231,Salisbury/Rowan Cnty,OVC,"[{'cover': 'OVC', 'base': 400}]",LIFR,,BR,,,,,,,,"Salisbury/Rowan Cnty, NC, US",US,United States,20.273916666666672
3126,KRUT,2026-02-27 04:00:12.482000+00:00,1772164560,2026-02-27T04:00:00.000Z,-8.3,-12.8,0,0.0,10+,1014.6,70,METAR,METAR KRUT 270356Z AUTO 00000KT 10SM CLR M08/M13 A2996 RMK AO2 SLP151 T10831128 FZRANO,43.53,-72.9517,238,Rutland/S Vermont Rgnl,CLR,[],VFR,,,1015.1,,,,,,,"Rutland/S Vermont Rgnl, VT, US",US,United States,7.968216666666668
3151,KRVL,2026-02-27 04:00:12.514000+00:00,1772164500,2026-02-27T04:00:00.000Z,-3.0,-7.0,0,0.0,9,1014.3,6,METAR,METAR KRVL 270355Z AUTO 00000KT 9SM -SN CLR M03/M07 A2995 RMK AO2,40.6768,-77.6251,250,Reedsville/Mifflin Cnty,CLR,[],VFR,,-SN,,,,,,,,"Reedsville/Mifflin Cnty, PA, US",US,United States,11.262166666666667
3184,KRVS,2026-02-27 03:56:42.538000+00:00,1772164380,2026-02-27T04:00:00.000Z,8.9,2.2,0,0.0,10+,1014.6,4,METAR,METAR KRVS 270353Z 00000KT 10SM CLR 09/02 A2996 RMK AO2 SLP153 LAST T00890022,36.0424,-95.9901,191,Tulsa/Jones Arpt,CLR,[],VFR,,,1015.3,,,,,,,"Tulsa/Jones Arpt, OK, US",US,United States,18.658016666666672
3185,KRWF,2026-02-27 03:58:24.870000+00:00,1772164380,2026-02-27T04:00:00.000Z,1.1,-3.3,230,4.0,10+,1008.2,6,METAR,METAR KRWF 270353Z AUTO 23004KT 10SM CLR 01/M03 A2977 RMK AO2 SLP091 T00111033,44.5483,-95.0804,312,Redwood Falls Muni,CLR,[],VFR,,,1009.1,,,,,,,"Redwood Falls Muni, MN, US",US,United States,-1.2414257224272736
3186,KRWI,2026-02-27 03:56:28.936000+00:00,1772164380,2026-02-27T04:00:00.000Z,11.1,10.6,0,0.0,1.25,1014.0,6,METAR,METAR KRWI 270353Z AUTO 00000KT 1 1/4SM BR BKN005 OVC034 11/11 A2994 RMK AO2 VIS 3/4V3 RAE0259 SLP139 P0000 T01110106,35.8502,-77.8951,46,Rocky Mount/Wilson Rgnl,OVC,"[{'cover': 'BKN', 'base': 500}, {'cover': 'OVC', 'base': 3400}]",IFR,,BR,1013.9,0.005,,,,,,"Rocky Mount/Wilson Rgnl, NC, US",US,United States,20.025316666666665
3169,KRXE,2026-02-27 03:58:41.304000+00:00,1772164380,2026-02-27T04:00:00.000Z,3.9,-4.4,180,11.0,10+,1022.8,6,METAR,METAR KRXE 270353Z AUTO 18011G18KT 10SM CLR 04/M04 A3020 RMK AO2 SLP244 T00391044,43.8321,-111.8075,1483,Rexburg/Madison Cnty,CLR,[],VFR,18.0,,1024.4,,,,,,,"Rexburg/Madison Cnty, ID, US",US,United States,-0.3491770719420827
3149,KRZL,2026-02-27 04:00:28.271000+00:00,1772164500,2026-02-27T04:00:00.000Z,0.0,-1.0,0,0.0,10+,1013.3,6,METAR,METAR KRZL 270355Z AUTO 00000KT 10SM CLR 00/M01 A2992 RMK AO2,40.9488,-87.1851,210,Rensselaer/Jasper Cnty,CLR,[],VFR,,,,,,,,,,"Rensselaer/Jasper Cnty, IN, US",US,United States,13.126666666666667
3156,KSAA,2026-02-27 04:02:18.941000+00:00,1772164500,2026-02-27T04:00:00.000Z,1.0,-8.0,250,11.0,10+,1022.4,6,METAR,METAR KSAA 270355Z AUTO 25011KT 10SM CLR 01/M08 A3019 RMK AO2,41.447,-106.815,2093,Saratoga/Shively Fld,CLR,[],VFR,,,,,,,,,,"Saratoga/Shively Fld, WY, US",US,United States,-4.012193839771064
3192,KSAC,2026-02-27 03:58:23.861000+00:00,1772164380,2026-02-27T04:00:00.000Z,16.7,12.8,330,5.0,10+,1021.8,6,METAR,METAR KSAC 270353Z AUTO 33005KT 10SM CLR 17/13 A3017 RMK AO2 SLP215 T01670128,38.5066,-121.496,5,Sacramento Exec,CLR,[],VFR,,,1021.5,,,,,,,"Sacramento Exec, CA, US",US,United States,16.729697079353105
3196,KSAD,2026-02-27 03:56:18.508000+00:00,1772164260,2026-02-27T04:00:00.000Z,20.6,2.8,300,12.0,10+,1016.0,6,METAR,METAR KSAD 270351Z AUTO 30012KT 10SM CLR 21/03 A3000 RMK AO2 SLP124 T02060028,32.8565,-109.636,937,Safford Rgnl,CLR,[],VFR,,,1012.4,,,,,,,"Safford Rgnl, AZ, US",US,United States,20.672060153951616
3191,KSAF,2026-02-27 03:58:23.529000+00:00,1772164380,2026-02-27T04:00:00.000Z,8.3,-10.6,340,7.0,10+,1020.7,4,METAR,METAR KSAF 270353Z 34007KT 10SM CLR 08/M11 A3014 RMK AO2 SLP149 T00831106,35.611,-106.0957,1918,Santa Fe Cnty Muni,CLR,[],VFR,,,1014.9,,,,,,,"Santa Fe Cnty Muni, NM, US",US,United States,6.120788386107224
3197,KSAN,2026-02-27 03:58:39.228000+00:00,1772164260,2026-02-27T04:00:00.000Z,18.3,12.8,0,0.0,10+,1015.7,12,METAR,METAR KSAN 270351Z 00000KT 10SM CLR 18/13 A2999 RMK AO2 SLP153 T01830128 $,32.7364,-117.1973,3,San Diego Intl Arpt,CLR,[],VFR,,,1015.3,,,,,,,"San Diego Intl Arpt, CA, US",US,United States,24.50011666666667
3131,KSAR,2026-02-27 04:00:19.449000+00:00,1772164500,2026-02-27T04:00:00.000Z,6.8,3.0,0,0.0,10+,1014.0,6,METAR,METAR KSAR 270355Z AUTO 00000KT 10SM CLR 07/03 A2994 RMK AO2 T00680030 401510015,38.1463,-89.7025,162,Sparta/Hunter Fld,CLR,[],VFR,,,,,,15.1,1.5,,,"Sparta/Hunter Fld, IL, US",US,United States,17.352866666666667
3200,KSAT,2026-02-27 03:56:18.542000+00:00,1772164260,2026-02-27T04:00:00.000Z,22.8,13.3,10,8.0,10+,1011.6,12,METAR,METAR KSAT 270351Z 01008KT 10SM FEW250 23/13 A2987 RMK AO2 SLP098 T02280133 $,29.5443,-98.4839,246,San Antonio Intl,FEW,"[{'cover': 'FEW', 'base': 25000}]",VFR,,,1009.8,,,,,,,"San Antonio Intl, TX, US",US,United States,23.71102986755468
3189,KSAV,2026-02-27 03:58:13.424000+00:00,1772164380,2026-02-27T04:00:00.000Z,17.8,11.7,200,8.0,10+,1014.6,4,METAR,METAR KSAV 270353Z 20008KT 10SM BKN065 BKN085 OVC110 18/12 A2996 RMK AO2 SLP143 T01780117,32.1313,-81.2023,10,Savannah Intl,OVC,"[{'cover': 'BKN', 'base': 6500}, {'cover': 'BKN', 'base': 8500}, {'cover': 'OVC', 'base': 11000}]",VFR,,,1014.3,,,,,,,"Savannah Intl, GA, US",US,United States,17.55484752243968
2471,KSAW,2026-02-27 04:02:17.936000+00:00,1772164680,2026-02-27T04:00:00.000Z,-6.0,-6.0,170,1.0,10+,1006.9,6,METAR,METAR KSAW 270358Z AUTO 17001KT 10SM FEW015 BKN049 M06/M06 A2973 RMK AO2,46.341,-87.395,359,Marquette/Sawyer Intl,BKN,"[{'cover': 'FEW', 'base': 1500}, {'cover': 'BKN', 'base': 4900}]",VFR,,,,,,,,,,"Marquette/Sawyer Intl, MI, US",US,United States,-5.763719340776044
3172,KSBA,2026-02-27 03:58:40.687000+00:00,1772164380,2026-02-27T04:00:00.000Z,16.1,13.3,0,0.0,10+,1015.0,12,METAR,METAR KSBA 270353Z 00000KT 10SM CLR 16/13 A2997 RMK AO2 SLP150 T01610133 $,34.4241,-119.8425,2,Santa Barbara Muni,CLR,[],VFR,,,1015.0,,,,,,,"Santa Barbara Muni, CA, US",US,United States,23.13281666666667
3155,KSBD,2026-02-27 03:52:12.200000+00:00,1772164500,2026-02-27T04:00:00.000Z,24.0,7.0,140,4.0,10+,1016.3,0,METAR,METAR KSBD 270355Z 14004KT 10SM CLR 24/07 A3001,34.09,-117.247,353,San Bernardino Intl,CLR,[],VFR,,,,,,,,,,"San Bernardino Intl, CA, US",US,United States,25.48812814292694
3157,KSBN,2026-02-27 03:58:44.603000+00:00,1772164440,2026-02-27T04:00:00.000Z,0.6,-3.3,210,7.0,10+,1012.6,4,METAR,METAR KSBN 270354Z 21007KT 10SM BKN055 01/M03 A2990 RMK AO2 SLP135 T00061033,41.7072,-86.3163,236,South Bend Rgnl,BKN,"[{'cover': 'BKN', 'base': 5500}]",VFR,,,1013.5,,,,,,,"South Bend Rgnl, IN, US",US,United States,-3.2604882192977334
3129,KSBP,2026-02-27 04:00:18.934000+00:00,1772164560,2026-02-27T04:00:00.000Z,21.1,12.2,150,4.0,10+,1018.4,4,METAR,METAR KSBP 270356Z 15004KT 10SM CLR 21/12 A3007 RMK AO2 SLP181 T02110122,35.2381,-120.644,52,San Luis Obispo/San Luis Cnty,CLR,[],VFR,,,1018.1,,,,,,,"San Luis Obispo/San Luis Cnty, CA, US",US,United States,22.10316280626636
3138,KSBS,2026-02-27 04:00:12.072000+00:00,1772164500,2026-02-27T04:00:00.000Z,0.8,-5.5,0,0.0,10+,1023.1,6,METAR,METAR KSBS 270355Z AUTO 00000KT 10SM OVC065 01/M05 A3021 RMK AO1 T00081055,40.5153,-106.8677,2097,Steamboat Springs/Adams Fld,OVC,"[{'cover': 'OVC', 'base': 6500}]",VFR,,,,,,,,,,"Steamboat Springs/Adams Fld, CO, US",US,United States,13.623866666666665
3148,KSBX,2026-02-27 04:01:30.433000+00:00,1772164500,2026-02-27T04:00:00.000Z,6.0,-6.0,270,31.0,10+,1008.9,6,METAR,METAR KSBX 270355Z AUTO 27031G44KT 10SM CLR 06/M06 A2979 RMK AO2,48.541,-111.871,1049,Shelby/Toole Cnty Arpt,CLR,[],VFR,44.0,,,,,,,,,"Shelby/Toole Cnty Arpt, MT, US",US,United States,-0.32053415048948136
3166,KSBY,2026-02-27 03:58:20.415000+00:00,1772164440,2026-02-27T04:00:00.000Z,3.3,0.6,350,3.0,10+,1014.6,6,METAR,METAR KSBY 270354Z AUTO 35003KT 10SM OVC060 03/01 A2996 RMK AO2 SLP149 T00330006,38.3409,-75.5132,14,Salisbury/Ocean City,OVC,"[{'cover': 'OVC', 'base': 6000}]",VFR,,,1014.9,,,,,,,"Salisbury/Ocean City, MD, US",US,United States,1.9495843451988568
3137,KSCK,2026-02-27 04:00:32.628000+00:00,1772164500,2026-02-27T04:00:00.000Z,15.0,15.0,300,6.0,10+,1021.4,12,METAR,METAR KSCK 270355Z 30006KT 10SM CLR 15/15 A3016 RMK AO2 SLP211 T01500150 $,37.89,-121.2264,8,Stockton Metro,CLR,[],VFR,,,1021.1,,,,,,,"Stockton Metro, CA, US",US,United States,14.482647607111959
3365,KSDF,2026-02-27 04:00:16.829000+00:00,1772164560,2026-02-27T04:00:00.000Z,5.6,3.3,130,6.0,10+,1014.6,4,METAR,METAR KSDF 270356Z 13006KT 10SM CLR 06/03 A2996 RMK AO2 SLP148 T00560033,38.1774,-85.7308,146,Louisville Intl,CLR,[],VFR,,,1014.8,,,,,,,"Louisville Intl, KY, US",US,United States,3.1668622769312864
3190,KSDL,2026-02-27 03:58:41.591000+00:00,1772164380,2026-02-27T04:00:00.000Z,24.4,6.7,70,3.0,10+,1014.3,12,METAR,METAR KSDL 270353Z 07003KT 10SM CLR 24/07 A2995 RMK AO2 SLP123 T02440067 $,33.6123,-111.9232,438,Scottsdale Muni,CLR,[],VFR,,,1012.3,,,,,,,"Scottsdale Muni, AZ, US",US,United States,26.060117981222042
3412,KSDM,2026-02-27 03:58:39.747000+00:00,1772164380,2026-02-27T04:00:00.000Z,17.8,12.2,0,0.0,10+,1015.3,4,METAR,METAR KSDM 270353Z 00000KT 10SM CLR 18/12 A2998 RMK AO2 SLP148 T01780122,32.5758,-116.9939,161,San Diego/Brown Fld,CLR,[],VFR,,,1014.8,,,,,,,"San Diego/Brown Fld, CA, US",US,United States,24.189366666666672
3364,KSDY,2026-02-27 04:00:14.837000+00:00,1772164560,2026-02-27T04:00:00.000Z,6.7,-5.0,270,11.0,10+,1004.1,14,METAR,METAR KSDY 270356Z AUTO 27011KT 10SM CLR 07/M05 A2965 RMK AO2 SLP058 T00671050 $,47.7029,-104.1951,600,Sidney/Richland Muni,CLR,[],VFR,,,1005.8,,,,,,,"Sidney/Richland Muni, MT, US",US,United States,3.1875287728583066
3427,KSEA,2026-02-27 03:58:40.176000+00:00,1772164380,2026-02-27T04:00:00.000Z,8.9,3.9,200,12.0,10+,1025.1,12,METAR,METAR KSEA 270353Z 20012G19KT 10SM BKN025 BKN040 09/04 A3027 RMK AO2 SLP258 T00890039 $,47.4447,-122.3144,115,Seattle-Tacoma Intl,BKN,"[{'cover': 'BKN', 'base': 2500}, {'cover': 'BKN', 'base': 4000}]",MVFR,19.0,,1025.8,,,,,,,"Seattle-Tacoma Intl, WA, US",US,United States,5.788442585653115
3479,KSEE,2026-02-27 03:52:12.277000+00:00,1772164020,2026-02-27T04:00:00.000Z,19.0,12.0,0,0.0,10+,1015.3,0,METAR,METAR KSEE 270347Z 00000KT 10SM SKC 19/12 A2998,32.8273,-116.9737,113,San Diego/Gillespie Fld,SKC,[],VFR,,,,,,,,,,"San Diego/Gillespie Fld, CA, US",US,United States,24.93516666666667
3379,KSEF,2026-02-27 03:59:01.334000+00:00,1772164500,2026-02-27T04:00:00.000Z,17.9,15.8,150,6.0,10+,1017.7,6,METAR,METAR KSEF 270355Z AUTO 15006KT 10SM CLR 18/16 A3005 RMK AO2 T01790158,27.4553,-81.3415,17,Sebring Rgnl,CLR,[],VFR,,,,,,,,,,"Sebring Rgnl, FL, US",US,United States,17.9736877621677
3432,KSEG,2026-02-27 03:58:41.164000+00:00,1772164380,2026-02-27T04:00:00.000Z,-3.9,-6.1,0,0.0,10+,1014.6,6,METAR,METAR KSEG 270353Z AUTO 00000KT 10SM CLR M04/M06 A2996 RMK AO2 SLP149 T10391061,40.8193,-76.8658,136,Selinsgrove/Penn Valley Arpt,CLR,[],VFR,,,1014.9,,,,,,,"Selinsgrove/Penn Valley Arpt, PA, US",US,United States,10.702816666666669
3399,KSEM,2026-02-27 04:00:20.612000+00:00,1772164500,2026-02-27T04:00:00.000Z,18.0,18.0,170,5.0,10+,1011.3,6,METAR,METAR KSEM 270355Z AUTO 17005KT 10SM SCT044 BKN085 OVC110 18/18 A2986 RMK AO2,32.3367,-86.9836,48,Selma/Craig Fld,OVC,"[{'cover': 'SCT', 'base': 4400}, {'cover': 'BKN', 'base': 8500}, {'cover': 'OVC', 'base': 11000}]",VFR,,,,,,,,,,"Selma/Craig Fld, AL, US",US,United States,18.272882339340967
3390,KSEP,2026-02-27 04:02:15.790000+00:00,1772164500,2026-02-27T04:00:00.000Z,17.3,3.9,20,3.0,10+,1015.3,6,METAR,METAR KSEP 270355Z AUTO 02003KT 10SM CLR 17/04 A2998 RMK AO2 T01730039,32.215,-98.1793,399,Stephenville/Clark Rgnl,CLR,[],VFR,,,,,,,,,,"Stephenville/Clark Rgnl, TX, US",US,United States,17.947094814598124
3378,KSEZ,2026-02-27 04:00:11.618000+00:00,1772164500,2026-02-27T04:00:00.000Z,18.0,1.0,50,14.0,10+,1020.7,6,METAR,METAR KSEZ 270355Z AUTO 05014KT 10SM CLR 18/01 A3014 RMK AO2,34.8467,-111.7884,1455,Sedona Arpt,CLR,[],VFR,,,,,,,,,,"Sedona Arpt, AZ, US",US,United States,17.19106568034815
3421,KSFB,2026-02-27 03:56:29.098000+00:00,1772164380,2026-02-27T04:00:00.000Z,17.8,13.3,160,5.0,10+,1016.7,4,METAR,METAR KSFB 270353Z 16005KT 10SM CLR 18/13 A3002 RMK AO2 SLP165 T01780133,28.7795,-81.2435,16,Sanford Intl,CLR,[],VFR,,,1016.5,,,,,,,"Sanford Intl, FL, US",US,United States,18.035469222419763
3422,KSFF,2026-02-27 03:58:23.551000+00:00,1772164380,2026-02-27T04:00:00.000Z,6.1,-1.1,220,11.0,10+,1019.7,4,METAR,METAR KSFF 270353Z 22011KT 10SM CLR 06/M01 A3011 RMK AO2 SLP208 T00611011,47.6857,-117.3214,593,Spokane/Felts Fld,CLR,[],VFR,,,1020.8,,,,,,,"Spokane/Felts Fld, WA, US",US,United States,2.4296632346867932
3348,KSFM,2026-02-27 04:00:13.522000+00:00,1772164560,2026-02-27T04:00:00.000Z,-2.8,-11.1,320,5.0,10+,1014.0,70,METAR,METAR KSFM 270356Z AUTO 32005KT 10SM CLR M03/M11 A2994 RMK AO2 SLP144 T10281111 FZRANO,43.3876,-70.7154,70,Sanford Rgnl,CLR,[],VFR,,,1014.4,,,,,,,"Sanford Rgnl, ME, US",US,United States,-6.418081820464869
3360,KSFO,2026-02-27 04:00:32.125000+00:00,1772164560,2026-02-27T04:00:00.000Z,16.1,11.1,280,11.0,10+,1021.8,4,METAR,METAR KSFO 270356Z 28011KT 10SM FEW200 16/11 A3017 RMK AO2 SLP217 T01610111,37.6196,-122.3656,2,San Francisco Intl,FEW,"[{'cover': 'FEW', 'base': 20000}]",VFR,,,1021.7,,,,,,,"San Francisco Intl, CA, US",US,United States,15.060755537545333
3352,KSFZ,2026-02-27 04:00:37.660000+00:00,1772164560,2026-02-27T04:00:00.000Z,-1.1,-7.8,360,7.0,10+,1014.0,78,METAR,METAR KSFZ 270356Z AUTO 36007KT 10SM CLR M01/M08 A2994 RMK AO2 SLP142 T10111078 FZRANO $,41.9168,-71.4924,129,Pawtucket/N Central State Arpt,CLR,[],VFR,,,1014.2,,,,,,,"Pawtucket/N Central State Arpt, RI, US",US,United States,-5.331679158153376
3443,KSGF,2026-02-27 03:56:21.194000+00:00,1772164320,2026-02-27T04:00:00.000Z,5.6,0.0,0,0.0,10+,1014.0,12,METAR,METAR KSGF 270352Z 00000KT 10SM CLR 06/00 A2994 RMK AO2 SLP140 T00560000 $,37.2398,-93.3899,387,Springfield Muni,CLR,[],VFR,,,1014.0,,,,,,,"Springfield Muni, MO, US",US,United States,16.607066666666668
3361,KSGH,2026-02-27 04:00:36.067000+00:00,1772164560,2026-02-27T04:00:00.000Z,2.2,-3.3,130,3.0,10+,1014.3,6,METAR,METAR KSGH 270356Z AUTO 13003KT 10SM BKN090 02/M03 A2995 RMK AO2 SLP153 T00221033 400831028,39.8358,-83.8443,318,Springfield Muni,BKN,"[{'cover': 'BKN', 'base': 9000}]",VFR,,,1015.3,,,8.3,-2.8,,,"Springfield Muni, OH, US",US,United States,0.6926370940317739
3820,KSGJ,2026-02-27 03:58:49.147000+00:00,1772164560,2026-02-27T04:00:00.000Z,15.6,10.6,160,3.0,10+,1016.7,14,METAR,METAR KSGJ 270356Z AUTO 16003KT 10SM CLR 16/11 A3002 RMK AO2 SLP165 T01560106 402610083 $,29.9592,-81.341,2,St Augustine Arpt,CLR,[],VFR,,,1016.5,,,26.1,8.3,,,"St Augustine Arpt, FL, US",US,United States,16.004539971885354
3413,KSGR,2026-02-27 03:58:38.195000+00:00,1772164380,2026-02-27T04:00:00.000Z,20.0,18.3,0,0.0,9,1010.9,6,METAR,METAR KSGR 270353Z AUTO 00000KT 9SM BKN045 OVC055 20/18 A2985 RMK AO2 SLP109 T02000183,29.6197,-95.6575,22,Houston/Sugar Land Rgnl,OVC,"[{'cover': 'BKN', 'base': 4500}, {'cover': 'OVC', 'base': 5500}]",VFR,,,1010.9,,,,,,,"Houston/Sugar Land Rgnl, TX, US",US,United States,25.556666666666672
3350,KSGT,2026-02-27 03:58:49.168000+00:00,1772164560,2026-02-27T04:00:00.000Z,12.2,12.2,360,7.0,5,1012.6,14,METAR,METAR KSGT 270356Z AUTO 36007KT 5SM BR BKN075 12/12 A2990 RMK AO2 SLP125 T01220122 $,34.5998,-91.5763,67,Stuttgart Muni,BKN,"[{'cover': 'BKN', 'base': 7500}]",MVFR,,BR,1012.5,,,,,,,"Stuttgart Muni, AR, US",US,United States,10.872344069364281
3351,KSGU,2026-02-27 04:00:36.390000+00:00,1772164560,2026-02-27T04:00:00.000Z,17.2,2.2,VRB,3.0,10+,1019.7,6,METAR,METAR KSGU 270356Z AUTO VRB03KT 10SM CLR 17/02 A3011 RMK AO2 SLP184 T01720022,37.0444,-113.5034,877,Saint George Muni,CLR,[],VFR,,,1018.4,,,,,,,"Saint George Muni, UT, US",US,United States,17.832826882673842
3384,KSHD,2026-02-27 03:56:33.830000+00:00,1772164500,2026-02-27T04:00:00.000Z,3.6,3.6,0,0.0,5,1015.3,6,METAR,METAR KSHD 270355Z AUTO 00000KT 5SM BR OVC018 04/04 A2998 RMK AO2 T00360036,38.2601,-78.9013,360,Staunton/Shenandoah Valley Rgnl,OVC,"[{'cover': 'OVC', 'base': 1800}]",MVFR,,BR,,,,,,,,"Staunton/Shenandoah Valley Rgnl, VA, US",US,United States,15.36406666666667
3329,KSHN,2026-02-27 04:02:32.527000+00:00,1772164800,2026-02-27T04:00:00.000Z,7.2,5.6,230,6.0,10+,1025.1,6,SPECI,SPECI KSHN 270400Z AUTO 23006G15KT 10SM OVC009 07/06 A3027 RMK AO2 CIG 008V013 T00720056,47.2384,-123.1415,84,Shelton/Sanderson Fld,OVC,"[{'cover': 'OVC', 'base': 900}]",IFR,15.0,,,,,,,,,"Shelton/Sanderson Fld, WA, US",US,United States,5.092953396962041
3426,KSHR,2026-02-27 03:58:41.616000+00:00,1772164380,2026-02-27T04:00:00.000Z,10.0,-10.6,230,10.0,10+,1009.2,6,METAR,METAR KSHR 270353Z AUTO 23010KT 10SM CLR 10/M11 A2980 RMK AO2 SLP094 T01001106,44.7603,-106.9741,1212,Sheridan Cnty Arpt,CLR,[],VFR,,,1009.4,,,,,,,"Sheridan Cnty Arpt, WY, US",US,United States,7.5371828065443305
3366,KSHV,2026-02-27 04:00:29.379000+00:00,1772164560,2026-02-27T04:00:00.000Z,18.0,14.0,0,0.0,10+,1011.9,0,METAR,METAR KSHV 270356Z 00000KT 10SM CLR 18/14 A2988 RMK SLPNO,32.4473,-93.8244,70,Shreveport Rgnl,CLR,[],VFR,,,,,,,,,,"Shreveport Rgnl, LA, US",US,United States,24.313666666666666
3374,KSIK,2026-02-27 03:58:15.227000+00:00,1772164500,2026-02-27T04:00:00.000Z,7.0,6.3,0,0.0,6,1013.0,14,METAR,METAR KSIK 270355Z AUTO 00000KT 6SM BR 07/06 A2991 RMK AO2 T00700063 $,36.9027,-89.5577,95,Sikeston Arpt,,,,,BR,,,,,,,,"Sikeston Arpt, MO, US",US,United States,17.47716666666667
3431,KSJC,2026-02-27 03:58:40.744000+00:00,1772164380,2026-02-27T04:00:00.000Z,17.2,10.0,320,6.0,10+,1021.4,4,METAR,METAR KSJC 270353Z 32006KT 10SM CLR 17/10 A3016 RMK AO2 SLP213 T01720100,37.3594,-121.9244,13,San Jose Intl Arpt,CLR,[],VFR,,,1021.3,,,,,,,"San Jose Intl Arpt, CA, US",US,United States,17.131022897154242
3407,KSJN,2026-02-27 03:58:15.244000+00:00,1772164440,2026-02-27T04:00:00.000Z,11.1,-2.2,270,6.0,10+,1021.8,6,METAR,METAR KSJN 270354Z AUTO 27006KT 10SM CLR 11/M02 A3017 RMK AO2 SLP167 T01111022,34.5184,-109.3801,1747,St Johns Ind Arpt,CLR,[],VFR,,,1016.7,,,,,,,"St Johns Ind Arpt, AZ, US",US,United States,9.787800502036994
3446,KSJT,2026-02-27 03:56:25.958000+00:00,1772164260,2026-02-27T04:00:00.000Z,15.6,3.9,100,6.0,10+,1014.6,6,METAR,METAR KSJT 270351Z AUTO 10006KT 10SM CLR 16/04 A2996 RMK AO2 SLP132 T01560039,31.3517,-100.4948,582,San Angelo/Mathis Fld,CLR,[],VFR,,,1013.2,,,,,,,"San Angelo/Mathis Fld, TX, US",US,United States,15.204931777123496
3387,KSKA,2026-02-27 03:58:35+00:00,1772164500,2026-02-27T04:00:00.000Z,5.1,-0.9,230,16.0,10+,1018.7,12,METAR,METAR KSKA 270355Z 23016KT 10SM BKN160 BKN180 05/M01 A3008 RMK AO2A SLP205 T00511009 $,47.612,-117.679,754,Spokane/Fairchild AFB,BKN,"[{'cover': 'BKN', 'base': 16000}, {'cover': 'BKN', 'base': 18000}]",VFR,,,1020.5,,,,,,,"Spokane/Fairchild AFB, WA, US",US,United States,0.23176968597524766
3373,KSKF,2026-02-27 03:58:35.030000+00:00,1772164500,2026-02-27T04:00:00.000Z,24.2,12.8,30,11.0,10+,1010.2,14,METAR,METAR KSKF 270355Z AUTO 03011KT 10SM CLR 24/13 A2983 RMK AO2 SLP095 T02420128 $,29.392,-98.581,214,Lackland AFB/Kelly Fld,CLR,[],VFR,,,1009.5,,,,,,,"Lackland AFB/Kelly Fld, TX, US",US,United States,25.291940302860766
3402,KSLB,2026-02-27 04:02:21.073000+00:00,1772164500,2026-02-27T04:00:00.000Z,3.0,-6.0,210,9.0,10+,1010.2,6,METAR,METAR KSLB 270355Z AUTO 21009KT 10SM CLR 03/M06 A2983 RMK AO2,42.5972,-95.2399,450,Storm Lake Muni,CLR,[],VFR,,,,,,,,,,"Storm Lake Muni, IA, US",US,United States,-0.9653414535158531
3408,KSLC,2026-02-27 03:58:39.019000+00:00,1772164440,2026-02-27T04:00:00.000Z,7.2,-2.2,170,7.0,10+,1024.5,4,METAR,METAR KSLC 270354Z 17007KT 10SM FEW270 07/M02 A3025 RMK AO2 SLP235 T00721022,40.7707,-111.965,1286,Salt Lake City Intl,FEW,"[{'cover': 'FEW', 'base': 27000}]",VFR,,,1023.5,,,,,,,"Salt Lake City Intl, UT, US",US,United States,4.780606013906521
3359,KSLE,2026-02-27 04:00:27.635000+00:00,1772164560,2026-02-27T04:00:00.000Z,3.9,1.7,0,0.0,10+,1026.5,4,METAR,METAR KSLE 270356Z 00000KT 10SM CLR 04/02 A3031 RMK AO2 SLP264 T00390017,44.9049,-123.001,63,Salem Muni,CLR,[],VFR,,,1026.4,,,,,,,"Salem Muni, OR, US",US,United States,15.550516666666669
3353,KSLG,2026-02-27 03:58:49.251000+00:00,1772164560,2026-02-27T04:00:00.000Z,8.9,1.7,0,0.0,10+,1015.3,6,METAR,METAR KSLG 270356Z AUTO 00000KT 10SM CLR 09/02 A2998 RMK AO2 SLP147 T00890017,36.1941,-94.488,361,Siloam Springs/Smith Fld,CLR,[],VFR,,,1014.7,,,,,,,"Siloam Springs/Smith Fld, AR, US",US,United States,18.658016666666672
3444,KSLK,2026-02-27 03:56:20.160000+00:00,1772164260,2026-02-27T04:00:00.000Z,-13.3,-16.1,0,0.0,10+,1011.6,6,METAR,METAR KSLK 270351Z AUTO 00000KT 10SM OVC029 M13/M16 A2987 RMK AO2 SLP148 T11331161,44.3928,-74.2029,502,Saranac Lake/Adirondack Rgnl,OVC,"[{'cover': 'OVC', 'base': 2900}]",MVFR,,,1014.8,,,,,,,"Saranac Lake/Adirondack Rgnl, NY, US",US,United States,4.860716666666668
3429,KSLN,2026-02-27 03:56:29.214000+00:00,1772164380,2026-02-27T04:00:00.000Z,7.8,0.0,290,3.0,10+,1014.0,4,METAR,METAR KSLN 270353Z 29003KT 10SM CLR 08/00 A2994 RMK AO2 SLP139 T00780000,38.78,-97.6446,377,Salina Rgnl,CLR,[],VFR,,,1013.9,,,,,,,"Salina Rgnl, KS, US",US,United States,7.091641281791476
3381,KSLO,2026-02-27 04:00:37.222000+00:00,1772164500,2026-02-27T04:00:00.000Z,6.0,2.4,0,0.0,10+,1013.6,6,METAR,METAR KSLO 270355Z AUTO 00000KT 10SM CLR 06/02 A2993 RMK AO2 T00600024,38.6446,-88.9612,173,Salem/Leckrone Arpt,CLR,[],VFR,,,,,,,,,,"Salem/Leckrone Arpt, IL, US",US,United States,16.855666666666668
3397,KSLR,2026-02-27 04:02:18.973000+00:00,1772164500,2026-02-27T04:00:00.000Z,17.4,7.9,310,3.0,10+,1014.3,134,METAR,METAR KSLR 270355Z AUTO 31003KT 10SM CLR 17/08 A2995 RMK AO2 T01740079 PWINO,33.1615,-95.6189,144,Sulphur Springs Muni,CLR,[],VFR,,,,,,,,,,"Sulphur Springs Muni, TX, US",US,United States,18.0613627465224
3403,KSMD,2026-02-27 04:01:09.546000+00:00,1772164500,2026-02-27T04:00:00.000Z,-2.0,-4.0,0,0.0,10+,1014.0,6,METAR,METAR KSMD 270355Z AUTO 00000KT 10SM OVC047 M02/M04 A2994 RMK A01,41.144,-85.1492,252,Fort Wayne/Smith Fld,OVC,"[{'cover': 'OVC', 'base': 4700}]",VFR,,,,,,,,,,"Fort Wayne/Smith Fld, IN, US",US,United States,11.88366666666667
3372,KSME,2026-02-27 03:59:01.402000+00:00,1772164500,2026-02-27T04:00:00.000Z,3.0,3.0,0,0.0,5,1014.6,6,METAR,METAR KSME 270355Z AUTO 00000KT 5SM BR CLR 03/03 A2996 RMK AO2,37.0529,-84.6141,279,Somerset/Lake Cumberland Rgnl,CLR,[],MVFR,,BR,,,,,,,,"Somerset/Lake Cumberland Rgnl, KY, US",US,United States,14.991166666666667
3425,KSMF,2026-02-27 03:58:23.574000+00:00,1772164380,2026-02-27T04:00:00.000Z,15.6,12.8,300,5.0,10+,1021.8,4,METAR,METAR KSMF 270353Z 30005KT 10SM FEW250 16/13 A3017 RMK AO2 SLP215 T01560128,38.7007,-121.5948,7,Sacramento Intl,FEW,"[{'cover': 'FEW', 'base': 25000}]",VFR,,,1021.5,,,,,,,"Sacramento Intl, CA, US",US,United States,15.423924936286447
3349,KSMN,2026-02-27 04:00:36.405000+00:00,1772164560,2026-02-27T04:00:00.000Z,7.2,-11.7,220,9.0,10+,1021.4,6,METAR,METAR KSMN 270356Z AUTO 22009KT 10SM CLR 07/M12 A3016 RMK AO2 SLP229 T00721117,45.1283,-113.8833,1228,Salmon/Lemhi Cnty,CLR,[],VFR,,,1022.9,,,,,,,"Salmon/Lemhi Cnty, ID, US",US,United States,4.254570093867597
3448,KSMO,2026-02-27 03:56:19.955000+00:00,1772164260,2026-02-27T04:00:00.000Z,18.3,14.4,VRB,3.0,10+,1015.0,6,METAR,METAR KSMO 270351Z AUTO VRB03KT 10SM CLR 18/14 A2997 RMK AO2 SLP147 T01830144,34.021,-118.4471,56,Santa Monica Muni,CLR,[],VFR,,,1014.7,,,,,,,"Santa Monica Muni, CA, US",US,United States,19.089774133840926
3389,KSMS,2026-02-27 04:02:15.395000+00:00,1772164500,2026-02-27T04:00:00.000Z,15.0,15.0,260,5.0,7,1014.3,134,METAR,METAR KSMS 270355Z AUTO 26005KT 7SM SCT008 BKN036 OVC090 15/15 A2995 RMK AO2 PWINO,34.0003,-80.3582,53,Sumter Muni,OVC,"[{'cover': 'SCT', 'base': 800}, {'cover': 'BKN', 'base': 3600}, {'cover': 'OVC', 'base': 9000}]",VFR,,,,,,,,,,"Sumter Muni, SC, US",US,United States,14.711685585522819
3445,KSMX,2026-02-27 03:56:18.564000+00:00,1772164260,2026-02-27T04:00:00.000Z,21.7,10.0,350,10.0,10+,1018.4,4,METAR,METAR KSMX 270351Z 35010KT 10SM CLR 22/10 A3007 RMK AO2 SLP182 T02170100,34.894,-120.4522,73,Santa Maria/Hancock Fld,CLR,[],VFR,,,1018.2,,,,,,,"Santa Maria/Hancock Fld, CA, US",US,United States,22.201952901518986
3414,KSNA,2026-02-27 03:58:17.515000+00:00,1772164380,2026-02-27T04:00:00.000Z,20.0,13.3,0,0.0,10+,1014.6,4,METAR,METAR KSNA 270353Z 00000KT 10SM CLR 20/13 A2996 RMK AO2 SLP146 T02000133,33.6798,-117.8675,14,Santa Ana/Wayne Arpt,CLR,[],VFR,,,1014.6,,,,,,,"Santa Ana/Wayne Arpt, CA, US",US,United States,25.556666666666672
3385,KSNK,2026-02-27 03:58:28.508000+00:00,1772164500,2026-02-27T04:00:00.000Z,16.8,-1.2,90,9.0,10+,1015.7,6,METAR,METAR KSNK 270355Z AUTO 09009KT 10SM CLR 17/M01 A2999 RMK AO2 T01681012,32.6917,-100.9505,738,Snyder/Winston Fld,CLR,[],VFR,,,,,,,,,,"Snyder/Winston Fld, TX, US",US,United States,16.18579648788689
3394,KSNL,2026-02-27 04:02:10.756000+00:00,1772164500,2026-02-27T04:00:00.000Z,13.0,-5.0,0,0.0,10+,1015.0,6,METAR,METAR KSNL 270355Z AUTO 00000KT 10SM CLR 13/M05 A2997 RMK AO2 T01301050,35.3611,-96.9445,327,Shawnee Rgnl,CLR,[],VFR,,,,,,,,,,"Shawnee Rgnl, OK, US",US,United States,21.206166666666665
3410,KSNS,2026-02-27 03:58:41.342000+00:00,1772164380,2026-02-27T04:00:00.000Z,17.8,11.7,340,5.0,10+,1020.7,4,METAR,METAR KSNS 270353Z 34005KT 10SM CLR 18/12 A3014 RMK AO2 SLP215 T01780117,36.6635,-121.6093,20,Salinas Muni,CLR,[],VFR,,,1021.5,,,,,,,"Salinas Muni, CA, US",US,United States,18.035469222419763
3423,KSNY,2026-02-27 03:58:17.338000+00:00,1772164380,2026-02-27T04:00:00.000Z,3.9,-9.4,260,11.0,10+,1014.0,6,METAR,METAR KSNY 270353Z AUTO 26011KT 10SM CLR 04/M09 A2994 RMK AO2 SLP139 T00391094,41.0993,-102.9864,1307,Sidney/Carr Fld,CLR,[],VFR,,,1013.9,,,,,,,"Sidney/Carr Fld, NE, US",US,United States,-0.3491770719420827
3354,KSOP,2026-02-27 03:58:49.303000+00:00,1772164560,2026-02-27T04:00:00.000Z,13.9,13.9,210,3.0,10+,1014.3,14,METAR,METAR KSOP 270356Z AUTO 21003KT 10SM OVC007 14/14 A2995 RMK AO2 CIG 005V010 SLP146 T01390139 401440094 PNO $,35.2371,-79.3921,135,Southern Pines/Moore Cnty,OVC,"[{'cover': 'OVC', 'base': 700}]",IFR,,,1014.6,,,14.4,9.4,,,"Southern Pines/Moore Cnty, NC, US",US,United States,14.061985129172585
3380,KSOW,2026-02-27 03:58:33.968000+00:00,1772164500,2026-02-27T04:00:00.000Z,10.0,-1.0,0,0.0,10+,1024.5,6,METAR,METAR KSOW 270355Z AUTO 00000KT 10SM CLR 10/M01 A3025 RMK AO2,34.2686,-110.0019,1954,Show Low Muni,CLR,[],VFR,,,,,,,,,,"Show Low Muni, AZ, US",US,United States,19.341666666666665
3371,KSPA,2026-02-27 03:59:01.426000+00:00,1772164500,2026-02-27T04:00:00.000Z,11.0,11.0,0,0.0,1.25,1012.6,6,METAR,METAR KSPA 270355Z AUTO 00000KT 1 1/4SM BR OVC011 11/11 A2990 RMK AO2,34.9106,-81.9589,242,Spartanburg/Downtown Arpt,OVC,"[{'cover': 'OVC', 'base': 1100}]",IFR,,BR,,,,,,,,"Spartanburg/Downtown Arpt, SC, US",US,United States,19.963166666666666
3383,KSPF,2026-02-27 03:58:15.284000+00:00,1772164500,2026-02-27T04:00:00.000Z,10.0,-11.0,310,8.0,10+,1008.9,6,METAR,METAR KSPF 270355Z AUTO 31008G13KT 10SM CLR 10/M11 A2979 RMK AO2,44.4811,-103.7879,1191,Spearfish/Clyde Fld,CLR,[],VFR,13.0,,,,,,,,,"Spearfish/Clyde Fld, SD, US",US,United States,7.951203064060274
3433,KSPG,2026-02-27 03:56:29.321000+00:00,1772164380,2026-02-27T04:00:00.000Z,20.6,17.2,VRB,4.0,10+,1016.0,6,METAR,METAR KSPG 270353Z AUTO VRB04KT 10SM CLR 21/17 A3000 RMK AO2 SLP158 T02060172,27.7685,-82.6257,1,St Petersburg/Whitted Arpt,CLR,[],VFR,,,1015.8,,,,,,,"St Petersburg/Whitted Arpt, FL, US",US,United States,21.519548093049025
3441,KSPI,2026-02-27 03:56:26.143000+00:00,1772164320,2026-02-27T04:00:00.000Z,5.0,-2.2,260,7.0,10+,1013.0,4,METAR,METAR KSPI 270352Z 26007KT 10SM CLR 05/M02 A2991 RMK AO2 SLP132 T00501022,39.8453,-89.684,179,Springfield/Lincoln Capital Arpt,CLR,[],VFR,,,1013.2,,,,,,,"Springfield/Lincoln Capital Arpt, IL, US",US,United States,2.1002412695051
3442,KSPS,2026-02-27 03:58:39.374000+00:00,1772164320,2026-02-27T04:00:00.000Z,15.6,-2.2,60,3.0,10+,1014.6,4,METAR,METAR KSPS 270352Z 06003KT 10SM CLR 16/M02 A2996 RMK AO2 SLP138 T01561022,33.9785,-98.493,310,Wichita Falls Rgnl,CLR,[],VFR,,,1013.8,,,,,,,"Wichita Falls Rgnl, TX, US",US,United States,16.004539971885354
3434,KSPW,2026-02-27 03:58:17.354000+00:00,1772164380,2026-02-27T04:00:00.000Z,-3.9,-7.8,210,5.0,10+,1009.9,6,METAR,METAR KSPW 270353Z AUTO 21005KT 10SM CLR M04/M08 A2982 RMK AO2 SLP115 T10391078,43.1682,-95.2101,407,Spencer Muni,CLR,[],VFR,,,1011.5,,,,,,,"Spencer Muni, IA, US",US,United States,-7.723853963531527
3362,KSQI,2026-02-27 04:00:37.698000+00:00,1772164560,2026-02-27T04:00:00.000Z,-2.8,-4.4,0,0.0,10+,1012.6,78,METAR,METAR KSQI 270356Z AUTO 00000KT 10SM CLR M03/M04 A2990 RMK AO2 SLP132 T10281044 FZRANO $,41.7432,-89.6655,196,Sterling-Rock Falls Arpt,CLR,[],VFR,,,1013.2,,,,,,,"Sterling-Rock Falls Arpt, IL, US",US,United States,11.38646666666667
3478,KSQL,2026-02-27 03:59:05.370000+00:00,1772164020,2026-02-27T04:00:00.000Z,18.0,12.0,310,6.0,10+,1022.1,0,METAR,METAR KSQL 270347Z 31006 10SM CLR 18/12 A3018,37.5119,-122.2483,1,San Carlos Arpt,CLR,[],VFR,,,,,,,,,,"San Carlos Arpt, CA, US",US,United States,18.094068457169627
3435,KSRQ,2026-02-27 03:56:29.354000+00:00,1772164380,2026-02-27T04:00:00.000Z,20.0,18.3,170,7.0,10+,1016.7,6,METAR,METAR KSRQ 270353Z AUTO 17007KT 10SM CLR 20/18 A3002 RMK AO2 SLP165 T02000183,27.4015,-82.5597,5,Sarasota-Bradenton Intl,CLR,[],VFR,,,1016.5,,,,,,,"Sarasota-Bradenton Intl, FL, US",US,United States,20.3754554358784
3147,KSRR,2026-02-27 04:00:26.419000+00:00,1772164500,2026-02-27T04:00:00.000Z,13.0,-5.0,290,9.0,10+,1022.4,6,METAR,METAR KSRR 270355Z AUTO 29009KT 10SM CLR 13/M05 A3019 RMK AO2,33.4667,-105.5278,2063,Ruidoso Rgnl,CLR,[],VFR,,,,,,,,,,"Ruidoso Rgnl, NM, US",US,United States,11.463019373587578
3388,KSSC,2026-02-27 04:00:06.079000+00:00,1772164500,2026-02-27T04:00:00.000Z,15.3,14.5,260,5.0,7,1013.3,12,METAR,METAR KSSC 270355Z 26005KT 7SM -RA FEW007 BKN032 BKN055 OVC090 15/15 A2992 RMK AO2A RAE0255RAB27E36RAB41 PRESRR SLP133 P0001 T01530145 $,33.978,-80.466,71,Shaw AFB,OVC,"[{'cover': 'FEW', 'base': 700}, {'cover': 'BKN', 'base': 3200}, {'cover': 'BKN', 'base': 5500}, {'cover': 'OVC', 'base': 9000}]",VFR,,-RA,1013.3,0.01,,,,,,"Shaw AFB, SC, US",US,United States,15.067805260904638
3436,KSSF,2026-02-27 03:58:38.218000+00:00,1772164380,2026-02-27T04:00:00.000Z,23.9,13.9,10,8.0,10+,1010.6,14,METAR,METAR KSSF 270353Z AUTO 01008G18KT 10SM CLR 24/14 A2984 RMK AO2 SLP096 T02390139 $,29.339,-98.472,175,San Antonio/Stinson Muni,CLR,[],VFR,18.0,,1009.6,,,,,,,"San Antonio/Stinson Muni, TX, US",US,United States,25.065389983479964
3395,KSSI,2026-02-27 04:02:10.799000+00:00,1772164500,2026-02-27T04:00:00.000Z,19.0,13.0,210,6.0,10+,1015.0,6,METAR,METAR KSSI 270355Z AUTO 21006KT 10SM CLR 19/13 A2997 RMK AO2,31.1527,-81.3905,6,Brunswick/McKinnon St Simons Arpt,CLR,[],VFR,,,,,,,,,,"Brunswick/McKinnon St Simons Arpt, GA, US",US,United States,19.297875407188847
3437,KSTC,2026-02-27 03:58:34.114000+00:00,1772164380,2026-02-27T04:00:00.000Z,-1.1,-3.3,190,3.0,10+,1007.2,4,METAR,METAR KSTC 270353Z 19003KT 10SM CLR M01/M03 A2974 RMK AO2 SLP091 T10111033,45.5442,-94.0516,302,St Cloud Rgnl,CLR,[],VFR,,,1009.1,,,,,,,"St Cloud Rgnl, MN, US",US,United States,-3.078204659469483
3370,KSTE,2026-02-27 04:00:15.471000+00:00,1772164500,2026-02-27T04:00:00.000Z,-0.2,-4.2,220,4.0,10+,1008.9,6,METAR,METAR KSTE 270355Z AUTO 22004KT 10SM OVC110 00/M04 A2979 RMK AO2 T10021042,44.5437,-89.5347,335,Stevens Point Muni,OVC,"[{'cover': 'OVC', 'base': 11000}]",VFR,,,,,,,,,,"Stevens Point Muni, WI, US",US,United States,-2.758823976792354
3428,KSTJ,2026-02-27 03:56:29.401000+00:00,1772164380,2026-02-27T04:00:00.000Z,3.3,-2.2,0,0.0,10+,1012.6,4,METAR,METAR KSTJ 270353Z 00000KT 10SM CLR 03/M02 A2990 RMK AO2 SLP131 T00331022,39.7683,-94.9095,247,St Joseph/Rosecrans Mem,CLR,[],VFR,,,1013.1,,,,,,,"St Joseph/Rosecrans Mem, MO, US",US,United States,15.177616666666665
3400,KSTK,2026-02-27 04:00:11.644000+00:00,1772164500,2026-02-27T04:00:00.000Z,8.0,-8.0,270,9.0,10+,1014.6,6,METAR,METAR KSTK 270355Z AUTO 27009KT 10SM CLR 08/M08 A2996 RMK AO2,40.6133,-103.2611,1228,Sterling Muni,CLR,[],VFR,,,,,,,,,,"Sterling Muni, CO, US",US,United States,5.248838960035869
3447,KSTL,2026-02-27 03:54:27.680000+00:00,1772164260,2026-02-27T04:00:00.000Z,7.2,2.2,270,3.0,10+,1014.0,12,METAR,METAR KSTL 270351Z 27003KT 10SM CLR 07/02 A2994 RMK AO2 SLP141 T00720022 $,38.7525,-90.3734,163,St Louis/Lambert Intl,CLR,[],VFR,,,1014.1,,,,,,,"St Louis/Lambert Intl, MO, US",US,United States,6.406033690245801
3438,KSTP,2026-02-27 03:58:38.698000+00:00,1772164380,2026-02-27T04:00:00.000Z,-1.1,-2.2,0,0.0,8,1008.5,4,METAR,METAR KSTP 270353Z 00000KT 8SM CLR M01/M02 A2978 RMK AO2 SLP091 T10111022,44.9323,-93.0559,213,Saint Paul/Downtown Arpt,CLR,[],VFR,,,1009.1,,,,,,,"Saint Paul/Downtown Arpt, MN, US",US,United States,12.443016666666667
3377,KSUA,2026-02-27 03:59:01.503000+00:00,1772164500,2026-02-27T04:00:00.000Z,20.0,19.0,180,5.0,10+,1017.0,6,METAR,METAR KSUA 270355Z AUTO 18005KT 10SM CLR 20/19 A3003 RMK AO2,27.1815,-80.2252,4,Stuart/Witham Fld,CLR,[],VFR,,,,,,,,,,"Stuart/Witham Fld, FL, US",US,United States,20.647013508553073
3347,KSUE,2026-02-27 04:00:20.011000+00:00,1772164620,2026-02-27T04:00:00.000Z,-1.7,-6.1,220,6.0,10+,1009.2,78,METAR,METAR KSUE 270357Z AUTO 22006KT 10SM CLR M02/M06 A2980 RMK AO2 SLP098 T10171061 FZRANO $,44.847,-87.425,215,Sturgeon Bay/Door Cnty,CLR,[],VFR,,,1009.8,,,,,,,"Sturgeon Bay/Door Cnty, WI, US",US,United States,-5.6209284582090255
3406,KSUS,2026-02-27 03:58:44.653000+00:00,1772164440,2026-02-27T04:00:00.000Z,2.8,0.0,230,3.0,10+,1013.6,4,METAR,METAR KSUS 270354Z 23003KT 10SM CLR 03/00 A2993 RMK AO2 SLP141 T00280000,38.6575,-90.6557,140,St Louis/Spirit of St Louis Arpt,CLR,[],VFR,,,1014.1,,,,,,,"St Louis/Spirit of St Louis Arpt, MO, US",US,United States,1.3782446855774566
3392,KSUU,2026-02-27 04:02:05.349000+00:00,1772164500,2026-02-27T04:00:00.000Z,15.6,13.6,0,0.0,10+,1021.1,12,METAR,METAR KSUU 270355Z 00000KT 10SM FEW150 16/14 A3015 RMK AO2A SLP216 T01560136 $,38.25,-121.938,9,Fairfield/Travis AFB,FEW,"[{'cover': 'FEW', 'base': 15000}]",VFR,,,1021.6,,,,,,,"Fairfield/Travis AFB, CA, US",US,United States,22.82206666666667
3376,KSUW,2026-02-27 04:00:10.952000+00:00,1772164500,2026-02-27T04:00:00.000Z,-1.2,-5.5,220,4.0,10+,1006.2,6,METAR,METAR KSUW 270355Z AUTO 22004KT 10SM CLR M01/M05 A2971 RMK AO2 T10121055,46.6833,-92.0926,205,Superior/Bong Arpt,CLR,[],VFR,,,,,,,,,,"Superior/Bong Arpt, WI, US",US,United States,-3.926053403227038
3440,KSUX,2026-02-27 03:56:26.449000+00:00,1772164320,2026-02-27T04:00:00.000Z,6.1,-7.2,340,4.0,10+,1010.2,6,METAR,METAR KSUX 270352Z AUTO 34004KT 10SM CLR 06/M07 A2983 RMK AO2 SLP111 T00611072,42.3917,-96.3795,332,Sioux City/Day Fld,CLR,[],VFR,,,1011.1,,,,,,,"Sioux City/Day Fld, IA, US",US,United States,4.594721409746138
3401,KSVC,2026-02-27 04:00:11.676000+00:00,1772164500,2026-02-27T04:00:00.000Z,16.3,0.0,330,13.0,10+,1020.1,6,METAR,METAR KSVC 270355Z AUTO 33013KT 10SM CLR 16/00 A3012 RMK AO2 T01630000,32.631,-108.1466,1638,Silver City/Grant Cnty,CLR,[],VFR,,,,,,,,,,"Silver City/Grant Cnty, NM, US",US,United States,15.098188890212343
3382,KSVE,2026-02-27 03:58:34.013000+00:00,1772164500,2026-02-27T04:00:00.000Z,12.0,3.0,240,4.0,10+,1025.5,6,METAR,METAR KSVE 270355Z AUTO 24004KT 10SM CLR 12/03 A3028 RMK A01 P000,40.376,-120.5742,1263,Susanville Muni,CLR,[],VFR,,,,,,,,,,"Susanville Muni, CA, US",US,United States,11.481375025710763
3404,KSVH,2026-02-27 04:02:10.865000+00:00,1772164500,2026-02-27T04:00:00.000Z,10.7,10.7,0,0.0,0.25,1014.0,6,METAR,METAR KSVH 270355Z AUTO 00000KT 1/4SM FG OVC002 11/11 A2994 RMK AO2 T01070107,35.7635,-80.9473,286,Statesville Muni,OVC,"[{'cover': 'OVC', 'base': 200}]",LIFR,,FG,,,,,,,,"Statesville Muni, NC, US",US,United States,19.77671666666667
3386,KSVN,2026-02-27 04:02:38.375000+00:00,1772164500,2026-02-27T04:00:00.000Z,18.0,12.0,220,5.0,10+,1013.3,12,METAR,METAR KSVN 270355Z 22005KT 10SM SCT070 SCT090 18/12 A2992 RMK AO2A SLP135 T01800120 $,32.011,-81.131,13,Savannah/Hunter AAF,SCT,"[{'cover': 'SCT', 'base': 7000}, {'cover': 'SCT', 'base': 9000}]",VFR,,,1013.5,,,,,,,"Savannah/Hunter AAF, GA, US",US,United States,18.272882339340967
3482,KSWF,2026-02-27 03:36:23.342000+00:00,1772163900,2026-02-27T04:00:00.000Z,-2.0,-7.0,50,5.0,10+,1014.6,0,METAR,METAR KSWF 270345Z 05005KT 10SM SKC M02/M07 A2996,41.5045,-74.0999,139,Newburgh/Stewart Intl,SKC,[],VFR,,,,,,,,,,"Newburgh/Stewart Intl, NY, US",US,United States,-5.4684293527800305
3424,KSWO,2026-02-27 03:56:29.430000+00:00,1772164380,2026-02-27T04:00:00.000Z,6.7,-1.7,0,0.0,10+,1014.3,4,METAR,METAR KSWO 270353Z 00000KT 10SM CLR 07/M02 A2995 RMK AO2 SLP140 T00671017,36.1624,-97.0832,293,Stillwater Muni,CLR,[],VFR,,,1014.0,,,,,,,"Stillwater Muni, OK, US",US,United States,17.29071666666667
3391,KSWW,2026-02-27 04:02:19.004000+00:00,1772164500,2026-02-27T04:00:00.000Z,15.0,-0.1,90,6.0,10+,1016.7,6,METAR,METAR KSWW 270355Z AUTO 09006KT 10SM 15/00 A3002 RMK AO2 T01501001,32.4688,-100.4669,718,Sweetwater/Avenger Fld,,,,,,,,,,,,,"Sweetwater/Avenger Fld, TX, US",US,United States,14.482647607111959
3661,KSYI,2026-02-27 04:00:20.751000+00:00,1772164500,2026-02-27T04:00:00.000Z,8.0,8.0,0,0.0,10+,1011.9,6,METAR,METAR KSYI 270355Z AUTO 00000KT 10SM CLR 08/08 A2988 RMK A01,35.5594,-86.4406,244,Shelbyville/Bomar Fld,CLR,[],VFR,,,,,,,,,,"Shelbyville/Bomar Fld, TN, US",US,United States,18.09866666666667
3666,KSYR,2026-02-27 04:02:15.579000+00:00,1772164440,2026-02-27T04:00:00.000Z,-7.8,-10.6,120,3.0,10+,1015.3,4,METAR,METAR KSYR 270354Z 12003KT 10SM FEW230 M08/M11 A2998 RMK AO2 SLP155 T10781106,43.1111,-76.1038,125,Syracuse/Hancock Intl,FEW,"[{'cover': 'FEW', 'base': 23000}]",VFR,,,1015.5,,,,,,,"Syracuse/Hancock Intl, NY, US",US,United States,-10.73415609839627
3665,KTAD,2026-02-27 03:58:15.365000+00:00,1772164440,2026-02-27T04:00:00.000Z,2.2,-9.4,290,9.0,10+,1018.7,6,METAR,METAR KTAD 270354Z AUTO 29009KT 10SM CLR 02/M09 A3008 RMK AO2 SLP152 T00221094,37.2618,-104.3319,1751,Trinidad/Stokes Arpt,CLR,[],VFR,,,1015.2,,,,,,,"Trinidad/Stokes Arpt, CO, US",US,United States,-1.9596103196841261
3647,KTBN,2026-02-27 03:58:35.064000+00:00,1772164500,2026-02-27T04:00:00.000Z,9.5,-0.4,0,0.0,10+,1013.0,6,METAR,METAR KTBN 270355Z AUTO 00000KT 10SM CLR 10/M00 A2991 RMK AO2 SLP131 T00951004,37.7445,-92.1447,349,Waynesville-St Robert Rgnl,CLR,[],VFR,,,1013.1,,,,,,,"Waynesville-St Robert Rgnl, MO, US",US,United States,19.03091666666667
3659,KTBR,2026-02-27 04:02:11.156000+00:00,1772164500,2026-02-27T04:00:00.000Z,18.0,14.0,190,4.0,10+,1013.3,6,METAR,METAR KTBR 270355Z AUTO 19004KT 10SM OVC085 18/14 A2992 RMK AO2,32.48,-81.738,54,Statesboro Muni,OVC,"[{'cover': 'OVC', 'base': 8500}]",VFR,,,,,,,,,,"Statesboro Muni, GA, US",US,United States,18.484751584318847
3673,KTCC,2026-02-27 03:58:38.236000+00:00,1772164380,2026-02-27T04:00:00.000Z,11.1,-1.7,40,7.0,10+,1014.6,6,METAR,METAR KTCC 270353Z AUTO 04007KT 10SM CLR 11/M02 A2996 RMK AO2 SLP120 T01111017,35.1805,-103.6014,1233,Tucumcari Muni,CLR,[],VFR,,,1012.0,,,,,,,"Tucumcari Muni, NM, US",US,United States,9.532161697163566
3677,KTCL,2026-02-27 03:56:29.462000+00:00,1772164380,2026-02-27T04:00:00.000Z,18.9,17.2,190,5.0,9,1010.2,4,METAR,METAR KTCL 270353Z 19005KT 9SM BKN012 BKN037 BKN047 19/17 A2983 RMK AO2 SLP098 T01890172,33.2122,-87.6155,48,Tuscaloosa Rgnl,BKN,"[{'cover': 'BKN', 'base': 1200}, {'cover': 'BKN', 'base': 3700}, {'cover': 'BKN', 'base': 4700}]",MVFR,,,1009.8,,,,,,,"Tuscaloosa Rgnl, AL, US",US,United States,19.34124136548642
3656,KTCM,2026-02-27 03:58:35.094000+00:00,1772164500,2026-02-27T04:00:00.000Z,8.0,3.1,210,10.0,10+,1025.5,14,METAR,METAR KTCM 270355Z AUTO 21010KT 10SM FEW037 08/03 A3028 RMK AO2 SLP259 T00800031 $,47.149,-122.475,87,Tacoma/McChord AFB,FEW,"[{'cover': 'FEW', 'base': 3700}]",VFR,,,1025.9,,,,,,,"Tacoma/McChord AFB, WA, US",US,United States,5.030384499711064
3668,KTCS,2026-02-27 03:58:13.358000+00:00,1772164380,2026-02-27T04:00:00.000Z,20.6,-2.2,310,12.0,10+,1018.4,6,METAR,METAR KTCS 270353Z AUTO 31012KT 10SM CLR 21/M02 A3007 RMK AO2 SLP113 T02061022,33.2369,-107.2685,1471,Truth or Consequence Muni,CLR,[],VFR,,,1011.3,,,,,,,"Truth or Consequence Muni, NM, US",US,United States,20.672060153951616
3671,KTDZ,2026-02-27 03:58:38.716000+00:00,1772164380,2026-02-27T04:00:00.000Z,-3.3,-6.1,150,4.0,10+,1014.0,6,METAR,METAR KTDZ 270353Z AUTO 15004KT 10SM CLR M03/M06 A2994 RMK AO2 SLP145 T10331061,41.5633,-83.4767,189,Toledo Executive Arpt,CLR,[],VFR,,,1014.5,,,,,,,"Toledo Executive Arpt, OH, US",US,United States,-6.377235198739871
3688,KTEB,2026-02-27 03:56:18.692000+00:00,1772164260,2026-02-27T04:00:00.000Z,2.2,-6.1,10,6.0,10+,1014.0,12,METAR,METAR KTEB 270351Z 01006KT 10SM FEW120 02/M06 A2994 RMK AO2 SLP140 T00221061 $,40.859,-74.0562,3,Teterboro Arpt,FEW,"[{'cover': 'FEW', 'base': 12000}]",VFR,,,1014.0,,,,,,,"Teterboro Arpt, NJ, US",US,United States,-0.9260813531340695
3651,KTEX,2026-02-27 04:00:36.429000+00:00,1772164500,2026-02-27T04:00:00.000Z,1.0,-8.0,120,5.0,10+,1027.2,6,METAR,METAR KTEX 270355Z AUTO 12005KT 10SM CLR 01/M08 A3033 RMK AO2,37.954,-107.909,2760,Telluride Rgnl,CLR,[],VFR,,,,,,,,,,"Telluride Rgnl, CO, US",US,United States,-1.9072325989618832
3662,KTHA,2026-02-27 04:00:20.839000+00:00,1772164500,2026-02-27T04:00:00.000Z,10.0,9.0,60,4.0,10+,1011.9,6,METAR,METAR KTHA 270355Z AUTO 06004KT 10SM OVC060 10/09 A2988 RMK A01,35.3804,-86.2419,333,Tullahoma Rgnl,OVC,"[{'cover': 'OVC', 'base': 6000}]",VFR,,,,,,,,,,"Tullahoma Rgnl, TN, US",US,United States,9.146916172841392
3669,KTHV,2026-02-27 03:58:36.342000+00:00,1772164380,2026-02-27T04:00:00.000Z,-1.7,-2.2,0,0.0,9,1014.3,6,METAR,METAR KTHV 270353Z AUTO 00000KT 9SM FEW100 M02/M02 A2995 RMK AO2 SLP149 T10171022,39.9194,-76.8769,141,York Arpt,FEW,"[{'cover': 'FEW', 'base': 10000}]",VFR,,,1014.9,,,,,,,"York Arpt, PA, US",US,United States,12.07011666666667
3655,KTIK,2026-02-27 03:58:35.109000+00:00,1772164500,2026-02-27T04:00:00.000Z,15.2,-4.2,80,5.0,10+,1014.6,14,METAR,METAR KTIK 270355Z AUTO 08005KT 10SM CLR 15/M04 A2996 RMK AO2 SLP142 T01521042 $,35.415,-97.386,387,Tinker AFB,CLR,[],VFR,,,1014.2,,,,,,,"Tinker AFB, OK, US",US,United States,14.949098702444026
3670,KTIW,2026-02-27 03:58:38.267000+00:00,1772164380,2026-02-27T04:00:00.000Z,8.3,3.3,220,9.0,10+,1025.1,6,METAR,METAR KTIW 270353Z AUTO 22009G16KT 10SM OVC028 08/03 A3027 RMK AO2 SLP254 T00830033,47.2674,-122.5762,89,Tacoma Narrows Arpt,OVC,"[{'cover': 'OVC', 'base': 2800}]",MVFR,16.0,,1025.4,,,,,,,"Tacoma Narrows Arpt, WA, US",US,United States,5.621689784848971
2003,KTKX,2026-02-27 03:58:15.391000+00:00,1772164500,2026-02-27T04:00:00.000Z,8.0,8.0,160,5.0,6,1012.6,6,METAR,METAR KTKX 270355Z AUTO 16005KT 6SM BR CLR 08/08 A2990 RMK AO2,36.2226,-90.0367,73,Kennett Arpt,CLR,[],VFR,,BR,,,,,,,,"Kennett Arpt, MO, US",US,United States,6.402226493280468
3674,KTLH,2026-02-27 03:56:29.564000+00:00,1772164380,2026-02-27T04:00:00.000Z,17.2,15.6,180,3.0,10+,1015.0,4,METAR,METAR KTLH 270353Z 18003KT 10SM SCT040 BKN070 BKN250 17/16 A2997 RMK AO2 SLP146 T01720156,30.3935,-84.3513,17,Tallahassee Intl,BKN,"[{'cover': 'SCT', 'base': 4000}, {'cover': 'BKN', 'base': 7000}, {'cover': 'BKN', 'base': 25000}]",VFR,,,1014.6,,,,,,,"Tallahassee Intl, FL, US",US,United States,17.832826882673842
3653,KTMA,2026-02-27 03:58:15.415000+00:00,1772164500,2026-02-27T04:00:00.000Z,17.5,15.8,200,7.0,10+,1015.0,14,METAR,METAR KTMA 270355Z AUTO 20007KT 10SM FEW030 BKN041 18/16 A2997 RMK AO2 T01750158 $,31.4229,-83.4859,105,Tifton/Myers Arpt,BKN,"[{'cover': 'FEW', 'base': 3000}, {'cover': 'BKN', 'base': 4100}]",VFR,,,,,,,,,,"Tifton/Myers Arpt, GA, US",US,United States,17.329586408149517
3675,KTMB,2026-02-27 03:56:29.581000+00:00,1772164380,2026-02-27T04:00:00.000Z,18.9,18.9,100,3.0,10+,1017.7,4,METAR,METAR KTMB 270353Z 10003KT 10SM CLR 19/19 A3005 RMK AO2 SLP176 LAST T01890189,25.6423,-80.4347,2,Miami Exec Arpt,CLR,[],VFR,,,1017.6,,,,,,,"Miami Exec Arpt, FL, US",US,United States,19.775381725386612
2667,KTMK,2026-02-27 04:02:20.607000+00:00,1772164500,2026-02-27T04:00:00.000Z,4.0,4.0,0,0.0,8,1027.9,6,METAR,METAR KTMK 270355Z AUTO 00000KT 8SM CLR 04/04 A3035 RMK AO2,45.421,-123.8144,8,Tillamook Arpt,CLR,[],VFR,,,,,,,,,,"Tillamook Arpt, OR, US",US,United States,15.612666666666668
3652,KTNU,2026-02-27 04:02:21.160000+00:00,1772164500,2026-02-27T04:00:00.000Z,5.0,-3.0,200,6.0,10+,1011.6,6,METAR,METAR KTNU 270355Z AUTO 20006KT 10SM CLR 05/M03 A2987 RMK A01,41.6701,-93.019,287,Newton Muni,CLR,[],VFR,,,,,,,,,,"Newton Muni, IA, US",US,United States,2.4445781069197556
3708,KTOA,2026-02-27 03:54:25.694000+00:00,1772164140,2026-02-27T04:00:00.000Z,19.0,13.0,0,0.0,10+,1015.0,0,METAR,METAR KTOA 270349Z 00000KT 10SM FEW250 19/13 A2997 RMK LAST,33.803,-118.336,30,Torrance Muni,FEW,"[{'cover': 'FEW', 'base': 25000}]",VFR,,,,,,,,,,"Torrance Muni, CA, US",US,United States,24.93516666666667
3664,KTOC,2026-02-27 03:59:01.730000+00:00,1772164500,2026-02-27T04:00:00.000Z,13.0,13.0,0,0.0,7,1013.0,6,METAR,METAR KTOC 270355Z AUTO 00000KT 7SM SCT060 SCT075 OVC095 13/13 A2991 RMK AO2 LTG DSNT SW,34.588,-83.2974,292,Toccoa/Lefourneau Fld,OVC,"[{'cover': 'SCT', 'base': 6000}, {'cover': 'SCT', 'base': 7500}, {'cover': 'OVC', 'base': 9500}]",VFR,,,,,,,,,,"Toccoa/Lefourneau Fld, GA, US",US,United States,21.206166666666665
3667,KTOI,2026-02-27 03:58:38.384000+00:00,1772164380,2026-02-27T04:00:00.000Z,19.4,13.9,190,7.0,10+,1013.0,6,METAR,METAR KTOI 270353Z AUTO 19007KT 10SM OVC070 19/14 A2991 RMK AO2 SLP122 T01940139,31.8574,-86.0103,120,Troy Muni,OVC,"[{'cover': 'OVC', 'base': 7000}]",VFR,,,1012.2,,,,,,,"Troy Muni, AL, US",US,United States,19.64444686922346
3682,KTOL,2026-02-27 03:56:24.725000+00:00,1772164320,2026-02-27T04:00:00.000Z,-3.3,-8.3,0,0.0,10+,1013.3,4,METAR,METAR KTOL 270352Z 00000KT 10SM CLR M03/M08 A2992 RMK AO2 SLP141 T10331083,41.587,-83.8054,206,Toledo/Express Arpt,CLR,[],VFR,,,1014.1,,,,,,,"Toledo/Express Arpt, OH, US",US,United States,11.075716666666667
3678,KTOP,2026-02-27 03:56:29.609000+00:00,1772164380,2026-02-27T04:00:00.000Z,5.6,-0.6,0,0.0,10+,1013.3,6,METAR,METAR KTOP 270353Z AUTO 00000KT 10SM CLR 06/M01 A2992 RMK AO2 SLP133 T00561006,39.0725,-95.626,268,Topeka/Billard Muni,CLR,[],VFR,,,1013.3,,,,,,,"Topeka/Billard Muni, KS, US",US,United States,16.607066666666668
3679,KTOR,2026-02-27 03:58:17.531000+00:00,1772164380,2026-02-27T04:00:00.000Z,10.0,-9.4,260,11.0,10+,1013.0,6,METAR,METAR KTOR 270353Z AUTO 26011G18KT 10SM CLR 10/M09 A2991 RMK AO2 SLP131 T01001094,42.0613,-104.1585,1285,Torrington Muni,CLR,[],VFR,18.0,,1013.1,,,,,,,"Torrington Muni, WY, US",US,United States,7.355789232801619
3680,KTPA,2026-02-27 03:56:33.948000+00:00,1772164380,2026-02-27T04:00:00.000Z,18.9,17.8,170,6.0,10+,1016.7,12,METAR,METAR KTPA 270353Z 17006KT 10SM CLR 19/18 A3002 RMK AO2 SLP166 T01890178 $,27.9633,-82.54,2,Tampa Intl Arpt,CLR,[],VFR,,,1016.6,,,,,,,"Tampa Intl Arpt, FL, US",US,United States,19.17749471218692
3654,KTPF,2026-02-27 03:58:15.445000+00:00,1772164500,2026-02-27T04:00:00.000Z,16.5,16.4,0,0.0,10+,1016.3,6,METAR,METAR KTPF 270355Z AUTO 00000KT 10SM CLR 17/16 A3001 RMK AO2 T01650164,27.9153,-82.4518,1,Tampa/Knight Arpt,CLR,[],VFR,,,,,,,,,,"Tampa/Knight Arpt, FL, US",US,United States,23.381416666666677
3644,KTPH,2026-02-27 04:00:18.971000+00:00,1772164560,2026-02-27T04:00:00.000Z,11.1,1.7,0,0.0,10+,1024.8,6,METAR,METAR KTPH 270356Z AUTO 00000KT 10SM CLR 11/02 A3026 RMK AO2 SLP220 T01110017,38.0505,-117.0906,1647,Tonopah Arpt,CLR,[],VFR,,,1022.0,,,,,,,"Tonopah Arpt, NV, US",US,United States,20.025316666666665
3687,KTPL,2026-02-27 03:54:25.710000+00:00,1772164260,2026-02-27T04:00:00.000Z,17.2,13.3,340,5.0,,1013.3,142,METAR,METAR KTPL 270351Z AUTO 34005KT CLR 17/13 A2992 RMK AO2 SLP124 T01720133 PWINO RVRNO $,31.157,-97.4094,206,Temple/Miller Rgnl,CLR,[],,,,1012.4,,,,,,,"Temple/Miller Rgnl, TX, US",US,United States,17.323229871656128
3676,KTRI,2026-02-27 03:56:33.971000+00:00,1772164380,2026-02-27T04:00:00.000Z,6.7,6.1,0,0.0,9,1014.0,4,METAR,METAR KTRI 270353Z 00000KT 9SM BKN031 07/06 A2994 RMK AO2 SLP129 T00670061,36.4797,-82.3989,456,Bristol/Tri-Cities Arpt,BKN,"[{'cover': 'BKN', 'base': 3100}]",VFR,,,1012.9,,,,,,,"Bristol/Tri-Cities Arpt, TN, US",US,United States,17.29071666666667
3658,KTRK,2026-02-27 04:02:19.060000+00:00,1772164500,2026-02-27T04:00:00.000Z,2.0,1.0,0,0.0,10+,1028.2,6,METAR,METAR KTRK 270355Z AUTO 00000KT 10SM CLR 02/01 A3036 RMK AO2,39.3154,-120.1371,1800,Truckee/Tahoe Arpt,CLR,[],VFR,,,,,,,,,,"Truckee/Tahoe Arpt, CA, US",US,United States,14.369666666666673
3681,KTRL,2026-02-27 03:58:38.288000+00:00,1772164380,2026-02-27T04:00:00.000Z,15.0,9.4,30,3.0,10+,1013.3,14,METAR,METAR KTRL 270353Z AUTO 03003KT 10SM CLR 15/09 A2992 RMK AO2 SLP128 T01500094 $,32.7131,-96.2687,144,Terrell Muni,CLR,[],VFR,,,1012.8,,,,,,,"Terrell Muni, TX, US",US,United States,15.318932380339671
3648,KTSP,2026-02-27 03:58:15.481000+00:00,1772164500,2026-02-27T04:00:00.000Z,10.0,10.0,0,0.0,6,1024.5,6,METAR,METAR KTSP 270355Z AUTO 00000KT 6SM BR FEW005 10/10 A3025 RMK AO2,35.1387,-118.4424,1209,Tehachapi Muni,FEW,"[{'cover': 'FEW', 'base': 500}]",VFR,,BR,,,,,,,,"Tehachapi Muni, CA, US",US,United States,19.341666666666665
3860,KTTD,2026-02-27 03:58:38.312000+00:00,1772164380,2026-02-27T04:00:00.000Z,5.6,2.2,0,0.0,10+,1026.5,4,METAR,METAR KTTD 270353Z 00000KT 10SM CLR 06/02 A3031 RMK AO2 SLP264 T00560022,45.551,-122.4098,8,Portland/Troutdale Arpt,CLR,[],VFR,,,1026.4,,,,,,,"Portland/Troutdale Arpt, OR, US",US,United States,16.607066666666668
3867,KTTN,2026-02-27 03:58:41.183000+00:00,1772164380,2026-02-27T04:00:00.000Z,2.8,-8.3,300,4.0,10+,1014.0,6,METAR,METAR KTTN 270353Z AUTO 30004KT 10SM OVC110 03/M08 A2994 RMK AO2 SLP133 T00281083,40.2768,-74.8159,58,Trenton/Mercer Arpt,OVC,"[{'cover': 'OVC', 'base': 11000}]",VFR,,,1013.3,,,,,,,"Trenton/Mercer Arpt, NJ, US",US,United States,0.7428643025116897
3868,KTUL,2026-02-27 03:56:34.061000+00:00,1772164380,2026-02-27T04:00:00.000Z,11.7,0.6,0,0.0,10+,1014.6,4,METAR,METAR KTUL 270353Z 00000KT 10SM CLR 12/01 A2996 RMK AO2 SLP143 T01170006,36.1985,-95.8782,196,Tulsa Intl Arpt,CLR,[],VFR,,,1014.3,,,,,,,"Tulsa Intl Arpt, OK, US",US,United States,20.39821666666667
3819,KTUP,2026-02-27 04:00:22.187000+00:00,1772164620,2026-02-27T03:57:00.000Z,14.4,13.9,50,13.0,6,1010.9,12,SPECI,SPECI KTUP 270357Z 05013G22KT 6SM -RA BR FEW011 BKN075 OVC090 14/14 A2985 RMK AO2 WSHFT 0340 LTG DSNT ALQDS PRESFR P0001 T01440139 $,34.2622,-88.7713,107,Tupelo Rgnl,OVC,"[{'cover': 'FEW', 'base': 1100}, {'cover': 'BKN', 'base': 7500}, {'cover': 'OVC', 'base': 9000}]",VFR,22.0,-RA BR,,0.01,,,,,,"Tupelo Rgnl, MS, US",US,United States,12.66525822017302
3870,KTUS,2026-02-27 03:58:13.373000+00:00,1772164380,2026-02-27T04:00:00.000Z,22.8,4.4,300,5.0,10+,1017.0,12,METAR,METAR KTUS 270353Z 30005KT 10SM CLR 23/04 A3003 RMK AO2 SLP132 T02280044 $,32.1315,-110.9564,776,Tucson Intl Arpt,CLR,[],VFR,,,1013.2,,,,,,,"Tucson Intl Arpt, AZ, US",US,United States,23.97079714545002
3861,KTVC,2026-02-27 03:58:37.996000+00:00,1772164380,2026-02-27T04:00:00.000Z,0.0,-5.6,220,6.0,10+,1008.9,14,METAR,METAR KTVC 270353Z AUTO 22006KT 10SM BKN043 OVC060 00/M06 A2979 RMK AO2 SLP096 T00001056 $,44.739,-85.5694,188,Traverse City/Cherry Capital Arpt,OVC,"[{'cover': 'BKN', 'base': 4300}, {'cover': 'OVC', 'base': 6000}]",VFR,,,1009.6,,,,,,,"Traverse City/Cherry Capital Arpt, MI, US",US,United States,-3.5744566431763536
3822,KTVF,2026-02-27 04:00:37.240000+00:00,1772164560,2026-02-27T04:00:00.000Z,-0.6,-1.7,210,11.0,10+,1002.8,70,METAR,METAR KTVF 270356Z AUTO 21011KT 10SM OVC100 M01/M02 A2961 RMK AO2 SLP044 T10061017 FZRANO,48.0597,-96.1787,339,Thief River Rgnl,OVC,"[{'cover': 'OVC', 'base': 10000}]",VFR,,,1004.4,,,,,,,"Thief River Rgnl, MN, US",US,United States,-6.033168608228427
3852,KTVI,2026-02-27 04:02:16.688000+00:00,1772164500,2026-02-27T04:00:00.000Z,16.0,14.0,200,5.0,10+,1015.3,6,METAR,METAR KTVI 270355Z AUTO 20005KT 10SM BKN070 16/14 A2998 RMK AO2,30.9026,-83.8826,74,Thomasville Rgnl,BKN,"[{'cover': 'BKN', 'base': 7000}]",VFR,,,,,,,,,,"Thomasville Rgnl, GA, US",US,United States,15.898751170128858
3857,KTVL,2026-02-27 03:58:41.408000+00:00,1772164380,2026-02-27T04:00:00.000Z,3.9,2.2,160,3.0,10+,1028.2,6,METAR,METAR KTVL 270353Z AUTO 16003KT 10SM CLR 04/02 A3036 RMK AO2 SLP264 T00390022,38.8984,-119.9962,1907,Lake Tahoe Arpt,CLR,[],VFR,,,1026.4,,,,,,,"Lake Tahoe Arpt, CA, US",US,United States,2.6351919367445475
3856,KTWF,2026-02-27 03:58:41.636000+00:00,1772164380,2026-02-27T04:00:00.000Z,3.9,-1.7,240,6.0,10+,1024.5,4,METAR,METAR KTWF 270353Z 24006KT 10SM CLR 04/M02 A3025 RMK AO2 SLP239 T00391017,42.4785,-114.4775,1269,Twin Falls/Joslin Fld,CLR,[],VFR,,,1023.9,,,,,,,"Twin Falls/Joslin Fld, ID, US",US,United States,1.1203904618986134
3871,KTXK,2026-02-27 03:56:34.244000+00:00,1772164380,2026-02-27T04:00:00.000Z,19.4,8.9,330,6.0,10+,1012.6,6,METAR,METAR KTXK 270353Z AUTO 33006KT 10SM CLR 19/09 A2990 RMK AO2 SLP121 T01940089,33.456,-93.9878,118,Texarkana Rgnl,CLR,[],VFR,,,1012.1,,,,,,,"Texarkana Rgnl, AR, US",US,United States,19.779398187196534
3841,KTYL,2026-02-27 03:58:15.502000+00:00,1772164500,2026-02-27T04:00:00.000Z,9.0,-2.0,230,6.0,10+,1023.5,6,METAR,METAR KTYL 270355Z AUTO 23006KT 10SM CLR 09/M02 A3022 RMK AO2,34.4577,-110.1118,1748,Taylor Arpt,CLR,[],VFR,,,,,,,,,,"Taylor Arpt, AZ, US",US,United States,7.259805906996636
3869,KTYR,2026-02-27 03:58:23.597000+00:00,1772164380,2026-02-27T04:00:00.000Z,18.3,11.7,0,0.0,10+,1013.0,6,METAR,METAR KTYR 270353Z AUTO 00000KT 10SM CLR 18/12 A2991 RMK AO2 SLP122 T01830117,32.3587,-95.404,161,Tyler/Pounds Fld,CLR,[],VFR,,,1012.2,,,,,,,"Tyler/Pounds Fld, TX, US",US,United States,24.50011666666667
3863,KTYS,2026-02-27 03:56:40.879000+00:00,1772164380,2026-02-27T04:00:00.000Z,8.9,7.2,20,7.0,10+,1013.3,4,METAR,METAR KTYS 270353Z 02007KT 10SM SCT029 09/07 A2992 RMK AO2 SLP130 T00890072,35.818,-83.9857,300,Knoxville/Tyson Arpt,SCT,"[{'cover': 'SCT', 'base': 2900}]",VFR,,,1013.0,,,,,,,"Knoxville/Tyson Arpt, TN, US",US,United States,6.851796952762162
3907,KUCY,2026-02-27 04:00:31.437000+00:00,1772163900,2026-02-27T04:00:00.000Z,9.0,9.0,90,6.0,10+,1012.6,6,METAR,METAR KUCY 270345Z AUTO 09006KT 10SM CLR 09/09 A2990 RMK A01,36.3778,-88.9878,97,Union City/Everett-Stewart Rgnl,CLR,[],VFR,,,,,,,,,,"Union City/Everett-Stewart Rgnl, TN, US",US,United States,7.259805906996636
3846,KUES,2026-02-27 04:02:18.381000+00:00,1772164500,2026-02-27T04:00:00.000Z,0.0,-4.0,230,5.0,10+,1010.9,6,METAR,METAR KUES 270355Z AUTO 23005KT 10SM CLR 00/M04 A2985 RMK AO2,43.0425,-88.2465,273,Waukesha Cnty,CLR,[],VFR,,,,,,,,,,"Waukesha Cnty, WI, US",US,United States,-3.0942981835679344
3877,KUGN,2026-02-27 03:56:20.176000+00:00,1772164260,2026-02-27T04:00:00.000Z,-0.6,-5.0,240,7.0,10+,1011.3,6,METAR,METAR KUGN 270351Z AUTO 24007KT 10SM CLR M01/M05 A2986 RMK AO2 SLP124 T10061050,42.4255,-87.8634,217,Waukegan Rgnl,CLR,[],VFR,,,1012.4,,,,,,,"Waukegan Rgnl, IL, US",US,United States,-4.722505352607594
3858,KUIL,2026-02-27 03:58:33.190000+00:00,1772164380,2026-02-27T04:00:00.000Z,7.2,6.1,0,0.0,10+,1025.5,134,METAR,METAR KUIL 270353Z AUTO 00000KT 10SM FEW026 SCT033 BKN045 07/06 A3028 RMK AO2 SLP255 T00720061 PWINO,47.937,-124.5576,58,Quillayute State Arpt,BKN,"[{'cover': 'FEW', 'base': 2600}, {'cover': 'SCT', 'base': 3300}, {'cover': 'BKN', 'base': 4500}]",VFR,,,1025.5,,,,,,,"Quillayute State Arpt, WA, US",US,United States,17.601466666666667
3854,KUIN,2026-02-27 04:00:12.534000+00:00,1772164440,2026-02-27T04:00:00.000Z,7.2,-6.1,360,4.0,10+,1013.3,14,METAR,METAR KUIN 270354Z AUTO 36004KT 10SM CLR 07/M06 A2992 RMK AO2 SLP133 T00721061 $,39.9371,-91.1966,233,Quincy/Baldwin Fld,CLR,[],VFR,,,1013.3,,,,,,,"Quincy/Baldwin Fld, IL, US",US,United States,5.8786737788242895
1623,KUKF,2026-02-27 04:00:31.472000+00:00,1772164500,2026-02-27T04:00:00.000Z,7.0,7.0,10,6.0,0.75,1015.0,6,METAR,METAR KUKF 270355Z AUTO 01006KT 3/4SM BR BKN003 BKN060 07/07 A2997 RMK AO2 VIS 1/2V2 1/2,36.2188,-81.1002,383,Wilkesboro/Wilkes Cnty,BKN,"[{'cover': 'BKN', 'base': 300}, {'cover': 'BKN', 'base': 6000}]",LIFR,,BR,,,,,,,,"Wilkesboro/Wilkes Cnty, NC, US",US,United States,4.8521920069581945
3826,KUKI,2026-02-27 04:00:27.666000+00:00,1772164560,2026-02-27T04:00:00.000Z,15.6,11.1,0,0.0,10+,1023.5,6,METAR,METAR KUKI 270356Z AUTO 00000KT 10SM CLR 16/11 A3022 RMK AO2 SLP230 T01560111,39.1278,-123.2001,183,Ukiah Muni,CLR,[],VFR,,,1023.0,,,,,,,"Ukiah Muni, CA, US",US,United States,22.82206666666667
3853,KUKT,2026-02-27 04:00:37.265000+00:00,1772164500,2026-02-27T04:00:00.000Z,-1.0,-7.0,0,0.0,10+,1014.3,6,METAR,METAR KUKT 270355Z AUTO 00000KT 10SM CLR M01/M07 A2995 RMK AO2,40.4368,-75.3802,156,Quakertown Arpt,CLR,[],VFR,,,,,,,,,,"Quakertown Arpt, PA, US",US,United States,12.505166666666668
3835,KULM,2026-02-27 04:00:34.563000+00:00,1772164500,2026-02-27T04:00:00.000Z,0.0,-3.0,250,3.0,10+,1008.9,6,METAR,METAR KULM 270355Z AUTO 25003KT 10SM CLR 00/M03 A2979 RMK AO2,44.3227,-94.5024,305,New Ulm Muni,CLR,[],VFR,,,,,,,,,,"New Ulm Muni, MN, US",US,United States,-1.8212574083023962
48,KUNI,2026-02-27 03:58:15.586000+00:00,1772164500,2026-02-27T04:00:00.000Z,2.7,1.8,0,0.0,10+,1014.6,6,METAR,METAR KUNI 270355Z AUTO 00000KT 10SM OVC090 03/02 A2996 RMK AO2 T00270018,39.2129,-82.2204,232,Albany/Ohio Univ Arpt,OVC,"[{'cover': 'OVC', 'base': 9000}]",VFR,,,,,,,,,,"Albany/Ohio Univ Arpt, OH, US",US,United States,14.80471666666667
3831,KUNU,2026-02-27 04:00:35.934000+00:00,1772164500,2026-02-27T04:00:00.000Z,-1.1,-4.9,200,6.0,10+,1010.2,38,METAR,METAR KUNU 270355Z AUTO 20006KT 10SM CLR M01/M05 A2983 RMK AO2 T10111049 TSNO,43.4285,-88.7017,281,Juneau/Dodge Cnty,CLR,[],VFR,,,,,,,,,,"Juneau/Dodge Cnty, WI, US",US,United States,-4.898644288197499
3153,KUNV,2026-02-27 04:00:11.038000+00:00,1772164500,2026-02-27T04:00:00.000Z,0.0,-10.9,0,0.0,10+,1013.6,6,METAR,METAR KUNV 270355Z AUTO 00000KT 10SM CLR 00/M11 A2993 RMK AO2 T00001109,40.8534,-77.8401,365,State College/Univ Park Arpt,CLR,[],VFR,,,,,,,,,,"State College/Univ Park Arpt, PA, US",US,United States,13.126666666666667
3834,KUOX,2026-02-27 03:58:15.611000+00:00,1772164500,2026-02-27T04:00:00.000Z,13.0,13.0,320,6.0,9,1011.9,134,METAR,METAR KUOX 270355Z AUTO 32006KT 9SM FEW070 SCT095 13/13 A2988 RMK AO2 LTG DSNT NE-SE PWINO,34.3851,-89.5435,123,Oxford/University Arpt,SCT,"[{'cover': 'FEW', 'base': 7000}, {'cover': 'SCT', 'base': 9500}]",VFR,,,,,,,,,,"Oxford/University Arpt, MS, US",US,United States,12.075033707073512
3838,KUTA,2026-02-27 03:58:15.635000+00:00,1772164500,2026-02-27T04:00:00.000Z,11.9,11.9,350,5.0,6,1011.6,14,METAR,METAR KUTA 270355Z AUTO 35005KT 6SM BR CLR 12/12 A2987 RMK AO2 T01190119 $,34.6766,-90.344,58,Tunica Muni,CLR,[],VFR,,BR,,,,,,,,"Tunica Muni, MS, US",US,United States,11.031782273244062
1648,KUTS,2026-02-27 03:58:37.649000+00:00,1772164380,2026-02-27T04:00:00.000Z,20.0,16.7,0,0.0,9,1011.6,6,METAR,METAR KUTS 270353Z AUTO 00000KT 9SM CLR 20/17 A2987 RMK AO1 SLP112 T02000167,30.7443,-95.5866,103,Huntsville Muni,CLR,[],VFR,,,1011.2,,,,,,,"Huntsville Muni, TX, US",US,United States,25.556666666666672
2699,KUUU,2026-02-27 03:58:42.321000+00:00,1772164380,2026-02-27T04:00:00.000Z,1.7,-5.0,360,8.0,10+,1013.6,6,METAR,METAR KUUU 270353Z AUTO 36008KT 10SM FEW120 02/M05 A2993 RMK AO2 SLP134 T00171050,41.5299,-71.2833,45,Newport State Arpt,FEW,"[{'cover': 'FEW', 'base': 12000}]",VFR,,,1013.4,,,,,,,"Newport State Arpt, RI, US",US,United States,-2.268059628830618
3837,KUVA,2026-02-27 03:58:15.655000+00:00,1772164500,2026-02-27T04:00:00.000Z,21.3,3.7,50,6.0,10+,1010.9,14,METAR,METAR KUVA 270355Z AUTO 05006KT 10SM CLR 21/04 A2985 RMK AO2 T02130037 $,29.2135,-99.743,285,Uvalde/Garner Fld,CLR,[],VFR,,,,,,,,,,"Uvalde/Garner Fld, TX, US",US,United States,22.066631392233052
3165,KUZA,2026-02-27 03:58:15.699000+00:00,1772164440,2026-02-27T04:00:00.000Z,12.2,12.2,0,0.0,0.75,1013.3,6,METAR,METAR KUZA 270354Z AUTO 00000KT 3/4SM BR FEW036 12/12 A2992 RMK AO2 SLP129 T01220122,34.9836,-81.0562,198,Rock Hill/Bryant Fld,FEW,"[{'cover': 'FEW', 'base': 3600}]",LIFR,,BR,1012.9,,,,,,,"Rock Hill/Bryant Fld, SC, US",US,United States,20.708966666666665
3842,KVAD,2026-02-27 03:58:53.068000+00:00,1772164500,2026-02-27T04:00:00.000Z,18.2,14.7,190,9.0,10+,1014.3,14,METAR,METAR KVAD 270355Z AUTO 19009KT 10SM SCT049 BKN065 OVC080 18/15 A2995 RMK AO2 SLP143 T01820147 $,30.979,-83.192,70,Valdosta/Moody AFB,OVC,"[{'cover': 'SCT', 'base': 4900}, {'cover': 'BKN', 'base': 6500}, {'cover': 'OVC', 'base': 8000}]",VFR,,,1014.3,,,,,,,"Valdosta/Moody AFB, GA, US",US,United States,17.925767003681365
2017,KVAY,2026-02-27 03:58:15.713000+00:00,1772164440,2026-02-27T04:00:00.000Z,2.2,-0.6,0,0.0,10+,1014.6,14,METAR,METAR KVAY 270354Z AUTO 00000KT 10SM FEW085 OVC110 02/M01 A2996 RMK AO2 SLP144 T00221006 $,39.9408,-74.8407,15,Mount Holly/S Jersey Rgnl,OVC,"[{'cover': 'FEW', 'base': 8500}, {'cover': 'OVC', 'base': 11000}]",VFR,,,1014.4,,,,,,,"Mount Holly/S Jersey Rgnl, NJ, US",US,United States,14.493966666666665
3851,KVBG,2026-02-27 04:00:17.977000+00:00,1772164500,2026-02-27T04:00:00.000Z,21.8,11.5,20,14.0,10+,1018.0,46,METAR,METAR KVBG 270355Z AUTO 02014KT 10SM FEW260 22/12 A3006 RMK AO2 SLP181 T02180115 TSNO $,34.733,-120.583,96,Vandenberg AFB,FEW,"[{'cover': 'FEW', 'base': 26000}]",VFR,,,1018.1,,,,,,,"Vandenberg AFB, CA, US",US,United States,22.0867962855427
3876,KVCT,2026-02-27 03:56:18.584000+00:00,1772164260,2026-02-27T04:00:00.000Z,18.9,17.8,80,5.0,5,1010.6,6,METAR,METAR KVCT 270351Z AUTO 08005KT 5SM BR OVC028 19/18 A2984 RMK AO2 SLP102 T01890178,28.8624,-96.9301,33,Victoria Rgnl,OVC,"[{'cover': 'OVC', 'base': 2800}]",MVFR,,BR,1010.2,,,,,,,"Victoria Rgnl, TX, US",US,United States,19.34124136548642
3849,KVCV,2026-02-27 04:00:31.629000+00:00,1772164500,2026-02-27T04:00:00.000Z,16.0,9.0,220,4.0,10+,1021.8,6,METAR,METAR KVCV 270355Z AUTO 22004KT 10SM CLR 16/09 A3017 RMK AO2,34.5933,-117.3893,871,Victorville/S California Arpt,CLR,[],VFR,,,,,,,,,,"Victorville/S California Arpt, CA, US",US,United States,16.15029273144948
3844,KVDI,2026-02-27 04:02:16.812000+00:00,1772164500,2026-02-27T04:00:00.000Z,19.0,14.0,210,8.0,10+,1014.0,6,METAR,METAR KVDI 270355Z AUTO 21008KT 10SM OVC085 19/14 A2994 RMK AO2,32.1933,-82.3642,81,Vidalia Rgnl,OVC,"[{'cover': 'OVC', 'base': 8500}]",VFR,,,,,,,,,,"Vidalia Rgnl, GA, US",US,United States,19.032331285267276
3862,KVEL,2026-02-27 04:02:16.522000+00:00,1772164380,2026-02-27T04:00:00.000Z,2.8,-5.0,280,4.0,10+,1022.1,6,METAR,METAR KVEL 270353Z AUTO 28004KT 10SM CLR 03/M05 A3018 RMK AO2 SLP217 T00281050,40.4429,-109.5128,1604,Vernal Rgnl,CLR,[],VFR,,,1021.7,,,,,,,"Vernal Rgnl, UT, US",US,United States,0.7428643025116897
3859,KVGT,2026-02-27 03:58:23.619000+00:00,1772164380,2026-02-27T04:00:00.000Z,22.8,2.8,290,5.0,10+,1018.4,4,METAR,METAR KVGT 270353Z 29005KT 10SM CLR 23/03 A3007 RMK AO2 SLP186 T02280028,36.212,-115.194,664,Las Vegas/North Arpt,CLR,[],VFR,,,1018.6,,,,,,,"Las Vegas/North Arpt, NV, US",US,United States,23.97079714545002
3847,KVHN,2026-02-27 04:02:19.120000+00:00,1772164500,2026-02-27T04:00:00.000Z,19.8,-1.4,100,9.0,10+,1017.7,6,METAR,METAR KVHN 270355Z AUTO 10009KT 10SM CLR 20/M01 A3005 RMK AO2 T01981014,31.0602,-104.7832,1200,Van Horn/Culberson Cnty,CLR,[],VFR,,,,,,,,,,"Van Horn/Culberson Cnty, TX, US",US,United States,19.91430473601792
3866,KVIH,2026-02-27 03:56:34.440000+00:00,1772164380,2026-02-27T04:00:00.000Z,5.6,-0.6,0,0.0,10+,1014.0,6,METAR,METAR KVIH 270353Z AUTO 00000KT 10SM CLR 06/M01 A2994 RMK AO2 SLP142 T00561006,38.1318,-91.7647,342,Vichy/Rolla Arpt,CLR,[],VFR,,,1014.2,,,,,,,"Vichy/Rolla Arpt, MO, US",US,United States,16.607066666666668
3821,KVIS,2026-02-27 04:00:34.189000+00:00,1772164560,2026-02-27T04:00:00.000Z,16.7,15.0,0,0.0,10+,1021.8,14,METAR,METAR KVIS 270356Z AUTO 00000KT 10SM CLR 17/15 A3017 RMK AO2 SLP216 T01670150 $,36.3135,-119.3884,92,Visalia Muni,CLR,[],VFR,,,1021.6,,,,,,,"Visalia Muni, CA, US",US,United States,23.50571666666667
3833,KVJI,2026-02-27 03:58:15.743000+00:00,1772164500,2026-02-27T04:00:00.000Z,2.0,2.0,0,0.0,0.5,1014.3,6,METAR,METAR KVJI 270355Z AUTO 00000KT 1/2SM FG 02/02 A2995 RMK AO2,36.6872,-82.037,636,Abingdon/Virginia Highlands Arpt,,,,,FG,,,,,,,,"Abingdon/Virginia Highlands Arpt, VA, US",US,United States,14.369666666666673
3836,KVKS,2026-02-27 03:58:15.766000+00:00,1772164500,2026-02-27T04:00:00.000Z,19.0,17.0,0,0.0,10+,1010.9,6,METAR,METAR KVKS 270355Z AUTO 00000KT 10SM OVC060 19/17 A2985 RMK A01,32.2359,-90.9269,31,Vicksburg Arpt,OVC,"[{'cover': 'OVC', 'base': 6000}]",VFR,,,,,,,,,,"Vicksburg Arpt, MS, US",US,United States,24.93516666666667
3864,KVLD,2026-02-27 03:56:34.468000+00:00,1772164380,2026-02-27T04:00:00.000Z,17.8,13.3,200,5.0,10+,1015.3,6,METAR,METAR KVLD 270353Z AUTO 20005KT 10SM BKN050 OVC075 18/13 A2998 RMK AO2 SLP158 T01780133,30.7763,-83.2739,59,Valdosta Rgnl,OVC,"[{'cover': 'BKN', 'base': 5000}, {'cover': 'OVC', 'base': 7500}]",VFR,,,1015.8,,,,,,,"Valdosta Rgnl, GA, US",US,United States,18.035469222419763
3832,KVNC,2026-02-27 03:58:15.775000+00:00,1772164500,2026-02-27T04:00:00.000Z,19.5,18.5,170,7.0,8,1016.3,14,METAR,METAR KVNC 270355Z AUTO 17007KT 8SM CLR 19/18 A3001 RMK AO2 T01950185 $,27.0728,-82.44,4,Venice Muni,CLR,[],VFR,,,,,,,,,,"Venice Muni, FL, US",US,United States,19.766281630332614
3875,KVNY,2026-02-27 03:56:19.972000+00:00,1772164260,2026-02-27T04:00:00.000Z,25.6,8.3,330,11.0,10+,1015.3,4,METAR,METAR KVNY 270351Z 33011G19KT 10SM CLR 26/08 A2998 RMK AO2 SLP145 T02560083,34.2121,-118.4915,241,Van Nuys Arpt,CLR,[],VFR,19.0,,1014.5,,,,,,,"Van Nuys Arpt, CA, US",US,United States,27.060293225260946
3840,KVOK,2026-02-27 03:58:16.746000+00:00,1772164500,2026-02-27T04:00:00.000Z,0.1,-3.6,0,0.0,10+,1008.2,14,METAR,METAR KVOK 270355Z AUTO 00000KT 10SM BKN110 00/M04 A2977 RMK AO2 SLP096 T00011036 $,43.938,-90.253,278,Camp Douglas/Volk Fld,BKN,"[{'cover': 'BKN', 'base': 11000}]",VFR,,,1009.6,,,,,,,"Camp Douglas/Volk Fld, WI, US",US,United States,13.188816666666668
3839,KVPS,2026-02-27 04:02:38.404000+00:00,1772164500,2026-02-27T04:00:00.000Z,18.4,17.9,0,0.0,10+,1013.3,14,METAR,METAR KVPS 270355Z AUTO 00000KT 10SM CLR 18/18 A2992 RMK AO2 SLP138 T01840179 $,30.483,-86.526,21,Valparaiso/Eglin AFB,CLR,[],VFR,,,1013.8,,,,,,,"Valparaiso/Eglin AFB, FL, US",US,United States,24.562266666666673
3827,KVPZ,2026-02-27 04:00:20.088000+00:00,1772164560,2026-02-27T04:00:00.000Z,1.7,-1.7,200,6.0,10+,1012.6,6,METAR,METAR KVPZ 270356Z AUTO 20006KT 10SM BKN070 02/M02 A2990 RMK AO2 SLP133 T00171017,41.4535,-86.998,235,Valparaiso/Port Cnty,BKN,"[{'cover': 'BKN', 'base': 7000}]",VFR,,,1013.3,,,,,,,"Valparaiso/Port Cnty, IN, US",US,United States,-1.5279848281436752
3896,KVQQ,2026-02-27 03:47:42.491000+00:00,1772164200,2026-02-27T04:00:00.000Z,13.0,10.0,0,0.0,10+,1016.0,0,METAR,METAR KVQQ 270350Z 00000KT 10SM CLR 13/10 A3000,30.2035,-81.8725,21,Jacksonville/Cecil Arpt,CLR,[],VFR,,,,,,,,,,"Jacksonville/Cecil Arpt, FL, US",US,United States,21.206166666666665
3865,KVRB,2026-02-27 03:56:34.498000+00:00,1772164380,2026-02-27T04:00:00.000Z,19.4,17.2,180,5.0,10+,1017.7,4,METAR,METAR KVRB 270353Z 18005KT 10SM CLR 19/17 A3005 RMK AO2 SLP173 T01940172,27.6553,-80.4142,7,Vero Beach Muni,CLR,[],VFR,,,1017.3,,,,,,,"Vero Beach Muni, FL, US",US,United States,19.934774157789438
3855,KVSF,2026-02-27 03:58:20.455000+00:00,1772164440,2026-02-27T04:00:00.000Z,-5.0,-12.8,0,0.0,10+,1014.6,6,METAR,METAR KVSF 270354Z AUTO 00000KT 10SM CLR M05/M13 A2996 RMK AO2 SLP154 T10501128,43.3421,-72.5213,176,Springfield/Hartness State Arpt,CLR,[],VFR,,,1015.4,,,,,,,"Springfield/Hartness State Arpt, VT, US",US,United States,10.019166666666669
3873,KVTN,2026-02-27 03:56:24.740000+00:00,1772164320,2026-02-27T04:00:00.000Z,2.8,-6.7,100,3.0,10+,1009.6,6,METAR,METAR KVTN 270352Z AUTO 10003KT 10SM CLR 03/M07 A2981 RMK AO2 SLP110 T00281067,42.8585,-100.5514,790,Valentine/Miller Fld,CLR,[],VFR,,,1011.0,,,,,,,"Valentine/Miller Fld, NE, US",US,United States,1.3782446855774566
3845,KVYS,2026-02-27 04:02:18.060000+00:00,1772164500,2026-02-27T04:00:00.000Z,0.4,-1.8,180,5.0,10+,1012.6,6,METAR,METAR KVYS 270355Z AUTO 18005KT 10SM CLR 00/M02 A2990 RMK AO2 T00041018,41.3518,-89.1496,198,Peru/Illinois Valley Rgnl,CLR,[],VFR,,,,,,,,,,"Peru/Illinois Valley Rgnl, IL, US",US,United States,-2.6194719497255132
4053,KWAL,2026-02-27 03:58:34.053000+00:00,1772164440,2026-02-27T04:00:00.000Z,4.4,2.8,40,5.0,8,1014.3,6,METAR,METAR KWAL 270354Z AUTO 04005KT 8SM OVC038 04/03 A2995 RMK AO2 SLP139 T00440028,37.9372,-75.4662,10,Wallops Island Facility Arpt,OVC,"[{'cover': 'OVC', 'base': 3800}]",VFR,,,1013.9,,,,,,,"Wallops Island Facility Arpt, VA, US",US,United States,2.1287903886986865
4039,KWDG,2026-02-27 03:59:01.944000+00:00,1772164500,2026-02-27T04:00:00.000Z,7.0,1.0,0,0.0,10+,1014.3,6,METAR,METAR KWDG 270355Z AUTO 00000KT 10SM CLR 07/01 A2995 RMK AO2,36.3781,-97.7888,352,Enid/Woodring Arpt,CLR,[],VFR,,,,,,,,,,"Enid/Woodring Arpt, OK, US",US,United States,17.47716666666667
4045,KWDR,2026-02-27 04:02:16.996000+00:00,1772164500,2026-02-27T04:00:00.000Z,13.0,13.0,,,2.5,1012.6,4,METAR,METAR KWDR 270355Z 2 1/2SM BR CLR 13/13 A2990 RMK AO2 P0005 LTG DSNT NW,33.981,-83.667,280,Winder/Barrow Cnty,CLR,[],IFR,,BR,,0.05,,,,,,"Winder/Barrow Cnty, GA, US",US,United States,
4034,KWJF,2026-02-27 04:02:17.222000+00:00,1772164560,2026-02-27T04:00:00.000Z,13.9,9.4,320,7.0,10+,1020.4,4,METAR,METAR KWJF 270356Z 32007KT 10SM CLR 14/09 A3013 RMK AO2 SLP197 T01390094,34.7412,-118.2125,712,Lancaster/Fox Arfld,CLR,[],VFR,,,1019.7,,,,,,,"Lancaster/Fox Arfld, CA, US",US,United States,12.943535008219921
4054,KWLD,2026-02-27 03:56:34.530000+00:00,1772164440,2026-02-27T04:00:00.000Z,7.8,-2.2,0,0.0,10+,1014.6,14,METAR,METAR KWLD 270354Z AUTO 00000KT 10SM CLR 08/M02 A2996 RMK AO2 SLP144 T00781022 $,37.1649,-97.0349,351,Winfield/Strother Fld,CLR,[],VFR,,,1014.4,,,,,,,"Winfield/Strother Fld, KS, US",US,United States,17.974366666666665
4030,KWMC,2026-02-27 04:00:32.150000+00:00,1772164560,2026-02-27T04:00:00.000Z,5.6,0.0,160,6.0,10+,1024.1,6,METAR,METAR KWMC 270356Z AUTO 16006KT 10SM CLR 06/00 A3024 RMK AO2 SLP241 T00560000,40.9018,-117.8081,1311,Winnemucca Muni,CLR,[],VFR,,,1024.1,,,,,,,"Winnemucca Muni, NV, US",US,United States,3.1668622769312864
4042,KWRB,2026-02-27 03:58:53.218000+00:00,1772164500,2026-02-27T04:00:00.000Z,16.6,15.6,0,0.0,4,1012.6,14,METAR,METAR KWRB 270355Z AUTO 00000KT 4SM BR BKN042 17/16 A2990 RMK AO2 SLP126 T01660156 $,32.639,-83.593,82,Warner Robins AFB,BKN,"[{'cover': 'BKN', 'base': 4200}]",MVFR,,BR,1012.6,,,,,,,"Warner Robins AFB, GA, US",US,United States,23.443566666666666
4050,KWRI,2026-02-27 04:00:06.172000+00:00,1772164500,2026-02-27T04:00:00.000Z,4.0,-0.2,270,4.0,10+,1014.3,12,METAR,METAR KWRI 270355Z 27004KT 10SM OVC100 04/M00 A2995 RMK AO2A SLP142 T00401002 $,40.016,-74.591,35,McGuire AFB,OVC,"[{'cover': 'OVC', 'base': 10000}]",VFR,,,1014.2,,,,,,,"McGuire AFB, NJ, US",US,United States,2.143539614233304
4059,KWRL,2026-02-27 03:58:38.357000+00:00,1772164380,2026-02-27T04:00:00.000Z,4.4,-8.3,120,11.0,10+,1014.3,6,METAR,METAR KWRL 270353Z AUTO 12011KT 10SM CLR 04/M08 A2995 RMK AO2 WSHFT 0336 SLP157 T00441083,43.9654,-107.9502,1281,Worland Muni,CLR,[],VFR,,,1015.7,,,,,,,"Worland Muni, WY, US",US,United States,0.2823775432008407
4060,KWST,2026-02-27 03:58:17.373000+00:00,1772164380,2026-02-27T04:00:00.000Z,0.6,-4.4,350,5.0,10+,1014.0,6,METAR,METAR KWST 270353Z AUTO 35005KT 10SM FEW120 01/M04 A2994 RMK AO2 SLP137 T00061044,41.3509,-71.8055,20,Westerly State Arpt,FEW,"[{'cover': 'FEW', 'base': 12000}]",VFR,,,1013.7,,,,,,,"Westerly State Arpt, RI, US",US,United States,-2.382058832804302
4058,KWVI,2026-02-27 03:58:17.547000+00:00,1772164380,2026-02-27T04:00:00.000Z,13.9,12.2,250,4.0,10+,1021.1,6,METAR,METAR KWVI 270353Z AUTO 25004KT 10SM CLR 14/12 A3015 RMK AO2 SLP208 T01390122,36.9394,-121.79,47,Watsonville Muni,CLR,[],VFR,,,1020.8,,,,,,,"Watsonville Muni, CA, US",US,United States,13.699110935936652
4028,KWVL,2026-02-27 04:00:33.633000+00:00,1772164560,2026-02-27T04:00:00.000Z,-4.4,-12.2,320,12.0,10+,1013.3,70,METAR,METAR KWVL 270356Z AUTO 32012KT 10SM CLR M04/M12 A2992 RMK AO2 SLP142 T10441122 FZRANO,44.5301,-69.6753,87,Waterville/Lafleur Arpt,CLR,[],VFR,,,1014.2,,,,,,,"Waterville/Lafleur Arpt, ME, US",US,United States,-11.130541487711854
4040,KWWR,2026-02-27 03:58:53.264000+00:00,1772164500,2026-02-27T04:00:00.000Z,13.1,-3.1,0,0.0,10+,1016.3,6,METAR,METAR KWWR 270355Z AUTO 00000KT 10SM CLR 13/M03 A3001 RMK AO2 T01311031,36.4374,-99.5234,664,Woodward Arpt,CLR,[],VFR,,,,,,,,,,"Woodward Arpt, OK, US",US,United States,21.26831666666667
4064,KXNA,2026-02-27 03:56:34.620000+00:00,1772164380,2026-02-27T04:00:00.000Z,9.4,1.1,340,5.0,10+,1015.0,4,METAR,METAR KXNA 270353Z 34005KT 10SM CLR 09/01 A2997 RMK AO2 SLP142 T00940011,36.2897,-94.3115,390,Fayetteville/NW Arkansas Rgnl,CLR,[],VFR,,,1014.2,,,,,,,"Fayetteville/NW Arkansas Rgnl, AR, US",US,United States,8.06411831172894
4061,KYIP,2026-02-27 03:58:17.392000+00:00,1772164380,2026-02-27T04:00:00.000Z,-3.3,-6.7,200,6.0,10+,1013.0,4,METAR,METAR KYIP 270353Z 20006KT 10SM CLR M03/M07 A2991 RMK AO2 SLP137 T10331067,42.242,-83.5214,215,Detroit/Willow Run Arpt,CLR,[],VFR,,,1013.7,,,,,,,"Detroit/Willow Run Arpt, MI, US",US,United States,-7.547019578239782
4065,KYKM,2026-02-27 03:58:33.214000+00:00,1772164380,2026-02-27T04:00:00.000Z,7.8,-1.7,340,7.0,10+,1022.1,12,METAR,METAR KYKM 270353Z 34007KT 10SM CLR 08/M02 A3018 RMK AO2 SLP228 T00781017 $,46.564,-120.5349,319,Yakima/McAllister Fld,CLR,[],VFR,,,1022.8,,,,,,,"Yakima/McAllister Fld, WA, US",US,United States,5.511614580561444
4035,KYKN,2026-02-27 04:00:37.743000+00:00,1772164560,2026-02-27T04:00:00.000Z,2.8,-7.8,0,0.0,10+,1009.9,6,METAR,METAR KYKN 270356Z AUTO 00000KT 10SM CLR 03/M08 A2982 RMK AO2 SLP120 T00281078,42.9141,-97.3807,388,Yankton/Gurney Muni,CLR,[],VFR,,,1012.0,,,,,,,"Yankton/Gurney Muni, SD, US",US,United States,14.866866666666668
4175,KYNG,2026-02-27 03:56:18.714000+00:00,1772164260,2026-02-27T04:00:00.000Z,-3.3,-6.1,0,0.0,10+,1014.0,12,METAR,METAR KYNG 270351Z 00000KT 10SM OVC090 M03/M06 A2994 RMK AO2 SLP153 T10331061 $,41.2548,-80.6736,356,Youngstown-Warren Rgnl,OVC,"[{'cover': 'OVC', 'base': 9000}]",VFR,,,1015.3,,,,,,,"Youngstown-Warren Rgnl, OH, US",US,United States,11.075716666666667
4169,KZPH,2026-02-27 04:02:17.125000+00:00,1772164500,2026-02-27T04:00:00.000Z,12.3,10.9,0,0.0,10+,1017.4,6,METAR,METAR KZPH 270355Z AUTO 00000KT 10SM CLR 12/11 A3004 RMK A02 T01230109,28.2268,-82.1564,26,Zephyrhills Muni,CLR,[],VFR,,,,,,,,,,"Zephyrhills Muni, FL, US",US,United States,20.77111666666667
4172,KZZV,2026-02-27 03:58:36.359000+00:00,1772164380,2026-02-27T04:00:00.000Z,2.8,-6.1,0,0.0,10+,1014.6,6,METAR,METAR KZZV 270353Z AUTO 00000KT 10SM FEW075 OVC095 03/M06 A2996 RMK AO2 SLP150 T00281061,39.9461,-81.8932,268,Zanesville Muni,OVC,"[{'cover': 'FEW', 'base': 7500}, {'cover': 'OVC', 'base': 9500}]",VFR,,,1015.0,,,,,,,"Zanesville Muni, OH, US",US,United States,14.866866666666668
3701,LATI,2026-02-27 03:45:42.324000+00:00,1772164200,2026-02-27T04:00:00.000Z,2.0,-1.0,150,3.0,6+,1026.0,16,METAR,METAR LATI 270350Z 15003KT CAVOK 02/M01 Q1026 NOSIG,41.419,19.716,32,Tirana Intl,CAVOK,[],VFR,,,,,,,,,,"Tirana Intl, TR, AL",AL,Albania,0.4641012301832169
1316,LBGO,2026-02-27 04:00:42.819000+00:00,1772164800,2026-02-27T04:00:00.000Z,-5.0,-5.0,0,0.0,6+,1030.0,18,METAR,METAR LBGO 270400Z AUTO 00000KT 9999 NCD M05/M05 Q1030 NOSIG,43.151,25.713,84,Gorna Orechovista Arpt,CLR,[],VFR,,,,,,,,,,"Gorna Orechovista Arpt, LO, BG",BG,Bulgaria,10.019166666666669
2834,LBPD,2026-02-27 04:00:42.785000+00:00,1772164800,2026-02-27T04:00:00.000Z,1.0,1.0,290,3.0,6+,1029.0,18,METAR,METAR LBPD 270400Z AUTO 29003KT 9999 FEW043/// 01/01 Q1029 NOSIG,42.064,24.86,182,Plovdiv Arpt,FEW,"[{'cover': 'FEW', 'base': 4300}]",VFR,,,,,,,,,,"Plovdiv Arpt, PL, BG",BG,Bulgaria,-0.6785780890595896
3323,LBSF,2026-02-27 04:00:42.729000+00:00,1772164800,2026-02-27T04:00:00.000Z,-4.0,-5.0,0,0.0,6+,1028.0,2,METAR,METAR LBSF 270400Z AUTO 00000KT 9999 NCD M04/M05 Q1028 TEMPO 5000 BR,42.694,23.414,531,Sofia Intl,CLR,[],VFR,,,,,,,,,,"Sofia Intl, SO, BG",BG,Bulgaria,10.640666666666668
3798,LBWN,2026-02-27 04:00:42.752000+00:00,1772164800,2026-02-27T04:00:00.000Z,-2.0,-3.0,340,4.0,6+,1029.0,2,METAR,METAR LBWN 270400Z AUTO 34004KT 300V020 9999 NCD M02/M03 Q1029 TEMPO 5000 BR,43.232,27.825,74,Varna Intl,CLR,[],VFR,,,,,,,,,,"Varna Intl, VA, BG",BG,Bulgaria,-4.8598369443747815
1153,LCEN,2026-02-27 03:58:46.309000+00:00,1772164200,2026-02-27T04:00:00.000Z,9.0,-2.0,340,20.0,6+,1016.0,16,METAR,METAR LCEN 270350Z 34020G32KT 9999 FEW020 SCT080 09/M02 Q1016 NOSIG RMK RWY11R 35024G35KT,35.155,33.496,91,Ercan Arpt,SCT,"[{'cover': 'FEW', 'base': 2000}, {'cover': 'SCT', 'base': 8000}]",VFR,32.0,,,,,,,,,"Ercan Arpt, LE, CY",CY,Cyprus,4.825155881499741
1960,LCLK,2026-02-27 04:02:22.516000+00:00,1772164800,2026-02-27T04:00:00.000Z,9.0,1.0,350,11.0,6+,1015.0,16,METAR,METAR LCLK 270400Z 35011KT 9999 FEW020 09/01 Q1015 NOSIG,34.874,33.617,2,Larnaca Intl,FEW,"[{'cover': 'FEW', 'base': 2000}]",VFR,,,,,,,,,,"Larnaca Intl, LA, CY",CY,Cyprus,6.092680002515773
2842,LCPH,2026-02-27 04:02:22.546000+00:00,1772164800,2026-02-27T04:00:00.000Z,6.0,0.0,20,6.0,6+,1016.0,16,METAR,METAR LCPH 270400Z 02006KT 9999 FEW030 06/00 Q1016 NOSIG,34.715,32.479,8,Paphos Intl,FEW,"[{'cover': 'FEW', 'base': 3000}]",VFR,,,,,,,,,,"Paphos Intl, PA, CY",CY,Cyprus,3.648385056938971
131,LCRA,2026-02-27 03:56:56.671000+00:00,1772164200,2026-02-27T04:00:00.000Z,7.0,-1.0,350,5.0,6+,1016.0,16,METAR,METAR LCRA 270350Z 35005KT 9999 FEW030 07/M01 Q1016 NOSIG,34.59,32.988,23,Akrotiri Arpt,FEW,"[{'cover': 'FEW', 'base': 3000}]",VFR,,,,,,,,,,"Akrotiri Arpt, LE, CY",CY,Cyprus,5.215160908674418
789,LDDU,2026-02-27 04:01:15.508000+00:00,1772164800,2026-02-27T04:00:00.000Z,5.0,2.0,100,3.0,6+,1025.0,16,METAR,METAR LDDU 270400Z 10003KT 070V130 CAVOK 05/02 Q1025 NOSIG,42.56,18.269,156,Dubrovnik Arpt,CAVOK,[],VFR,,,,,,,,,,"Dubrovnik Arpt, DU, HR",HR,Croatia,3.8921391879116305
2868,LDPL,2026-02-27 04:01:15.542000+00:00,1772164800,2026-02-27T04:00:00.000Z,3.0,2.0,0,0.0,3.11,1025.0,2,METAR,METAR LDPL 270400Z AUTO 00000KT 5000 BR NCD 03/02 Q1025,44.894,13.922,63,Pula Arpt,CLR,[],MVFR,,BR,,,,,,,,"Pula Arpt, IS, HR",HR,Croatia,14.991166666666667
3120,LDRI,2026-02-27 04:01:15.580000+00:00,1772164800,2026-02-27T04:00:00.000Z,7.0,6.0,0,0.0,6+,1025.0,0,METAR,METAR LDRI 270400Z 00000KT CAVOK 07/06 Q1025,45.218,14.573,80,Rijeka Arpt,CAVOK,[],VFR,,,,,,,,,,"Rijeka Arpt, PR, HR",HR,Croatia,17.47716666666667
3341,LDSP,2026-02-27 04:01:15.612000+00:00,1772164800,2026-02-27T04:00:00.000Z,7.0,5.0,0,0.0,6+,1025.0,18,METAR,METAR LDSP 270400Z AUTO 00000KT CAVOK 07/05 Q1025 NOSIG,43.539,16.301,16,Split Arpt,CAVOK,[],VFR,,,,,,,,,,"Split Arpt, SP, HR",HR,Croatia,17.47716666666667
4161,LDZA,2026-02-27 04:01:15.648000+00:00,1772164800,2026-02-27T04:00:00.000Z,0.0,-2.0,VRB,1.0,6+,1026.0,16,METAR,METAR LDZA 270400Z VRB01KT CAVOK M00/M02 Q1026 NOSIG,45.729,16.054,103,Zagreb/Tuđman Intl,CAVOK,[],VFR,,,,,,,,,,"Zagreb/Tuđman Intl, ZA, HR",HR,Croatia,0.5882850882104643
4162,LDZD,2026-02-27 04:01:15.684000+00:00,1772164800,2026-02-27T04:00:00.000Z,3.0,3.0,120,3.0,0.06,1026.0,0,METAR,METAR LDZD 270400Z 12003KT 0100 R13/0275N FG NSC 03/03 Q1026,44.108,15.347,82,Zadar Arpt,CLR,[],LIFR,,FG,,,,,,,,"Zadar Arpt, ZG, HR",HR,Croatia,1.6067805494260137
206,LEAB,2026-02-27 03:35:21.857000+00:00,1772163000,2026-02-27T03:30:00.000Z,6.0,-2.0,110,6.0,6+,1026.0,16,METAR,METAR LEAB 270330Z 11006KT CAVOK 06/M02 Q1026 NOSIG,38.952,-1.863,704,Albacete Arpt,CAVOK,[],VFR,,,,,,,,,,"Albacete Arpt, CM, ES",ES,Spain,3.648385056938971
209,LEAL,2026-02-27 03:34:39.884000+00:00,1772163000,2026-02-27T03:30:00.000Z,10.0,9.0,320,4.0,5.59,1026.0,16,METAR,METAR LEAL 270330Z 32004KT 9000 NSC 10/09 Q1026 NOSIG,38.282,-0.558,26,Alicante Arpt,CLR,[],VFR,,,,,,,,,,"Alicante Arpt, VC, ES",ES,Spain,9.146916172841392
2120,LEAM,2026-02-27 03:34:37.902000+00:00,1772163000,2026-02-27T03:30:00.000Z,15.0,2.0,340,11.0,6+,1023.0,2,METAR,METAR LEAM 270330Z AUTO 34011KT CAVOK 15/02 Q1023,36.846,-2.357,16,Almería Arpt,CAVOK,[],VFR,,,,,,,,,,"Almería Arpt, AN, ES",ES,Spain,13.671335384230893
2786,LEAS,2026-02-27 03:34:38.030000+00:00,1772163000,2026-02-27T03:30:00.000Z,9.0,9.0,260,4.0,6+,1019.0,2,METAR,METAR LEAS 270330Z AUTO 26004KT CAVOK 09/09 Q1019,43.567,-6.044,120,Aviles/Asturias Arpt,CAVOK,[],VFR,,,,,,,,,,"Aviles/Asturias Arpt, O, ES",ES,Spain,7.979686746406713
2775,LEBA,2026-02-27 03:35:21.137000+00:00,1772163000,2026-02-27T03:30:00.000Z,6.0,6.0,20,3.0,6+,1023.0,2,METAR,METAR LEBA 270330Z AUTO 02003KT CAVOK 06/06 Q1023,37.842,-4.849,88,Córdoba Arpt,CAVOK,[],VFR,,,,,,,,,,"Córdoba Arpt, AN, ES",ES,Spain,5.034818507154431
461,LEBB,2026-02-27 03:34:38.150000+00:00,1772163000,2026-02-27T03:30:00.000Z,14.0,7.0,270,5.0,6+,1020.0,2,METAR,METAR LEBB 270330Z AUTO 27005KT 200V300 CAVOK 14/07 Q1020,43.298,-2.906,38,Bilbao Arpt,CAVOK,[],VFR,,,,,,,,,,"Bilbao Arpt, PV, ES",ES,Spain,13.524620000916773
3275,LEBG,2026-02-27 03:34:35.330000+00:00,1772163000,2026-02-27T03:30:00.000Z,4.0,-2.0,VRB,2.0,6+,1023.0,2,METAR,METAR LEBG 270330Z AUTO VRB02KT CAVOK 04/M02 Q1023,42.356,-3.622,892,Burgos Arpt,CAVOK,[],VFR,,,,,,,,,,"Burgos Arpt, CL, ES",ES,Spain,3.5574602712246257
452,LEBL,2026-02-27 03:34:39.986000+00:00,1772163000,2026-02-27T03:30:00.000Z,10.0,9.0,330,6.0,1.86,1025.0,16,METAR,METAR LEBL 270330Z 33006KT 3000 BR BKN005 10/09 Q1025 NOSIG,41.293,2.07,2,Barcelona/Prat Arpt,BKN,"[{'cover': 'BKN', 'base': 500}]",IFR,,BR,,,,,,,,"Barcelona/Prat Arpt, CT, ES",ES,Spain,8.463612857015855
716,LECH,2026-02-27 03:34:35.453000+00:00,1772163000,2026-02-27T03:30:00.000Z,6.0,5.0,VRB,1.0,4.35,1025.0,2,METAR,METAR LECH 270330Z AUTO VRB01KT 7000 NCD 06/05 Q1025,40.211,0.067,360,Castellón Arpt,CLR,[],MVFR,,,,,,,,,,"Castellón Arpt, VC, ES",ES,Spain,6.940289517196977
2121,LECO,2026-02-27 03:34:38.276000+00:00,1772163000,2026-02-27T03:30:00.000Z,12.0,9.0,200,16.0,6+,1020.0,2,METAR,METAR LECO 270330Z AUTO 20016KT 160V230 9999 SCT020 OVC038 12/09 Q1020,43.307,-8.372,80,A Coruña Arpt,OVC,"[{'cover': 'SCT', 'base': 2000}, {'cover': 'OVC', 'base': 3800}]",VFR,,,,,,,,,,"A Coruña Arpt, GA, ES",ES,Spain,9.220749615700726
1757,LEDA,2026-02-27 03:34:23.498000+00:00,1772163000,2026-02-27T03:30:00.000Z,7.0,4.0,50,3.0,6+,1024.0,2,METAR,METAR LEDA 270330Z AUTO 05003KT 350V110 CAVOK 07/04 Q1024,41.734,0.538,352,Lleida-Alguaire Arpt,CAVOK,[],VFR,,,,,,,,,,"Lleida-Alguaire Arpt, CT, ES",ES,Spain,6.177497826397239
1493,LEGE,2026-02-27 03:36:15.571000+00:00,1772163000,2026-02-27T03:30:00.000Z,9.0,8.0,VRB,2.0,0.5,1025.0,16,METAR,METAR LEGE 270330Z VRB02KT 0800 0500 R19/1100U R01/P2000 FG BKN001 BKN016 09/08 Q1025 NOSIG,41.911,2.763,140,Gerona/Costa Brava Arpt,BKN,"[{'cover': 'BKN', 'base': 100}, {'cover': 'BKN', 'base': 1600}]",LIFR,,FG,,,,,,,,"Gerona/Costa Brava Arpt, CT, ES",ES,Spain,9.10716786423554
1509,LEGR,2026-02-27 03:34:38.538000+00:00,1772163000,2026-02-27T03:30:00.000Z,8.0,3.0,VRB,2.0,6+,1024.0,2,METAR,METAR LEGR 270330Z AUTO VRB02KT CAVOK 08/03 Q1024,37.19,-3.789,560,Granada/Lorca Arpt,CAVOK,[],VFR,,,,,,,,,,"Granada/Lorca Arpt, AN, ES",ES,Spain,7.997226345633355
1745,LEHC,2026-02-27 03:35:21.215000+00:00,1772163000,2026-02-27T03:30:00.000Z,7.0,2.0,50,2.0,6+,1024.0,2,METAR,METAR LEHC 270330Z AUTO 05002KT CAVOK 07/02 Q1024,42.082,-0.324,540,Huesca/Pirineos Arpt,CAVOK,[],VFR,,,,,,,,,,"Huesca/Pirineos Arpt, AR, ES",ES,Spain,6.887284827031179
1752,LEIB,2026-02-27 03:34:40.094000+00:00,1772163000,2026-02-27T03:30:00.000Z,12.0,10.0,VRB,1.0,6+,1025.0,2,METAR,METAR LEIB 270330Z AUTO VRB01KT 9999 OVC013/// 12/10 Q1025,38.876,1.384,4,Ibiza Arpt,OVC,"[{'cover': 'OVC', 'base': 1300}]",MVFR,,,,,,,,,,"Ibiza Arpt, IB, ES",ES,Spain,13.292293946183488
4104,LEJR,2026-02-27 03:34:23.892000+00:00,1772163000,2026-02-27T03:30:00.000Z,9.0,8.0,10,3.0,6+,1022.0,2,METAR,METAR LEJR 270330Z AUTO 01003KT 340V060 CAVOK 09/08 Q1022,36.751,-6.056,25,Jerez Arpt,CAVOK,[],VFR,,,,,,,,,,"Jerez Arpt, AN, ES",ES,Spain,8.462856464882849
2378,LELC,2026-02-27 03:34:35.903000+00:00,1772163000,2026-02-27T03:30:00.000Z,12.0,11.0,350,5.0,3.73,1025.0,2,METAR,METAR LELC 270330Z AUTO 35005KT 6000 OVC013 12/11 Q1025,37.775,-0.812,3,San Javier Arpt,OVC,"[{'cover': 'OVC', 'base': 1300}]",MVFR,,,,,,,,,,"San Javier Arpt, MU, ES",ES,Spain,11.15048883170467
2119,LELN,2026-02-27 03:34:36.028000+00:00,1772163000,2026-02-27T03:30:00.000Z,3.0,1.0,VRB,2.0,6+,1022.0,2,METAR,METAR LELN 270330Z AUTO VRB02KT CAVOK 03/01 Q1022,42.588,-5.651,911,León Arpt,CAVOK,[],VFR,,,,,,,,,,"León Arpt, CL, ES",ES,Spain,2.4475187526224413
3265,LELO,2026-02-27 03:35:21.399000+00:00,1772163000,2026-02-27T03:30:00.000Z,3.0,2.0,VRB,2.0,6+,1023.0,2,METAR,METAR LELO 270330Z AUTO VRB02KT CAVOK 03/02 Q1023,42.452,-2.331,352,Logrono Arpt,CAVOK,[],VFR,,,,,,,,,,"Logrono Arpt, LO, ES",ES,Spain,2.4475187526224413
2373,LEMD,2026-02-27 03:34:40.194000+00:00,1772163000,2026-02-27T03:30:00.000Z,4.0,1.0,350,3.0,6+,1024.0,16,METAR,METAR LEMD 270330Z 35003KT CAVOK 04/01 Q1024 NOSIG,40.466,-3.555,589,Madrid/Barajas Arpt,CAVOK,[],VFR,,,,,,,,,,"Madrid/Barajas Arpt, M, ES",ES,Spain,2.749459868668822
208,LEMG,2026-02-27 03:34:40.315000+00:00,1772163000,2026-02-27T03:30:00.000Z,9.0,9.0,290,5.0,6+,1024.0,16,METAR,METAR LEMG 270330Z 29005KT 9999 FEW015 BKN022 09/09 Q1024 NOSIG,36.666,-4.482,5,Málaga Arpt,BKN,"[{'cover': 'FEW', 'base': 1500}, {'cover': 'BKN', 'base': 2200}]",MVFR,,,,,,,,,,"Málaga Arpt, AN, ES",ES,Spain,7.589292077886522
2379,LEMH,2026-02-27 03:34:38.645000+00:00,1772163000,2026-02-27T03:30:00.000Z,11.0,10.0,VRB,1.0,6+,1026.0,2,METAR,METAR LEMH 270330Z AUTO VRB01KT 9999 BKN006/// OVC007/// 11/10 Q1026,39.855,4.216,82,Mahon/Menorca Arpt,OVC,"[{'cover': 'BKN', 'base': 600}, {'cover': 'OVC', 'base': 700}]",IFR,,,,,,,,,,"Mahon/Menorca Arpt, IB, ES",ES,Spain,12.2336265413524
3276,LEMI,2026-02-27 03:34:36.256000+00:00,1772163000,2026-02-27T03:30:00.000Z,6.0,2.0,250,3.0,6+,1025.0,2,METAR,METAR LEMI 270330Z AUTO 25003KT CAVOK 06/02 Q1025,37.803,-1.125,193,Murcia Intl,CAVOK,[],VFR,,,,,,,,,,"Murcia Intl, MU, ES",ES,Spain,5.034818507154431
3031,LEMO,2026-02-27 03:35:15.399000+00:00,1772163000,2026-02-27T03:30:00.000Z,8.0,7.0,110,2.0,6+,1023.0,16,METAR,METAR LEMO 270330Z 11002KT CAVOK 08/07 Q1023 NOSIG,37.175,-5.616,82,Morón,CAVOK,[],VFR,,,,,,,,,,"Morón, AN, ES",ES,Spain,7.997226345633355
3037,LEPA,2026-02-27 03:36:15.633000+00:00,1772163000,2026-02-27T03:30:00.000Z,9.0,9.0,VRB,1.0,0.06,1026.0,0,METAR,METAR LEPA 270330Z VRB01KT 0100 R24L/0700N R24R/0400N FG VV001 09/09 Q1026 TEMPO 0500 FG,39.561,2.737,8,Palma De Mallorca Arpr,OVX,"[{'cover': 'OVX', 'base': 100}]",LIFR,,FG,,,,,,,1.0,"Palma De Mallorca Arpr, IB, ES",ES,Spain,10.116291731690236
3043,LEPP,2026-02-27 03:34:35.672000+00:00,1772163000,2026-02-27T03:30:00.000Z,4.0,3.0,0,0.0,5.59,1023.0,2,METAR,METAR LEPP 270330Z AUTO 00000KT 9000 NCD 04/03 Q1023,42.777,-1.65,448,Pamplona Arpt,CLR,[],VFR,,,,,,,,,,"Pamplona Arpt, NA, ES",ES,Spain,15.612666666666668
3273,LERS,2026-02-27 03:36:15.657000+00:00,1772163000,2026-02-27T03:30:00.000Z,6.0,6.0,30,3.0,0.22,1025.0,2,METAR,METAR LERS 270330Z AUTO 03003KT 0350 R25/0600D FG VV003 06/06 Q1025,41.15,1.179,68,Reus Arpt,OVX,"[{'cover': 'OVX', 'base': 300}]",LIFR,,FG,,,,,,,3.0,"Reus Arpt, CT, ES",ES,Spain,5.034818507154431
3264,LERT,2026-02-27 03:35:15.493000+00:00,1772163000,2026-02-27T03:30:00.000Z,10.0,9.0,40,6.0,6+,1022.0,16,METAR,METAR LERT 270330Z 04006KT CAVOK 10/09 Q1022 NOSIG,36.645,-6.349,27,Rota),CAVOK,[],VFR,,,,,,,,,,"Rota), AN, ES",ES,Spain,8.463612857015855
3540,LESA,2026-02-27 03:34:23.124000+00:00,1772163000,2026-02-27T03:30:00.000Z,3.0,2.0,100,3.0,6+,1023.0,2,METAR,METAR LESA 270330Z AUTO 10003KT CAVOK 03/02 Q1023,40.96,-5.498,788,Salamanca Arpt,CAVOK,[],VFR,,,,,,,,,,"Salamanca Arpt, CL, ES",ES,Spain,1.6067805494260137
1236,LESO,2026-02-27 03:34:38.890000+00:00,1772163000,2026-02-27T03:30:00.000Z,17.0,6.0,220,6.0,6+,1019.0,2,METAR,METAR LESO 270330Z AUTO 22006KT 200V260 CAVOK 17/06 Q1019,43.361,-1.787,3,San Sebastian Arpt,CAVOK,[],VFR,,,,,,,,,,"San Sebastian Arpt, PV, ES",ES,Spain,16.890261507150413
3270,LEST,2026-02-27 03:36:15.691000+00:00,1772163000,2026-02-27T03:30:00.000Z,9.0,8.0,200,8.0,4.35,1022.0,0,METAR,METAR LEST 270330Z 20008KT 160V270 7000 OVC004 09/08 Q1022 TEMPO 3000 RA,42.888,-8.411,363,Santiago Arpt,OVC,"[{'cover': 'OVC', 'base': 400}]",LIFR,,,,,,,,,,"Santiago Arpt, GA, ES",ES,Spain,6.719966595037279
3759,LETL,2026-02-27 03:34:35.554000+00:00,1772163000,2026-02-27T03:30:00.000Z,3.0,1.0,150,7.0,6+,1026.0,2,METAR,METAR LETL 270330Z AUTO 15007KT CAVOK 03/01 Q1026,40.404,-1.218,1024,Teruel Arpt,CAVOK,[],VFR,,,,,,,,,,"Teruel Arpt, AR, ES",ES,Spain,-0.3364539526780103
3742,LETO,2026-02-27 03:35:15.566000+00:00,1772163000,2026-02-27T03:30:00.000Z,4.0,2.0,20,6.0,6+,1024.0,16,METAR,METAR LETO 270330Z 02006KT CAVOK 04/02 Q1024 NOSIG,40.489,-3.451,598,Torrejon,CAVOK,[],VFR,,,,,,,,,,"Torrejon , M, ES",ES,Spain,1.2407711569005286
3956,LEVC,2026-02-27 03:34:40.543000+00:00,1772163000,2026-02-27T03:30:00.000Z,5.0,4.0,260,2.0,3.11,1025.0,16,METAR,METAR LEVC 270330Z 26002KT 5000 BR NSC 05/04 Q1025 NOSIG,39.489,-0.482,58,Valencia Arpt,CLR,[],MVFR,,BR,,,,,,,,"Valencia Arpt, VC, ES",ES,Spain,4.66740178982681
3961,LEVD,2026-02-27 03:34:23.306000+00:00,1772163000,2026-02-27T03:30:00.000Z,4.0,2.0,240,5.0,6+,1023.0,2,METAR,METAR LEVD 270330Z AUTO 24005KT 200V280 CAVOK 04/02 Q1023,41.706,-4.852,844,Valladolid Arpt,CAVOK,[],VFR,,,,,,,,,,"Valladolid Arpt, CL, ES",ES,Spain,1.6539641548562676
3962,LEVT,2026-02-27 03:34:24.070000+00:00,1772163000,2026-02-27T03:30:00.000Z,3.0,2.0,50,3.0,6+,1022.0,0,METAR,METAR LEVT 270330Z 05003KT CAVOK 03/02 Q1022,42.872,-2.733,501,Vitoria Arpt,CAVOK,[],VFR,,,,,,,,,,"Vitoria Arpt, PV, ES",ES,Spain,1.6067805494260137
3955,LEVX,2026-02-27 03:34:40.664000+00:00,1772163000,2026-02-27T03:30:00.000Z,9.0,8.0,170,4.0,1.3,1023.0,2,METAR,METAR LEVX 270330Z AUTO 17004KT 120V220 2100 RA FEW014 SCT017 BKN020 09/08 Q1023,42.239,-8.624,253,Vigo/Peinador Arpt,BKN,"[{'cover': 'FEW', 'base': 1400}, {'cover': 'SCT', 'base': 1700}, {'cover': 'BKN', 'base': 2000}]",IFR,,RA,,,,,,,,"Vigo/Peinador Arpt, GA, ES",ES,Spain,7.979686746406713
3543,LEXJ,2026-02-27 03:34:35.795000+00:00,1772163000,2026-02-27T03:30:00.000Z,9.0,8.0,210,3.0,2.36,1020.0,2,METAR,METAR LEXJ 270330Z AUTO 21003KT 170V240 3800 BR OVC003 09/08 Q1020,43.429,-3.831,1,Santander/Ballesteros Arpt,OVC,"[{'cover': 'OVC', 'base': 300}]",LIFR,,BR,,,,,,,,"Santander/Ballesteros Arpt, S, ES",ES,Spain,8.462856464882849
4215,LEZG,2026-02-27 03:34:24.249000+00:00,1772163000,2026-02-27T03:30:00.000Z,8.0,7.0,110,6.0,6+,1024.0,16,METAR,METAR LEZG 270330Z 11006KT CAVOK 08/07 Q1024 NOSIG,41.661,-1.004,245,Zaragoza Arpt,CAVOK,[],VFR,,,,,,,,,,"Zaragoza Arpt, AR, ES",ES,Spain,6.0559989569774135
3536,LEZL,2026-02-27 03:34:40.767000+00:00,1772163000,2026-02-27T03:30:00.000Z,9.0,8.0,60,3.0,6+,1023.0,2,METAR,METAR LEZL 270330Z AUTO 06003KT 040V110 CAVOK 09/08 Q1023,37.418,-5.893,26,Seville/San Pablo Arpt,CAVOK,[],VFR,,,,,,,,,,"Seville/San Pablo Arpt, AN, ES",ES,Spain,8.462856464882849
779,LFAC,2026-02-27 04:02:24.372000+00:00,1772164800,2026-02-27T04:00:00.000Z,11.0,9.0,190,9.0,6+,1013.0,2,METAR,METAR LFAC 270400Z AUTO 19009KT CAVOK 11/09 Q1013,50.962,1.955,3,Calais Arpt,CAVOK,[],VFR,,,,,,,,,,"Calais Arpt, HD, FR",FR,France,8.977347208166893
713,LFAQ,2026-02-27 03:34:27.093000+00:00,1772163000,2026-02-27T03:30:00.000Z,8.0,8.0,170,8.0,3.73,1016.0,2,METAR,METAR LFAQ 270330Z AUTO 17008KT 6000 NSC 08/08 Q1016,49.972,2.704,107,Albert/Picardie Arpt,CLR,[],MVFR,,,,,,,,,,"Albert/Picardie Arpt, HD, FR",FR,France,5.488730126014277
2182,LFAT,2026-02-27 04:02:24.401000+00:00,1772164800,2026-02-27T04:00:00.000Z,8.0,8.0,140,6.0,6+,1013.0,2,METAR,METAR LFAT 270400Z AUTO 14006KT CAVOK 08/08 Q1013,50.515,1.623,2,Le Touquet Arpt,CAVOK,[],VFR,,,,,,,,,,"Le Touquet Arpt, HD, FR",FR,France,6.0559989569774135
7,LFBA,2026-02-27 04:02:23.546000+00:00,1772164800,2026-02-27T04:00:00.000Z,8.0,7.0,120,6.0,6+,1021.0,2,METAR,METAR LFBA 270400Z AUTO 12006KT CAVOK 08/07 Q1021,44.176,0.593,68,Agen/La Garenne Arpt,CAVOK,[],VFR,,,,,,,,,,"Agen/La Garenne Arpt, NA, FR",FR,France,6.0559989569774135
288,LFBD,2026-02-27 04:02:24.854000+00:00,1772164800,2026-02-27T04:00:00.000Z,9.0,8.0,160,3.0,3.73,1019.0,2,METAR,METAR LFBD 270400Z AUTO 16003KT 6000 1200 R23/P2300 R05/1400U R29/2300D NSC 09/08 Q1019 TEMPO 0500 FG VV///,44.831,-0.691,48,Bordeaux/Mérignac Arpt,CLR,[],MVFR,,,,,,,,,,"Bordeaux/Mérignac Arpt, NA, FR",FR,France,8.462856464882849
993,LFBE,2026-02-27 04:02:22.101000+00:00,1772164800,2026-02-27T04:00:00.000Z,9.0,6.0,30,3.0,6+,1020.0,2,METAR,METAR LFBE 270400Z AUTO 03003KT 320V080 CAVOK 09/06 Q1020,44.826,0.516,49,Bergerac/Perigord Arpt,CAVOK,[],VFR,,,,,,,,,,"Bergerac/Perigord Arpt, NA, FR",FR,France,8.462856464882849
777,LFBG,2026-02-27 04:02:23.093000+00:00,1772164800,2026-02-27T04:00:00.000Z,8.0,8.0,140,3.0,6+,1019.0,2,METAR,METAR LFBG 270400Z AUTO 14003KT CAVOK 08/08 Q1019,45.665,-0.316,28,Cognac/Parvaud Arpt,CAVOK,[],VFR,,,,,,,,,,"Cognac/Parvaud Arpt, NA, FR",FR,France,7.320177145640041
2183,LFBH,2026-02-27 04:02:24.884000+00:00,1772164800,2026-02-27T04:00:00.000Z,11.0,11.0,180,5.0,0.31,1018.0,2,METAR,METAR LFBH 270400Z AUTO 18005KT 0500 0450 R27/0900U FG VV/// 11/11 Q1018 TEMPO 2000 BR BKN003,46.178,-1.193,18,La Rochelle–Île de Ré,OVX,[],LIFR,,FG,,,,,,,,"La Rochelle–Île de Ré, NA, FR",FR,France,9.963423247098614
2840,LFBI,2026-02-27 04:02:21.799000+00:00,1772164800,2026-02-27T04:00:00.000Z,9.0,9.0,190,9.0,6+,1018.0,2,METAR,METAR LFBI 270400Z AUTO 19009KT CAVOK 09/09 Q1018 TEMPO 0500 FG VV///,46.584,0.309,117,Poitiers/Biard Arpt,CAVOK,[],VFR,,,,,,,,,,"Poitiers/Biard Arpt, NA, FR",FR,France,6.491675042746215
1958,LFBL,2026-02-27 04:02:21.824000+00:00,1772164800,2026-02-27T04:00:00.000Z,10.0,7.0,140,6.0,6+,1020.0,2,METAR,METAR LFBL 270400Z AUTO 14006KT CAVOK 10/07 Q1020 TEMPO 1500 MIFG,45.863,1.179,402,Limoges/Bellegarde Arpt,CAVOK,[],VFR,,,,,,,,,,"Limoges/Bellegarde Arpt, NA, FR",FR,France,8.463612857015855
3627,LFBO,2026-02-27 04:02:21.849000+00:00,1772164800,2026-02-27T04:00:00.000Z,10.0,7.0,150,9.0,6+,1022.0,2,METAR,METAR LFBO 270400Z AUTO 15009KT CAVOK 10/07 Q1022 TEMPO BKN010,43.621,1.379,150,Toulouse/Blagnac Arpt,CAVOK,[],VFR,,,,,,,,,,"Toulouse/Blagnac Arpt, OC, FR",FR,France,7.7345111254565495
2841,LFBP,2026-02-27 04:02:21.878000+00:00,1772164800,2026-02-27T04:00:00.000Z,8.0,3.0,140,3.0,6+,1019.0,18,METAR,METAR LFBP 270400Z AUTO 14003KT CAVOK 08/03 Q1019 NOSIG,43.385,-0.416,182,Pau/Uzein Arpt,CAVOK,[],VFR,,,,,,,,,,"Pau/Uzein Arpt, NA, FR",FR,France,7.320177145640041
2117,LFBT,2026-02-27 03:34:22.961000+00:00,1772163000,2026-02-27T03:30:00.000Z,15.0,-2.0,150,6.0,6+,1020.0,18,METAR,METAR LFBT 270330Z AUTO 15006KT CAVOK 15/M02 Q1020 NOSIG,43.189,0.0,359,Tarbes/Ossun Arpt,CAVOK,[],VFR,,,,,,,,,,"Tarbes/Ossun Arpt, OC, FR",FR,France,14.482647607111959
213,LFBU,2026-02-27 03:34:27.249000+00:00,1772163000,2026-02-27T03:30:00.000Z,10.0,8.0,140,5.0,6+,1019.0,2,METAR,METAR LFBU 270330Z AUTO 14005KT 100V180 CAVOK 10/08 Q1019,45.728,0.22,124,Angouleme/Champniers,CAVOK,[],VFR,,,,,,,,,,"Angouleme/Champniers, NA, FR",FR,France,8.776357662492565
2845,LFBX,2026-02-27 04:02:23.662000+00:00,1772164800,2026-02-27T04:00:00.000Z,3.0,3.0,0,0.0,0.47,1020.0,2,METAR,METAR LFBX 270400Z AUTO 00000KT 0750 R29/1000U FG NSC 03/03 Q1020,45.196,0.815,97,Perigueux/Bassillac,CLR,[],LIFR,,FG,,,,,,,,"Perigueux/Bassillac, NA, FR",FR,France,14.991166666666667
286,LFBZ,2026-02-27 04:02:21.909000+00:00,1772164800,2026-02-27T04:00:00.000Z,17.0,4.0,190,4.0,6+,1019.0,18,METAR,METAR LFBZ 270400Z AUTO 19004KT 150V240 CAVOK 17/04 Q1019 NOSIG,43.469,-1.534,70,Biarritz/Parme Arpt,CAVOK,[],VFR,,,,,,,,,,"Biarritz/Parme Arpt, NA, FR",FR,France,17.31752215788417
778,LFCK,2026-02-27 04:02:23.857000+00:00,1772164800,2026-02-27T04:00:00.000Z,12.0,8.0,120,19.0,6+,1022.0,2,METAR,METAR LFCK 270400Z AUTO 12019KT CAVOK 12/08 Q1022,43.556,2.289,223,Castres/Mazamet Arpt,CAVOK,[],VFR,,,,,,,,,,"Castres/Mazamet Arpt, OC, FR",FR,France,8.903951497153221
3108,LFCR,2026-02-27 04:02:23.265000+00:00,1772164800,2026-02-27T04:00:00.000Z,7.0,4.0,110,8.0,6+,1022.0,18,METAR,METAR LFCR 270400Z AUTO 11008KT CAVOK 07/04 Q1022 NOSIG,44.41,2.483,576,Rodez/Marcillac Arpt,CAVOK,[],VFR,,,,,,,,,,"Rodez/Marcillac Arpt, OC, FR",FR,France,4.257493656991282
954,LFGJ,2026-02-27 03:32:13.512000+00:00,1772163000,2026-02-27T03:30:00.000Z,4.0,4.0,80,3.0,6+,1022.0,2,METAR,METAR LFGJ 270330Z AUTO 08003KT CAVOK 04/04 Q1022,47.044,5.427,191,Dole/Tavaux Arpt,CAVOK,[],VFR,,,,,,,,,,"Dole/Tavaux Arpt, BF, FR",FR,France,2.749459868668822
999,LFJL,2026-02-27 04:02:23.295000+00:00,1772164800,2026-02-27T04:00:00.000Z,9.0,7.0,160,14.0,6+,1020.0,18,METAR,METAR LFJL 270400Z AUTO 16014KT CAVOK 09/07 Q1020 NOSIG,48.982,6.251,259,Metz/Lorraine Arpt,CAVOK,[],VFR,,,,,,,,,,"Metz/Lorraine Arpt, GE, FR",FR,France,5.595914246992646
9,LFJR,2026-02-27 04:02:24.430000+00:00,1772164800,2026-02-27T04:00:00.000Z,9.0,9.0,170,6.0,2.11,1017.0,2,METAR,METAR LFJR 270400Z AUTO 17006KT 3400 BR OVC003 09/09 Q1017,47.562,-0.317,50,Anger/Loire Arpt,OVC,"[{'cover': 'OVC', 'base': 300}]",LIFR,,BR,,,,,,,,"Anger/Loire Arpt, PD, FR",FR,France,7.259805906996636
287,LFKB,2026-02-27 04:02:21.938000+00:00,1772164800,2026-02-27T04:00:00.000Z,12.0,10.0,230,6.0,6+,1026.0,18,METAR,METAR LFKB 270400Z AUTO 23006KT 9999 FEW020 OVC026 12/10 Q1026 NOSIG,42.553,9.484,7,Bastia/Poretta Arpt,OVC,"[{'cover': 'FEW', 'base': 2000}, {'cover': 'OVC', 'base': 2600}]",MVFR,,,,,,,,,,"Bastia/Poretta Arpt, OC, FR",FR,France,10.871226757054302
532,LFKC,2026-02-27 04:02:23.327000+00:00,1772164800,2026-02-27T04:00:00.000Z,10.0,8.0,160,5.0,6+,1026.0,2,METAR,METAR LFKC 270400Z AUTO 16005KT 9999 OVC017 10/08 Q1026 TEMPO OVC012,42.531,8.793,38,Calvi/St Catherine Arpt,OVC,"[{'cover': 'OVC', 'base': 1700}]",MVFR,,,,,,,,,,"Calvi/St Catherine Arpt, CO, FR",FR,France,8.776357662492565
1321,LFKF,2026-02-27 04:02:23.358000+00:00,1772164800,2026-02-27T04:00:00.000Z,9.0,8.0,VRB,1.0,6+,1026.0,18,METAR,METAR LFKF 270400Z AUTO VRB01KT 9999 OVC020 09/08 Q1026 NOSIG,41.501,9.098,15,Figari/Corse Arpt,OVC,"[{'cover': 'OVC', 'base': 2000}]",MVFR,,,,,,,,,,"Figari/Corse Arpt, CO, FR",FR,France,10.116291731690236
6,LFKJ,2026-02-27 04:02:23.386000+00:00,1772164800,2026-02-27T04:00:00.000Z,7.0,6.0,40,5.0,6+,1026.0,18,METAR,METAR LFKJ 270400Z AUTO 04005KT 9999 OVC011 07/06 Q1026 NOSIG,41.924,8.803,9,Ajaccio/Oro Arpt,OVC,"[{'cover': 'OVC', 'base': 1100}]",MVFR,,,,,,,,,,"Ajaccio/Oro Arpt, CO, FR",FR,France,5.215160908674418
3546,LFKS,2026-02-27 03:32:15.205000+00:00,1772163000,2026-02-27T03:30:00.000Z,12.0,9.0,270,4.0,6+,1026.0,2,METAR,METAR LFKS 270330Z AUTO 27004KT 240V320 9999 OVC020 12/09 Q1026,41.924,9.406,22,Solenzara,OVC,"[{'cover': 'OVC', 'base': 2000}]",MVFR,,,,,,,,,,"Solenzara, CO, FR",FR,France,11.481375025710763
525,LFLB,2026-02-27 04:02:21.962000+00:00,1772164800,2026-02-27T04:00:00.000Z,3.0,3.0,0,0.0,3.73,1025.0,2,METAR,METAR LFLB 270400Z AUTO 00000KT 6000 NSC 03/03 Q1025 TEMPO 0500 BCFG,45.637,5.883,234,Chambery Arpt,CLR,[],MVFR,,,,,,,,,,"Chambery Arpt, AR, FR",FR,France,14.991166666666667
533,LFLC,2026-02-27 04:02:23.417000+00:00,1772164800,2026-02-27T04:00:00.000Z,9.0,5.0,190,11.0,6+,1020.0,2,METAR,METAR LFLC 270400Z AUTO 19011KT CAVOK 09/05 Q1020 TEMPO 18015G25KT,45.787,3.169,325,Clermont-Ferrand/Auvergne Arpt,CAVOK,[],VFR,,,,,,,,,,"Clermont-Ferrand/Auvergne Arpt, AR, FR",FR,France,6.092680002515773
2184,LFLL,2026-02-27 04:02:24.911000+00:00,1772164800,2026-02-27T04:00:00.000Z,8.0,6.0,140,8.0,6+,1023.0,16,METAR,METAR LFLL 270400Z 14008KT CAVOK 08/06 Q1023 NOSIG,45.726,5.078,234,Lyon/St-Exupéry Arpt,CAVOK,[],VFR,,,,,,,,,,"Lyon/St-Exupéry Arpt, AR, FR",FR,France,5.488730126014277
3628,LFLN,2026-02-27 04:02:22.016000+00:00,1772164800,2026-02-27T04:00:00.000Z,4.0,4.0,0,0.0,1.24,1021.0,2,METAR,METAR LFLN 270400Z AUTO 00000KT 2000 0500 R33/1400U BCFG NSC 04/04 Q1021,46.412,4.025,238,Saint Yan Arpt,CLR,[],IFR,,BCFG,,,,,,,,"Saint Yan Arpt, BF, FR",FR,France,15.612666666666668
2452,LFLP,2026-02-27 04:02:23.884000+00:00,1772164800,2026-02-27T04:00:00.000Z,3.0,1.0,VRB,2.0,6+,1025.0,2,METAR,METAR LFLP 270400Z AUTO VRB02KT CAVOK 03/01 Q1025 TEMPO 4000 MIFG,45.93,6.106,460,Annecy/Meythet Arpt,CAVOK,[],VFR,,,,,,,,,,"Annecy/Meythet Arpt, AR, FR",FR,France,2.4475187526224413
1322,LFLS,2026-02-27 04:02:23.447000+00:00,1772164800,2026-02-27T04:00:00.000Z,4.0,3.0,90,6.0,6+,1024.0,2,METAR,METAR LFLS 270400Z AUTO 09006KT CAVOK 04/03 Q1024 TEMPO 0500 BCFG,45.363,5.329,386,Grenoble/Alpes–Isère Arpt,CAVOK,[],VFR,,,,,,,,,,"Grenoble/Alpes–Isère Arpt, AR, FR",FR,France,1.2407711569005286
8,LFLW,2026-02-27 04:02:23.910000+00:00,1772164800,2026-02-27T04:00:00.000Z,7.0,2.0,90,10.0,6+,1022.0,2,METAR,METAR LFLW 270400Z AUTO 09010KT CAVOK 07/02 Q1022,44.899,2.421,638,Aurillac Arpt,CAVOK,[],VFR,,,,,,,,,,"Aurillac Arpt, AR, FR",FR,France,3.776985346294433
535,LFLX,2026-02-27 04:02:23.936000+00:00,1772164800,2026-02-27T04:00:00.000Z,6.0,5.0,150,3.0,6+,1019.0,2,METAR,METAR LFLX 270400Z AUTO 15003KT CAVOK 06/05 Q1019 TEMPO 1500 MIFG,46.87,1.741,157,Chateauroux/Deols Arpt,CAVOK,[],VFR,,,,,,,,,,"Chateauroux/Deols Arpt, CV, FR",FR,France,5.034818507154431
2179,LFLY,2026-02-27 04:02:22.308000+00:00,1772164800,2026-02-27T04:00:00.000Z,4.0,4.0,80,2.0,6+,1023.0,18,METAR,METAR LFLY 270400Z AUTO 08002KT CAVOK 04/04 Q1023 NOSIG,45.726,4.938,197,Lyon/Bron Arpt,CAVOK,[],VFR,,,,,,,,,,"Lyon/Bron Arpt, AR, FR",FR,France,3.5574602712246257
526,LFMD,2026-02-27 04:02:22.128000+00:00,1772164800,2026-02-27T04:00:00.000Z,12.0,10.0,0,0.0,6+,1026.0,18,METAR,METAR LFMD 270400Z AUTO 00000KT 9999 OVC029 12/10 Q1026 NOSIG,43.544,6.953,2,Cannes/Mandelieu Arpt,OVC,"[{'cover': 'OVC', 'base': 2900}]",MVFR,,,,,,,,,,"Cannes/Mandelieu Arpt, PA, FR",FR,France,20.58466666666667
994,LFMH,2026-02-27 04:02:22.156000+00:00,1772164800,2026-02-27T04:00:00.000Z,9.0,4.0,170,11.0,6+,1022.0,2,METAR,METAR LFMH 270400Z AUTO 17011KT CAVOK 09/04 Q1022,45.533,4.293,400,St-Étienne/Bouthéon,CAVOK,[],VFR,,,,,,,,,,"St-Étienne/Bouthéon, AR, FR",FR,France,6.092680002515773
527,LFMK,2026-02-27 04:02:22.336000+00:00,1772164800,2026-02-27T04:00:00.000Z,9.0,9.0,90,10.0,6+,1024.0,2,METAR,METAR LFMK 270400Z AUTO 09010KT 070V130 9999 OVC011 09/09 Q1024 TEMPO 3000 BR OVC003,43.214,2.31,124,Carcassonne/Salvaza Arpt,OVC,"[{'cover': 'OVC', 'base': 1100}]",MVFR,,,,,,,,,,"Carcassonne/Salvaza Arpt, OC, FR",FR,France,6.283783653127699
2450,LFML,2026-02-27 04:02:21.991000+00:00,1772164800,2026-02-27T04:00:00.000Z,11.0,9.0,VRB,2.0,6+,1026.0,2,METAR,METAR LFML 270400Z AUTO VRB02KT 9999 FEW021 OVC036 11/09 Q1026 TEMPO BKN014,43.438,5.216,20,Marseille Arpt,OVC,"[{'cover': 'FEW', 'base': 2100}, {'cover': 'OVC', 'base': 3600}]",VFR,,,,,,,,,,"Marseille Arpt, PA, FR",FR,France,11.3270509014399
2454,LFMN,2026-02-27 04:02:24.938000+00:00,1772164800,2026-02-27T04:00:00.000Z,13.0,8.0,330,8.0,6+,1026.0,16,METAR,METAR LFMN 270400Z 33008KT 9999 BKN026 13/08 Q1026 NOSIG,43.658,7.216,4,Nice/Côte d'Azur Arpt,BKN,"[{'cover': 'BKN', 'base': 2600}]",MVFR,,,,,,,,,,"Nice/Côte d'Azur Arpt, PA, FR",FR,France,11.644912471129269
2844,LFMP,2026-02-27 04:02:23.481000+00:00,1772164800,2026-02-27T04:00:00.000Z,10.0,9.0,340,3.0,6+,1025.0,18,METAR,METAR LFMP 270400Z AUTO 34003KT 9999 BKN008 OVC015 10/09 Q1025 NOSIG,42.737,2.873,41,Perpignan/Rivesaltes Arpt,OVC,"[{'cover': 'BKN', 'base': 800}, {'cover': 'OVC', 'base': 1500}]",IFR,,,,,,,,,,"Perpignan/Rivesaltes Arpt, OC, FR",FR,France,9.60553578412565
2451,LFMT,2026-02-27 04:02:22.364000+00:00,1772164800,2026-02-27T04:00:00.000Z,5.0,5.0,40,4.0,4.97,1026.0,2,METAR,METAR LFMT 270400Z AUTO 04004KT 8000 FEW002 05/05 Q1026 BECMG BKN012,43.577,3.963,1,Montpellier/Méditerranee Arpt,FEW,"[{'cover': 'FEW', 'base': 200}]",MVFR,,,,,,,,,,"Montpellier/Méditerranee Arpt, OC, FR",FR,France,3.310769040667986
528,LFMU,2026-02-27 04:02:22.398000+00:00,1772164800,2026-02-27T04:00:00.000Z,8.0,8.0,20,7.0,6+,1025.0,2,METAR,METAR LFMU 270400Z AUTO 02007KT 9999 OVC022 08/08 Q1025 TEMPO BKN010 OVC020,43.322,3.353,14,Béziers/Cap d'Agde,OVC,"[{'cover': 'OVC', 'base': 2200}]",MVFR,,,,,,,,,,"Béziers/Cap d'Agde, OC, FR",FR,France,5.755284102779758
200,LFMV,2026-02-27 03:36:16.465000+00:00,1772163000,2026-02-27T03:30:00.000Z,9.0,8.0,VRB,2.0,6+,1026.0,2,METAR,METAR LFMV 270330Z AUTO VRB02KT 9999 OVC036 09/08 Q1026 TEMPO 2000 BR,43.911,4.903,33,Avignon/Caumont Arpt,OVC,"[{'cover': 'OVC', 'base': 3600}]",VFR,,,,,,,,,,"Avignon/Caumont Arpt, PA, FR",FR,France,9.10716786423554
529,LFOB,2026-02-27 04:02:22.427000+00:00,1772164800,2026-02-27T04:00:00.000Z,6.0,6.0,120,3.0,3.11,1016.0,2,METAR,METAR LFOB 270400Z AUTO 12003KT 5000 BR NSC 06/06 Q1016 TEMPO BKN012 BECMG 20010KT,49.454,2.113,99,Beauvais/Tille Arpt,CLR,[],MVFR,,BR,,,1.0,,,,,"Beauvais/Tille Arpt, HD, FR",FR,France,5.034818507154431
998,LFOE,2026-02-27 04:02:23.204000+00:00,1772164800,2026-02-27T04:00:00.000Z,9.0,8.0,190,10.0,6+,1015.0,2,METAR,METAR LFOE 270400Z AUTO 19010KT CAVOK 09/08 Q1015 TEMPO BKN009,49.025,1.222,132,Evreux/De LEure,CAVOK,[],VFR,,,,,,,,,,"Evreux/De LEure, NO, FR",FR,France,6.283783653127699
1963,LFOH,2026-02-27 04:02:23.964000+00:00,1772164800,2026-02-27T04:00:00.000Z,10.0,7.0,200,12.0,6+,1013.0,2,METAR,METAR LFOH 270400Z AUTO 20012KT CAVOK 10/07 Q1013,49.533,0.091,87,Le Havre/Octeville Arpt,CAVOK,[],VFR,,,,,,,,,,"Le Havre/Octeville Arpt, NO, FR",FR,France,7.1877570578863015
4106,LFOK,2026-02-27 03:32:15.681000+00:00,1772163000,2026-02-27T03:30:00.000Z,7.0,7.0,160,11.0,6+,1018.0,18,METAR,METAR LFOK 270330Z AUTO 16011KT CAVOK 07/07 Q1018 NOSIG,48.777,4.165,166,Châlons-Vatry Arpt,CAVOK,[],VFR,,,,,,,,,,"Châlons-Vatry Arpt, GE, FR",FR,France,3.5664615419440633
3804,LFOP,2026-02-27 04:02:23.990000+00:00,1772164800,2026-02-27T04:00:00.000Z,8.0,7.0,160,8.0,6+,1015.0,2,METAR,METAR LFOP 270400Z AUTO 16008KT CAVOK 08/07 Q1015,49.383,1.182,149,Rouen/Boos Arpt,CAVOK,[],VFR,,,,,,,,,,"Rouen/Boos Arpt, NO, FR",FR,France,5.488730126014277
3803,LFOT,2026-02-27 04:02:22.185000+00:00,1772164800,2026-02-27T04:00:00.000Z,8.0,8.0,150,5.0,2.49,1018.0,2,METAR,METAR LFOT 270400Z AUTO 15005KT 4000 BR NSC 08/08 Q1018 TEMPO 0800 FG VV///,47.444,0.728,107,Tours/Val de Loire Arpt,CLR,[],IFR,,BR,,,,,,,,"Tours/Val de Loire Arpt, CV, FR",FR,France,6.402226493280468
2375,LFOV,2026-02-27 03:34:21.731000+00:00,1772163000,2026-02-27T03:30:00.000Z,10.0,9.0,210,9.0,6+,1016.0,2,METAR,METAR LFOV 270330Z AUTO 21009KT 9999 OVC006 10/09 Q1016,48.031,-0.746,99,Laval/Entrammes Arpt,OVC,"[{'cover': 'OVC', 'base': 600}]",IFR,,,,,,,,,,"Laval/Entrammes Arpt, PD, FR",FR,France,7.7345111254565495
1959,LFPB,2026-02-27 04:02:22.461000+00:00,1772164800,2026-02-27T04:00:00.000Z,9.0,8.0,140,8.0,6+,1016.0,2,METAR,METAR LFPB 270400Z AUTO 14008KT CAVOK 09/08 Q1016 TEMPO 4000 BR BKN010 BECMG 21010KT,48.967,2.428,50,Paris/Le Bourge Arpt,CAVOK,[],VFR,,,,,-1.0,,,,,"Paris/Le Bourge Arpt, ID, FR",FR,France,6.719966595037279
537,LFPG,2026-02-27 04:02:24.968000+00:00,1772164800,2026-02-27T04:00:00.000Z,10.0,8.0,170,9.0,6+,1016.0,16,METAR,METAR LFPG 270400Z 17009KT CAVOK 10/08 Q1016 NOSIG,49.015,2.534,107,Paris/De Gaulle Arpt,CAVOK,[],VFR,,,,,,,,,,"Paris/De Gaulle Arpt, ID, FR",FR,France,7.7345111254565495
3633,LFPN,2026-02-27 04:02:24.458000+00:00,1772164800,2026-02-27T04:00:00.000Z,10.0,8.0,200,10.0,6+,1016.0,2,METAR,METAR LFPN 270400Z AUTO 20010KT CAVOK 10/08 Q1016,48.752,2.114,152,Toussus le Noble Arpt,CAVOK,[],VFR,,,,,,,,,,"Toussus le Noble Arpt, NO, FR",FR,France,7.5371828065443305
2636,LFPO,2026-02-27 04:02:24.998000+00:00,1772164800,2026-02-27T04:00:00.000Z,9.0,7.0,190,4.0,6+,1017.0,2,METAR,METAR LFPO 270400Z AUTO 19004KT 150V220 CAVOK 09/07 Q1017 TEMPO BKN004,48.717,2.384,88,Paris/Orly Fld,CAVOK,[],VFR,,,,,,,,,,"Paris/Orly Fld, ID, FR",FR,France,7.979686746406713
3050,LFPT,2026-02-27 03:32:11.962000+00:00,1772163000,2026-02-27T03:30:00.000Z,9.0,8.0,180,4.0,6+,1016.0,2,METAR,METAR LFPT 270330Z AUTO 18004KT 140V210 CAVOK 09/08 Q1016,49.097,2.041,91,Pontoise-Cormeilles,CAVOK,[],VFR,,,,,,,,,,"Pontoise-Cormeilles, ID, FR",FR,France,7.979686746406713
3802,LFPV,2026-02-27 04:02:21.588000+00:00,1772164800,2026-02-27T04:00:00.000Z,10.0,8.0,200,7.0,6+,1016.0,2,METAR,METAR LFPV 270400Z AUTO 20007KT 170V240 CAVOK 10/08 Q1016 TEMPO OVC006,48.77,2.205,171,Villacoublay,CAVOK,[],VFR,,,,,,,,,,"Villacoublay, ID, FR",FR,France,8.191979324962865
1965,LFQQ,2026-02-27 04:02:25.034000+00:00,1772164800,2026-02-27T04:00:00.000Z,10.0,8.0,160,6.0,6+,1015.0,2,METAR,METAR LFQQ 270400Z AUTO 16006KT CAVOK 10/08 Q1015 TEMPO BKN012,50.562,3.089,43,Lille/Lesquin Arpt,CAVOK,[],VFR,,,,,,,,,,"Lille/Lesquin Arpt, HD, FR",FR,France,8.463612857015855
289,LFRB,2026-02-27 04:02:25.071000+00:00,1772164800,2026-02-27T04:00:00.000Z,11.0,11.0,220,20.0,2.3,1011.0,2,METAR,METAR LFRB 270400Z AUTO 22020KT 3700 -RA BR OVC003 11/11 Q1011 TEMPO 2000 RADZ BECMG 21018G30KT,48.444,-4.412,91,Brest/Guipavas Arpt,OVC,"[{'cover': 'OVC', 'base': 300}]",LIFR,,-RA BR,,,-1.8,,,,,"Brest/Guipavas Arpt, BR, FR",FR,France,7.480181474841999
700,LFRC,2026-02-27 03:36:10.264000+00:00,1772163000,2026-02-27T03:30:00.000Z,10.0,9.0,210,21.0,6+,1011.0,2,METAR,METAR LFRC 270330Z AUTO 21021G32KT 9999 -RADZ OVC008/// ///TCU 10/09 Q1011,49.65,-1.47,137,Cherbourg/Manche Arpt,OVC,"[{'cover': 'OVC', 'base': 800}]",IFR,32.0,-RA -DZ,,,,,,,,"Cherbourg/Manche Arpt, NO, FR",FR,France,6.049306819379833
931,LFRD,2026-02-27 03:36:10.332000+00:00,1772163000,2026-02-27T03:30:00.000Z,11.0,10.0,200,15.0,6+,1013.0,2,METAR,METAR LFRD 270330Z AUTO 20015KT 9999 -RA SCT018/// BKN032/// BKN048/// ///CB 11/10 Q1013 TEMPO 3000 RADZ BKN006 BECMG 21015G25KT,48.589,-2.075,56,Dinard/Pleurtuit Arpt,BKN,"[{'cover': 'SCT', 'base': 1800}, {'cover': 'BKN', 'base': 3200}, {'cover': 'BKN', 'base': 4800}]",VFR,,-RA,,,-1.5,,,,,"Dinard/Pleurtuit Arpt, BR, FR",FR,France,8.041739290289193
955,LFRG,2026-02-27 03:32:13.748000+00:00,1772163000,2026-02-27T03:30:00.000Z,10.0,7.0,190,11.0,6+,1014.0,2,METAR,METAR LFRG 270330Z AUTO 19011KT 160V220 CAVOK 10/07 Q1014,49.365,0.154,146,Deauville/Saint Gati,CAVOK,[],VFR,,,,,,,,,,"Deauville/Saint Gati, NO, FR",FR,France,7.355789232801619
2363,LFRH,2026-02-27 03:42:10.178000+00:00,1772163000,2026-02-27T03:30:00.000Z,11.0,11.0,200,14.0,3.11,1014.0,2,METAR,METAR LFRH 270330Z AUTO 20014KT 5000 RA BR BKN006/// OVC013/// //////CB 11/11 Q1014 TEMPO BKN005 BECMG 21015G25KT,47.761,-3.44,46,Lorient/Bihoue Arpt,OVC,"[{'cover': 'BKN', 'base': 600}, {'cover': 'OVC', 'base': 1300}]",IFR,,RA BR,,,-1.5,,,,,"Lorient/Bihoue Arpt, BR, FR",FR,France,8.172614565516088
1233,LFRI,2026-02-27 03:40:53.614000+00:00,1772163000,2026-02-27T03:30:00.000Z,,,190,8.0,3.73,1018.0,2,METAR,METAR LFRI 270330Z AUTO 19008KT 6000 OVC003 10/// Q1018,46.702,-1.379,89,La Roche/Les Ajoncs,OVC,"[{'cover': 'OVC', 'base': 300}]",LIFR,,,,,,,,,,"La Roche/Les Ajoncs, PD, FR",FR,France,
2109,LFRJ,2026-02-27 03:35:23.875000+00:00,1772163000,2026-02-27T03:30:00.000Z,11.0,10.0,200,17.0,3.11,1011.0,2,METAR,METAR LFRJ 270330Z AUTO 20017KT 5000 -RA BR BKN006/// OVC016/// ///TCU 11/10 Q1011,48.527,-4.138,109,Landivisiau,OVC,"[{'cover': 'BKN', 'base': 600}, {'cover': 'OVC', 'base': 1600}]",IFR,,-RA BR,,,,,,,,"Landivisiau, BR, FR",FR,France,7.800593008287033
725,LFRK,2026-02-27 03:32:11.777000+00:00,1772163000,2026-02-27T03:30:00.000Z,10.0,7.0,210,15.0,6+,1013.0,2,METAR,METAR LFRK 270330Z AUTO 21015KT CAVOK 10/07 Q1013,49.18,-0.456,66,Caen/Carpiquet Arpt,CAVOK,[],VFR,,,,,,,,,,"Caen/Carpiquet Arpt, NO, FR",FR,France,6.745987085951061
2116,LFRM,2026-02-27 03:34:22.150000+00:00,1772163000,2026-02-27T03:30:00.000Z,9.0,9.0,180,4.0,3.11,1017.0,2,METAR,METAR LFRM 270330Z AUTO 18004KT 140V200 5000 BR OVC004 09/09 Q1017,47.949,0.202,51,Le Mans/Arnage Arpt,OVC,"[{'cover': 'OVC', 'base': 400}]",LIFR,,BR,,,,,,,,"Le Mans/Arnage Arpt, PD, FR",FR,France,7.979686746406713
3257,LFRN,2026-02-27 03:36:10.380000+00:00,1772163000,2026-02-27T03:30:00.000Z,11.0,9.0,200,11.0,6+,1015.0,2,METAR,METAR LFRN 270330Z AUTO 20011KT 170V230 9999 BKN013/// BKN024/// OVC110/// ///TCU 11/09 Q1015 TEMPO 3000 RA BKN006,48.069,-1.734,35,Rennes/St Jacques Arpt,OVC,"[{'cover': 'BKN', 'base': 1300}, {'cover': 'BKN', 'base': 2400}, {'cover': 'OVC', 'base': 11000}]",MVFR,,,,,,,,,,"Rennes/St Jacques Arpt, BR, FR",FR,France,8.618898463087474
3963,LFRQ,2026-02-27 03:34:24.591000+00:00,1772163000,2026-02-27T03:30:00.000Z,11.0,11.0,210,15.0,1.8,1013.0,2,METAR,METAR LFRQ 270330Z AUTO 21015KT 190V250 2900 -DZ BR OVC003 11/11 Q1013,47.975,-4.168,94,Quimper/Pluguffan Arpt,OVC,"[{'cover': 'OVC', 'base': 300}]",LIFR,,-DZ BR,,,,,,,,"Quimper/Pluguffan Arpt, BR, FR",FR,France,8.041739290289193
2769,LFRS,2026-02-27 03:36:10.442000+00:00,1772163000,2026-02-27T03:30:00.000Z,9.0,9.0,170,6.0,6+,1017.0,2,METAR,METAR LFRS 270330Z AUTO 17006KT 9999 SCT006 BKN250 09/09 Q1017 BECMG 4500 -RA BKN012 OVC040,47.15,-1.609,26,Nantes/Atlantique Arpt,BKN,"[{'cover': 'SCT', 'base': 600}, {'cover': 'BKN', 'base': 25000}]",VFR,,,,,,,,,,"Nantes/Atlantique Arpt, PD, FR",FR,France,7.259805906996636
3968,LFRV,2026-02-27 03:32:14.440000+00:00,1772163000,2026-02-27T03:30:00.000Z,11.0,10.0,200,8.0,4.35,1015.0,2,METAR,METAR LFRV 270330Z AUTO 20008KT 170V240 7000 -RA OVC005/// ///TCU 11/10 Q1015,47.722,-2.727,132,Vannes/Meucon Arpt,OVC,"[{'cover': 'OVC', 'base': 500}]",IFR,,-RA,,,,,,,,"Vannes/Meucon Arpt, BR, FR",FR,France,9.182439533083274
3327,LFRZ,2026-02-27 04:02:23.718000+00:00,1772164800,2026-02-27T04:00:00.000Z,12.0,12.0,220,10.0,6+,1016.0,2,METAR,METAR LFRZ 270400Z AUTO 22010KT 9999 BKN008 OVC012 12/12 Q1016 TEMPO BKN012 BECMG 4500 -RA,47.312,-2.163,2,St Nazaire/Montoir Arpt,OVC,"[{'cover': 'BKN', 'base': 800}, {'cover': 'OVC', 'base': 1200}]",IFR,,,,,,,,,,"St Nazaire/Montoir Arpt, PD, FR",FR,France,10.043981113377608
530,LFSB,2026-02-27 04:02:22.488000+00:00,1772164800,2026-02-27T04:00:00.000Z,6.0,5.0,170,5.0,6+,1022.0,2,METAR,METAR LFSB 270400Z AUTO 17005KT CAVOK 06/05 Q1022 TEMPO 4000 BR,47.614,7.51,262,Basel/Euro Arpt,CAVOK,[],VFR,,,,,,,,,,"Basel/Euro Arpt, GE, FR",FR,France,4.0280953240683655
776,LFSD,2026-02-27 04:02:22.070000+00:00,1772164800,2026-02-27T04:00:00.000Z,4.0,4.0,170,1.0,4.35,1021.0,2,METAR,METAR LFSD 270400Z AUTO 17001KT 7000 NSC 04/04 Q1021,47.269,5.09,218,Dijon-Bourgogne Arpt,CLR,[],MVFR,,,,,,,,,,"Dijon-Bourgogne Arpt, BF, FR",FR,France,4.822954707534809
534,LFSL,2026-02-27 04:02:23.515000+00:00,1772164800,2026-02-27T04:00:00.000Z,8.0,7.0,160,6.0,6+,1020.0,18,METAR,METAR LFSL 270400Z AUTO 16006KT CAVOK 08/07 Q1020 NOSIG,45.04,1.486,300,Brive/Souillac Arpt,CAVOK,[],VFR,,,,,,,,,,"Brive/Souillac Arpt, GE, FR",FR,France,6.0559989569774135
1000,LFSN,2026-02-27 04:02:24.021000+00:00,1772164800,2026-02-27T04:00:00.000Z,6.0,5.0,90,4.0,6+,1020.0,2,METAR,METAR LFSN 270400Z AUTO 09004KT 070V180 CAVOK 06/05 Q1020,48.692,6.231,214,Nancy/Essey Arpt,CAVOK,[],VFR,,,,,,,,,,"Nancy/Essey Arpt, GE, FR",FR,France,4.477998467102664
3629,LFST,2026-02-27 04:02:22.218000+00:00,1772164800,2026-02-27T04:00:00.000Z,4.0,4.0,240,4.0,2.49,1021.0,2,METAR,METAR LFST 270400Z AUTO 24004KT 4000 0800 R23/1000N R05/0900U BCFG NSC 04/04 Q1021 TEMPO 0300 FG VV///,48.549,7.64,149,Strasbourg/Entzheim Arpt,CLR,[],IFR,,BCFG,,,,,,,,"Strasbourg/Entzheim Arpt, PD, FR",FR,France,2.143539614233304
3630,LFTH,2026-02-27 04:02:22.249000+00:00,1772164800,2026-02-27T04:00:00.000Z,11.0,10.0,VRB,2.0,4.35,1026.0,2,METAR,METAR LFTH 270400Z AUTO VRB02KT 7000 OVC027 11/10 Q1026 TEMPO BKN014,43.094,6.146,3,Toulon/Hyères Arpt,OVC,"[{'cover': 'OVC', 'base': 2700}]",MVFR,,,,,,,,,,"Toulon/Hyères Arpt, PA, FR",FR,France,11.3270509014399
995,LFTW,2026-02-27 04:02:22.281000+00:00,1772164800,2026-02-27T04:00:00.000Z,5.0,5.0,70,1.0,0.22,1026.0,2,METAR,METAR LFTW 270400Z AUTO 07001KT 0350 R18/0450N FG VV/// 05/05 Q1026 TEMPO 0600 FG,43.757,4.416,91,Nimes/Garons Arpt,OVX,[],LIFR,,FG,,,,,,,,"Nimes/Garons Arpt, OC, FR",FR,France,5.881622112365893
1505,LFVP,2026-02-27 03:33:13.788000+00:00,1772163000,2026-02-27T03:30:00.000Z,2.0,1.0,220,19.0,4.35,1010.0,2,METAR,METAR LFVP 270330Z AUTO 22019KT 7000 BKN010 OVC029 02/01 Q1010,46.764,-56.169,5,St Pierre Arpt,OVC,"[{'cover': 'BKN', 'base': 1000}, {'cover': 'OVC', 'base': 2900}]",MVFR,,,,,,,,,,"St Pierre Arpt, ML, PM",PM,Saint Pierre and Miquelon,-4.31347162760574
3207,LGAD,2026-02-27 03:55:37.032000+00:00,1772164200,2026-02-27T04:00:00.000Z,10.0,8.0,0,0.0,6+,1026.0,0,METAR,METAR LGAD 270350Z 00000KT 9999 SCT025 SCT070 10/08 Q1026,37.923,21.287,8,Andravida Arpt,SCT,"[{'cover': 'SCT', 'base': 2500}, {'cover': 'SCT', 'base': 7000}]",VFR,,,,,,,,,,"Andravida Arpt, J, GR",GR,Greece,19.341666666666665
247,LGAL,2026-02-27 03:46:03.793000+00:00,1772162400,2026-02-27T03:20:00.000Z,3.0,-1.0,30,5.0,6+,1029.0,0,METAR,METAR LGAL 270320Z 03005KT 9999 FEW030 03/M01 Q1029,40.856,25.945,5,Alexandroupolis/Dimokritos Arpt,FEW,"[{'cover': 'FEW', 'base': 3000}]",VFR,,,,,,,,,,"Alexandroupolis/Dimokritos Arpt, A, GR",GR,Greece,0.46689857025021475
150,LGAV,2026-02-27 03:59:08.563000+00:00,1772164200,2026-02-27T04:00:00.000Z,8.0,2.0,340,5.0,6+,1028.0,16,METAR,METAR LGAV 270350Z 34005KT 9999 FEW025 08/02 Q1028 NOSIG,37.936,23.945,83,Athens/Venizelos Intl,FEW,"[{'cover': 'FEW', 'base': 2500}]",VFR,,,,,,,,,,"Athens/Venizelos Intl, I, GR",GR,Greece,6.402226493280468
3883,LGBL,2026-02-27 03:55:32.203000+00:00,1772164200,2026-02-27T04:00:00.000Z,4.0,3.0,0,0.0,6+,1028.0,0,METAR,METAR LGBL 270350Z 00000KT 9999 FEW030 04/03 Q1028,39.22,22.794,13,Nea Anchialos Arpt,FEW,"[{'cover': 'FEW', 'base': 3000}]",VFR,,,,,,,,,,"Nea Anchialos Arpt, E, GR",GR,Greece,15.612666666666668
1861,LGHI,2026-02-27 03:55:32.295000+00:00,1772164200,2026-02-27T04:00:00.000Z,7.0,-1.0,40,10.0,6+,1027.0,0,METAR,METAR LGHI 270350Z 04010KT 9999 FEW025 07/M01 Q1027,38.343,26.141,6,Chios Isl Arpt,FEW,"[{'cover': 'FEW', 'base': 2500}]",VFR,,,,,,,,,,"Chios Isl Arpt, K, GR",GR,Greece,3.776985346294433
1692,LGIR,2026-02-27 03:54:46.259000+00:00,1772164200,2026-02-27T04:00:00.000Z,11.0,0.0,340,15.0,6+,1025.0,16,METAR,METAR LGIR 270350Z 34015KT 9999 SCT020 11/00 Q1025 NOSIG,35.337,25.173,37,Iraklion Intl,SCT,"[{'cover': 'SCT', 'base': 2000}]",VFR,,,,,,,,,,"Iraklion Intl, M, GR",GR,Greece,8.041739290289193
1869,LGKL,2026-02-27 03:55:37.104000+00:00,1772164200,2026-02-27T04:00:00.000Z,10.0,5.0,350,7.0,6+,1026.0,0,METAR,METAR LGKL 270350Z 35007KT 9999 SCT030 SCT060 10/05 Q1026,37.068,22.026,4,Kalamata Arpt,SCT,"[{'cover': 'SCT', 'base': 3000}, {'cover': 'SCT', 'base': 6000}]",VFR,,,,,,,,,,"Kalamata Arpt, J, GR",GR,Greece,8.191979324962865
1870,LGKO,2026-02-27 03:55:37.161000+00:00,1772164200,2026-02-27T04:00:00.000Z,7.0,0.0,40,15.0,6+,1023.0,0,METAR,METAR LGKO 270350Z 04015KT 9999 SCT020 07/M00 Q1023,36.801,27.091,130,Kos Arpt,SCT,"[{'cover': 'SCT', 'base': 2000}]",VFR,,,,,,,,,,"Kos Arpt, K, GR",GR,Greece,2.8587304729366676
638,LGKR,2026-02-27 03:54:46.374000+00:00,1772164200,2026-02-27T04:00:00.000Z,8.0,6.0,VRB,1.0,6+,1025.0,16,METAR,METAR LGKR 270350Z VRB01KT CAVOK 08/06 Q1025 NOSIG,39.61,19.913,2,Corfu/Kapodistinas Arpt,CAVOK,[],VFR,,,,,,,,,,"Corfu/Kapodistinas Arpt, L, GR",GR,Greece,9.057624326859145
2159,LGKV,2026-02-27 03:46:04.192000+00:00,1772162400,2026-02-27T03:20:00.000Z,7.0,1.0,40,7.0,6+,1029.0,0,METAR,METAR LGKV 270320Z 04007KT 9999 BKN040 07/01 Q1029,40.915,24.622,5,Kavala Intl,BKN,"[{'cover': 'BKN', 'base': 4000}]",VFR,,,,,,,,,,"Kavala Intl, A, GR",GR,Greece,4.536936491688211
2306,LGLM,2026-02-27 03:55:37.223000+00:00,1772164200,2026-02-27T04:00:00.000Z,5.0,1.0,0,0.0,6+,1029.0,0,METAR,METAR LGLM 270350Z 00000KT 9999 FEW020 05/01 Q1029,39.917,25.236,4,Limnos Island Arpt,FEW,"[{'cover': 'FEW', 'base': 2000}]",VFR,,,,,,,,,,"Limnos Island Arpt, K, GR",GR,Greece,16.234166666666667
2401,LGMT,2026-02-27 03:46:04.370000+00:00,1772162400,2026-02-27T03:20:00.000Z,7.0,-2.0,360,5.0,6+,1029.0,0,METAR,METAR LGMT 270320Z 36005KT 9999 SCT025 07/M02 Q1029,39.054,26.604,4,Mitilini Arpt,SCT,"[{'cover': 'SCT', 'base': 2500}]",VFR,,,,,,,,,,"Mitilini Arpt, K, GR",GR,Greece,5.215160908674418
2963,LGPA,2026-02-27 03:55:32.391000+00:00,1772164200,2026-02-27T04:00:00.000Z,9.0,0.0,10,15.0,,1026.0,2,METAR,METAR LGPA 270350Z AUTO 01015KT //// // ////// 09/00 Q1026 RE//,37.022,25.114,42,Paros/Kratikos Arpt,,,,,,,,,,,,,"Paros/Kratikos Arpt, K, GR",GR,Greece,5.450234881612934
3064,LGPZ,2026-02-27 03:46:07.561000+00:00,1772162400,2026-02-27T03:20:00.000Z,8.0,6.0,50,5.0,,1026.0,2,METAR,METAR LGPZ 270320Z AUTO 05005KT //// // ////// 08/06 Q1026 RE//,38.921,20.761,3,Preveza/Aktion Arpt,,,,,,,,,,,,,"Preveza/Aktion Arpt, G, GR",GR,Greece,6.402226493280468
3205,LGRP,2026-02-27 03:54:46.491000+00:00,1772164200,2026-02-27T04:00:00.000Z,9.0,-2.0,320,10.0,6+,1020.0,16,METAR,METAR LGRP 270350Z 32010KT 9999 FEW020 09/M02 Q1020 NOSIG,36.405,28.086,3,Rhodes/Diagoras Arpt,FEW,"[{'cover': 'FEW', 'base': 2000}]",VFR,,,,,,,,,,"Rhodes/Diagoras Arpt, K, GR",GR,Greece,6.283783653127699
1542,LGRX,2026-02-27 03:46:07.713000+00:00,1772162400,2026-02-27T03:20:00.000Z,10.0,6.0,70,8.0,6+,1027.0,0,METAR,METAR LGRX 270320Z 07008KT 9999 FEW030 10/06 Q1027,38.151,21.426,16,Araxos Arpt,FEW,"[{'cover': 'FEW', 'base': 3000}]",VFR,,,,,,,,,,"Araxos Arpt, J, GR",GR,Greece,7.951203064060274
642,LGSA,2026-02-27 03:55:37.284000+00:00,1772164200,2026-02-27T04:00:00.000Z,10.0,2.0,360,13.0,6+,1026.0,0,METAR,METAR LGSA 270350Z 36013KT 9999 FEW020 BKN025 10/02 Q1026,35.54,24.141,122,Souda Bay/Chania Intl,BKN,"[{'cover': 'FEW', 'base': 2000}, {'cover': 'BKN', 'base': 2500}]",MVFR,,,,,,,,,,"Souda Bay/Chania Intl, M, GR",GR,Greece,7.031102984292501
3457,LGSM,2026-02-27 03:55:37.334000+00:00,1772164200,2026-02-27T04:00:00.000Z,6.0,1.0,10,10.0,6+,1024.0,0,METAR,METAR LGSM 270350Z 01010KT 340V050 9999 SCT035 06/01 Q1024,37.69,26.912,5,Samos Arpt,SCT,"[{'cover': 'SCT', 'base': 3500}]",VFR,,,,,,,,,,"Samos Arpt, K, GR",GR,Greece,2.5235861928777896
1862,LGSO,2026-02-27 03:55:32.450000+00:00,1772164200,2026-02-27T04:00:00.000Z,10.0,1.0,360,17.0,,1027.0,2,METAR,METAR LGSO 270350Z AUTO 36017KT //// // ////// 10/01 Q1027 RE//,37.422,24.95,71,Syros Island Arpt,,,,,,,,,,,,,"Syros Island Arpt, K, GR",GR,Greece,6.491202050209558
1947,LGSR,2026-02-27 03:46:04.502000+00:00,1772162400,2026-02-27T03:20:00.000Z,10.0,-1.0,340,18.0,6+,1025.0,0,METAR,METAR LGSR 270320Z 34018KT 9999 FEW025 10/M01 Q1025,36.399,25.479,31,Santorini Isl Arpt,FEW,"[{'cover': 'FEW', 'base': 2500}]",VFR,,,,,,,,,,"Santorini Isl Arpt, K, GR",GR,Greece,6.373141070868908
3458,LGTS,2026-02-27 03:55:37.391000+00:00,1772164200,2026-02-27T04:00:00.000Z,7.0,5.0,110,4.0,6+,1028.0,16,METAR,METAR LGTS 270350Z 11004KT 9999 FEW030 07/05 Q1028 NOSIG,40.52,22.971,4,Thessaloniki Intl,FEW,"[{'cover': 'FEW', 'base': 3000}]",VFR,,,,,,,,,,"Thessaloniki Intl, A, GR",GR,Greece,5.645227893537354
545,LHBP,2026-02-27 04:01:13.861000+00:00,1772164800,2026-02-27T04:00:00.000Z,-3.0,-4.0,360,4.0,6+,1028.0,16,METAR,METAR LHBP 270400Z 36004KT CAVOK M03/M04 Q1028 NOSIG,47.437,19.256,141,Budapest/Liszt Intl,CAVOK,[],VFR,,,,,,,,,,"Budapest/Liszt Intl, BU, HU",HU,Hungary,-6.027066370809465
897,LHDC,2026-02-27 04:02:24.629000+00:00,1772163900,2026-02-27T04:00:00.000Z,-4.0,-6.0,60,2.0,6+,1029.0,2,METAR,METAR LHDC 270345Z AUTO 06002KT CAVOK M04/M06 Q1029,47.489,21.615,105,Debrecen Arpt,CAVOK,[],VFR,,,,,,,,,,"Debrecen Arpt, HL, HU",HU,Hungary,-5.322071877592833
2977,LHPP,2026-02-27 04:02:24.712000+00:00,1772163900,2026-02-27T04:00:00.000Z,2.0,-2.0,60,5.0,6+,1027.0,2,METAR,METAR LHPP 270345Z AUTO 06005KT CAVOK 02/M02 Q1027,45.991,18.241,193,Pécs/Pogány Intl,CAVOK,[],VFR,,,,,,,,,,"Pécs/Pogány Intl, BA, HU",HU,Hungary,-0.7201670143558303
3481,LHSM,2026-02-27 04:02:24.767000+00:00,1772163900,2026-02-27T04:00:00.000Z,2.0,0.0,90,4.0,6+,1027.0,2,METAR,METAR LHSM 270345Z AUTO 09004KT CAVOK 02/00 Q1027,46.689,17.161,119,Sármellék/Balaton Arpt,CAVOK,[],VFR,,,,,,,,,,"Sármellék/Balaton Arpt, ZA, HU",HU,Hungary,-0.19091923863605587
396,LIBD,2026-02-27 03:55:51.302000+00:00,1772164200,2026-02-27T04:00:00.000Z,5.0,5.0,210,5.0,6+,1026.0,0,METAR,METAR LIBD 270350Z 21005KT CAVOK 05/05 Q1026,41.138,16.765,42,Bari/Palese Arpt,CAVOK,[],VFR,,,,,,,,,,"Bari/Palese Arpt, PU, IT",IT,Italy,2.8410297394623205
2966,LIBP,2026-02-27 03:55:50.589000+00:00,1772164200,2026-02-27T04:00:00.000Z,4.0,4.0,230,4.0,2.17,1026.0,2,METAR,METAR LIBP 270350Z AUTO 23004KT 3500 BR NCD 04/04 Q1026,42.432,14.181,10,Pescara/Abruzzo Arpt,CLR,[],IFR,,BR,,,,,,,,"Pescara/Abruzzo Arpt, AB, IT",IT,Italy,2.143539614233304
397,LIBR,2026-02-27 03:55:51.333000+00:00,1772164200,2026-02-27T04:00:00.000Z,8.0,7.0,270,6.0,4.35,1026.0,0,METAR,METAR LIBR 270350Z 27006KT 7000 SCT010 08/07 Q1026,40.658,17.951,5,Brindisi/Casale Arpt,SCT,"[{'cover': 'SCT', 'base': 1000}]",MVFR,,,,,,,,,,"Brindisi/Casale Arpt, PU, IT",IT,Italy,6.0559989569774135
3461,LICA,2026-02-27 03:55:50.663000+00:00,1772164200,2026-02-27T04:00:00.000Z,7.0,7.0,80,4.0,3.73,1027.0,2,METAR,METAR LICA 270350Z AUTO 08004KT 6000 NCD 07/07 Q1027,38.908,16.242,7,Lamezia Terme Arpt,CLR,[],MVFR,,,,,,,,,,"Lamezia Terme Arpt, CA, IT",IT,Italy,5.645227893537354
647,LICB,2026-02-27 03:55:50.923000+00:00,1772164200,2026-02-27T04:00:00.000Z,7.0,7.0,60,4.0,6+,1026.0,2,METAR,METAR LICB 270350Z AUTO 06004KT 9999 NCD 07/07 Q1026,36.994,14.606,212,Comiso Arpt,CLR,[],VFR,,,,,,,,,,"Comiso Arpt, RG, IT",IT,Italy,5.645227893537354
889,LICC,2026-02-27 03:55:51.369000+00:00,1772164200,2026-02-27T04:00:00.000Z,9.0,6.0,230,4.0,2.49,1026.0,0,METAR,METAR LICC 270350Z 23004KT 4000 BR NSC 09/06 Q1026,37.467,15.064,6,Catania/Fontanarossa Arpt,CLR,[],IFR,,BR,,,,,,,,"Catania/Fontanarossa Arpt, CT, IT",IT,Italy,7.979686746406713
2055,LICD,2026-02-27 03:55:50.960000+00:00,1772164200,2026-02-27T04:00:00.000Z,15.0,13.0,150,5.0,6+,1026.0,2,METAR,METAR LICD 270350Z AUTO 15005KT 9999 BKN011/// 15/13 Q1026,35.498,12.618,20,Lampedusa Island Arpt,BKN,"[{'cover': 'BKN', 'base': 1100}]",MVFR,,,,,,,,,,"Lampedusa Island Arpt, AG, IT",IT,Italy,14.711685585522819
2968,LICG,2026-02-27 03:55:51.003000+00:00,1772164200,2026-02-27T04:00:00.000Z,10.0,8.0,VRB,1.0,6+,1026.0,2,METAR,METAR LICG 270350Z AUTO VRB01KT 9999 NCD 10/08 Q1026,36.814,11.971,192,Pantelleria Arpt,CLR,[],VFR,,,,,,,,,,"Pantelleria Arpt, TP, IT",IT,Italy,11.174959136521313
2969,LICJ,2026-02-27 03:55:51.407000+00:00,1772164200,2026-02-27T04:00:00.000Z,11.0,9.0,160,2.0,6+,1026.0,0,METAR,METAR LICJ 270350Z 16002KT CAVOK 11/09 Q1026,38.176,13.091,20,Palermo Arpt,CAVOK,[],VFR,,,,,,,,,,"Palermo Arpt, PA, IT",IT,Italy,11.3270509014399
3208,LICR,2026-02-27 03:55:50.731000+00:00,1772164200,2026-02-27T04:00:00.000Z,9.0,5.0,40,3.0,6+,1026.0,2,METAR,METAR LICR 270350Z AUTO 04003KT 9999 NCD 09/05 Q1026,38.072,15.654,16,Reggio Calabria Arpt,CLR,[],VFR,,,,,,,,,,"Reggio Calabria Arpt, RE, IT",IT,Italy,8.462856464882849
134,LIEA,2026-02-27 03:56:27.881000+00:00,1772164200,2026-02-27T04:00:00.000Z,9.0,9.0,60,3.0,0.31,1026.0,0,METAR,METAR LIEA 270350Z 06003KT 0500 R20/1800D FG FEW002 09/09 Q1026,40.631,8.289,22,Alghero/Fertilia Arpt,FEW,"[{'cover': 'FEW', 'base': 200}]",LIFR,,FG,,,,,,,,"Alghero/Fertilia Arpt, SS, IT",IT,Italy,8.462856464882849
645,LIEE,2026-02-27 03:55:50.075000+00:00,1772164200,2026-02-27T04:00:00.000Z,11.0,10.0,350,4.0,1.86,1026.0,0,METAR,METAR LIEE 270350Z 35004KT 320V030 3000 BR FEW010 11/10 Q1026,39.243,9.06,1,Cagliari/Elmas Arpt,FEW,"[{'cover': 'FEW', 'base': 1000}]",IFR,,BR,,,,,,,,"Cagliari/Elmas Arpt, CA, IT",IT,Italy,10.314145599276072
2729,LIEO,2026-02-27 03:55:50.116000+00:00,1772164200,2026-02-27T04:00:00.000Z,8.0,8.0,VRB,1.0,6+,1026.0,0,METAR,METAR LIEO 270350Z VRB01KT CAVOK 08/08 Q1026,40.899,9.518,8,Olbia/Costa Smeralda Arpt,CAVOK,[],VFR,,,,,,,,,,"Olbia/Costa Smeralda Arpt, OT, IT",IT,Italy,9.057624326859145
2554,LIMC,2026-02-27 03:55:50.162000+00:00,1772164200,2026-02-27T04:00:00.000Z,4.0,3.0,40,2.0,6+,1026.0,16,METAR,METAR LIMC 270350Z 04002KT 9999 BCFG NSC 04/03 Q1026 NOSIG,45.631,8.728,221,Milan/Malpensa Arpt,CLR,[],VFR,,BCFG,,,,,,,,"Milan/Malpensa Arpt, MI, IT",IT,Italy,3.5574602712246257
495,LIME,2026-02-27 03:25:31.011000+00:00,1772162400,2026-02-27T03:20:00.000Z,7.0,5.0,10,5.0,4.35,1025.0,16,METAR,METAR LIME 270320Z 01005KT 7000 NSC 07/05 Q1025 NOSIG,45.674,9.704,239,Milan/Bergamo,CLR,[],MVFR,,,,,,,,,,"Milan/Bergamo, BG, IT",IT,Italy,5.215160908674418
3698,LIMF,2026-02-27 03:55:50.208000+00:00,1772164200,2026-02-27T04:00:00.000Z,5.0,1.0,310,4.0,6+,1025.0,0,METAR,METAR LIMF 270350Z 31004KT CAVOK 05/01 Q1025,45.203,7.649,295,Torino/Caselle Arpt,CAVOK,[],VFR,,,,,,,,,,"Torino/Caselle Arpt, TO, IT",IT,Italy,3.310769040667986
1444,LIMJ,2026-02-27 03:55:50.257000+00:00,1772164200,2026-02-27T04:00:00.000Z,13.0,11.0,90,4.0,6+,1026.0,0,METAR,METAR LIMJ 270350Z 09004KT 9999 BKN025 13/11 Q1026,44.413,8.838,3,Genoa/Colombo Arpt,BKN,"[{'cover': 'BKN', 'base': 2500}]",MVFR,,,,,,,,,,"Genoa/Colombo Arpt, GE, IT",IT,Italy,12.648604452145433
2054,LIML,2026-02-27 03:55:50.301000+00:00,1772164200,2026-02-27T04:00:00.000Z,9.0,7.0,VRB,2.0,4.35,1026.0,16,METAR,METAR LIML 270350Z VRB02KT 7000 BKN004 09/07 Q1026 NOSIG,45.461,9.263,109,Milan/Linate Arpt,BKN,"[{'cover': 'BKN', 'base': 400}]",LIFR,,,,,,,,,,"Milan/Linate Arpt, MI, IT",IT,Italy,9.10716786423554
888,LIMZ,2026-02-27 03:55:50.798000+00:00,1772164200,2026-02-27T04:00:00.000Z,3.0,2.0,230,3.0,6+,1025.0,2,METAR,METAR LIMZ 270350Z AUTO 23003KT 9999 NCD 03/02 Q1025,44.547,7.623,377,Cuneo/Levaldigi Arpt,CLR,[],VFR,,,,,,,,,,"Cuneo/Levaldigi Arpt, CN, IT",IT,Italy,1.6067805494260137
398,LIPE,2026-02-27 03:55:51.442000+00:00,1772164200,2026-02-27T04:00:00.000Z,7.0,6.0,VRB,2.0,2.49,1025.0,0,METAR,METAR LIPE 270350Z VRB02KT 4000 BR NSC 07/06 Q1025,44.531,11.297,37,Bologna/Marconi Arpt,CLR,[],IFR,,BR,,,,,,,,"Bologna/Marconi Arpt, BO, IT",IT,Italy,6.887284827031179
3699,LIPH,2026-02-27 03:56:27.498000+00:00,1772164200,2026-02-27T04:00:00.000Z,5.0,5.0,VRB,1.0,0.03,1026.0,2,METAR,METAR LIPH 270350Z AUTO VRB01KT 0050 0000E R07/0225N FG VV001 05/05 Q1026,45.648,12.194,10,Treviso Arpt,OVX,"[{'cover': 'OVX', 'base': 100}]",LIFR,,FG,,,,,,,1.0,"Treviso Arpt, TV, IT",IT,Italy,5.881622112365893
3890,LIPO,2026-02-27 03:55:51.039000+00:00,1772164200,2026-02-27T04:00:00.000Z,6.0,6.0,VRB,2.0,1.49,1026.0,2,METAR,METAR LIPO 270350Z AUTO VRB02KT 2400 BR NCD 06/06 Q1026,45.429,10.331,104,Brescia Arpt,CLR,[],IFR,,BR,,,,,,,,"Brescia Arpt, BS, IT",IT,Italy,5.7773433084289865
3700,LIPQ,2026-02-27 03:55:51.509000+00:00,1772164200,2026-02-27T04:00:00.000Z,3.0,3.0,110,4.0,5.59,1026.0,2,METAR,METAR LIPQ 270350Z AUTO 11004KT 9000 FEW008/// SCT015/// 03/03 Q1026,45.828,13.472,6,Trieste Airport,SCT,"[{'cover': 'FEW', 'base': 800}, {'cover': 'SCT', 'base': 1500}]",VFR,,,,,,,,,,"Trieste Airport, CU, IT",IT,Italy,0.9763101877986221
3211,LIPR,2026-02-27 03:55:51.544000+00:00,1772164200,2026-02-27T04:00:00.000Z,5.0,5.0,190,2.0,0.87,1026.0,2,METAR,METAR LIPR 270350Z AUTO 19002KT 1400 R30/P2000N BR NCD 05/05 Q1026,44.02,12.612,10,Rimini/Miramare Arpt,CLR,[],LIFR,,BR,,,,,,,,"Rimini/Miramare Arpt, RN, IT",IT,Italy,4.66740178982681
3892,LIPX,2026-02-27 03:55:51.578000+00:00,1772164200,2026-02-27T04:00:00.000Z,5.0,4.0,360,2.0,3.73,1026.0,0,METAR,METAR LIPX 270350Z 36002KT 6000 NSC 05/04 Q1026,45.387,10.872,67,Verona Arpt,CLR,[],MVFR,,,,,,,,,,"Verona Arpt, TO, IT",IT,Italy,4.66740178982681
148,LIPY,2026-02-27 03:55:50.846000+00:00,1772164200,2026-02-27T04:00:00.000Z,6.0,6.0,200,4.0,2.3,1026.0,2,METAR,METAR LIPY 270350Z AUTO 20004KT 3700 BR NCD 06/06 Q1026,43.617,13.36,11,Falconara/Ancona Arpt,CLR,[],IFR,,BR,,,,,,,,"Falconara/Ancona Arpt, AN, IT",IT,Italy,4.477998467102664
3893,LIPZ,2026-02-27 03:55:51.614000+00:00,1772164200,2026-02-27T04:00:00.000Z,5.0,5.0,60,2.0,0.03,1026.0,16,METAR,METAR LIPZ 270350Z 06002KT 0050 R04R/0225N FG VV001 05/05 Q1026 NOSIG,45.505,12.352,3,Venice/Polo Arpt,OVX,"[{'cover': 'OVX', 'base': 100}]",LIFR,,FG,,,,,,,1.0,"Venice/Polo Arpt, VE, IT",IT,Italy,4.66740178982681
646,LIRA,2026-02-27 03:55:50.340000+00:00,1772164200,2026-02-27T04:00:00.000Z,10.0,10.0,170,3.0,6+,1026.0,0,METAR,METAR LIRA 270350Z 17003KT CAVOK 10/10 Q1026,41.808,12.585,101,Rome/Ciampino Arpt,CAVOK,[],VFR,,,,,,,,,,"Rome/Ciampino Arpt, RM, IT",IT,Italy,9.60553578412565
1148,LIRF,2026-02-27 03:56:27.532000+00:00,1772164200,2026-02-27T04:00:00.000Z,7.0,7.0,80,2.0,0.06,1026.0,16,METAR,METAR LIRF 270350Z 08002KT 0100 R16L/0750N R16R/0500N R25/0375N R34R/0400N FG NSC 07/07 Q1026 NOSIG,41.8,12.239,2,Rome/Fiumicino,CLR,[],LIFR,,FG,,,,,,,,"Rome/Fiumicino, RM, IT",IT,Italy,6.887284827031179
2555,LIRN,2026-02-27 03:55:50.419000+00:00,1772164200,2026-02-27T04:00:00.000Z,12.0,11.0,50,2.0,1.86,1027.0,16,METAR,METAR LIRN 270350Z 05002KT 3000 BR FEW015 12/11 Q1027 NOSIG,40.885,14.292,76,Naples Intl,FEW,"[{'cover': 'FEW', 'base': 1500}]",IFR,,BR,,,,,,,,"Naples Intl, NA, IT",IT,Italy,12.436992420042088
2978,LIRP,2026-02-27 03:55:50.476000+00:00,1772163900,2026-02-27T04:00:00.000Z,8.0,8.0,VRB,2.0,3.73,1027.0,16,METAR,METAR LIRP 270345Z VRB02KT 6000 BKN020 08/08 Q1027 NOSIG,43.684,10.393,1,Pisa/Galilei Arpt,BKN,"[{'cover': 'BKN', 'base': 2000}]",MVFR,,,,,,,,,,"Pisa/Galilei Arpt, PI, IT",IT,Italy,7.997226345633355
1162,LIRQ,2026-02-27 03:55:50.527000+00:00,1772164200,2026-02-27T04:00:00.000Z,9.0,9.0,VRB,1.0,5.59,1026.0,0,METAR,METAR LIRQ 270350Z VRB01KT 9000 BKN006 09/09 Q1026,43.81,11.205,33,Florence/Peretola Arpt,BKN,"[{'cover': 'BKN', 'base': 600}]",IFR,,,,,,,,,,"Florence/Peretola Arpt, FI, IT",IT,Italy,10.116291731690236
2967,LIRZ,2026-02-27 03:55:50.887000+00:00,1772164200,2026-02-27T04:00:00.000Z,5.0,5.0,20,4.0,6+,1026.0,2,METAR,METAR LIRZ 270350Z AUTO 02004KT 9999 FEW026/// 05/05 Q1026,43.097,12.51,206,Perugia/Egidio Arpt,FEW,"[{'cover': 'FEW', 'base': 2600}]",VFR,,,,,,,,,,"Perugia/Egidio Arpt, PG, IT",IT,Italy,3.310769040667986
2377,LJMB,2026-02-27 03:34:38.991000+00:00,1772163000,2026-02-27T03:30:00.000Z,0.0,0.0,320,2.0,3.73,1026.0,2,METAR,METAR LJMB 270330Z AUTO 32002KT 6000 NCD 00/00 Q1026,46.48,15.682,263,Maribor/Rusjan Arpt,CLR,[],MVFR,,,,,,,,,,"Maribor/Rusjan Arpt, MA, SI",SI,Slovenia,-0.8823058031841057
3044,LJPZ,2026-02-27 03:34:39.093000+00:00,1772163000,2026-02-27T03:30:00.000Z,4.0,3.0,120,3.0,3.11,1026.0,2,METAR,METAR LJPZ 270330Z AUTO 12003KT 5000 NCD 04/03 Q1026,45.473,13.615,2,Portorož Arpt,CLR,[],MVFR,,,,,,,,,,"Portorož Arpt, PI, SI",SI,Slovenia,2.749459868668822
1812,LKKV,2026-02-27 04:02:21.679000+00:00,1772164800,2026-02-27T04:00:00.000Z,4.0,4.0,VRB,2.0,0.19,1023.0,0,METAR,METAR LKKV 270400Z VRB02KT 0300 R29/0400N FG VV002 04/04 Q1023,50.202,12.91,600,Karlovy Vary Intl,OVX,"[{'cover': 'OVX', 'base': 200}]",LIFR,,FG,,,,,,,2.0,"Karlovy Vary Intl, KA, CZ",CZ,Czech Republic,3.5574602712246257
2634,LKMT,2026-02-27 04:02:21.709000+00:00,1772164800,2026-02-27T04:00:00.000Z,2.0,-1.0,230,10.0,6+,1025.0,16,METAR,METAR LKMT 270400Z 23010KT CAVOK 02/M01 Q1025 NOSIG,49.696,18.111,251,Ostrava/Janáček Arpt,CAVOK,[],VFR,,,,,,,,,,"Ostrava/Janáček Arpt, MO, CZ",CZ,Czech Republic,-2.4900104207887472
3045,LKPD,2026-02-27 03:42:11.857000+00:00,1772163000,2026-02-27T03:30:00.000Z,1.0,0.0,70,2.0,6+,1024.0,0,METAR,METAR LKPD 270330Z 07002KT CAVOK 01/00 Q1024 RMK BLU,50.016,15.74,226,Pardubice Arpt,CAVOK,[],VFR,,,,,,,,,,"Pardubice Arpt, PA, CZ",CZ,Czech Republic,0.2276357154180807
2839,LKPR,2026-02-27 04:02:21.740000+00:00,1772164800,2026-02-27T04:00:00.000Z,0.0,0.0,330,1.0,0.34,1023.0,16,METAR,METAR LKPR 270400Z 33001KT 0550 R24/0400N R30/0275D FZFG SCT001 M00/M00 Q1023 NOSIG,50.101,14.26,364,Prague/Havel Arpt,SCT,"[{'cover': 'SCT', 'base': 100}]",LIFR,,FZFG,,,,,,,,"Prague/Havel Arpt, ST, CZ",CZ,Czech Republic,0.5882850882104643
285,LKTB,2026-02-27 04:02:21.768000+00:00,1772164800,2026-02-27T04:00:00.000Z,-1.0,-2.0,320,3.0,6+,1026.0,16,METAR,METAR LKTB 270400Z 32003KT CAVOK M01/M02 Q1026 NOSIG,49.151,16.694,233,Brno/Tuřany Arpt,CAVOK,[],VFR,,,,,,,,,,"Brno/Tuřany Arpt, JM, CZ",CZ,Czech Republic,-2.963936727545201
3694,LLBG,2026-02-27 03:56:43.167000+00:00,1772164200,2026-02-27T04:00:00.000Z,12.0,8.0,VRB,2.0,6+,1015.0,16,METAR,METAR LLBG 270350Z VRB02KT 9999 FEW050 12/08 Q1015 NOSIG RMK SCT083,32.011,34.887,35,Tel Aviv/Ben Gurion Arpt,FEW,"[{'cover': 'FEW', 'base': 5000}]",VFR,,,,,,,,,,"Tel Aviv/Ben Gurion Arpt, C, IL",IL,Israel,12.436992420042088
1165,LLER,2026-02-27 03:53:11.629000+00:00,1772164200,2026-02-27T04:00:00.000Z,13.0,4.0,290,4.0,6+,1017.0,2,METAR,METAR LLER 270350Z AUTO 29004KT 9999 FEW042 13/04 Q1017,29.722,35.012,88,Eilat/Ramone Arpt,FEW,"[{'cover': 'FEW', 'base': 4200}]",VFR,,,,,,,,,,"Eilat/Ramone Arpt, S, IL",IL,Israel,12.648604452145433
1701,LLHA,2026-02-27 03:53:11.594000+00:00,1772164200,2026-02-27T04:00:00.000Z,14.0,2.0,330,14.0,6+,1014.0,2,METAR,METAR LLHA 270350Z AUTO 33014KT 9999 FEW050 14/02 Q1014 RMK SCT069,32.809,35.043,3,Haifa Intl,FEW,"[{'cover': 'FEW', 'base': 5000}]",VFR,,,,,,,,,,"Haifa Intl, HA, IL",IL,Israel,12.037665043301265
3216,LLIB,2026-02-27 03:53:11.750000+00:00,1772164200,2026-02-27T04:00:00.000Z,8.0,3.0,310,8.0,6+,1014.0,2,METAR,METAR LLIB 270350Z AUTO 31008KT 9999 FEW050 08/03 Q1014,32.981,35.572,268,Rosh Pina Arpt,FEW,"[{'cover': 'FEW', 'base': 5000}]",VFR,,,,,,,,,,"Rosh Pina Arpt, H, IL",IL,Israel,5.488730126014277
2559,LMML,2026-02-27 03:48:07.410000+00:00,1772163900,2026-02-27T04:00:00.000Z,11.0,10.0,VRB,1.0,6+,1026.0,0,METAR,METAR LMML 270345Z VRB01KT 9999 SCT009 11/10 Q1026 BECMG 8000 BKN009,35.858,14.477,78,Malta Intl,SCT,"[{'cover': 'SCT', 'base': 900}]",VFR,,,,,,,,,,"Malta Intl, LU, MT",MT,Malta,12.2336265413524
1434,LOWG,2026-02-27 03:56:25.400000+00:00,1772164200,2026-02-27T04:00:00.000Z,-2.0,-2.0,VRB,1.0,0.37,1026.0,2,METAR,METAR LOWG 270350Z AUTO VRB01KT 0600 R16/0800U R34/0550N FZFG VV001 M02/M02 Q1026,46.997,15.447,337,Graz Arpt,OVX,"[{'cover': 'OVX', 'base': 100}]",LIFR,,FZFG,,,,,,,1.0,"Graz Arpt, ST, AT",AT,Austria,-1.5290497214517016
1695,LOWI,2026-02-27 03:55:36.002000+00:00,1772164200,2026-02-27T04:00:00.000Z,-1.0,-2.0,VRB,1.0,6+,1027.0,2,METAR,METAR LOWI 270350Z AUTO VRB01KT 9999 NCD M01/M02 Q1027,47.26,11.344,570,Innsbruck Arpt,CLR,[],VFR,,,,,,,,,,"Innsbruck Arpt, TI, AT",AT,Austria,-0.47038231662061963
1868,LOWK,2026-02-27 03:56:25.425000+00:00,1772164200,2026-02-27T04:00:00.000Z,0.0,-1.0,290,3.0,6+,1027.0,0,METAR,METAR LOWK 270350Z 29003KT 9999 MIFG NSC 00/M01 Q1027 TEMPO 2000 BR BKN002,46.648,14.318,450,Klagenfurt Arpt,CLR,[],VFR,,MIFG,,,,,,,,"Klagenfurt Arpt, KA, AT",AT,Austria,-1.8212574083023962
2303,LOWL,2026-02-27 03:55:35.869000+00:00,1772164200,2026-02-27T04:00:00.000Z,1.0,1.0,VRB,2.0,0.22,1025.0,2,METAR,METAR LOWL 270350Z AUTO VRB02KT 0350 R26/0400N FG VV001 01/01 Q1025,48.233,14.188,290,Linz Arpt,OVX,"[{'cover': 'OVX', 'base': 100}]",LIFR,,FG,,,,,,,1.0,"Linz Arpt, OB, AT",AT,Austria,0.2276357154180807
3697,LOWS,2026-02-27 03:55:35.930000+00:00,1772164200,2026-02-27T04:00:00.000Z,6.0,0.0,150,13.0,6+,1024.0,2,METAR,METAR LOWS 270350Z AUTO 15013KT 120V180 9999 NCD 06/M00 Q1024,47.789,13.009,427,Salzburg/Mozart Arpt,CLR,[],VFR,,,,,,,,,,"Salzburg/Mozart Arpt, SA, AT",AT,Austria,1.909143678946575
3887,LOWW,2026-02-27 03:55:35.815000+00:00,1772164200,2026-02-27T04:00:00.000Z,-2.0,-4.0,170,7.0,6+,1026.0,16,METAR,METAR LOWW 270350Z 17007KT CAVOK M02/M04 Q1026 NOSIG,48.117,16.582,179,Vienna Intl,CAVOK,[],VFR,,,,,,,,,,"Vienna Intl, NE, AT",AT,Austria,-6.42819200813577
3533,LPAZ,2026-02-27 03:34:49.803000+00:00,1772163000,2026-02-27T03:30:00.000Z,14.0,13.0,30,10.0,6+,1033.0,0,METAR,METAR LPAZ 270330Z 03010KT 9999 FEW009 14/13 Q1033,36.971,-25.171,96,Santa Maria Island Arpt,FEW,"[{'cover': 'FEW', 'base': 900}]",VFR,,,,,,,,,,"Santa Maria Island Arpt, AZ, PT",PT,Portugal,12.550779420210883
1234,LPFR,2026-02-27 03:34:30.525000+00:00,1772163000,2026-02-27T03:30:00.000Z,11.0,8.0,20,5.0,6+,1022.0,0,METAR,METAR LPFR 270330Z 02005KT CAVOK 11/08 Q1022,37.014,-7.966,3,Faro Arpt,CAVOK,[],VFR,,,,,,,,,,"Faro Arpt, FA, PT",PT,Portugal,9.963423247098614
1235,LPMA,2026-02-27 03:34:30.646000+00:00,1772163000,2026-02-27T03:30:00.000Z,16.0,11.0,340,23.0,6+,1024.0,0,METAR,METAR LPMA 270330Z 34023G36KT 300V010 9999 BKN015 16/11 Q1024,32.698,-16.774,54,Madeira Arpt,BKN,"[{'cover': 'BKN', 'base': 1500}]",MVFR,36.0,,,,,,,,,"Madeira Arpt, MD, PT",PT,Portugal,13.915285776927298
3028,LPPD,2026-02-27 03:34:49.894000+00:00,1772163000,2026-02-27T03:30:00.000Z,14.0,10.0,360,7.0,6+,1033.0,0,METAR,METAR LPPD 270330Z 36007KT 9999 FEW018 14/10 Q1033,37.741,-25.698,62,Ponta Delgada/Paulo II Arpt,FEW,"[{'cover': 'FEW', 'base': 1800}]",VFR,,,,,,,,,,"Ponta Delgada/Paulo II Arpt, AZ, PT",PT,Portugal,13.065369769329083
2782,LPPR,2026-02-27 03:34:30.770000+00:00,1772163000,2026-02-27T03:30:00.000Z,10.0,9.0,120,7.0,5.59,1024.0,0,METAR,METAR LPPR 270330Z 12007KT 9000 FEW011 BKN016 10/09 Q1024,41.235,-8.684,64,Porto/Cameriro Arpt,BKN,"[{'cover': 'FEW', 'base': 1100}, {'cover': 'BKN', 'base': 1600}]",MVFR,,,,,,,,,,"Porto/Cameriro Arpt, PT, PT",PT,Portugal,8.191979324962865
3042,LPPS,2026-02-27 03:34:30.904000+00:00,1772163000,2026-02-27T03:30:00.000Z,15.0,12.0,360,18.0,6+,1026.0,0,METAR,METAR LPPS 270330Z 36018KT 9999 BKN013 15/12 Q1026,33.073,-16.35,89,Porto Santo Isl Arpt,BKN,"[{'cover': 'BKN', 'base': 1300}]",MVFR,,,,,,,,,,"Porto Santo Isl Arpt, MD, PT",PT,Portugal,12.951695139031127
2118,LPPT,2026-02-27 03:34:31.036000+00:00,1772163000,2026-02-27T03:30:00.000Z,11.0,10.0,VRB,2.0,6+,1023.0,0,METAR,METAR LPPT 270330Z VRB02KT 9999 FEW012 11/10 Q1023,38.781,-9.136,98,Lisbon Arpt,FEW,"[{'cover': 'FEW', 'base': 1200}]",VFR,,,,,,,,,,"Lisbon Arpt, LI, PT",PT,Portugal,11.3270509014399
457,LQBK,2026-02-27 03:33:33.045000+00:00,1772163000,2026-02-27T03:30:00.000Z,0.0,-1.0,150,4.0,6+,1027.0,16,METAR,METAR LQBK 270330Z 15004KT CAVOK M00/M01 Q1027 NOSIG,44.937,17.299,114,Banja Luka Intl,CAVOK,[],VFR,,,,,,,,,,"Banja Luka Intl, SR, BA",BA,Bosnia and Herzegovina,-2.525378091505422
2779,LQMO,2026-02-27 03:33:33.093000+00:00,1772163000,2026-02-27T03:30:00.000Z,0.0,-1.0,10,2.0,6+,1026.0,0,METAR,METAR LQMO 270330Z 01002KT CAVOK 00/M01 Q1026,43.285,17.84,49,Mostar Intl,CAVOK,[],VFR,,,,,,,,,,"Mostar Intl, BI, BA",BA,Bosnia and Herzegovina,-0.8823058031841057
3539,LQSA,2026-02-27 03:33:33.134000+00:00,1772163000,2026-02-27T03:30:00.000Z,-2.0,-2.0,290,1.0,6+,1027.0,0,METAR,METAR LQSA 270330Z 29001KT CAVOK M02/M02 Q1027,43.825,18.331,505,Sarajevo Intl,CAVOK,[],VFR,,,,,,,,,,"Sarajevo Intl, BI, BA",BA,Bosnia and Herzegovina,-1.5290497214517016
3959,LQTZ,2026-02-27 03:33:33.171000+00:00,1772163000,2026-02-27T03:30:00.000Z,-2.0,-2.0,80,2.0,3.11,1027.0,0,METAR,METAR LQTZ 270330Z 08002KT 5000 BR NSC M02/M02 Q1027,44.461,18.728,242,Tuzla Intl,CLR,[],MVFR,,BR,,,,,,,,"Tuzla Intl, BI, BA",BA,Bosnia and Herzegovina,-3.1021888403884685
207,LRAR,2026-02-27 03:34:40.867000+00:00,1772163000,2026-02-27T03:30:00.000Z,-1.0,-2.0,140,4.0,6+,1028.0,2,METAR,METAR LRAR 270330Z AUTO 14004KT 9999 NCD M01/M02 Q1028,46.176,21.264,102,Arad Intl,CLR,[],VFR,,,,,,,,,,"Arad Intl, AD, RO",RO,Romania,-3.692607517940104
459,LRBC,2026-02-27 03:34:24.735000+00:00,1772163000,2026-02-27T03:30:00.000Z,-1.0,-2.0,VRB,1.0,6+,1030.0,0,METAR,METAR LRBC 270330Z VRB01KT 9999 BKN019 M01/M02 Q1030,46.522,26.91,183,Bacău Intl,BKN,"[{'cover': 'BKN', 'base': 1900}]",MVFR,,,,,,,,,,"Bacău Intl, BA, RO",RO,Romania,-0.47038231662061963
451,LRBM,2026-02-27 03:34:40.976000+00:00,1772163000,2026-02-27T03:30:00.000Z,-2.0,-6.0,80,5.0,6+,1029.0,2,METAR,METAR LRBM 270330Z AUTO 08005KT 9999 NCD M02/M06 Q1029,47.658,23.47,180,Baia Mare Arpt,CLR,[],VFR,,,,,,,,,,"Baia Mare Arpt, MA, RO",RO,Romania,-5.4684293527800305
439,LRBS,2026-02-27 03:36:08.032000+00:00,1772163000,2026-02-27T03:30:00.000Z,-5.0,-5.0,0,0.0,2.49,1030.0,0,METAR,METAR LRBS 270330Z 00000KT 4000 PRFG BR NSC M05/M05 Q1030 TEMPO 3000 BR,44.511,26.078,91,Bucharest/Băneasa Intl,CLR,[],IFR,,PRFG BR,,,,,,,,"Bucharest/Băneasa Intl, B, RO",RO,Romania,10.019166666666669
929,LRCK,2026-02-27 03:36:08.065000+00:00,1772163000,2026-02-27T03:30:00.000Z,-2.0,-3.0,320,5.0,6+,1029.0,0,METAR,METAR LRCK 270330Z 32005KT 9999 BKN017 M02/M03 Q1029 TEMPO BKN015,44.362,28.488,108,Constanta/Kogălniceanu Arpt,BKN,"[{'cover': 'BKN', 'base': 1700}]",MVFR,,,,,,,,,,"Constanta/Kogălniceanu Arpt, CT, RO",RO,Romania,-5.4684293527800305
709,LRCL,2026-02-27 03:34:41.072000+00:00,1772163000,2026-02-27T03:30:00.000Z,-6.0,-7.0,0,0.0,6+,1029.0,0,METAR,METAR LRCL 270330Z 00000KT CAVOK M06/M07 Q1029,46.783,23.676,313,Cluj-Napoca Intl,CAVOK,[],VFR,,,,,,,,,,"Cluj-Napoca Intl, CJ, RO",RO,Romania,9.39766666666667
946,LRCV,2026-02-27 03:34:24.871000+00:00,1772163000,2026-02-27T03:30:00.000Z,-2.0,-2.0,60,3.0,6+,1029.0,0,METAR,METAR LRCV 270330Z 06003KT 9999 BKN032 M02/M02 Q1029,44.31,23.867,192,Craiova Arpt,BKN,"[{'cover': 'BKN', 'base': 3200}]",VFR,,,,,,,,,,"Craiova Arpt, DO, RO",RO,Romania,-4.106616046788002
1759,LRIA,2026-02-27 03:34:24.997000+00:00,1772163000,2026-02-27T03:30:00.000Z,-2.0,-4.0,50,4.0,6+,1030.0,0,METAR,METAR LRIA 270330Z 05004KT 9999 OVC011 M02/M04 Q1030,47.164,27.627,71,Iaşi Intl,OVC,"[{'cover': 'OVC', 'base': 1100}]",MVFR,,,,,,,,,,"Iaşi Intl, IS, RO",RO,Romania,-4.8598369443747815
2777,LROD,2026-02-27 03:34:41.161000+00:00,1772163000,2026-02-27T03:30:00.000Z,-2.0,-4.0,100,5.0,6+,1029.0,0,METAR,METAR LROD 270330Z 10005KT CAVOK M02/M04 Q1029,47.036,21.896,132,Oradea Intl,CAVOK,[],VFR,,,,,,,,,,"Oradea Intl, BH, RO",RO,Romania,-5.4684293527800305
2780,LROP,2026-02-27 03:36:08.104000+00:00,1772163000,2026-02-27T03:30:00.000Z,-4.0,-4.0,80,2.0,1.86,1030.0,0,METAR,METAR LROP 270330Z 08002KT 3000 BCFG NSC M04/M04 Q1030 TEMPO 0800 FZFG,44.572,26.102,92,Bucharest/Coandă Intl,CLR,[],IFR,,BCFG,,,,,,,,"Bucharest/Coandă Intl, B, RO",RO,Romania,-5.322071877592833
3272,LRSB,2026-02-27 03:47:14.199000+00:00,1772163000,2026-02-27T03:30:00.000Z,-3.0,-4.0,120,3.0,6+,1028.0,1,METAR,METAR LRSB 270330Z COR 12003KT CAVOK M03/M04 Q1028,45.789,24.091,442,Sibiu Intl,CAVOK,[],VFR,,,,,,,,,,"Sibiu Intl, SO, RO",RO,Romania,-5.2492953660308075
3535,LRSM,2026-02-27 03:34:41.266000+00:00,1772163000,2026-02-27T03:30:00.000Z,-3.0,-5.0,0,0.0,6+,1029.0,2,METAR,METAR LRSM 270330Z AUTO 00000KT 9999 FEW240/// M03/M05 Q1029,47.703,22.886,123,Satu Mare Arpt,FEW,"[{'cover': 'FEW', 'base': 24000}]",VFR,,,,,,,,,,"Satu Mare Arpt, SM, RO",RO,Romania,11.262166666666667
3271,LRSV,2026-02-27 03:34:25.139000+00:00,1772163000,2026-02-27T03:30:00.000Z,-3.0,-3.0,130,3.0,6+,1028.0,0,METAR,METAR LRSV 270330Z 13003KT 9999 BKN010 M03/M03 Q1028,47.686,26.354,406,Suceava/Salcea Arpt,BKN,"[{'cover': 'BKN', 'base': 1000}]",MVFR,,,,,,,,,,"Suceava/Salcea Arpt, BV, RO",RO,Romania,-5.2492953660308075
3757,LRTC,2026-02-27 03:34:25.299000+00:00,1772163000,2026-02-27T03:30:00.000Z,0.0,-2.0,10,9.0,6+,1030.0,2,METAR,METAR LRTC 270330Z AUTO 01009KT 9999 BKN015/// M00/M02 Q1030,45.065,28.716,52,Tulcea Arpt,BKN,"[{'cover': 'BKN', 'base': 1500}]",MVFR,,,,,,,,,,"Tulcea Arpt, TU, RO",RO,Romania,-4.693849701646879
3747,LRTM,2026-02-27 03:34:41.381000+00:00,1772163000,2026-02-27T03:30:00.000Z,-5.0,-6.0,90,5.0,6+,1029.0,2,METAR,METAR LRTM 270330Z AUTO 09005KT 9999 NCD M05/M06 Q1029,46.468,24.421,289,Targu Mures Arpt,CLR,[],VFR,,,,,,,,,,"Targu Mures Arpt, MU, RO",RO,Romania,-9.029626106598183
3758,LRTR,2026-02-27 03:34:26.302000+00:00,1772163000,2026-02-27T03:30:00.000Z,-2.0,-2.0,90,6.0,6+,1028.0,0,METAR,METAR LRTR 270330Z 09006KT CAVOK M02/M02 Q1028,45.811,21.333,104,Timişoara/Traian Vuia Arpt,CAVOK,[],VFR,,,,,,,,,,"Timişoara/Traian Vuia Arpt, SI, RO",RO,Romania,-5.9820705432147925
1450,LSGG,2026-02-27 03:52:15.400000+00:00,1772164200,2026-02-27T04:00:00.000Z,3.0,2.0,VRB,1.0,6+,1024.0,18,METAR,METAR LSGG 270350Z AUTO VRB01KT CAVOK 03/02 Q1024 NOSIG,46.248,6.128,411,Geneva/Cointrin Arpt,CAVOK,[],VFR,,,,,,,,,,"Geneva/Cointrin Arpt, GE, CH",CH,Switzerland,3.7642873027037163
3470,LSGS,2026-02-27 03:52:14.562000+00:00,1772164200,2026-02-27T04:00:00.000Z,2.0,-1.0,70,4.0,6+,1027.0,2,METAR,METAR LSGS 270350Z AUTO 07004KT CAVOK 02/M01 Q1027,46.219,7.33,482,Sion Arpt,CAVOK,[],VFR,,,,,,,,,,"Sion Arpt, VS, CH",CH,Switzerland,-0.19091923863605587
1168,LSME,2026-02-27 03:53:16.785000+00:00,1772164200,2026-02-27T04:00:00.000Z,1.0,0.0,0,0.0,,1024.0,2,METAR,METAR LSME 270350Z AUTO 00000KT 9999NDV NCD 01/00 Q1024 RMK,47.092,8.305,427,Emmen Arpt,CLR,[],,,,,,,,,,,"Emmen Arpt, LU, CH",CH,Switzerland,13.74816666666667
3903,LSMP,2026-02-27 03:53:16.886000+00:00,1772164200,2026-02-27T04:00:00.000Z,2.0,1.0,0,0.0,,1024.0,2,METAR,METAR LSMP 270350Z AUTO 00000KT 9999NDV NCD 02/01 Q1024 RMK,46.844,6.916,490,Payerne Arpt,CLR,[],,,,,,,,,,,"Payerne Arpt, VD, CH",CH,Switzerland,14.369666666666673
2312,LSZA,2026-02-27 03:52:15.533000+00:00,1772164200,2026-02-27T04:00:00.000Z,3.0,3.0,340,2.0,3.73,1026.0,2,METAR,METAR LSZA 270350Z AUTO 34002KT 6000 NCD 03/03 Q1026,46.004,8.91,276,Lugano Arpt,CLR,[],MVFR,,,,,,,,,,"Lugano Arpt, TI, CH",CH,Switzerland,2.4475187526224413
401,LSZB,2026-02-27 03:52:15.464000+00:00,1772164200,2026-02-27T04:00:00.000Z,0.0,0.0,VRB,1.0,6+,1024.0,2,METAR,METAR LSZB 270350Z AUTO VRB01KT CAVOK 00/M00 Q1024,46.914,7.497,510,Bern Arpt,CAVOK,[],VFR,,,,,,,,,,"Bern Arpt, BE, CH",CH,Switzerland,0.5882850882104643
651,LSZC,2026-02-27 03:52:14.916000+00:00,1772164200,2026-02-27T04:00:00.000Z,5.0,1.0,260,2.0,6+,1024.0,2,METAR,METAR LSZC 270350Z AUTO 26002KT CAVOK 05/01 Q1024,46.972,8.392,445,Buochs Arpt,CAVOK,[],VFR,,,,,,,,,,"Buochs Arpt, NW, CH",CH,Switzerland,4.66740178982681
4180,LSZG,2026-02-27 03:52:14.642000+00:00,1772164200,2026-02-27T04:00:00.000Z,1.0,1.0,230,2.0,0.19,1024.0,2,METAR,METAR LSZG 270350Z AUTO 23002KT 0300 FG VV001 01/01 Q1024,47.179,7.415,428,Grenchen Arpt,OVX,"[{'cover': 'OVX', 'base': 100}]",LIFR,,FG,,,,,,,1.0,"Grenchen Arpt, SO, CH",CH,Switzerland,0.2276357154180807
4181,LSZH,2026-02-27 03:52:15.339000+00:00,1772164200,2026-02-27T04:00:00.000Z,2.0,1.0,190,1.0,6+,1024.0,18,METAR,METAR LSZH 270350Z AUTO 19001KT CAVOK 02/01 Q1024 NOSIG,47.48,8.536,424,Zürich Intl Arpt,CAVOK,[],VFR,,,,,,,,,,"Zürich Intl Arpt, ZH, CH",CH,Switzerland,2.7056198978726402
151,LSZR,2026-02-27 03:52:14.731000+00:00,1772164200,2026-02-27T04:00:00.000Z,1.0,1.0,220,2.0,4.97,1024.0,2,METAR,METAR LSZR 270350Z AUTO 22002KT 8000 FG NCD 01/01 Q1024,47.485,9.561,396,Rheineck/Altenrhein,CLR,[],MVFR,,FG,,,,,,,,"Rheineck/Altenrhein, SG, CH",CH,Switzerland,0.2276357154180807
3471,LSZS,2026-02-27 03:52:14.817000+00:00,1772164200,2026-02-27T04:00:00.000Z,-9.0,-10.0,210,2.0,6+,1026.0,2,METAR,METAR LSZS 270350Z AUTO 21002KT CAVOK M09/M10 Q1026,46.526,9.879,1708,Samedan Arpt,CAVOK,[],VFR,,,,,,,,,,"Samedan Arpt, GR, CH",CH,Switzerland,-10.871779470603746
1143,LTAC,2026-02-27 03:58:16.886000+00:00,1772164200,2026-02-27T04:00:00.000Z,-1.0,-6.0,320,9.0,6+,1018.0,16,METAR,METAR LTAC 270350Z 32009KT 9999 BKN040 M01/M06 Q1018 NOSIG RMK RWY21C 30012KT RWY03L 31007KT RWY21R 29010KT 250V320 RWY03R 29008KT RWY21L 31012KT,40.128,32.995,952,Ankara/Esenboğa Intl,BKN,"[{'cover': 'BKN', 'base': 4000}]",VFR,,,,,,,,,,"Ankara/Esenboğa Intl, AN, TR",TR,Turkey,-5.936685784357222
144,LTAF,2026-02-27 03:58:16.908000+00:00,1772164200,2026-02-27T04:00:00.000Z,8.0,-5.0,320,5.0,6+,1013.0,16,METAR,METAR LTAF 270350Z 32005KT 300V360 9999 SCT035 08/M05 Q1013 NOSIG RMK RWY23 33005KT 3CU035,36.989,35.293,19,Adana Arpt,SCT,"[{'cover': 'SCT', 'base': 3500}]",VFR,,,,,,,,,,"Adana Arpt, AD, TR",TR,Turkey,6.402226493280468
3878,LTAG,2026-02-27 03:58:15.938000+00:00,1772164200,2026-02-27T04:00:00.000Z,3.0,-1.0,20,4.0,6+,1013.0,16,METAR,METAR LTAG 270350Z 02004KT CAVOK 03/M01 Q1013 NOSIG RMK SKC,37.002,35.426,62,Adana/Incirlik,CAVOK,[],VFR,,,,,,,,,,"Adana/Incirlik, AD, TR",TR,Turkey,0.9763101877986221
391,LTAI,2026-02-27 03:58:16.933000+00:00,1772164200,2026-02-27T04:00:00.000Z,7.0,-7.0,320,18.0,6+,1020.0,16,METAR,METAR LTAI 270350Z 32018KT CAVOK 07/M07 Q1020 NOSIG RMK RWY18C 33017KT RWY36R 31020KT RWY18L 33018KT,36.9,30.798,50,Antalya Arpt,CAVOK,[],VFR,,,,,,,,,,"Antalya Arpt, AN, TR",TR,Turkey,2.4260086299715846
1432,LTAJ,2026-02-27 03:58:15.963000+00:00,1772164200,2026-02-27T04:00:00.000Z,3.0,-7.0,320,13.0,6+,1008.0,16,METAR,METAR LTAJ 270350Z 32013KT CAVOK 03/M07 Q1008 NOSIG RMK RWY10 31012KT 2CI200,36.947,37.479,684,Gaziantep Arpt,CAVOK,[],VFR,,,,,,,,,,"Gaziantep Arpt, GA, TR",TR,Turkey,-1.9323258000628702
2048,LTAN,2026-02-27 03:55:34.850000+00:00,1772164200,2026-02-27T04:00:00.000Z,-2.0,-6.0,320,18.0,6+,1019.0,16,METAR,METAR LTAN 270350Z 32018KT 9999 BKN040 M02/M06 Q1019 NOSIG,37.979,32.562,1029,Konya Arpt,BKN,"[{'cover': 'BKN', 'base': 4000}]",VFR,,,,,,,,,,"Konya Arpt, KA, TR",TR,Turkey,-9.41538869272041
2551,LTAP,2026-02-27 03:55:34.909000+00:00,1772164200,2026-02-27T04:00:00.000Z,2.0,-2.0,150,4.0,6+,1016.0,16,METAR,METAR LTAP 270350Z 15004KT 9999 SCT040 BKN100 02/M02 Q1016 NOSIG,40.826,35.52,536,Merzifon Arpt,BKN,"[{'cover': 'SCT', 'base': 4000}, {'cover': 'BKN', 'base': 10000}]",VFR,,,,,,,,,,"Merzifon Arpt, AM, TR",TR,Turkey,-0.19091923863605587
3885,LTAR,2026-02-27 03:55:34.960000+00:00,1772164200,2026-02-27T04:00:00.000Z,-6.0,-7.0,330,14.0,1.74,1011.0,0,METAR,METAR LTAR 270350Z 33014KT 2800 -SN BLSN BKN006 BKN025 OVC070 M06/M07 Q1011,39.798,36.894,1601,Sivas Arpt,OVC,"[{'cover': 'BKN', 'base': 600}, {'cover': 'BKN', 'base': 2500}, {'cover': 'OVC', 'base': 7000}]",IFR,,-SN BLSN,,,,,,,,"Sivas Arpt, SI, TR",TR,Turkey,-13.729338141933194
2543,LTAT,2026-02-27 03:58:15.987000+00:00,1772164200,2026-02-27T04:00:00.000Z,2.0,-8.0,310,14.0,6+,1009.0,16,METAR,METAR LTAT 270350Z 31014KT 270V330 9999 FEW015 SCT035 BKN090 02/M08 Q1009 NOSIG RMK RWY03 30023KT,38.435,38.092,850,Malatya Arpt,BKN,"[{'cover': 'FEW', 'base': 1500}, {'cover': 'SCT', 'base': 3500}, {'cover': 'BKN', 'base': 9000}]",VFR,,,,,,,,,,"Malatya Arpt, MA, TR",TR,Turkey,-3.42253686783941
42,LTAU,2026-02-27 04:00:39.272000+00:00,1772164560,2026-02-27T03:56:00.000Z,-2.0,-4.0,290,5.0,1.68,1016.0,0,SPECI,SPECI LTAU 270356Z 29005KT 240V350 2700 -SN SCT010 BKN025 OVC080 M02/M04 Q1016 BECMG 8000,38.77,35.495,1053,Kayseri Intl,OVC,"[{'cover': 'SCT', 'base': 1000}, {'cover': 'BKN', 'base': 2500}, {'cover': 'OVC', 'base': 8000}]",IFR,,-SN,,,,,,,,"Kayseri Intl, KA, TR",TR,Turkey,-5.4684293527800305
885,LTAY,2026-02-27 03:55:34.996000+00:00,1772164200,2026-02-27T04:00:00.000Z,-5.0,-8.0,VRB,2.0,6+,1022.0,16,METAR,METAR LTAY 270350Z VRB02KT CAVOK M05/M08 Q1022 NOSIG,37.785,29.701,851,Çardak Arpt,CAVOK,[],VFR,,,,,,,,,,"Çardak Arpt, DE, TR",TR,Turkey,-6.432013396195018
2542,LTAZ,2026-02-27 03:57:57.556000+00:00,1772164200,2026-02-27T04:00:00.000Z,-1.0,-5.0,300,6.0,6+,1017.0,0,METAR,METAR LTAZ 270350Z 30006KT 9999 BKN035 BKN080 M01/M05 Q1017 RMK RWY29 30008KT,38.771,34.521,944,Nevsehir Arpt,BKN,"[{'cover': 'BKN', 'base': 3500}, {'cover': 'BKN', 'base': 8000}]",VFR,,,,,,,,,,"Nevsehir Arpt, NE, TR",TR,Turkey,-4.778263593195575
1863,LTBA,2026-02-27 03:58:16.954000+00:00,1772164200,2026-02-27T04:00:00.000Z,5.0,0.0,320,7.0,6+,1029.0,0,METAR,METAR LTBA 270350Z 32007KT 280V340 9999 BKN035 05/M00 Q1029 RMK RWY23 34008KT 310V020,40.982,28.821,33,Istanbul/Ataturk Intl,BKN,"[{'cover': 'BKN', 'base': 3500}]",VFR,,,,,,,,,,"Istanbul/Ataturk Intl, IS, TR",TR,Turkey,2.1002412695051
639,LTBD,2026-02-27 03:55:32.491000+00:00,1772164200,2026-02-27T04:00:00.000Z,0.0,-1.0,0,0.0,6+,1025.0,0,METAR,METAR LTBD 270350Z 00000KT CAVOK M00/M01 Q1025,37.816,27.886,29,Aydin/Çıldır Arpt,CAVOK,[],VFR,,,,,,,,,,"Aydin/Çıldır Arpt, AY, TR",TR,Turkey,13.126666666666667
640,LTBF,2026-02-27 03:55:35.059000+00:00,1772164200,2026-02-27T04:00:00.000Z,1.0,-1.0,0,0.0,6+,1028.0,16,METAR,METAR LTBF 270350Z 00000KT 9999 FEW020 SCT035 01/M01 Q1028 NOSIG,39.619,27.926,95,Balikesir Arpt,SCT,"[{'cover': 'FEW', 'base': 2000}, {'cover': 'SCT', 'base': 3500}]",VFR,,,,,,,,,,"Balikesir Arpt, BA, TR",TR,Turkey,13.74816666666667
641,LTBH,2026-02-27 03:55:35.099000+00:00,1772164200,2026-02-27T04:00:00.000Z,0.0,-2.0,50,4.0,6+,1029.0,0,METAR,METAR LTBH 270350Z 05004KT CAVOK M00/M02 Q1029,40.14,26.425,8,Çanakkale Arpt,CAVOK,[],VFR,,,,,,,,,,"Çanakkale Arpt, CK, TR",TR,Turkey,-2.525378091505422
130,LTBJ,2026-02-27 03:58:16.983000+00:00,1772164200,2026-02-27T04:00:00.000Z,4.0,-4.0,360,22.0,6+,1025.0,16,METAR,METAR LTBJ 270350Z 36022KT CAVOK 04/M04 Q1025 NOSIG RMK RWY16 35014KT,38.285,27.155,123,Izmir/Menderes Arpt,CAVOK,[],VFR,,,,,,,,,,"Izmir/Menderes Arpt, IZ, TR",TR,Turkey,-2.080170472701622
1894,LTBQ,2026-02-27 03:57:09.649000+00:00,1772163240,2026-02-27T03:34:00.000Z,3.0,2.0,240,3.0,6+,1028.0,16,SPECI,SPECI LTBQ 270334Z 24003KT 190V270 9999 -SHRA SCT015 BKN025 03/02 Q1028 NOSIG RMK RWY09 24005KT 210V280,40.735,30.083,51,Topel Arpt),BKN,"[{'cover': 'SCT', 'base': 1500}, {'cover': 'BKN', 'base': 2500}]",MVFR,,-SHRA,,,,,,,,"Topel Arpt), KO, TR",TR,Turkey,1.6067805494260137
4072,LTBR,2026-02-27 03:57:57.634000+00:00,1772164200,2026-02-27T04:00:00.000Z,2.0,1.0,VRB,2.0,3.73,1027.0,0,METAR,METAR LTBR 270350Z VRB02KT 6000 FEW017 BKN030 BKN080 02/01 Q1027 BECMG 4000 BR RMK RWY07 31007KT,40.255,29.562,233,Bursa/Yenisehir Arpt,BKN,"[{'cover': 'FEW', 'base': 1700}, {'cover': 'BKN', 'base': 3000}, {'cover': 'BKN', 'base': 8000}]",MVFR,,,,,,,,,,"Bursa/Yenisehir Arpt, BR, TR",TR,Turkey,1.337577234020265
884,LTBS,2026-02-27 03:58:17.006000+00:00,1772164200,2026-02-27T04:00:00.000Z,7.0,-5.0,360,24.0,6+,1020.0,16,METAR,METAR LTBS 270350Z 36024KT CAVOK 07/M05 Q1020 NOSIG RMK RWY19 36016KT SKC,36.713,28.793,2,Dalaman Arpt,CAVOK,[],VFR,,,,,,,,,,"Dalaman Arpt, MU, TR",TR,Turkey,1.7170251198438495
3695,LTBU,2026-02-27 03:57:57.681000+00:00,1772164200,2026-02-27T04:00:00.000Z,1.0,-2.0,330,5.0,6+,1029.0,0,METAR,METAR LTBU 270350Z 33005KT 290V010 9999 BKN025 01/M02 Q1029 RMK RWY22 31005KT 280V350,41.139,27.919,165,Corlu Arpt,BKN,"[{'cover': 'BKN', 'base': 2500}]",MVFR,,,,,,,,,,"Corlu Arpt, TE, TR",TR,Turkey,-1.9072325989618832
145,LTBY,2026-02-27 03:55:35.182000+00:00,1772164200,2026-02-27T04:00:00.000Z,-1.0,-3.0,290,10.0,6+,1024.0,0,METAR,METAR LTBY 270350Z 29010KT 9999 BKN020 M01/M03 Q1024,39.81,30.519,788,Eskisehir/Polatkan Arpt,BKN,"[{'cover': 'BKN', 'base': 2000}]",MVFR,,,,,,,,,,"Eskisehir/Polatkan Arpt, ES, TR",TR,Turkey,-6.250207881038657
1154,LTCA,2026-02-27 03:55:35.238000+00:00,1772164200,2026-02-27T04:00:00.000Z,0.0,-4.0,270,4.0,6+,1007.0,16,METAR,METAR LTCA 270350Z 27004KT 200V310 9999 FEW012 BKN030 OVC090 00/M04 Q1007 NOSIG,38.607,39.291,887,Elazığ Arpt,OVC,"[{'cover': 'FEW', 'base': 1200}, {'cover': 'BKN', 'base': 3000}, {'cover': 'OVC', 'base': 9000}]",MVFR,,,,,,,,,,"Elazığ Arpt, EL, TR",TR,Turkey,-2.525378091505422
2723,LTCB,2026-02-27 03:56:43.482000+00:00,1772164200,2026-02-27T04:00:00.000Z,5.0,2.0,240,15.0,4.97,1017.0,17,METAR,METAR LTCB 270350Z COR 24015KT 8000 -RA BKN009 BKN028 05/02 Q1017 NOSIG,40.967,38.081,5,Ordu/Giresun Arpt,BKN,"[{'cover': 'BKN', 'base': 900}, {'cover': 'BKN', 'base': 2800}]",IFR,,-RA,,,,,,,,"Ordu/Giresun Arpt, GI, TR",TR,Turkey,0.26722606426040507
882,LTCC,2026-02-27 03:58:16.030000+00:00,1772164200,2026-02-27T04:00:00.000Z,2.0,1.0,280,10.0,6+,1006.0,16,METAR,METAR LTCC 270350Z 28010KT 9999 SCT035 BKN100 02/01 Q1006 NOSIG RMK RWY16 28010KT 3CU035 5AC100,37.894,40.201,676,Diyarbakır,BKN,"[{'cover': 'SCT', 'base': 3500}, {'cover': 'BKN', 'base': 10000}]",VFR,,,,,,,,,,"Diyarbakır, DI, TR",TR,Turkey,-2.4900104207887472
1155,LTCD,2026-02-27 03:55:35.323000+00:00,1772164200,2026-02-27T04:00:00.000Z,-1.0,-7.0,280,12.0,6+,1009.0,16,METAR,METAR LTCD 270350Z 28012KT 9999 FEW010 BKN033 OVC070 M01/M07 Q1009 NOSIG,39.71,39.527,1146,Erzincan Arpt,OVC,"[{'cover': 'FEW', 'base': 1000}, {'cover': 'BKN', 'base': 3300}, {'cover': 'OVC', 'base': 7000}]",VFR,,,,,,,,,,"Erzincan Arpt, EZ, TR",TR,Turkey,-6.805387664445621
1144,LTCE,2026-02-27 03:58:16.051000+00:00,1772164200,2026-02-27T04:00:00.000Z,-6.0,-7.0,270,11.0,0.56,1004.0,16,METAR,METAR LTCE 270350Z 27011KT 0900 R26L/P1500U R08R/P1500N R26R/P1500N R08L/P1500D SN BKN020 OVC070 M06/M07 Q1004 NOSIG RMK RWY08R 25009KT RWY26R 26012KT RWY08L 26010KT 6SC020 8AS070,39.956,41.17,1758,Erzurum Intl,OVC,"[{'cover': 'BKN', 'base': 2000}, {'cover': 'OVC', 'base': 7000}]",LIFR,,SN,,,,,,,,"Erzurum Intl, EZ, TR",TR,Turkey,-12.853958451772042
2049,LTCF,2026-02-27 03:55:35.369000+00:00,1772164200,2026-02-27T04:00:00.000Z,-2.0,-2.0,70,10.0,1.55,1003.0,16,METAR,METAR LTCF 270350Z 07010KT 2500 -SN BLSN BR FEW006 BKN025 OVC070 M02/M02 Q1003 RESN NOSIG,40.562,43.115,1794,Kars/Harakani Arpt,OVC,"[{'cover': 'FEW', 'base': 600}, {'cover': 'BKN', 'base': 2500}, {'cover': 'OVC', 'base': 7000}]",IFR,,-SN BLSN BR,,,,,,,,"Kars/Harakani Arpt, KR, TR",TR,Turkey,-7.50360703445529
3884,LTCG,2026-02-27 03:58:16.076000+00:00,1772164200,2026-02-27T04:00:00.000Z,5.0,2.0,210,7.0,6+,1015.0,0,METAR,METAR LTCG 270350Z 21007KT 9999 -SHRA SCT016 BKN028 05/02 Q1015 BECMG 29015G25KT RMK RWY29 20006KT 160V240,40.995,39.782,28,Trabzon Arpt,BKN,"[{'cover': 'SCT', 'base': 1600}, {'cover': 'BKN', 'base': 2800}]",MVFR,,-SHRA,,,0.6,,,,,"Trabzon Arpt, TR, TR",TR,Turkey,2.1002412695051
3886,LTCI,2026-02-27 03:56:43.507000+00:00,1772164200,2026-02-27T04:00:00.000Z,-2.0,-3.0,150,6.0,4.35,1003.0,1,METAR,METAR LTCI 270350Z COR 15006KT 110V180 7000 -SN SCT010 BKN025 M02/M03 Q1003 TEMPO 2900 BR,38.469,43.337,1654,Van Arpt,BKN,"[{'cover': 'SCT', 'base': 1000}, {'cover': 'BKN', 'base': 2500}]",MVFR,,-SN,,,,,,,,"Van Arpt, VA, TR",TR,Turkey,-5.9820705432147925
386,LTCJ,2026-02-27 03:58:16.104000+00:00,1772164200,2026-02-27T04:00:00.000Z,2.0,1.0,360,6.0,6+,1006.0,16,METAR,METAR LTCJ 270350Z 36006KT 9999 FEW025CB BKN035 BKN080 02/01 Q1006 RESHRA NOSIG RMK RWY20 35006KT 1CB025 5CU035 7AC080,37.93,41.117,559,Batman Arpt,BKN,"[{'cover': 'FEW', 'base': 2500}, {'cover': 'BKN', 'base': 3500}, {'cover': 'BKN', 'base': 8000}]",VFR,,,,,,,,,,"Batman Arpt, SI, TR",TR,Turkey,-1.1668427431379098
2549,LTCK,2026-02-27 03:55:32.524000+00:00,1772164200,2026-02-27T04:00:00.000Z,0.0,0.0,270,4.0,3.73,1004.0,0,METAR,METAR LTCK 270350Z 27004KT 6000 -SN FEW010 BKN030 BKN070 M00/M00 Q1004,38.748,41.661,1267,Muş Arpt,BKN,"[{'cover': 'FEW', 'base': 1000}, {'cover': 'BKN', 'base': 3000}, {'cover': 'BKN', 'base': 7000}]",MVFR,,-SN,,,,,,,,"Muş Arpt, MU, TR",TR,Turkey,-2.525378091505422
2721,LTCM,2026-02-27 03:55:32.546000+00:00,1772164200,2026-02-27T04:00:00.000Z,6.0,3.0,300,10.0,4.35,1021.0,0,METAR,METAR LTCM 270350Z 30010KT 7000 SCT015 BKN027 BKN070 06/03 Q1021 RESHRA,42.019,35.072,7,Sinop Arpt,BKN,"[{'cover': 'SCT', 'base': 1500}, {'cover': 'BKN', 'base': 2700}, {'cover': 'BKN', 'base': 7000}]",MVFR,,,,,,,,,,"Sinop Arpt, SI, TR",TR,Turkey,2.5235861928777896
1867,LTCN,2026-02-27 03:55:35.463000+00:00,1772164200,2026-02-27T04:00:00.000Z,5.0,-9.0,340,18.0,6+,1010.0,0,METAR,METAR LTCN 270350Z 34018G32KT 300V010 9999 FEW040 SCT100 05/M09 Q1010,37.539,36.953,505,Kahramanmaraş Arpt,SCT,"[{'cover': 'FEW', 'base': 4000}, {'cover': 'SCT', 'base': 10000}]",VFR,32.0,,,,,,,,,"Kahramanmaraş Arpt, KA, TR",TR,Turkey,-0.20541299729330634
143,LTCP,2026-02-27 03:55:32.574000+00:00,1772164200,2026-02-27T04:00:00.000Z,4.0,-7.0,10,18.0,6+,1007.0,0,METAR,METAR LTCP 270350Z 01018KT 9999 SCT035 BKN090 04/M07 Q1007,37.731,38.469,672,Adiyaman Arpt,BKN,"[{'cover': 'SCT', 'base': 3500}, {'cover': 'BKN', 'base': 9000}]",VFR,,,,,,,,,,"Adiyaman Arpt, AD, TR",TR,Turkey,-1.5211238109257528
2550,LTCR,2026-02-27 03:55:32.613000+00:00,1772164200,2026-02-27T04:00:00.000Z,4.0,3.0,70,5.0,6+,1006.0,0,METAR,METAR LTCR 270350Z 07005KT 9999 SCT040 BKN100 04/03 Q1006,37.232,40.638,529,Mardin Arpt,BKN,"[{'cover': 'SCT', 'base': 4000}, {'cover': 'BKN', 'base': 10000}]",VFR,,,,,,,,,,"Mardin Arpt, MA, TR",TR,Turkey,1.6539641548562676
1440,LTCS,2026-02-27 03:57:57.799000+00:00,1772164200,2026-02-27T04:00:00.000Z,2.0,-2.0,350,8.0,6+,1006.0,0,METAR,METAR LTCS 270350Z 35008KT 9999 FEW030 BKN080 02/M02 Q1006 RMK RWY22 34006KT 2CU030 5AC080,37.445,38.904,825,Şanlıurfa GAP Arpt,BKN,"[{'cover': 'FEW', 'base': 3000}, {'cover': 'BKN', 'base': 8000}]",VFR,,,,,,,,,,"Şanlıurfa GAP Arpt, SA, TR",TR,Turkey,-1.8986886881237177
1694,LTCT,2026-02-27 03:55:35.497000+00:00,1772164200,2026-02-27T04:00:00.000Z,2.0,2.0,VRB,2.0,6+,1004.0,0,METAR,METAR LTCT 270350Z VRB02KT 9999 -RA BKN025 OVC070 02/02 Q1004,39.977,43.878,936,Iğdır Arpt,OVC,"[{'cover': 'BKN', 'base': 2500}, {'cover': 'OVC', 'base': 7000}]",MVFR,,-RA,,,,,,,,"Iğdır Arpt, IG, TR",TR,Turkey,1.337577234020265
2724,LTCV,2026-02-27 03:55:35.535000+00:00,1772164200,2026-02-27T04:00:00.000Z,4.0,3.0,180,8.0,6+,1007.0,0,METAR,METAR LTCV 270350Z 18008KT 9999 SCT004 SCT030 BKN080 04/03 Q1007 RESHRA,37.365,42.06,620,Sirnak Arpt,BKN,"[{'cover': 'SCT', 'base': 400}, {'cover': 'SCT', 'base': 3000}, {'cover': 'BKN', 'base': 8000}]",VFR,,,,,,,,,,"Sirnak Arpt, SN, TR",TR,Turkey,0.5637842499222777
4070,LTCW,2026-02-27 03:56:43.558000+00:00,1772164200,2026-02-27T04:00:00.000Z,-3.0,-3.0,0,0.0,0.62,1004.0,0,METAR,METAR LTCW 270350Z 00000KT 1000 R11/0800U R29/1100N -SN BCFG SCT003 BKN023 M03/M03 Q1004 RESN,37.55,44.238,1852,Yüksekova Arpt,BKN,"[{'cover': 'SCT', 'base': 300}, {'cover': 'BKN', 'base': 2300}]",LIFR,,BCFG -SN,,,,,,,,"Yüksekova Arpt, HA, TR",TR,Turkey,11.262166666666667
1689,LTDA,2026-02-27 03:56:43.529000+00:00,1772164200,2026-02-27T04:00:00.000Z,8.0,-4.0,320,28.0,6+,1011.0,16,METAR,METAR LTDA 270350Z 32028G38KT 9999 SCT040 08/M04 Q1011 NOSIG 4CU040,36.361,36.283,80,Hatay Arpt,SCT,"[{'cover': 'SCT', 'base': 4000}]",VFR,38.0,,,,,,,,,"Hatay Arpt, HT, TR",TR,Turkey,2.6900451353871406
1864,LTFC,2026-02-27 03:57:57.819000+00:00,1772164200,2026-02-27T04:00:00.000Z,-2.0,-8.0,330,20.0,6+,1021.0,0,METAR,METAR LTFC 270350Z 33020KT 9999 FEW035 M02/M08 Q1021 RMK RWY23 32016KT 1SC035,37.855,30.368,862,Isparta/Demirel Arpt,FEW,"[{'cover': 'FEW', 'base': 3500}]",VFR,,,,,,,,,,"Isparta/Demirel Arpt, IZ, TR",TR,Turkey,-9.777484881882705
1156,LTFD,2026-02-27 03:55:35.606000+00:00,1772164200,2026-02-27T04:00:00.000Z,1.0,-3.0,0,0.0,6+,1029.0,0,METAR,METAR LTFD 270350Z 00000KT CAVOK 01/M03 Q1029,39.559,27.025,15,Balikesir/Seyit Arpt,CAVOK,[],VFR,,,,,,,,,,"Balikesir/Seyit Arpt, BA, TR",TR,Turkey,13.74816666666667
385,LTFE,2026-02-27 03:58:16.135000+00:00,1772164200,2026-02-27T04:00:00.000Z,5.0,-5.0,VRB,2.0,6+,1024.0,16,METAR,METAR LTFE 270350Z VRB02KT CAVOK 05/M05 Q1024 NOSIG RMK RWY10 VRB06KT,37.245,27.673,6,Milas-Bodrun Arpt,CAVOK,[],VFR,,,,,,,,,,"Milas-Bodrun Arpt, MU, TR",TR,Turkey,4.66740178982681
1441,LTFG,2026-02-27 03:55:35.648000+00:00,1772164200,2026-02-27T04:00:00.000Z,8.0,-6.0,40,8.0,6+,1017.0,0,METAR,METAR LTFG 270350Z 04008KT 010V090 CAVOK 08/M06 Q1017,36.299,32.3,26,Gazipasa Arpt,CAVOK,[],VFR,,,,,,,,,,"Gazipasa Arpt, AN, TR",TR,Turkey,5.488730126014277
3696,LTFH,2026-02-27 03:55:35.684000+00:00,1772164200,2026-02-27T04:00:00.000Z,6.0,4.0,290,17.0,3.73,1018.0,16,METAR,METAR LTFH 270350Z 29017KT 6000 -SHRA SCT012 BKN027 BKN070 06/04 Q1018 NOSIG,41.255,36.567,7,Samsun-Çarşamba Arpt,BKN,"[{'cover': 'SCT', 'base': 1200}, {'cover': 'BKN', 'base': 2700}, {'cover': 'BKN', 'base': 7000}]",MVFR,,-SHRA,,,,,,,,"Samsun-Çarşamba Arpt, SA, TR",TR,Turkey,1.253638217899646
3206,LTFJ,2026-02-27 03:57:57.864000+00:00,1772164200,2026-02-27T04:00:00.000Z,3.0,1.0,50,7.0,6+,1028.0,16,METAR,METAR LTFJ 270350Z 05007KT 9999 -SHRA BKN026 03/01 Q1028 NOSIG RMK RWY24R 03004KT RWY06R 03008KT RWY24L 03006KT,40.899,29.309,83,Istanbul/Gokcen Intl,BKN,"[{'cover': 'BKN', 'base': 2600}]",MVFR,,-SHRA,,,,,,,,"Istanbul/Gokcen Intl, KO, TR",TR,Turkey,-0.3364539526780103
1865,LTFM,2026-02-27 03:57:57.888000+00:00,1772164200,2026-02-27T04:00:00.000Z,4.0,0.0,360,12.0,6+,1028.0,16,METAR,METAR LTFM 270350Z 36012KT 9999 BKN028 04/00 Q1028 NOSIG RMK RWY17L 36011KT RWY34L 34011KT RWY16R 35010KT RWY36 36013KT RWY18 36013KT,41.262,28.74,99,Istanbul Arpt,BKN,"[{'cover': 'BKN', 'base': 2800}]",MVFR,,,,,,,,,,"Istanbul Arpt, IS, TR",TR,Turkey,-0.4448673361129292
3267,LUKK,2026-02-27 03:33:26.577000+00:00,1772163000,2026-02-27T03:30:00.000Z,-1.0,-4.0,30,7.0,6+,1030.0,16,METAR,METAR LUKK 270330Z 03007KT 9999 OVC016 M01/M04 Q1030 NOSIG,46.928,28.931,102,Chişinău Arpt,OVC,"[{'cover': 'OVC', 'base': 1600}]",MVFR,,,,,,,,,,"Chişinău Arpt, CU, MD",MD,"Moldova, Republic of",-5.209844397044219
3466,LWSK,2026-02-27 03:45:19.481000+00:00,1772164200,2026-02-27T04:00:00.000Z,-1.0,-4.0,50,4.0,6+,1028.0,16,METAR,METAR LWSK 270350Z 05004KT CAVOK M01/M04 Q1028 NOSIG,41.952,21.627,232,Skopje Intl,CAVOK,[],VFR,,,,,,,,,,"Skopje Intl, IL, MK",MK,"Macedonia, the former Yugoslav Republic of",-3.692607517940104
1527,LXGB,2026-02-27 03:32:10.868000+00:00,1772162400,2026-02-27T03:20:00.000Z,15.0,13.0,80,14.0,6+,1023.0,2,METAR,METAR LXGB 270320Z AUTO 08014KT 9999 FEW023/// OVC190/// 15/13 Q1023,36.151,-5.35,5,Gibraltar Arpt,OVC,"[{'cover': 'FEW', 'base': 2300}, {'cover': 'OVC', 'base': 19000}]",VFR,,,,,,,,,,"Gibraltar Arpt, , GI",GI,Gibraltar,13.326015202562981
454,LYBE,2026-02-27 03:33:13.459000+00:00,1772163000,2026-02-27T03:30:00.000Z,-1.0,-2.0,100,3.0,6+,1027.0,16,METAR,METAR LYBE 270330Z 10003KT CAVOK M01/M02 Q1027 NOSIG,44.824,20.291,93,Belgrade/Tesla Arpt,CAVOK,[],VFR,,,,,,,,,,"Belgrade/Tesla Arpt, BE, RS",RS,Serbia,-2.963936727545201
455,LYBT,2026-02-27 03:33:13.515000+00:00,1772163000,2026-02-27T03:30:00.000Z,-1.0,-1.0,0,0.0,6+,1028.0,16,METAR,METAR LYBT 270330Z 00000KT CAVOK M01/M01 Q1028 NOSIG,44.935,20.258,78,Batajnica,CAVOK,[],VFR,,,,,,,,,,"Batajnica, VO, RS",RS,Serbia,12.505166666666668
2113,LYKV,2026-02-27 03:33:13.563000+00:00,1772163000,2026-02-27T03:30:00.000Z,-3.0,-4.0,0,0.0,4.35,1028.0,16,METAR,METAR LYKV 270330Z 00000KT 7000 NSC M03/M04 Q1028 NOSIG,43.818,20.587,209,Kraljevo/Ladevci Arpt,CLR,[],MVFR,,,,,,,,,,"Kraljevo/Ladevci Arpt, RA, RS",RS,Serbia,11.262166666666667
1754,LYNI,2026-02-27 03:33:13.606000+00:00,1772163000,2026-02-27T03:30:00.000Z,-2.0,-2.0,VRB,2.0,6+,1028.0,16,METAR,METAR LYNI 270330Z VRB02KT 9999 MIFG NSC M02/M02 Q1028 NOSIG,43.338,21.863,197,Niš Arpt,CLR,[],VFR,,MIFG,,,,,,,,"Niš Arpt, NI, RS",RS,Serbia,-3.1021888403884685
3754,LYPG,2026-02-27 03:33:13.654000+00:00,1772163000,2026-02-27T03:30:00.000Z,4.0,0.0,330,4.0,6+,1026.0,16,METAR,METAR LYPG 270330Z 33004KT CAVOK 04/00 Q1026 NOSIG,42.359,19.252,32,Podgorica Arpt,CAVOK,[],VFR,,,,,,,,,,"Podgorica Arpt, PO, ME",ME,Montenegro,2.143539614233304
3755,LYTV,2026-02-27 03:33:13.702000+00:00,1772163000,2026-02-27T03:30:00.000Z,1.0,1.0,0,0.0,6+,1026.0,2,METAR,METAR LYTV 270330Z AUTO 00000KT CAVOK 01/01 Q1026,42.405,18.723,3,Tivat Arpt,CAVOK,[],VFR,,,,,,,,,,"Tivat Arpt, TI, ME",ME,Montenegro,13.74816666666667
546,LZIB,2026-02-27 04:01:15.756000+00:00,1772164800,2026-02-27T04:00:00.000Z,0.0,-2.0,30,6.0,6+,1027.0,16,METAR,METAR LZIB 270400Z 03006KT CAVOK 00/M02 Q1027 NOSIG,48.17,17.207,129,Bratislava/Ivanka Arpt,CAVOK,[],VFR,,,,,,,,,,"Bratislava/Ivanka Arpt, BL, SK",SK,Slovakia,-3.5744566431763536
1975,LZKZ,2026-02-27 04:01:15.793000+00:00,1772164800,2026-02-27T04:00:00.000Z,-3.0,-4.0,190,1.0,6+,1028.0,16,METAR,METAR LZKZ 270400Z 19001KT CAVOK M03/M04 Q1028 NOSIG,48.661,21.24,227,Košice Intl,CAVOK,[],VFR,,,,,,,,,,"Košice Intl, KI, SK",SK,Slovakia,-2.587717126282788
3269,LZPP,2026-02-27 03:34:18.944000+00:00,1772163000,2026-02-27T03:30:00.000Z,-4.0,-4.0,VRB,2.0,6+,1027.0,2,METAR,METAR LZPP 270330Z AUTO VRB02KT 9999 // NCD M04/M04 Q1027,48.613,17.832,160,Piešťany Arpt,CLR,[],VFR,,,,,,,,,,"Piešťany Arpt, TA, SK",SK,Slovakia,-5.322071877592833
3641,LZTT,2026-02-27 04:01:15.827000+00:00,1772164800,2026-02-27T04:00:00.000Z,-6.0,-7.0,0,0.0,6+,1025.0,0,METAR,METAR LZTT 270400Z 00000KT CAVOK M06/M07 Q1025,49.068,20.25,693,Poprad/Tatry Arpt,CAVOK,[],VFR,,,,,,,,,,"Poprad/Tatry Arpt, NI, SK",SK,Slovakia,9.39766666666667
1756,LZZI,2026-02-27 03:34:19.148000+00:00,1772163000,2026-02-27T03:30:00.000Z,-3.0,-4.0,0,0.0,5.59,1027.0,2,METAR,METAR LZZI 270330Z AUTO 00000KT 9000 // NCD M03/M04 Q1027,49.231,18.613,311,Žilina Arpt,CLR,[],VFR,,,,,,,,,,"Žilina Arpt, ZI, SK",SK,Slovakia,11.262166666666667
2851,MDPC,2026-02-27 04:00:39.813000+00:00,1772164800,2026-02-27T04:00:00.000Z,24.0,21.0,70,9.0,4.97,1017.0,0,METAR,METAR MDPC 270400Z 07009KT 8000 VCSH SCT017 BKN300 24/21 Q1017,18.566,-68.356,10,Punta Cana Intl,BKN,"[{'cover': 'SCT', 'base': 1700}, {'cover': 'BKN', 'base': 30000}]",MVFR,,VCSH,,,,,,,,"Punta Cana Intl, AL, DO",DO,Dominican Republic,25.134216283401354
3321,MDSD,2026-02-27 04:00:39.836000+00:00,1772164800,2026-02-27T04:00:00.000Z,23.0,21.0,70,8.0,6+,1017.0,0,METAR,METAR MDSD 270400Z 07008KT 9999 FEW014CB FEW016 BKN300 23/21 Q1017,18.433,-69.667,18,Santo Domingo/Améric,BKN,"[{'cover': 'FEW', 'base': 1400}, {'cover': 'FEW', 'base': 1600}, {'cover': 'BKN', 'base': 30000}]",VFR,,,,,,,,,,"Santo Domingo/Améric, DN, DO",DO,Dominican Republic,23.957277161359276
3322,MDST,2026-02-27 04:00:39.860000+00:00,1772164800,2026-02-27T04:00:00.000Z,23.0,21.0,110,5.0,6+,1017.0,0,METAR, MDST 270400Z 11005KT 050V130 9999 FEW016 SCT300 23/21 Q1017,19.407,-70.614,175,Santiago/Cibao Intl,SCT,"[{'cover': 'FEW', 'base': 1600}, {'cover': 'SCT', 'base': 30000}]",VFR,,,,,,,,,,"Santiago/Cibao Intl, SA, DO",DO,Dominican Republic,24.208210262371225
1330,MGGT,2026-02-27 04:01:28.025000+00:00,1772164800,2026-02-27T04:00:00.000Z,17.0,14.0,190,4.0,4.35,1020.0,0,METAR,METAR MGGT 270400Z 19004KT 7000 SKC 17/14 Q1020 A3012 RMK HZ,14.585,-90.526,1497,Guatemala/Aurora Arpt,SKC,[],MVFR,,,,,,,,,,"Guatemala/Aurora Arpt, GU, GT",GT,Guatemala,17.31752215788417
2866,MGPB,2026-02-27 03:59:33.284000+00:00,1772164800,2026-02-27T04:00:00.000Z,22.0,21.0,0,0.0,6+,1009.0,0,METAR,METAR MGPB 270400Z 00000KT 9999 SCT016 22/21 Q1009 A2980,15.737,-88.589,6,Puerto Barrios Arpt,SCT,"[{'cover': 'SCT', 'base': 1600}]",VFR,,,,,,,,,,"Puerto Barrios Arpt, IZ, GT",GT,Guatemala,26.799666666666667
1973,MHLC,2026-02-27 03:52:26.935000+00:00,1772164800,2026-02-27T04:00:00.000Z,21.0,20.0,VRB,2.0,6+,1010.0,16,METAR,METAR MHLC 270400Z VRB02KT 9999 FEW030 21/20 Q1010 A2983 NOSIG,15.737,-86.864,13,La Ceiba/Goloson Intl,FEW,"[{'cover': 'FEW', 'base': 3000}]",VFR,,,,,,,,,,"La Ceiba/Goloson Intl, AT, HN",HN,Honduras,22.42646608746172
3116,MHLM,2026-02-27 03:52:26.989000+00:00,1772164800,2026-02-27T04:00:00.000Z,22.0,21.0,170,5.0,6+,1011.0,16,METAR,METAR MHLM 270400Z 17005KT CAVOK 22/21 Q1011 A2986 NOSIG,15.442,-87.934,32,San Pedro Sula/Moral,CAVOK,[],VFR,,,,,,,,,,"San Pedro Sula/Moral, CR, HN",HN,Honduras,23.02114467776517
3115,MHRO,2026-02-27 03:52:26.863000+00:00,1772164800,2026-02-27T04:00:00.000Z,26.0,24.0,90,19.0,6+,1011.0,16,METAR,METAR MHRO 270400Z 09019KT CAVOK 26/24 Q1011 A2985 NOSIG,16.316,-86.523,6,Roatan/Galvez Intl,CAVOK,[],VFR,,,,,,,,,,"Roatan/Galvez Intl, IB, HN",HN,Honduras,27.408343871815756
3640,MHTE,2026-02-27 03:54:10.022000+00:00,1772164800,2026-02-27T04:00:00.000Z,24.0,21.0,VRB,2.0,6+,1011.0,0,METAR,METAR MHTE 270400Z VRB02KT CAVOK 24/21 Q1011 A2985,15.776,-87.473,7,Tela Arpt,CAVOK,[],VFR,,,,,,,,,,"Tela Arpt, AT, HN",HN,Honduras,25.756290643268276
3639,MHTG,2026-02-27 03:52:27.041000+00:00,1772164800,2026-02-27T04:00:00.000Z,21.0,16.0,0,0.0,6+,1018.0,16,METAR,METAR MHTG 270400Z 00000KT 9999 BKN030 21/16 Q1018 A3006 NOSIG,14.06,-87.216,1001,Tegucigalpa/Toncontín Intl,BKN,"[{'cover': 'BKN', 'base': 3000}]",MVFR,,,,,,,,,,"Tegucigalpa/Toncontín Intl, FM, HN",HN,Honduras,26.178166666666666
1811,MKJP,2026-02-27 04:02:38.417000+00:00,1772164800,2026-02-27T04:00:00.000Z,27.0,21.0,90,12.0,,1014.0,0,METAR,METAR MKJP 270400Z 09012KT //// ////// 27/21 Q1014 RMK CLD FROM CEILOMETER RWY 30 NCD,17.942,-76.798,3,Kingston/Manley Intl,,,,,,,,,,,,,"Kingston/Manley Intl, KI, JM",JM,Jamaica,28.813526174217447
154,MMAA,2026-02-27 04:02:14.914000+00:00,1772164080,2026-02-27T04:00:00.000Z,26.0,22.0,260,3.0,5,1010.6,0,METAR,METAR MMAA 270348Z 26003KT 5SM SKC 26/22 A2984 RMK HZY,16.758,-99.754,5,Acapulco/Alvarez Intl,SKC,[],MVFR,,,,,,,,,,"Acapulco/Alvarez Intl, GR, MX",MX,Mexico,27.888404892010524
2743,MMAN,2026-02-27 03:59:28.699000+00:00,1772163600,2026-02-27T03:40:00.000Z,29.0,3.0,120,4.0,10+,1010.2,0,METAR,METAR MMAN 270340Z 12004KT 10SM SKC 29/03 A2983,25.865,-100.239,447,Monterrey/Del Norte Intl,SKC,[],VFR,,,,,,,,,,"Monterrey/Del Norte Intl, NL, MX",MX,Mexico,31.324275275100344
160,MMAS,2026-02-27 04:00:37.964000+00:00,1772163600,2026-02-27T03:40:00.000Z,18.0,-3.0,30,5.0,8,1020.7,0,METAR,METAR MMAS 270340Z 03005KT 8SM SKC 18/M03 A3014 RMK HZY,21.702,-102.318,1866,Aguascalientes Arpt,SKC,[],VFR,,,,,,,,,,"Aguascalientes Arpt, AG, MX",MX,Mexico,18.272882339340967
883,MMCL,2026-02-27 04:01:28.053000+00:00,1772164200,2026-02-27T04:00:00.000Z,22.0,19.0,180,5.0,10+,1011.9,0,METAR,METAR MMCL 270350Z 18005KT 10SM SKC 22/19 A2988 RMK HZY,24.766,-107.476,35,Culiacan Intl,SKC,[],VFR,,,,,,,,,,"Culiacan Intl, SI, MX",MX,Mexico,23.02114467776517
900,MMCP,2026-02-27 03:59:28.997000+00:00,1772163600,2026-02-27T03:40:00.000Z,23.0,19.0,0,0.0,7,1010.9,0,METAR,METAR MMCP 270340Z 00000KT 7SM SKC 23/19 A2985,19.817,-90.502,9,Campeche/Ongay Intl,SKC,[],VFR,,,,,,,,,,"Campeche/Ongay Intl, CM, MX",MX,Mexico,27.42116666666667
660,MMCS,2026-02-27 04:00:38.008000+00:00,1772163600,2026-02-27T03:40:00.000Z,19.0,0.0,0,0.0,10+,1017.0,0,METAR,METAR MMCS 270340Z 00000KT 10SM SCT250 19/00 A3003 RMK 8/008,31.636,-106.427,1194,Ciudad Juarez/Gonzales Intl,SCT,"[{'cover': 'SCT', 'base': 25000}]",VFR,,,,,,,,,,"Ciudad Juarez/Gonzales Intl, CH, MX",MX,Mexico,24.93516666666667
899,MMCU,2026-02-27 03:59:28.749000+00:00,1772163600,2026-02-27T03:40:00.000Z,20.0,-1.0,10,5.0,10+,1019.0,0,METAR,METAR MMCU 270340Z 01005KT 10SM SKC 20/M01 A3009,28.701,-105.965,1349,Chihuahua Intl,SKC,[],VFR,,,,,,,,,,"Chihuahua Intl, CH, MX",MX,Mexico,20.647013508553073
1462,MMGL,2026-02-27 03:59:28.841000+00:00,1772163600,2026-02-27T03:40:00.000Z,23.0,2.0,270,7.0,7,1018.7,1,METAR,METAR MMGL 270340Z COR 27007KT 7SM SKC 23/02 A3008 RMK HZY,20.523,-103.312,1531,Guadalajara Arpt,SKC,[],VFR,,,,,,,,,,"Guadalajara Arpt, GT, MX",MX,Mexico,24.030498269153057
1707,MMHO,2026-02-27 03:59:31.372000+00:00,1772163600,2026-02-27T03:40:00.000Z,30.0,2.0,300,6.0,10+,1010.2,0,METAR,METAR MMHO 270340Z 30006KT 10SM SKC 30/02 A2983,29.097,-111.051,186,Hermosillo/Garcia Intl,SKC,[],VFR,,,,,,,,,,"Hermosillo/Garcia Intl, SO, MX",MX,Mexico,32.53975185740027
2072,MMLM,2026-02-27 03:59:31.396000+00:00,1772163900,2026-02-27T04:00:00.000Z,21.0,17.0,0,0.0,10+,1010.9,0,METAR,METAR MMLM 270345Z 00000KT 10SM SKC 21/17 A2985,25.688,-109.085,6,Los Mochis Arpt,SKC,[],VFR,,,,,,,,,,"Los Mochis Arpt, SI, MX",MX,Mexico,26.178166666666666
410,MMLO,2026-02-27 03:59:28.867000+00:00,1772163600,2026-02-27T03:40:00.000Z,23.0,-3.0,40,5.0,8,1020.1,0,METAR,METAR MMLO 270340Z 04005KT 8SM SKC 23/M03 A3012,20.997,-101.481,1805,Leon/Del Bajío Arpt,SKC,[],VFR,,,,,,,,,,"Leon/Del Bajío Arpt, GT, MX",MX,Mexico,24.208210262371225
2075,MMLP,2026-02-27 03:59:31.419000+00:00,1772163600,2026-02-27T03:40:00.000Z,24.0,12.0,250,4.0,8,1012.6,0,METAR,METAR MMLP 270340Z 25004KT 8SM SKC 24/12 A2990,24.077,-110.364,16,La Paz/de León Intl,SKC,[],VFR,,,,,,,,,,"La Paz/de León Intl, BS, MX",MX,Mexico,25.48812814292694
2321,MMMD,2026-02-27 04:01:39.940000+00:00,1772163780,2026-02-27T03:43:00.000Z,24.0,19.0,130,5.0,6,1011.3,0,METAR,METAR MMMD 270343Z 13005KT 6SM SKC 24/19 A2986 RMK HZY,20.936,-89.659,10,Mérida Intl,SKC,[],VFR,,,,,,,,,,"Mérida Intl, YU, MX",MX,Mexico,25.39527584697727
2561,MMML,2026-02-27 03:59:31.442000+00:00,1772163840,2026-02-27T03:44:00.000Z,26.0,8.0,270,5.0,10+,1013.6,0,METAR,METAR MMML 270344Z 27005KT 10SM SKC 26/08 A2993,32.631,-115.238,21,Mexicali Intl,SKC,[],VFR,,,,,,,,,,"Mexicali Intl, BC, MX",MX,Mexico,27.769407016189373
2564,MMMM,2026-02-27 04:00:38.034000+00:00,1772163600,2026-02-27T03:40:00.000Z,19.0,11.0,200,4.0,7,1020.4,0,METAR,METAR MMMM 270340Z 20004KT 7SM SKC 19/11 A3013 RMK HZY,19.844,-101.037,1840,Morelia/Mujica Intl,SKC,[],VFR,,,,,,,,,,"Morelia/Mujica Intl, MI, MX",MX,Mexico,19.651981010753524
2317,MMMX,2026-02-27 04:01:28.073000+00:00,1772164020,2026-02-27T04:00:00.000Z,18.0,1.0,50,6.0,9,1024.1,16,METAR,METAR MMMX 270347Z 05006KT 9SM SKC 18/01 A3024 NOSIG RMK HZY,19.436,-99.072,2224,Mexico City Intl,SKC,[],VFR,,,,,,,,,,"Mexico City Intl, DF, MX",MX,Mexico,18.094068457169627
2565,MMMY,2026-02-27 03:59:28.775000+00:00,1772163600,2026-02-27T03:40:00.000Z,27.0,4.0,170,5.0,8,1009.9,0,METAR,METAR MMMY 270340Z 17005KT 8SM SKC 27/04 A2982,25.774,-100.104,382,Monterrey Intl,SKC,[],VFR,,,,,,,,,,"Monterrey Intl, NL, MX",MX,Mexico,28.95647260079541
2562,MMMZ,2026-02-27 03:59:31.464000+00:00,1772163720,2026-02-27T03:42:00.000Z,20.0,19.0,0,0.0,10+,1012.3,0,METAR,METAR MMMZ 270342Z 00000KT 10SM SKC 20/19 A2989,23.161,-106.271,7,Mazatlàn/Buelna Intl,SKC,[],VFR,,,,,,,,,,"Mazatlàn/Buelna Intl, SI, MX",MX,Mexico,25.556666666666672
2981,MMPR,2026-02-27 04:00:38.147000+00:00,1772163600,2026-02-27T03:40:00.000Z,25.0,22.0,310,2.0,8,1012.3,0,METAR,METAR MMPR 270340Z 31002KT 8SM SCT015 25/22 A2989 RMK 8/500 HZY,20.68,-105.25,6,Puerto Vallarta Intl,SCT,"[{'cover': 'SCT', 'base': 1500}]",VFR,,,,,,,,,,"Puerto Vallarta Intl, JA, MX",MX,Mexico,26.866232161870457
3227,MMQT,2026-02-27 04:00:38.316000+00:00,1772163600,2026-02-27T03:40:00.000Z,18.0,-1.0,140,6.0,8,1022.4,0,METAR,METAR MMQT 270340Z 14006KT 8SM SCT100 18/M01 A3019 RMK 8/030,20.617,-100.194,1909,Querétaro Intl,SCT,"[{'cover': 'SCT', 'base': 10000}]",VFR,,,,,,,,,,"Querétaro Intl, QT, MX",MX,Mexico,18.094068457169627
3487,MMSD,2026-02-27 03:59:31.489000+00:00,1772163600,2026-02-27T03:40:00.000Z,22.0,11.0,0,0.0,10+,1012.6,0,METAR,METAR MMSD 270340Z 00000KT 10SM SKC 22/11 A2990,23.157,-109.72,107,San Jose Del Cabo Intl,SKC,[],VFR,,,,,,,,,,"San Jose Del Cabo Intl, BS, MX",MX,Mexico,26.799666666666667
2742,MMSM,2026-02-27 03:59:29.243000+00:00,1772164020,2026-02-27T04:00:00.000Z,16.0,-1.0,140,4.0,9,1024.1,0,METAR,METAR MMSM 270347Z 14004KT 9SM SKC 16/M01 A3024 RMK HZY,19.763,-99.002,2250,Santa Lucia,SKC,[],VFR,,,,,,,,,,"Santa Lucia, MX, MX",MX,Mexico,16.15029273144948
3486,MMSP,2026-02-27 03:59:28.945000+00:00,1772163600,2026-02-27T03:40:00.000Z,19.0,-5.0,280,7.0,8,1020.4,0,METAR,METAR MMSP 270340Z 28007KT 8SM SKC 19/M05 A3013,22.256,-100.93,1841,San Luis Potosi Intl,SKC,[],VFR,,,,,,,,,,"San Luis Potosi Intl, SL, MX",MX,Mexico,19.157107824786845
3711,MMTC,2026-02-27 03:59:28.798000+00:00,1772163600,2026-02-27T03:40:00.000Z,23.0,-1.0,0,0.0,8,1015.7,0,METAR,METAR MMTC 270340Z 00000KT 8SM SKC 23/M01 A2999,25.564,-103.408,1128,Torreón Intl,SKC,[],VFR,,,,,,,,,,"Torreón Intl, CO, MX",MX,Mexico,27.42116666666667
3707,MMTG,2026-02-27 03:59:29.054000+00:00,1772164140,2026-02-27T04:00:00.000Z,22.0,10.0,270,5.0,10+,1013.0,0,METAR,METAR MMTG 270349Z 27005KT 10SM SKC 22/10 A2991,16.571,-93.03,463,Tuxtla Gutierre Intl,SKC,[],VFR,,,,,,,,,,"Tuxtla Gutierre Intl, CS, MX",MX,Mexico,23.02114467776517
3709,MMTJ,2026-02-27 04:00:38.055000+00:00,1772163660,2026-02-27T03:41:00.000Z,18.0,12.0,30,2.0,8,1016.3,0,METAR,METAR MMTJ 270341Z 03002KT 8SM SKC 18/12 A3001 RMK HZY,32.544,-116.982,150,Tijuana Intl,SKC,[],VFR,,,,,,,,,,"Tijuana Intl, BC, MX",MX,Mexico,19.096641531655184
3710,MMTL,2026-02-27 04:01:39.962000+00:00,1772163600,2026-02-27T03:40:00.000Z,24.0,23.0,0,0.0,6,1013.6,0,METAR,METAR MMTL 270340Z 00000KT 6SM SKC 24/23 A2993 RMK HZY ?? METAR ,20.1725,-87.6622,20,Tulum Intl,SKC,[],VFR,,,,,,,,,,"Tulum Intl, QR, MX",MX,Mexico,28.042666666666666
3712,MMTO,2026-02-27 04:00:38.076000+00:00,1772163600,2026-02-27T03:40:00.000Z,13.0,7.0,310,4.0,7,1027.2,0,METAR,METAR MMTO 270340Z 31004KT 7SM SKC 13/07 A3033 RMK HZY,19.343,-99.568,2582,Toluca Arpt,SKC,[],VFR,,,,,,,,,,"Toluca Arpt, EM, MX",MX,Mexico,12.648604452145433
3684,MMTP,2026-02-27 04:01:39.996000+00:00,1772164320,2026-02-27T04:00:00.000Z,21.0,18.0,0,0.0,8,1011.9,0,METAR, MMTP 270352Z 00000KT 8SM SKC 21/18 A2988 RMK TWR HZ,14.795,-92.371,27,Tapachula Intl,SKC,[],VFR,,,,,,,,,,"Tapachula Intl, TM, MX",MX,Mexico,26.178166666666666
896,MMUN,2026-02-27 04:01:39.981000+00:00,1772164140,2026-02-27T04:00:00.000Z,26.0,23.0,120,8.0,7,1014.0,0,METAR,METAR MMUN 270349Z 12008KT 7SM FEW020 26/23 A2994 RMK 8/100,21.038,-86.855,13,Cancún Intl,FEW,"[{'cover': 'FEW', 'base': 2000}]",VFR,,,,,,,,,,"Cancún Intl, QR, MX",MX,Mexico,27.65098656842827
3908,MMVR,2026-02-27 04:00:38.198000+00:00,1772163780,2026-02-27T03:43:00.000Z,22.0,21.0,0,0.0,4,1009.9,0,METAR,METAR MMVR 270343Z 00000KT 4SM SKC 22/21 A2982 RMK BR HZ,19.144,-96.189,26,Veracruz/Jara Intl,SKC,[],MVFR,,,,,,,,,,"Veracruz/Jara Intl, VE, MX",MX,Mexico,26.799666666666667
2860,MPMG,2026-02-27 04:02:54.163000+00:00,1772164800,2026-02-27T04:00:00.000Z,26.0,23.0,320,5.0,,1010.0,2,METAR,METAR MPMG 270400Z AUTO 32005KT //// R01///// // FEW044/// 26/23 Q1010,8.967,-79.555,6,Panama/Gelabert Intl,FEW,"[{'cover': 'FEW', 'base': 4400}]",,,,,,,,,,,"Panama/Gelabert Intl, PA, PA",PA,Panama,27.769407016189373
2861,MPTO,2026-02-27 04:02:54.205000+00:00,1772164800,2026-02-27T04:00:00.000Z,26.0,23.0,270,3.0,6+,1010.0,16,METAR,METAR MPTO 270400Z 27003KT 230V330 CAVOK 26/23 Q1010 NOSIG,9.056,-79.391,7,Tocumen Intl,CAVOK,[],VFR,,,,,,,,,,"Tocumen Intl, PA, PA",PA,Panama,27.888404892010524
1967,MRLB,2026-02-27 03:56:42.590000+00:00,1772164800,2026-02-27T04:00:00.000Z,27.0,19.0,110,11.0,6+,1009.6,0,METAR,METAR MRLB 270400Z 11011KT CAVOK 27/19 A2981,10.589,-85.552,79,Liberia/Oduber Intl,CAVOK,[],VFR,,,,,,,,,,"Liberia/Oduber Intl, G, CR",CR,Costa Rica,28.828646147661136
3337,MROC,2026-02-27 03:59:32.320000+00:00,1772164800,2026-02-27T04:00:00.000Z,22.0,16.0,90,4.0,6+,1015.3,16,METAR,METAR MROC 270400Z 09004KT 9999 FEW040 22/16 A2998 NOSIG,9.991,-84.218,900,San José/Santamaria Arpt,FEW,"[{'cover': 'FEW', 'base': 4000}]",VFR,,,,,,,,,,"San José/Santamaria Arpt, A, CR",CR,Costa Rica,23.153669290057575
3119,MSLP,2026-02-27 03:59:33.333000+00:00,1772164800,2026-02-27T04:00:00.000Z,22.0,19.0,80,3.0,6+,1010.0,16,METAR,METAR MSLP 270400Z 08003KT CAVOK 22/19 Q1010 A2984 NOSIG,13.438,-89.056,25,El Salvador Intl,CAVOK,[],VFR,,,,,,,,,,"El Salvador Intl, PA, SV",SV,El Salvador,23.317687615039304
649,MUCC,2026-02-27 04:00:54.525000+00:00,1772164200,2026-02-27T04:00:00.000Z,24.0,23.0,90,7.0,,1016.0,2,METAR,METAR MUCC 270350Z AUTO 09007KT 24/23 Q1016,22.456,-78.339,7,Cayo Coco/Rey Arpt,,,,,,,,,,,,,"Cayo Coco/Rey Arpt, 8, CU",CU,Cuba,25.248845880244605
891,MUCL,2026-02-27 04:00:54.501000+00:00,1772164200,2026-02-27T04:00:00.000Z,23.0,22.0,60,4.0,,1016.0,2,METAR,METAR MUCL 270350Z AUTO 06004KT 040V100 23/22 Q1016,21.621,-81.552,5,Cayo Largo del Sur Arpt,,,,,,,,,,,,,"Cayo Largo del Sur Arpt, 99, CU",CU,Cuba,24.32089871649226
648,MUCM,2026-02-27 04:00:54.470000+00:00,1772164200,2026-02-27T04:00:00.000Z,22.0,22.0,50,6.0,4.97,1017.0,0,METAR,METAR MUCM 270350Z 05006KT 8000 FEW020 22/22 Q1017,21.42,-77.85,125,Camaguey/Agramonte Intl,FEW,"[{'cover': 'FEW', 'base': 2000}]",MVFR,,,,,,,,,,"Camaguey/Agramonte Intl, 9, CU",CU,Cuba,22.909296257246503
2539,MUGM,2026-02-27 03:58:08.953000+00:00,1772164260,2026-02-27T04:00:00.000Z,23.9,21.7,320,3.0,10+,1016.0,12,METAR,METAR MUGM 270351Z 32003KT 10SM FEW020 24/22 A3000 RMK AO2 SLP161 T02390217 $,19.909,-75.206,21,Guantanamo Bayi/Point Arpt,FEW,"[{'cover': 'FEW', 'base': 2000}]",VFR,,,1016.1,,,,,,,"Guantanamo Bayi/Point Arpt, 14, CU",CU,Cuba,25.48877832160063
1447,MUHA,2026-02-27 04:00:54.446000+00:00,1772164200,2026-02-27T04:00:00.000Z,22.0,21.0,80,3.0,4.97,1017.0,0,METAR,METAR MUHA 270350Z 08003KT 8000 FEW030 22/21 Q1017,22.991,-82.41,61,Havana/Martí Intl,FEW,"[{'cover': 'FEW', 'base': 3000}]",MVFR,,,,,,,,,,"Havana/Martí Intl, 3, CU",CU,Cuba,23.317687615039304
1699,MUHG,2026-02-27 04:00:54.422000+00:00,1772164200,2026-02-27T04:00:00.000Z,23.0,23.0,80,6.0,,1016.0,2,METAR,METAR MUHG 270350Z AUTO 08006KT 23/23 Q1016,20.786,-76.316,100,Holguin/Pais Intl,,,,,,,,,,,,,"Holguin/Pais Intl, 11, CU",CU,Cuba,24.11310320726573
3468,MUSC,2026-02-27 04:00:54.394000+00:00,1772164200,2026-02-27T04:00:00.000Z,21.0,21.0,90,5.0,4.97,1017.0,0,METAR,METAR MUSC 270350Z 09005KT 8000 FEW030 21/21 Q1017,22.494,-79.931,97,Santa Clara/Santamaria Intl,FEW,"[{'cover': 'FEW', 'base': 3000}]",MVFR,,,,,,,,,,"Santa Clara/Santamaria Intl, 5, CU",CU,Cuba,21.83407909315911
3897,MUVR,2026-02-27 04:00:54.369000+00:00,1772164200,2026-02-27T04:00:00.000Z,21.0,20.0,VRB,1.0,5.59,1017.0,0,METAR,METAR MUVR 270350Z VRB01KT 9000 FEW035 21/20 Q1017,23.033,-81.435,65,Varadero/Gomez Arpt,FEW,"[{'cover': 'FEW', 'base': 3500}]",VFR,,,,,,,,,,"Varadero/Gomez Arpt, 4, CU",CU,Cuba,22.820300589663244
1020,MYGF,2026-02-27 04:01:28.486000+00:00,1772164800,2026-02-27T04:00:00.000Z,21.0,19.0,120,4.0,,1018.4,2,METAR,METAR MYGF 270400Z AUTO 12004KT //// R24///// // NCD 21/19 A3007,26.555,-78.698,2,Freeport Intl,CLR,[],,,,,,,,,,,"Freeport Intl, WG, BS",BS,Bahamas,21.98643986362289
2462,MYNN,2026-02-27 04:00:51.843000+00:00,1772164800,2026-02-27T04:00:00.000Z,23.0,21.0,120,8.0,6+,1018.4,0,METAR,METAR MYNN 270400Z 12008KT 9999 FEW025 23/21 A3007,25.04,-77.467,5,Nassau Intl,FEW,"[{'cover': 'FEW', 'base': 2500}]",VFR,,,,,,,,,,"Nassau Intl, NP, BS",BS,Bahamas,23.957277161359276
4154,MYSM,2026-02-27 04:00:42.383000+00:00,1772164800,2026-02-27T04:00:00.000Z,23.0,23.0,100,6.0,6+,1018.7,2,METAR,METAR MYSM 270400Z AUTO 10006KT CAVOK 23/23 A3008,24.064,-74.529,5,Cockburn Town Arpt,CAVOK,[],VFR,,,,,,,,,,"Cockburn Town Arpt, , BS",BS,Bahamas,24.11310320726573
25,NCAI,2026-02-27 04:01:15.871000+00:00,1772164800,2026-02-27T04:00:00.000Z,30.0,26.0,10,6.0,,1010.0,2,METAR,METAR NCAI 270400Z AUTO 01006KT //// ////// 30/26 Q1010,-18.829,-159.766,7,Cook Isl/Aitutaki Arpt,,,,,,,,,,,,,"Cook Isl/Aitutaki Arpt, , CK",CK,Cook Islands,32.53975185740027
26,NCAT,2026-02-27 04:01:15.892000+00:00,1772164800,2026-02-27T04:00:00.000Z,29.0,23.0,350,2.0,,1010.0,2,METAR,METAR NCAT 270400Z AUTO 35002KT //// ////// 29/23 Q1010,-19.968,-158.119,11,Cook Isl/Atui Enua,,,,,,,,,,,,,"Cook Isl/Atui Enua, , CK",CK,Cook Islands,31.30599823627919
2192,NCMG,2026-02-27 04:01:15.913000+00:00,1772164800,2026-02-27T04:00:00.000Z,29.0,25.0,300,5.0,,1010.0,2,METAR,METAR NCMG 270400Z AUTO 30005KT //// ////// 29/25 Q1010,-21.896,-157.907,14,Cook Isl/Mangaia Arpt,,,,,,,,,,,,,"Cook Isl/Mangaia Arpt, , CK",CK,Cook Islands,31.330603770007517
2193,NCMH,2026-02-27 04:01:15.936000+00:00,1772164800,2026-02-27T04:00:00.000Z,30.0,24.0,110,4.0,,1007.0,2,METAR,METAR NCMH 270400Z AUTO 11004KT //// ////// 30/24 Q1007,-10.374,-161.004,1,Cook Isl/Manihiki Arpt,,,,,,,,,,,,,"Cook Isl/Manihiki Arpt, , CK",CK,Cook Islands,32.49150470153503
2465,NCMK,2026-02-27 04:01:15.963000+00:00,1772164800,2026-02-27T04:00:00.000Z,30.0,22.0,20,2.0,,1011.0,2,METAR,METAR NCMK 270400Z AUTO 02002KT //// ////// 30/22 Q1011,-20.137,-157.344,13,Cook Isl/Mauke Arpt,,,,,,,,,,,,,"Cook Isl/Mauke Arpt, , CK",CK,Cook Islands,32.41593975488137
2466,NCMR,2026-02-27 04:01:15.993000+00:00,1772164800,2026-02-27T04:00:00.000Z,,,,,,,2,METAR,METAR NCMR 270400Z AUTO NIL,-19.842,-157.703,8,Cook Isl/Mitiaro Arpt,,,,,,,,,,,,,"Cook Isl/Mitiaro Arpt, , CK",CK,Cook Islands,
3122,NCPK,2026-02-27 04:01:16.102000+00:00,1772164800,2026-02-27T04:00:00.000Z,,,,,,,2,METAR,METAR NCPK 270400Z AUTO NIL,-10.915,-165.839,5,Cook Isl/Pukapuka Arpt,,,,,,,,,,,,,"Cook Isl/Pukapuka Arpt, , CK",CK,Cook Islands,
2869,NCPY,2026-02-27 04:01:16.080000+00:00,1772164800,2026-02-27T04:00:00.000Z,29.0,24.0,70,14.0,,1007.0,2,METAR,METAR NCPY 270400Z AUTO 07014KT //// ////// 29/24 Q1007,-9.01,-158.034,2,Cook Isl/Penrhyn Arpt,,,,,,,,,,,,,"Cook Isl/Penrhyn Arpt, , CK",CK,Cook Islands,31.3629174322271
3121,NCRG,2026-02-27 04:01:15.850000+00:00,1772164800,2026-02-27T04:00:00.000Z,27.0,23.0,130,1.0,6+,1010.0,0,METAR,METAR NCRG 270400Z 13001KT 9999 SCT021 BKN045 27/23 Q1010 RERA,-21.203,-159.806,7,Cook Isl/Rarotonga Arpt,BKN,"[{'cover': 'SCT', 'base': 2100}, {'cover': 'BKN', 'base': 4500}]",VFR,,,,,,,,,,"Cook Isl/Rarotonga Arpt, , CK",CK,Cook Islands,29.17230501864976
2456,NFFN,2026-02-27 03:57:23.503000+00:00,1772164800,2026-02-27T04:00:00.000Z,30.0,23.0,360,11.0,6+,1005.0,16,METAR,METAR NFFN 270400Z 36011KT 9999 SCT025TCU SCT045 BKN120 30/23 Q1005 NOSIG,-17.755,177.443,14,Nadi Intl,BKN,"[{'cover': 'SCT', 'base': 2500}, {'cover': 'SCT', 'base': 4500}, {'cover': 'BKN', 'base': 12000}]",VFR,,,,,,,,,,"Nadi Intl, WG, FJ",FJ,Fiji,32.61797383851871
3331,NFNA,2026-02-27 03:57:39.279000+00:00,1772164800,2026-02-27T04:00:00.000Z,28.0,25.0,20,3.0,6+,1004.0,0,METAR,METAR NFNA 270400Z 02003KT 9999 FEW018 SCT120 BKN300 28/25 Q1004,-18.043,178.559,6,Fiji/Nausori Intl,BKN,"[{'cover': 'FEW', 'base': 1800}, {'cover': 'SCT', 'base': 12000}, {'cover': 'BKN', 'base': 30000}]",VFR,,,,,,,,,,"Fiji/Nausori Intl, C, FJ",FJ,Fiji,30.173763530496128
1976,NFNL,2026-02-27 03:55:33.253000+00:00,1772164800,2026-02-27T04:00:00.000Z,26.0,24.0,210,5.0,6+,1005.0,0,METAR,METAR NFNL 270400Z 21005KT 9999 SCT024TCU BKN044 OVC110 26/24 Q1005,-16.467,179.339,17,Lambasa Arpt,OVC,"[{'cover': 'SCT', 'base': 2400}, {'cover': 'BKN', 'base': 4400}, {'cover': 'OVC', 'base': 11000}]",VFR,,,,,,,,,,"Lambasa Arpt, N, FJ",FJ,Fiji,27.769407016189373
3807,NFNM,2026-02-27 03:57:09.529000+00:00,1772164800,2026-02-27T04:00:00.000Z,29.0,26.0,120,8.0,6+,1005.0,0,METAR,METAR NFNM 270400Z 12008KT 9999 VCSH SCT017TCU SCT046 BKN100 29/26 Q1005,-16.691,-179.877,21,Matei Taveuni Isl,BKN,"[{'cover': 'SCT', 'base': 1700}, {'cover': 'SCT', 'base': 4600}, {'cover': 'BKN', 'base': 10000}]",VFR,,VCSH,,,,,,,,"Matei Taveuni Isl, N, FJ",FJ,Fiji,31.344695975497263
3344,NFNS,2026-02-27 03:56:02.882000+00:00,1772164800,2026-02-27T04:00:00.000Z,27.0,24.0,250,3.0,3.11,,0,SPECI,SPECI NFNS 270400Z 25003KT 5000 1500SW SHRA FEW015CB SCT020TCU BKN042 27/24 Q////,-16.803,179.341,4,Sususavu Arpt,BKN,"[{'cover': 'FEW', 'base': 1500}, {'cover': 'SCT', 'base': 2000}, {'cover': 'BKN', 'base': 4200}]",MVFR,,SHRA,,,,,,,,"Sususavu Arpt, N, FJ",FJ,Fiji,29.031084211253326
3636,NFTF,2026-02-27 04:02:01.500000+00:00,1772164800,2026-02-27T04:00:00.000Z,29.0,27.0,220,5.0,6+,1005.0,0,METAR,METAR NFTF 270400Z 22005KT 9999 SCT016TCU 29/27 Q1005,-21.241,-175.15,38,Tonga/Fua Amotu Intl,SCT,"[{'cover': 'SCT', 'base': 1600}]",VFR,,,,,,,,,,"Tonga/Fua Amotu Intl, 4, TO",TO,Tonga,31.330603770007517
1588,NFTL,2026-02-27 04:02:01.480000+00:00,1772164800,2026-02-27T04:00:00.000Z,27.0,24.0,330,4.0,6+,1005.0,0,METAR,METAR NFTL 270400Z 33004KT 9999 SCT016TCU BKN100 27/24 Q1005,-19.777,-174.34,10,Tonga/Lifuka Island/Ha'apai Arpt,BKN,"[{'cover': 'SCT', 'base': 1600}, {'cover': 'BKN', 'base': 10000}]",VFR,,,,,,,,,,"Tonga/Lifuka Island/Ha'apai Arpt, 2, TO",TO,Tonga,28.989816422230977
3809,NFTV,2026-02-27 04:02:01.461000+00:00,1772164800,2026-02-27T04:00:00.000Z,28.0,24.0,330,6.0,6+,1006.0,0,METAR,METAR NFTV 270400Z 33006KT 9999 FEW007 FEW015TCU BKN270 28/24 Q1006,-18.585,-173.9628,71,Vavau Isl/Lupepau Arpt,BKN,"[{'cover': 'FEW', 'base': 700}, {'cover': 'FEW', 'base': 1500}, {'cover': 'BKN', 'base': 27000}]",VFR,,,,,,,,,,"Vavau Isl/Lupepau Arpt, 5, TO",TO,Tonga,30.132137957361845
1902,NIUE,2026-02-27 03:34:50.569000+00:00,1772163000,2026-02-27T03:30:00.000Z,28.0,23.0,350,7.0,6+,1007.0,2,METAR,METAR NIUE 270330Z AUTO 35007KT 320V020 9999 FEW024/// 28/23 Q1007,-19.079,-169.926,22,Niue/Hanan Intl,FEW,"[{'cover': 'FEW', 'base': 2400}]",VFR,,,,,,,,,,"Niue/Hanan Intl, , NU",NU,Niue,30.122236324610817
2961,NSTU,2026-02-27 03:59:08.811000+00:00,1772164200,2026-02-27T04:00:00.000Z,28.1,23.4,VRB,6.0,12,1006.5,0,METAR,METAR NSTU 270350Z VRB06KT 12SM FEW017 SCT040 OVC100 28/23 A2972 RMK SLP066 T02810234,-14.337,-170.721,8,Pago Pago/Tafuna Intl,OVC,"[{'cover': 'FEW', 'base': 1700}, {'cover': 'SCT', 'base': 4000}, {'cover': 'OVC', 'base': 10000}]",VFR,,,1006.6,,,,,,,"Pago Pago/Tafuna Intl, , AS",AS,American Samoa,30.25251865236375
3038,NTAA,2026-02-27 03:33:13.361000+00:00,1772163000,2026-02-27T03:30:00.000Z,30.0,23.0,230,3.0,6+,1010.0,18,METAR,METAR NTAA 270330Z AUTO 23003KT CAVOK 30/23 Q1010 NOSIG,-17.554,-149.607,2,Tahiti Island/Faaa Intl,CAVOK,[],VFR,,,,,,,,,,"Tahiti Island/Faaa Intl, WI, PF",PF,French Polynesia,32.459122168981736
284,NTTB,2026-02-27 04:00:43.645000+00:00,1772164800,2026-02-27T04:00:00.000Z,29.0,24.0,100,8.0,6+,1010.0,18,METAR,METAR NTTB 270400Z AUTO 10008KT 070V130 9999 FEW023/// 29/24 Q1010 NOSIG,-16.445,-151.752,6,Bora-Bora,FEW,"[{'cover': 'FEW', 'base': 2300}]",VFR,,,,,,,,,,"Bora-Bora, LI, PF",PF,French Polynesia,31.344695975497263
1585,NTTO,2026-02-27 04:01:24.553000+00:00,1772164800,2026-02-27T04:00:00.000Z,28.0,24.0,80,10.0,6+,1012.0,2,METAR,METAR NTTO 270400Z AUTO 08010KT 9999 NCD 28/24 Q1012,-18.075,-140.946,3,Hao/Tuamoto,CLR,[],VFR,,,,,,,,,,"Hao/Tuamoto , TG, PF",PF,French Polynesia,30.098367568043777
3338,NVSS,2026-02-27 03:59:44.461000+00:00,1772164800,2026-02-27T04:00:00.000Z,27.0,24.0,340,8.0,6+,1001.0,0,METAR,METAR NVSS 270400Z 34008KT 310V010 9999 FEW020 BKN040 OVC110 27/24 Q1001,-15.505,167.22,47,Santo/Pekoa Intl,OVC,"[{'cover': 'FEW', 'base': 2000}, {'cover': 'BKN', 'base': 4000}, {'cover': 'OVC', 'base': 11000}]",VFR,,,,,,,,,,"Santo/Pekoa Intl, SA, VU",VU,Vanuatu,28.882223037451254
3816,NVVV,2026-02-27 03:59:44.485000+00:00,1772164800,2026-02-27T04:00:00.000Z,27.0,25.0,300,16.0,6+,,0,METAR,METAR NVVV 270400Z 30016KT 270V350 9999 FEW010 FEW015CB BKN018 OVC100 27/25 ,-17.695,168.313,23,Efate/Bauerfield Intl,OVC,"[{'cover': 'FEW', 'base': 1000}, {'cover': 'FEW', 'base': 1500}, {'cover': 'BKN', 'base': 1800}, {'cover': 'OVC', 'base': 10000}]",MVFR,,,,,,,,,,"Efate/Bauerfield Intl, SE, VU",VU,Vanuatu,28.762010332495226
2640,NWWW,2026-02-27 04:01:34.919000+00:00,1772164800,2026-02-27T04:00:00.000Z,29.0,24.0,140,15.0,6+,1001.0,2,METAR,METAR NWWW 270400Z AUTO 14015KT 9999 ///TCU 29/24 Q1001 TEMPO 4500 SHRA BKN014 FEW018TCU FEW020CB,-22.015,166.213,16,La Tontouta Arpt,,,,,,,,,,,,,"La Tontouta Arpt, SU, NC",NC,New Caledonia,31.365278968375588
205,NZAA,2026-02-27 03:34:49.994000+00:00,1772163000,2026-02-27T03:30:00.000Z,24.0,17.0,230,14.0,6+,1015.0,2,METAR,METAR NZAA 270330Z AUTO 23014KT 9999 NCD 24/17 Q1015,-37.008,174.792,7,Auckland Intl,CLR,[],VFR,,,,,,,,,,"Auckland Intl, AU, NZ",NZ,New Zealand,24.921166635918485
703,NZCH,2026-02-27 03:34:50.178000+00:00,1772163000,2026-02-27T03:30:00.000Z,16.0,8.0,210,6.0,6+,1022.0,2,METAR,METAR NZCH 270330Z AUTO 21006KT 160V240 9999 FEW035/// OVC070/// 16/08 Q1022,-43.489,172.528,36,Christchurch Intl,OVC,"[{'cover': 'FEW', 'base': 3500}, {'cover': 'OVC', 'base': 7000}]",VFR,,,,,,,,,,"Christchurch Intl, CA, NZ",NZ,New Zealand,15.686454557131176
1228,NZDN,2026-02-27 03:34:50.360000+00:00,1772163000,2026-02-27T03:30:00.000Z,15.0,7.0,150,3.0,6+,1021.0,2,METAR,METAR NZDN 270330Z AUTO 15003KT 9999 BKN070/// 15/07 Q1021,-45.928,170.198,2,Dunedin Arpt,BKN,"[{'cover': 'BKN', 'base': 7000}]",VFR,,,,,,,,,,"Dunedin Arpt, OT, NZ",NZ,New Zealand,15.318932380339671
2773,NZOH,2026-02-27 03:34:49.714000+00:00,1772163000,2026-02-27T03:30:00.000Z,17.0,12.0,110,14.0,6+,1018.0,2,METAR,METAR NZOH 270330Z AUTO 11014KT 9999 OVC029/// 17/12 Q1018,-40.196,175.381,45,Ohakea Arpt,OVC,"[{'cover': 'OVC', 'base': 2900}]",MVFR,,,,,,,,,,"Ohakea Arpt, MW, NZ",NZ,New Zealand,15.902715521086435
4213,NZQN,2026-02-27 03:34:50.449000+00:00,1772163000,2026-02-27T03:30:00.000Z,17.0,4.0,250,7.0,6+,1020.0,2,METAR,METAR NZQN 270330Z AUTO 25007KT 9999 NCD 17/04 Q1020,-45.021,168.739,356,Queenstown Arpt,CLR,[],VFR,,,,,,,,,,"Queenstown Arpt, OT, NZ",NZ,New Zealand,16.720412602603744
4101,NZWN,2026-02-27 03:34:50.084000+00:00,1772163000,2026-02-27T03:30:00.000Z,15.0,9.0,150,15.0,6+,1021.0,2,METAR,METAR NZWN 270330Z AUTO 15015KT 9999 FEW037/// OVC060/// 15/09 Q1021,-41.331,174.806,12,Wellington Intl,OVC,"[{'cover': 'FEW', 'base': 3700}, {'cover': 'OVC', 'base': 6000}]",VFR,,,,,,,,,,"Wellington Intl, WG, NZ",NZ,New Zealand,13.224748107641728
458,OBBI,2026-02-27 03:33:44.537000+00:00,1772163000,2026-02-27T03:30:00.000Z,18.0,10.0,320,6.0,6+,1012.0,16,METAR,METAR OBBI 270330Z 32006KT CAVOK 18/10 Q1012 NOSIG,26.271,50.634,6,Bahrain Intl,CAVOK,[],VFR,,,,,,,,,,"Bahrain Intl, MU, BH",BH,Bahrain,18.094068457169627
12,OEAB,2026-02-27 04:00:39.463000+00:00,1772164800,2026-02-27T04:00:00.000Z,13.0,11.0,210,10.0,5.59,1021.0,16,METAR,METAR OEAB 270400Z 21010KT 9000 NSC 13/11 Q1021 NOSIG,18.24,42.657,2092,Abha Intl,CLR,[],VFR,,,,,,,,,,"Abha Intl, AS, SA",SA,Saudi Arabia,11.297380266794237
1580,OEAH,2026-02-27 04:00:39.493000+00:00,1772164800,2026-02-27T04:00:00.000Z,12.0,12.0,0,0.0,6+,1013.0,16,METAR,METAR OEAH 270400Z 00000KT CAVOK 12/12 Q1013 NOSIG,25.285,49.485,180,Al Ahsa Arpt,CAVOK,[],VFR,,,,,,,,,,"Al Ahsa Arpt, AS, SA",SA,Saudi Arabia,20.58466666666667
11,OEBA,2026-02-27 04:00:39.544000+00:00,1772164800,2026-02-27T04:00:00.000Z,16.0,9.0,200,6.0,6+,1017.0,16,METAR,METAR OEBA 270400Z 20006KT CAVOK 16/09 Q1017 NOSIG,20.296,41.634,1659,Al Baha Arpt,CAVOK,[],VFR,,,,,,,,,,"Al Baha Arpt, BH, SA",SA,Saudi Arabia,15.686454557131176
290,OEBH,2026-02-27 04:00:39.564000+00:00,1772164800,2026-02-27T04:00:00.000Z,16.0,-7.0,160,2.0,6+,1014.0,16,METAR,METAR OEBH 270400Z 16002KT CAVOK 16/M07 Q1014 NOSIG,19.984,42.621,1167,Bisha Arpt,CAVOK,[],VFR,,,,,,,,,,"Bisha Arpt, AS, SA",SA,Saudi Arabia,16.876758494450808
783,OEDF,2026-02-27 04:00:39.600000+00:00,1772164800,2026-02-27T04:00:00.000Z,10.0,7.0,VRB,2.0,6+,1013.0,16,METAR,METAR OEDF 270400Z VRB02KT CAVOK 10/07 Q1013 NOSIG,26.45,49.817,15,Dammam/King Fahd Intl,CAVOK,[],VFR,,,,,,,,,,"Dammam/King Fahd Intl, AS, SA",SA,Saudi Arabia,10.217109382837716
1005,OEDM,2026-02-27 04:00:39.625000+00:00,1772164800,2026-02-27T04:00:00.000Z,18.0,-2.0,200,8.0,6+,1013.0,16,METAR,METAR OEDM 270400Z 20008KT CAVOK 18/M02 Q1013 NOSIG,24.45,44.121,922,Dawadmi Arpt,CAVOK,[],VFR,,,,,,,,,,"Dawadmi Arpt, RD, SA",SA,Saudi Arabia,17.80109481624427
782,OEDR,2026-02-27 04:00:39.648000+00:00,1772164800,2026-02-27T04:00:00.000Z,13.0,7.0,VRB,2.0,6+,1012.0,0,METAR,METAR OEDR 270400Z VRB02KT CAVOK 13/07 Q1012,26.265,50.152,17,Dhahran,CAVOK,[],VFR,,,,,,,,,,"Dhahran, AS, SA",SA,Saudi Arabia,13.546933938644262
1325,OEGN,2026-02-27 04:00:39.670000+00:00,1772164800,2026-02-27T04:00:00.000Z,26.0,20.0,340,3.0,6+,1011.0,16,METAR,METAR OEGN 270400Z 34003KT CAVOK 26/20 Q1011 NOSIG,16.901,42.586,5,Jazan/King Abdulaziz Arpt,CAVOK,[],VFR,,,,,,,,,,"Jazan/King Abdulaziz Arpt, JZ, SA",SA,Saudi Arabia,27.888404892010524
1004,OEGS,2026-02-27 04:00:39.692000+00:00,1772164800,2026-02-27T04:00:00.000Z,16.0,-1.0,230,5.0,6+,1011.0,16,METAR,METAR OEGS 270400Z 23005KT CAVOK 16/M01 Q1011 NOSIG,26.303,43.774,647,Qassim Arpt,CAVOK,[],VFR,,,,,,,,,,"Qassim Arpt, QS, SA",SA,Saudi Arabia,15.898751170128858
3808,OEGT,2026-02-27 04:00:39.717000+00:00,1772164800,2026-02-27T04:00:00.000Z,8.0,4.0,270,4.0,6+,1014.0,16,METAR,METAR OEGT 270400Z 27004KT 9999 SCT030 08/04 Q1014 NOSIG,31.412,37.279,512,Guriat Arpt,SCT,"[{'cover': 'SCT', 'base': 3000}]",VFR,,,,,,,,,,"Guriat Arpt, TB, SA",SA,Saudi Arabia,6.812457319972031
1324,OEHL,2026-02-27 04:00:39.740000+00:00,1772164800,2026-02-27T04:00:00.000Z,10.0,-4.0,20,10.0,6+,1014.0,16,METAR,METAR OEHL 270400Z 02010KT CAVOK 10/M04 Q1014 NOSIG,27.438,41.686,1002,Hail Arpt,CAVOK,[],VFR,,,,,,,,,,"Hail Arpt, HL, SA",SA,Saudi Arabia,7.5371828065443305
1813,OEJN,2026-02-27 04:00:39.768000+00:00,1772164800,2026-02-27T04:00:00.000Z,21.0,14.0,360,2.0,6+,1011.0,16,METAR,METAR OEJN 270400Z 36002KT 9999 FEW040 21/14 Q1011 NOSIG,21.685,39.166,8,Jeddah/King Abdulaziz Intl,FEW,"[{'cover': 'FEW', 'base': 4000}]",VFR,,,,,,,,,,"Jeddah/King Abdulaziz Intl, ML, SA",SA,Saudi Arabia,22.42646608746172
1957,OEKM,2026-02-27 04:00:42.845000+00:00,1772164800,2026-02-27T04:00:00.000Z,13.0,8.0,180,4.0,6+,1022.0,16,METAR,METAR OEKM 270400Z 18004KT CAVOK 13/08 Q1022 NOSIG,18.301,42.798,2038,Khamis Mushait Arpt,CAVOK,[],VFR,,,,,,,,,,"Khamis Mushait Arpt, AS, SA",SA,Saudi Arabia,12.648604452145433
2177,OEMA,2026-02-27 04:00:42.870000+00:00,1772164800,2026-02-27T04:00:00.000Z,17.0,-2.0,20,4.0,6+,1013.0,16,METAR,METAR OEMA 270400Z 02004KT CAVOK 17/M02 Q1013 NOSIG,24.553,39.705,639,Madinah/Abdulaziz Intl,CAVOK,[],VFR,,,,,,,,,,"Madinah/Abdulaziz Intl, MD, SA",SA,Saudi Arabia,17.31752215788417
990,OENG,2026-02-27 04:00:42.913000+00:00,1772164800,2026-02-27T04:00:00.000Z,14.0,-9.0,0,0.0,6+,1017.0,16,METAR,METAR OENG 270400Z 00000KT CAVOK 14/M09 Q1017 NOSIG,17.611,44.419,1210,Nejran Arpt,CAVOK,[],VFR,,,,,,,,,,"Nejran Arpt, NR, SA",SA,Saudi Arabia,21.827666666666673
1,OEPA,2026-02-27 04:00:42.934000+00:00,1772164800,2026-02-27T04:00:00.000Z,14.0,-5.0,150,10.0,6+,1011.0,16,METAR,METAR OEPA 270400Z 15010KT 9999 BKN035 14/M05 Q1011 NOSIG,28.335,46.125,361,Al Qaisumah/Hafr Al-Batin Arpt,BKN,"[{'cover': 'BKN', 'base': 3500}]",VFR,,,,,,,,,,"Al Qaisumah/Hafr Al-Batin Arpt, AS, SA",SA,Saudi Arabia,12.550779420210883
63,OEPS,2026-02-27 04:01:27.908000+00:00,1772164500,2026-02-27T04:00:00.000Z,16.0,-3.0,150,8.0,6+,1014.3,4,METAR,METAR OEPS 270355Z 15008KT 9999 CLR 16/M03 A2995 RMK AO2A SLPNO,24.063,47.581,503,Al-Kharj/Sultan Arpt,CLR,[],VFR,,,,,,,,,,"Al-Kharj/Sultan Arpt, RD, SA",SA,Saudi Arabia,15.338621878198264
3102,OERF,2026-02-27 04:00:42.954000+00:00,1772164800,2026-02-27T04:00:00.000Z,10.0,2.0,320,8.0,6+,1013.0,16,METAR,METAR OERF 270400Z 32008KT CAVOK 10/02 Q1013 NOSIG,29.626,43.491,441,Rafha Arpt,CAVOK,[],VFR,,,,,,,,,,"Rafha Arpt, HS, SA",SA,Saudi Arabia,7.951203064060274
3103,OERK,2026-02-27 04:00:42.978000+00:00,1772164800,2026-02-27T04:00:00.000Z,17.0,-5.0,150,4.0,6+,1014.0,16,METAR,METAR OERK 270400Z 15004KT 9999 SCT045 17/M05 Q1014 NOSIG,24.945,46.702,618,Riyadh/King Khaled Intl,SCT,"[{'cover': 'SCT', 'base': 4500}]",VFR,,,,,,,,,,"Riyadh/King Khaled Intl, RD, SA",SA,Saudi Arabia,17.31752215788417
3104,OERR,2026-02-27 04:00:43.005000+00:00,1772164800,2026-02-27T04:00:00.000Z,8.0,2.0,260,7.0,6+,1013.0,16,METAR,METAR OERR 270400Z 26007KT CAVOK 08/02 Q1013 NOSIG,30.907,41.138,554,Arar Arpt,CAVOK,[],VFR,,,,,,,,,,"Arar Arpt, HS, SA",SA,Saudi Arabia,5.755284102779758
3324,OESH,2026-02-27 04:00:43.047000+00:00,1772164800,2026-02-27T04:00:00.000Z,19.0,1.0,100,11.0,6+,1014.0,16,METAR,METAR OESH 270400Z 10011KT CAVOK 19/01 Q1014 NOSIG,17.467,47.121,720,Sharurah Arpt,CAVOK,[],VFR,,,,,,,,,,"Sharurah Arpt, NR, SA",SA,Saudi Arabia,18.72377230537431
2,OESK,2026-02-27 04:00:43.075000+00:00,1772164800,2026-02-27T04:00:00.000Z,7.0,1.0,260,6.0,6+,1017.0,16,METAR,METAR OESK 270400Z 26006KT CAVOK 07/01 Q1017 NOSIG,29.785,40.1,671,Al-Jouf Arpt,CAVOK,[],VFR,,,,,,,,,,"Al-Jouf Arpt, AJ, SA",SA,Saudi Arabia,4.8521920069581945
3799,OETB,2026-02-27 04:00:43.097000+00:00,1772164800,2026-02-27T04:00:00.000Z,8.0,1.0,360,3.0,6+,1015.0,16,METAR,METAR OETB 270400Z 36003KT CAVOK 08/01 Q1015 NOSIG,28.366,36.619,770,Tabuk Arpt,CAVOK,[],VFR,,,,,,,,,,"Tabuk Arpt, TB, SA",SA,Saudi Arabia,7.320177145640041
3626,OETF,2026-02-27 04:00:43.118000+00:00,1772164800,2026-02-27T04:00:00.000Z,14.0,9.0,170,4.0,6+,1016.0,16,METAR,METAR OETF 270400Z 17004KT CAVOK 14/09 Q1016 NOSIG,21.483,40.544,1460,Taif Arpt,CAVOK,[],VFR,,,,,,,,,,"Taif Arpt, ML, SA",SA,Saudi Arabia,13.815833878580127
3800,OETR,2026-02-27 04:00:43.140000+00:00,1772164800,2026-02-27T04:00:00.000Z,5.0,3.0,270,10.0,6+,1013.0,16,METAR,METAR OETR 270400Z 27010KT 9999 FEW030 05/03 Q1013 NOSIG,31.693,38.731,854,Turaif Arpt,FEW,"[{'cover': 'FEW', 'base': 3000}]",VFR,,,,,,,,,,"Turaif Arpt, HS, SA",SA,Saudi Arabia,1.2701870394611585
3801,OEWD,2026-02-27 04:00:43.160000+00:00,1772164800,2026-02-27T04:00:00.000Z,15.0,-3.0,130,10.0,6+,1013.0,16,METAR,METAR OEWD 270400Z 13010KT CAVOK 15/M03 Q1013 NOSIG,20.504,45.197,629,Wadi/Al Dawasir Arpt,CAVOK,[],VFR,,,,,,,,,,"Wadi/Al Dawasir Arpt, RD, SA",SA,Saudi Arabia,13.804178573627516
991,OEWJ,2026-02-27 04:00:43.181000+00:00,1772164800,2026-02-27T04:00:00.000Z,16.0,7.0,10,3.0,6+,1012.0,16,METAR,METAR OEWJ 270400Z 01003KT CAVOK 16/07 Q1012 NOSIG,26.199,36.476,8,Al Wejh Arpt,CAVOK,[],VFR,,,,,,,,,,"Al Wejh Arpt, TB, SA",SA,Saudi Arabia,16.46161169958247
4155,OEYN,2026-02-27 04:00:43.205000+00:00,1772164800,2026-02-27T04:00:00.000Z,14.0,8.0,70,3.0,6+,1008.0,16,METAR,METAR OEYN 270400Z 07003KT CAVOK 14/08 Q1008 NOSIG,24.144,38.063,20,Yenbo/Moshin Bin Arpt,CAVOK,[],VFR,,,,,,,,,,"Yenbo/Moshin Bin Arpt, MD, SA",SA,Saudi Arabia,14.176253061096876
211,OIAW,2026-02-27 03:33:11.736000+00:00,1772163000,2026-02-27T03:30:00.000Z,9.0,4.0,0,0.0,6+,1011.0,0,METAR,METAR OIAW 270330Z 00000KT CAVOK 09/04 Q1011,31.343,48.751,25,Ahwaz Arpt,CAVOK,[],VFR,,,,,,,,,,"Ahwaz Arpt, KZ, IR",IR,"Iran, Islamic Republic of",18.72016666666667
2114,OICC,2026-02-27 03:33:13.824000+00:00,1772163000,2026-02-27T03:30:00.000Z,3.0,-7.0,160,8.0,6+,1012.0,0,METAR,METAR OICC 270330Z 16008KT CAVOK 03/M07 Q1012 A2990,34.346,47.158,1310,Kermanshah Intl,CAVOK,[],VFR,,,,,,,,,,"Kermanshah Intl, KR, IR",IR,"Iran, Islamic Republic of",-0.6674522191007229
1753,OIFM,2026-02-27 03:33:11.785000+00:00,1772163000,2026-02-27T03:30:00.000Z,-6.0,-15.0,0,0.0,6+,1016.0,0,METAR,METAR OIFM 270330Z 00000KT CAVOK M06/M15 Q1016 A3001,32.752,51.866,1539,Esfahan Intl,CAVOK,[],VFR,,,,,,,,,,"Esfahan Intl, EF, IR",IR,"Iran, Islamic Republic of",9.39766666666667
1755,OIIE,2026-02-27 03:33:13.869000+00:00,1772163000,2026-02-27T03:30:00.000Z,3.0,-8.0,280,8.0,6+,1013.0,0,METAR,METAR OIIE 270330Z 28008KT CAVOK 03/M08 Q1013,35.416,51.152,993,Tehran/Khomeini Intl,CAVOK,[],VFR,,,,,,,,,,"Tehran/Khomeini Intl, TH, IR",IR,"Iran, Islamic Republic of",-0.6674522191007229
3723,OIII,2026-02-27 03:40:55.934000+00:00,1772163000,2026-02-27T03:30:00.000Z,7.0,-10.0,0,0.0,6+,1013.0,0,METAR,METAR OIII 270330Z 00000KT CAVOK 07/M10 Q1013 A2993,35.686,51.304,1182,Tehran/Mehrabad Intl,CAVOK,[],VFR,,,,,,,,,,"Tehran/Mehrabad Intl, TH, IR",IR,"Iran, Islamic Republic of",17.47716666666667
453,OIKB,2026-02-27 03:33:11.822000+00:00,1772163000,2026-02-27T03:30:00.000Z,16.0,14.0,0,0.0,2.49,1010.0,0,METAR,METAR OIKB 270330Z 00000KT 4000 BR FEW030 16/14 Q1010 A2984,27.218,56.378,6,Bandarabbass Intl,FEW,"[{'cover': 'FEW', 'base': 3000}]",IFR,,BR,,,,,,,,"Bandarabbass Intl, HR, IR",IR,"Iran, Islamic Republic of",23.070666666666664
2374,OIMM,2026-02-27 03:33:11.870000+00:00,1772163000,2026-02-27T03:30:00.000Z,6.0,2.0,0,0.0,6+,1016.0,0,METAR,METAR OIMM 270330Z 00000KT CAVOK 06/02 Q1016 A3002,36.236,59.639,995,Mashhad Intl,CAVOK,[],VFR,,,,,,,,,,"Mashhad Intl, KR, IR",IR,"Iran, Islamic Republic of",16.855666666666668
3751,OISS,2026-02-27 03:33:11.912000+00:00,1772163000,2026-02-27T03:30:00.000Z,2.0,-6.0,0,0.0,6+,1016.0,0,METAR,METAR OISS 270330Z 00000KT CAVOK 02/M06 Q1016 A3002,29.539,52.59,1484,Shiraz Intl,CAVOK,[],VFR,,,,,,,,,,"Shiraz Intl, FA, IR",IR,"Iran, Islamic Republic of",14.369666666666673
3752,OITT,2026-02-27 03:33:11.958000+00:00,1772163000,2026-02-27T03:30:00.000Z,9.0,-6.0,90,10.0,6+,1006.0,0,METAR,METAR OITT 270330Z 09010KT 9999 BKN030 FEW032CB SCT080 09/M06 Q1006 A2972,38.13,46.24,1353,Tabriz Intl,SCT,"[{'cover': 'BKN', 'base': 3000}, {'cover': 'FEW', 'base': 3200}, {'cover': 'SCT', 'base': 8000}]",MVFR,,,,,,,,,,"Tabriz Intl, EA, IR",IR,"Iran, Islamic Republic of",6.283783653127699
4214,OIZH,2026-02-27 03:33:11.995000+00:00,1772163000,2026-02-27T03:30:00.000Z,9.0,-2.0,200,4.0,6+,1015.0,0,METAR,METAR OIZH 270330Z 20004KT CAVOK 09/M02 Q1015 A2999,29.472,60.901,1378,Zahedan Intl,CAVOK,[],VFR,,,,,,,,,,"Zahedan Intl, SB, IR",IR,"Iran, Islamic Republic of",7.979686746406713
22,OMAA,2026-02-27 04:01:00.371000+00:00,1772164800,2026-02-27T04:00:00.000Z,20.0,13.0,200,2.0,6+,1013.0,16,METAR,METAR OMAA 270400Z 20002KT CAVOK 20/13 Q1013 NOSIG,24.433,54.651,13,Abu Dhabi Intl,CAVOK,[],VFR,,,,,,,,,,"Abu Dhabi Intl, AZ, AE",AE,United Arab Emirates,21.316524568859545
293,OMAD,2026-02-27 04:01:00.346000+00:00,1772164800,2026-02-27T04:00:00.000Z,21.0,13.0,VRB,1.0,6+,1013.0,16,METAR,METAR OMAD 270400Z VRB01KT CAVOK 21/13 Q1013 NOSIG,24.428,54.458,9,Abu Dhabi/Bateen Arpt,CAVOK,[],VFR,,,,,,,,,,"Abu Dhabi/Bateen Arpt, AZ, AE",AE,United Arab Emirates,22.820300589663244
21,OMAL,2026-02-27 04:01:00.320000+00:00,1772164800,2026-02-27T04:00:00.000Z,16.0,12.0,20,2.0,6+,1014.0,16,METAR,METAR OMAL 270400Z 02002KT CAVOK 16/12 Q1014 NOSIG,24.262,55.609,247,Al Ain Intl,CAVOK,[],VFR,,,,,,,,,,"Al Ain Intl, AZ, AE",AE,United Arab Emirates,16.876758494450808
1012,OMDB,2026-02-27 04:01:00.411000+00:00,1772164800,2026-02-27T04:00:00.000Z,19.0,13.0,170,7.0,6+,1012.0,16,METAR,METAR OMDB 270400Z 17007KT CAVOK 19/13 Q1012 NOSIG,25.254,55.366,5,Dubai Intl,CAVOK,[],VFR,,,,,,,,,,"Dubai Intl, DU, AE",AE,United Arab Emirates,19.157107824786845
1013,OMDW,2026-02-27 04:01:00.444000+00:00,1772164800,2026-02-27T04:00:00.000Z,17.0,12.0,170,5.0,6+,1014.0,16,METAR,METAR OMDW 270400Z 17005KT CAVOK 17/12 Q1014 NOSIG,24.897,55.161,34,Dubai/Al Maktoum Intl,CAVOK,[],VFR,,,,,,,,,,"Dubai/Al Maktoum Intl, DU, AE",AE,United Arab Emirates,17.08581675473492
1014,OMFJ,2026-02-27 04:01:00.476000+00:00,1772164800,2026-02-27T04:00:00.000Z,21.0,12.0,270,19.0,6+,1011.0,0,METAR,METAR OMFJ 270400Z 27019KT 9999 FEW030 21/12 Q1011 A2988,25.112,56.324,27,Fujairah Intl,FEW,"[{'cover': 'FEW', 'base': 3000}]",VFR,,,,,,,,,,"Fujairah Intl, FU, AE",AE,United Arab Emirates,20.79963230943627
3111,OMRK,2026-02-27 04:02:41.306000+00:00,1772164800,2026-02-27T04:00:00.000Z,18.0,13.0,180,7.0,6+,1013.0,0,METAR,METAR OMRK 270400Z 18007KT CAVOK 18/13 Q1013 A2993,25.613,55.939,18,Ras Al Khaimah Intl,CAVOK,[],VFR,,,,,,,,,,"Ras Al Khaimah Intl, RK, AE",AE,United Arab Emirates,17.93876021369529
3335,OMSJ,2026-02-27 04:01:00.510000+00:00,1772164800,2026-02-27T04:00:00.000Z,19.0,13.0,170,7.0,6+,1013.0,16,METAR,METAR OMSJ 270400Z 17007KT CAVOK 19/13 Q1013 NOSIG,25.329,55.517,33,Sharjah Intl,CAVOK,[],VFR,,,,,,,,,,"Sharjah Intl, SH, AE",AE,United Arab Emirates,19.157107824786845
1872,OOKB,2026-02-27 04:00:51.794000+00:00,1772164200,2026-02-27T04:00:00.000Z,22.0,5.0,280,10.0,6+,1011.0,16,METAR,METAR OOKB 270350Z 28010KT CAVOK 22/05 Q1011 NOSIG,26.168,56.239,30,Khassab Arpt,CAVOK,[],VFR,,,,,,,,,,"Khassab Arpt, MU, OM",OM,Oman,22.57797264754396
2309,OOMS,2026-02-27 04:00:51.694000+00:00,1772164200,2026-02-27T04:00:00.000Z,23.0,14.0,230,4.0,6+,1011.0,16,METAR,METAR OOMS 270350Z 23004KT CAVOK 23/14 Q1011 NOSIG,23.595,58.298,8,Muscat/Seeb Intl,CAVOK,[],VFR,,,,,,,,,,"Muscat/Seeb Intl, MA, OM",OM,Oman,24.32089871649226
3467,OOSA,2026-02-27 04:00:51.719000+00:00,1772164200,2026-02-27T04:00:00.000Z,21.0,6.0,VRB,2.0,6+,1013.0,16,METAR,METAR OOSA 270350Z VRB02KT CAVOK 21/06 Q1013 NOSIG,17.044,54.102,20,Salalah Arpt,CAVOK,[],VFR,,,,,,,,,,"Salalah Arpt, MA, OM",OM,Oman,22.42646608746172
2733,OOSH,2026-02-27 04:00:51.746000+00:00,1772164200,2026-02-27T04:00:00.000Z,20.0,11.0,310,7.0,6+,1011.0,2,METAR,METAR OOSH 270350Z AUTO 31007KT CAVOK ////// 20/11 Q1011,24.388,56.624,35,Suhar Intl,CAVOK,[],VFR,,,,,,,,,,"Suhar Intl, BS, OM",OM,Oman,20.3754554358784
2178,OPFA,2026-02-27 04:02:11.459000+00:00,1772164800,2026-02-27T04:00:00.000Z,20.0,13.0,130,4.0,1.86,1010.0,0,METAR,METAR OPFA 270400Z 13004KT 3000 FU FEW100 20/13 Q1010 BECMG 4000,31.365,72.995,180,Faisalabad Intl,FEW,"[{'cover': 'FEW', 'base': 10000}]",IFR,,FU,,,,,,,,"Faisalabad Intl, , PK",PK,Pakistan,20.819210437188218
1586,OPIS,2026-02-27 04:01:28.624000+00:00,1772164800,2026-02-27T04:00:00.000Z,19.0,7.0,90,4.0,2.49,1011.0,16,METAR,METAR OPIS 270400Z 09004KT 4000 HZ NSC 19/07 Q1011 NOSIG,33.551,72.827,542,Islamabad/Gandhara Intl,CLR,[],IFR,,HZ,,,,,,,,"Islamabad/Gandhara Intl, IS, PK",PK,Pakistan,19.651981010753524
1815,OPKC,2026-02-27 03:52:51.195000+00:00,1772164800,2026-02-27T04:00:00.000Z,24.0,18.0,280,8.0,2.49,1010.0,16,METAR,METAR OPKC 270400Z 28008KT 4000 FU NSC 24/18 Q1010 NOSIG,24.902,67.139,20,Karachi/Jinnah Intl,CLR,[],IFR,,FU,,,,,,,,"Karachi/Jinnah Intl, SD, PK",PK,Pakistan,25.188513630382264
1977,OPLA,2026-02-27 04:01:28.651000+00:00,1772164800,2026-02-27T04:00:00.000Z,21.0,13.0,200,2.0,2.49,1010.0,16,METAR,METAR OPLA 270400Z 20002KT 4000 FU NSC 21/13 Q1010 NOSIG RMK QFE984 A29.83,31.522,74.404,217,Lahore/Iqbal Intl,CLR,[],IFR,,FU,,,,,,,,"Lahore/Iqbal Intl, PB, PK",PK,Pakistan,22.42646608746172
2467,OPMT,2026-02-27 04:01:28.681000+00:00,1772164800,2026-02-27T04:00:00.000Z,21.0,12.0,0,0.0,1.12,1008.0,0,METAR,METAR OPMT 270400Z 00000KT 1800 FU SCT100 21/12 Q1008 TEMPO 2000,30.203,71.419,122,Multan Intl,SCT,"[{'cover': 'SCT', 'base': 10000}]",IFR,,FU,,,,,,,,"Multan Intl, PB, PK",PK,Pakistan,26.178166666666666
2870,OPPS,2026-02-27 04:01:28.715000+00:00,1772164800,2026-02-27T04:00:00.000Z,18.0,8.0,0,0.0,2.49,1011.0,0,METAR,METAR OPPS 270400Z 00000KT 4000 HZ NSC 18/08 Q1011,33.996,71.515,356,Peshawar/Khan Intl,CLR,[],IFR,,HZ,,,,,,,,"Peshawar/Khan Intl, KP, PK",PK,Pakistan,24.313666666666666
3342,OPST,2026-02-27 04:01:28.740000+00:00,1772164800,2026-02-27T04:00:00.000Z,16.0,11.0,50,4.0,0.93,1010.0,0,METAR,METAR OPST 270400Z 05004KT 1500 FU NSC 16/11 Q1010 BECMG 2000 RH74,32.536,74.364,234,Sailkot Arpt,CLR,[],LIFR,,FU,,,,,,,,"Sailkot Arpt, PB, PK",PK,Pakistan,16.15029273144948
296,ORBI,2026-02-27 03:59:18.741000+00:00,1772164800,2026-02-27T04:00:00.000Z,10.0,4.0,330,5.0,6+,1012.0,16,METAR,METAR ORBI 270400Z 33005KT 9999 SCT030 10/04 Q1012 NOSIG,33.263,44.235,37,Baghdad Intl,SCT,"[{'cover': 'SCT', 'base': 3000}]",VFR,,,,,,,,,,"Baghdad Intl, BG, IQ",IQ,Iraq,8.776357662492565
1016,ORER,2026-02-27 03:51:06.007000+00:00,1772164800,2026-02-27T04:00:00.000Z,7.0,7.0,250,6.0,4.97,1009.0,0,METAR,METAR ORER 270400Z 25006KT 8000 SCT030 BKN080 07/07 Q1009,36.232,43.951,399,Erbil Intl,BKN,"[{'cover': 'SCT', 'base': 3000}, {'cover': 'BKN', 'base': 8000}]",MVFR,,,,,,,,,,"Erbil Intl, AR, IQ",IQ,Iraq,4.8521920069581945
1809,ORKK,2026-02-27 03:58:04.531000+00:00,1772164800,2026-02-27T04:00:00.000Z,10.0,4.0,VRB,2.0,4.97,1009.0,0,METAR,METAR ORKK 270400Z VRB02KT 8000 -RA FEW040 BKN070 10/04 Q1009,35.469,44.3494,331,Kirkuk Arpt,BKN,"[{'cover': 'FEW', 'base': 4000}, {'cover': 'BKN', 'base': 7000}]",MVFR,,-RA,,,,,,,,"Kirkuk Arpt, TM, IQ",IQ,Iraq,10.217109382837716
2639,ORNI,2026-02-27 03:51:02.648000+00:00,1772164800,2026-02-27T04:00:00.000Z,13.0,6.0,330,11.0,3.11,1011.0,0,METAR,METAR ORNI 270400Z 33011KT 5000 HZ NSC 13/06 Q1011,31.99,44.405,33,Al Najaf Intl,CLR,[],MVFR,,HZ,,,,,,,,"Al Najaf Intl, NA, IQ",IQ,Iraq,11.145116923659181
1816,ORSU,2026-02-27 03:59:18.944000+00:00,1772164800,2026-02-27T04:00:00.000Z,13.0,0.0,200,21.0,6+,1009.0,0,METAR,METAR ORSU 270400Z 20021KT 9999 -RA BKN070 13/M00 Q1009,35.56,45.318,760,Sulaymaniyah Intl,BKN,"[{'cover': 'BKN', 'base': 7000}]",VFR,,-RA,,,,,,,,"Sulaymaniyah Intl, SU, IQ",IQ,Iraq,10.048444225116292
20,OSAP,2026-02-27 03:46:49.888000+00:00,1772164800,2026-02-27T04:00:00.000Z,3.0,-1.0,230,8.0,6+,1011.0,0,METAR,METAR OSAP 270400Z 23008KT 9999 FEW030 03/M01 Q1011,36.183,37.218,390,Aleppo Intl,FEW,"[{'cover': 'FEW', 'base': 3000}]",VFR,,,,,,,,,,"Aleppo Intl, HL, SY",SY,Syrian Arab Republic,-0.6674522191007229
787,OSDI,2026-02-27 03:46:49.824000+00:00,1772164800,2026-02-27T04:00:00.000Z,5.0,-4.0,260,12.0,6+,1013.0,0,METAR,METAR OSDI 270400Z 26012KT 9999 FEW030 SCT100 05/M04 Q1013,33.411,36.516,614,Damascus Intl,SCT,"[{'cover': 'FEW', 'base': 3000}, {'cover': 'SCT', 'base': 10000}]",VFR,,,,,,,,,,"Damascus Intl, DI, SY",SY,Syrian Arab Republic,0.8272367295536122
922,OTBD,2026-02-27 03:37:35.138000+00:00,1772163000,2026-02-27T03:30:00.000Z,15.0,9.0,220,4.0,6+,1013.0,16,METAR,METAR OTBD 270330Z 22004KT CAVOK 15/09 Q1013 NOSIG,25.261,51.565,13,Doha Intl,CAVOK,[],VFR,,,,,,,,,,"Doha Intl, DA, QA",QA,Qatar,14.983063305014802
4048,OTBH,2026-02-27 04:01:27.936000+00:00,1772164500,2026-02-27T04:00:00.000Z,14.9,9.9,220,7.0,5.59,1014.0,76,METAR,METAR OTBH 270355Z 22007KT 9000 HZ CLR 15/10 A2993 Q1014 RMK AO2A SLP137 T01490099 FZRANO $,25.117,51.315,40,Doha/Al Udeid AB,CLR,[],VFR,,HZ,1013.7,,,,,,,"Doha/Al Udeid AB, RA, QA",QA,Qatar,14.161882619311477
3,OYAA,2026-02-27 04:00:43.477000+00:00,1772164800,2026-02-27T04:00:00.000Z,22.0,18.0,20,6.0,6+,1012.0,0,METAR,METAR OYAA 270400Z 02006KT 9999 SCT018 22/18 Q1012 T MN 20.9,12.829,45.029,3,Aden Intl,SCT,"[{'cover': 'SCT', 'base': 1800}]",VFR,,,,,,,,,,"Aden Intl, AD, YE",YE,Yemen,22.909296257246503
39,PAAK,2026-02-27 03:58:59.686000+00:00,1772164560,2026-02-27T04:00:00.000Z,0.0,-1.7,70,29.0,,1013.6,238,METAR,METAR PAAK 270356Z AUTO 07029G44KT SCT010 BKN015 OVC021 00/M02 A2993 RMK AO2 PK WND 05046/0307 SLP135 T00001017 PWINO FZRANO TSNO $,52.219,-174.208,11,Atka Arpt,OVC,"[{'cover': 'SCT', 'base': 1000}, {'cover': 'BKN', 'base': 1500}, {'cover': 'OVC', 'base': 2100}]",,44.0,,1013.5,,,,,,,"Atka Arpt, AK, US",US,United States,-8.362776497899063
2940,PAAQ,2026-02-27 03:56:34.880000+00:00,1772164380,2026-02-27T04:00:00.000Z,-16.1,-26.1,0,0.0,10+,1016.7,38,METAR,METAR PAAQ 270353Z AUTO 00000KT 10SM CLR M16/M26 A3002 RMK AO2 SLP174 T11611261 TSNO,61.5951,-149.0917,68,Palmer Muni,CLR,[],VFR,,,1017.4,,,,,,,"Palmer Muni, AK, US",US,United States,3.120516666666669
371,PABE,2026-02-27 03:55:07.881000+00:00,1772164380,2026-02-27T04:00:00.000Z,-25.6,-28.3,320,8.0,10+,1036.3,12,METAR,METAR PABE 270353Z 32008KT 10SM CLR M26/M28 A3060 RMK AO2 SLP368 T12561283 $ ,60.785,-161.8293,28,Bethel Arpt,CLR,[],VFR,,,1036.8,,,,,,,"Bethel Arpt, AK, US",US,United States,-35.8808152331585
349,PABI,2026-02-27 03:58:22.991000+00:00,1772164380,2026-02-27T04:00:00.000Z,-31.1,-34.4,170,3.0,10+,1028.2,12,METAR,METAR PABI 270353Z 17003KT 10SM CLR M31/M34 A3036 RMK AO2 SLP369 T13111344 $,63.9931,-145.7214,388,Ft Greely/Allen Fld,CLR,[],VFR,,,1036.9,,,,,,,"Ft Greely/Allen Fld, AK, US",US,United States,-37.358584236753615
304,PABL,2026-02-27 03:58:59.707000+00:00,1772164560,2026-02-27T04:00:00.000Z,-31.1,-33.9,30,4.0,10+,1040.7,70,METAR,METAR PABL 270356Z AUTO 03004KT 10SM CLR M31/M34 A3073 RMK AO2 SLP407 T13111339 FZRANO,65.979,-161.146,7,Buckland Arpt,CLR,[],VFR,,,1040.7,,,,,,,"Buckland Arpt, AK, US",US,United States,-38.82621325362402
372,PABR,2026-02-27 03:56:34.936000+00:00,1772164380,2026-02-27T04:00:00.000Z,-30.0,-33.9,0,0.0,10+,1043.4,12,METAR,METAR PABR 270353Z 00000KT 10SM CLR M30/M34 A3081 RMK AO2 SLP435 T13001339 $,71.2837,-156.7843,6,Utqiaġvik,CLR,[],VFR,,,1043.5,,,,,,,"Utqiaġvik, AK, US",US,United States,-5.5183333333333335
615,PABT,2026-02-27 03:56:34.955000+00:00,1772164380,2026-02-27T04:00:00.000Z,-33.3,-35.0,0,0.0,10+,1035.3,12,METAR,METAR PABT 270353Z 00000KT 10SM CLR M33/M35 A3057 RMK AO2 SLP390 T13331350 PNO $,66.9176,-151.5189,195,Bettles Arpt,CLR,[],VFR,,,1039.0,,,,,,,"Bettles Arpt, AK, US",US,United States,-7.569283333333331
622,PACV,2026-02-27 03:56:34.974000+00:00,1772164380,2026-02-27T04:00:00.000Z,-12.2,-25.0,50,6.0,10+,1012.6,4,METAR,METAR PACV 270353Z 05006KT 10SM CLR M12/M25 A2990 RMK AO2 SLP128 T11221250,60.486,-145.4445,15,Cordova/Smith Arpt,CLR,[],VFR,,,1012.8,,,,,,,"Cordova/Smith Arpt, AK, US",US,United States,-18.260901433410847
793,PACX,2026-02-27 03:58:59.773000+00:00,1772164560,2026-02-27T04:00:00.000Z,-31.7,-36.1,0,0.0,10+,1033.3,70,METAR,METAR PACX 270356Z AUTO 00000KT 10SM CLR M32/M36 A3051 RMK AO2 SLP955 T13171361 FZRANO,67.252,-150.204,319,Coldfoot Arpt,CLR,[],VFR,,,995.5,,,,,,,"Coldfoot Arpt, AK, US",US,United States,-6.574883333333332
808,PACZ,2026-02-27 03:58:08.965000+00:00,1772164500,2026-02-27T04:00:00.000Z,-22.9,-25.2,0,0.0,5,1036.3,6,METAR,METAR PACZ 270355Z AUTO 00000KT 5SM BR OVC011 M23/M25 A3060 RMK AO2 SLP388 T12291252,61.776,-166.043,129,Cape Romanzof Arpt,OVC,"[{'cover': 'OVC', 'base': 1100}]",MVFR,,BR,1038.8,,,,,,,"Cape Romanzof Arpt, AK, US",US,United States,-1.1056833333333316
858,PADE,2026-02-27 03:56:34.993000+00:00,1772164380,2026-02-27T04:00:00.000Z,-30.0,-33.3,240,9.0,10+,1039.4,46,METAR,METAR PADE 270353Z AUTO 24009KT 10SM CLR M30/M33 A3069 RMK AO2 SLP394 T13001333 TSNO $,66.0696,-162.7613,5,Deering Arpt,CLR,[],VFR,,,1039.4,,,,,,,"Deering Arpt, AK, US",US,United States,-41.97893218295718
40,PADK,2026-02-27 03:58:59.798000+00:00,1772164560,2026-02-27T04:00:00.000Z,0.6,0.0,60,22.0,5,1012.6,70,METAR,METAR PADK 270356Z AUTO 06022G30KT 5SM -SN BR FEW010 BKN016 OVC022 01/00 A2990 RMK AO2 PK WND 05030/0349 RAE55UPB42E50SNB55 SLP124 P0000 T00060000 FZRANO,51.881,-176.644,3,Adak,OVC,"[{'cover': 'FEW', 'base': 1000}, {'cover': 'BKN', 'base': 1600}, {'cover': 'OVC', 'base': 2200}]",MVFR,30.0,-SN BR,1012.4,0.005,,,,,,"Adak , AK, US",US,United States,-6.6306003909687465
801,PADL,2026-02-27 03:58:59.822000+00:00,1772164560,2026-02-27T04:00:00.000Z,-18.3,-26.1,250,6.0,10+,1029.5,12,METAR,METAR PADL 270356Z 25006KT 10SM CLR M18/M26 A3040 RMK AO2 SLP300 T11831261 $,59.04,-158.507,20,Dillingham Arpt,CLR,[],VFR,,,1030.0,,,,,,,"Dillingham Arpt, AK, US",US,United States,-25.604123828528103
2477,PADM,2026-02-27 03:58:59.840000+00:00,1772164560,2026-02-27T04:00:00.000Z,-22.2,-27.2,360,3.0,10+,1038.0,70,METAR,METAR PADM 270356Z AUTO 36003KT 10SM CLR M22/M27 A3065 RMK AO2 SLP388 T12221272 FZRANO,61.865,-162.033,17,Marshall/Hunter Arpt,CLR,[],VFR,,,1038.8,,,,,,,"Marshall/Hunter Arpt, AK, US",US,United States,-27.188738295492655
96,PADQ,2026-02-27 03:56:35.021000+00:00,1772164380,2026-02-27T04:00:00.000Z,-10.0,-15.0,290,8.0,10+,1018.4,4,METAR,METAR PADQ 270353Z 29008G16KT 10SM BKN022 M10/M15 A3007 RMK AO2 SLP182 T11001150,57.7507,-152.4881,5,Kodiak Arpt,BKN,"[{'cover': 'BKN', 'base': 2200}]",MVFR,16.0,,1018.2,,,,,,,"Kodiak Arpt, AK, US",US,United States,-16.673526316399712
1030,PADU,2026-02-27 03:58:59.879000+00:00,1772164560,2026-02-27T04:00:00.000Z,-4.4,-9.4,30,6.0,10+,1025.8,4,METAR,METAR PADU 270356Z 03006KT 10SM OVC027 M04/M09 A3029 RMK AO2 SLP258 T10441094,53.896,-166.543,4,Dutch Harbor/Unalaska Arpt,OVC,"[{'cover': 'OVC', 'base': 2700}]",MVFR,,,1025.8,,,,,,,"Dutch Harbor/Unalaska Arpt, AK, US",US,United States,-8.87120722326093
1052,PAED,2026-02-27 04:00:05.061000+00:00,1772164500,2026-02-27T04:00:00.000Z,-15.0,-24.3,0,0.0,10+,1017.4,12,METAR,METAR PAED 270355Z 00000KT 10SM CLR M15/M24 A3004 RMK AO2A SLP175 T11501243 $,61.25,-149.837,54,Anchorage/Elmendorf AFB,CLR,[],VFR,,,1017.5,,,,,,,"Anchorage/Elmendorf AFB, AK, US",US,United States,3.804166666666669
1119,PAEG,2026-02-27 03:56:35.053000+00:00,1772164380,2026-02-27T04:00:00.000Z,-30.6,-35.0,0,0.0,10+,1029.2,46,METAR,METAR PAEG 270353Z AUTO 00000KT 10SM FEW043 M31/M35 A3039 RMK AO2 SLP327 T13061350 TSNO $,64.7761,-141.1635,273,Eagle Arpt,FEW,"[{'cover': 'FEW', 'base': 4300}]",VFR,,,1032.7,,,,,,,"Eagle Arpt, AK, US",US,United States,-5.891233333333336
1053,PAEH,2026-02-27 03:58:08.997000+00:00,1772164500,2026-02-27T04:00:00.000Z,-21.9,-25.0,20,10.0,10+,1031.2,14,METAR,METAR PAEH 270355Z AUTO 02010KT 10SM CLR M22/M25 A3045 RMK AO2 SLP341 T12191250 $,58.652,-162.062,101,Cape Newenham Arpt,CLR,[],VFR,,,1034.1,,,,,,,"Cape Newenham Arpt, AK, US",US,United States,-32.44625018744634
1059,PAEI,2026-02-27 04:02:38.456000+00:00,1772164500,2026-02-27T04:00:00.000Z,-32.7,-36.3,0,0.0,10+,1031.6,12,METAR,METAR PAEI 270355Z 00000KT 10SM FEW003 M33/M36 A3046 RMK AO2A SLP347 T13271363 $,64.654,-147.094,166,Fairbanks/Eielson AFB,FEW,"[{'cover': 'FEW', 'base': 300}]",VFR,,,1034.7,,,,,,,"Fairbanks/Eielson AFB, AK, US",US,United States,-7.196383333333333
1120,PAEN,2026-02-27 03:56:35.077000+00:00,1772164380,2026-02-27T04:00:00.000Z,-12.8,-20.0,290,5.0,10+,1018.7,12,METAR,METAR PAEN 270353Z 29005KT 10SM CLR M13/M20 A3008 RMK AO2 SLPNO T11281200 $,60.579,-151.242,30,Kenai Muni,CLR,[],VFR,,,,,,,,,,"Kenai Muni, AK, US",US,United States,-18.28873766652537
1121,PAFA,2026-02-27 03:56:35.102000+00:00,1772164380,2026-02-27T04:00:00.000Z,-33.9,-35.6,0,0.0,10+,1032.6,12,METAR,METAR PAFA 270353Z 00000KT 10SM CLR M34/M36 A3049 RMK AO2 SLP352 T13391356 $,64.8031,-147.8761,130,Fairbanks Intl,CLR,[],VFR,,,1035.2,,,,,,,"Fairbanks Intl, AK, US",US,United States,-7.9421833333333325
1064,PAFB,2026-02-27 04:02:13.465000+00:00,1772164500,2026-02-27T04:00:00.000Z,-34.8,-38.1,0,0.0,10+,1032.3,140,METAR,METAR PAFB 270355Z 00000KT 10SM FEW005 M35/M38 A3048 RMK AO2A SLP353 PWR PLNT PLUME FEW005 T13481381 RVRNO PWINO $,64.836,-147.614,137,Fairbanks/Ladd AAF,FEW,"[{'cover': 'FEW', 'base': 500}]",VFR,,,1035.3,,,,,,,"Fairbanks/Ladd AAF, AK, US",US,United States,-8.501533333333334
41,PAFM,2026-02-27 03:58:59.919000+00:00,1772164560,2026-02-27T04:00:00.000Z,-32.2,-35.6,0,0.0,10+,1039.7,70,METAR,METAR PAFM 270356Z AUTO 00000KT 10SM CLR M32/M36 A3070 RMK AO2 SLP415 T13221356 FZRANO,67.106,-157.858,79,Ambler Arpt,CLR,[],VFR,,,1041.5,,,,,,,"Ambler Arpt, AK, US",US,United States,-6.885633333333334
2447,PAFS,2026-02-27 04:02:32.251000+00:00,1772164860,2026-02-27T04:01:00.000Z,-23.3,-27.2,60,4.0,10+,1031.6,70,METAR,METAR PAFS 270401Z AUTO 06004KT 10SM CLR M23/M27 A3046 RMK AO2 SLP340 T12331272 FZRANO,63.015,-154.367,131,Nikolai Arpt,CLR,[],VFR,,,1034.0,,,,,,,"Nikolai Arpt, AK, US",US,United States,-29.721823727433502
1337,PAGA,2026-02-27 04:02:17.179000+00:00,1772164560,2026-02-27T04:00:00.000Z,-29.4,-33.3,350,3.0,10+,1038.0,102,METAR,METAR PAGA 270356Z AUTO 35003KT 10SM CLR M29/M33 A3065 RMK AO2 SLP387 T12941333 FZRANO TSNO,64.738,-156.92,39,Galena Arpt,CLR,[],VFR,,,1038.7,,,,,,,"Galena Arpt, AK, US",US,United States,-35.41602939404084
3369,PAGH,2026-02-27 03:58:59.961000+00:00,1772164560,2026-02-27T04:00:00.000Z,-32.2,-35.0,250,4.0,10+,1039.7,70,METAR,METAR PAGH 270356Z AUTO 25004KT 10SM CLR M32/M35 A3070 RMK AO2 SLPNO T13221350 FZRANO,66.886,-157.159,56,Shungnak Arpt,CLR,[],VFR,,,,,,,,,,"Shungnak Arpt, AK, US",US,United States,-40.11016562270217
1413,PAGK,2026-02-27 03:56:35.127000+00:00,1772164380,2026-02-27T04:00:00.000Z,-23.3,-33.3,360,12.0,10+,1018.7,46,METAR,METAR PAGK 270353Z AUTO 36012G20KT 10SM CLR M23/M33 A3008 RMK AO2 SLP261 T12331333 TSNO $,62.1592,-145.4588,481,Gulkana Arpt,CLR,[],VFR,20.0,,1026.1,,,,,,,"Gulkana Arpt, AK, US",US,United States,-35.17330832880943
1342,PAGL,2026-02-27 03:58:59.981000+00:00,1772164560,2026-02-27T04:00:00.000Z,-28.3,-32.2,0,0.0,10+,1039.7,78,METAR,METAR PAGL 270356Z AUTO 00000KT 10SM BKN100 M28/M32 A3070 RMK AO2 SLP394 T12831322 FZRANO $,64.548,-163.013,20,Golovin Arpt,BKN,"[{'cover': 'BKN', 'base': 10000}]",VFR,,,1039.4,,,,,,,"Golovin Arpt, AK, US",US,United States,-4.461783333333334
1336,PAGM,2026-02-27 03:59:00.003000+00:00,1772164560,2026-02-27T04:00:00.000Z,-18.3,-21.7,330,5.0,10+,1042.8,70,METAR,METAR PAGM 270356Z AUTO 33005KT 10SM OVC022 M18/M22 A3079 RMK AO2 SLP434 T11831217 FZRANO,63.777,-171.735,6,Gambell Arpt,OVC,"[{'cover': 'OVC', 'base': 2200}]",MVFR,,,1043.4,,,,,,,"Gambell Arpt, AK, US",US,United States,-24.81759838185865
1351,PAGS,2026-02-27 03:59:00.043000+00:00,1772164560,2026-02-27T04:00:00.000Z,-8.9,-10.0,330,8.0,9,1012.6,70,METAR,METAR PAGS 270356Z AUTO 33008KT 9SM -SN CLR M09/M10 A2990 RMK AO2 SLP125 P0000 T10891100 FZRANO,58.425,-135.707,9,Gustavus Arpt,CLR,[],VFR,,-SN,1012.5,0.005,,,,,,"Gustavus Arpt, AK, US",US,United States,-15.319166200474415
3430,PAGY,2026-02-27 03:56:35.154000+00:00,1772164380,2026-02-27T04:00:00.000Z,-12.2,-21.1,20,14.0,10+,1020.1,110,METAR,METAR PAGY 270353Z AUTO 02014G21KT 10SM OVC065 M12/M21 A3012 RMK AO2 SLP198 T11221211 FZRANO TSNO $,59.457,-135.322,7,Skagway Arpt,OVC,"[{'cover': 'OVC', 'base': 6500}]",VFR,21.0,,1019.8,,,,,,,"Skagway Arpt, AK, US",US,United States,-21.717109129355876
1341,PAHC,2026-02-27 03:59:00.067000+00:00,1772164560,2026-02-27T04:00:00.000Z,-22.8,-28.9,50,3.0,10+,1035.6,70,METAR,METAR PAHC 270356Z AUTO 05003KT 10SM CLR M23/M29 A3058 RMK AO2 SLP360 T12281289 FZRANO,62.191,-159.773,21,Holy Cross Arpt,CLR,[],VFR,,,1036.0,,,,,,,"Holy Cross Arpt, AK, US",US,United States,-27.87434588703834
1593,PAHL,2026-02-27 03:59:00.088000+00:00,1772164560,2026-02-27T04:00:00.000Z,-29.4,-32.8,350,4.0,10+,1038.0,110,METAR,METAR PAHL 270356Z AUTO 35004KT 10SM CLR M29/M33 A3065 RMK AO2 SLP389 T12941328 FZRANO TSNO $,65.699,-156.353,49,Huslia Arpt,CLR,[],VFR,,,1038.9,,,,,,,"Huslia Arpt, AK, US",US,United States,-36.841923228685054
1634,PAHN,2026-02-27 03:58:44.159000+00:00,1772164440,2026-02-27T04:00:00.000Z,-12.8,-21.1,300,13.0,10+,1019.0,38,METAR,METAR PAHN 270354Z AUTO 30013G24KT 10SM OVC055 M13/M21 A3009 RMK AO2 PK WND 29027/0316 SLP191 T11281211 TSNO,59.243,-135.511,15,Haines Arpt,OVC,"[{'cover': 'OVC', 'base': 5500}]",VFR,24.0,,1019.1,,,,,,,"Haines Arpt, AK, US",US,United States,-22.164065056179272
1677,PAHO,2026-02-27 03:56:35.181000+00:00,1772164380,2026-02-27T04:00:00.000Z,-12.8,-23.9,330,5.0,10+,1019.0,4,METAR,METAR PAHO 270353Z 33005KT 10SM CLR M13/M24 A3009 RMK AO2 SLP191 T11281239,59.642,-151.491,6,Homer Arpt,CLR,[],VFR,,,1019.1,,,,,,,"Homer Arpt, AK, US",US,United States,-18.28873766652537
1595,PAHP,2026-02-27 03:59:00.105000+00:00,1772164560,2026-02-27T04:00:00.000Z,-23.3,-26.7,10,7.0,10+,1039.0,70,METAR,METAR PAHP 270356Z AUTO 01007KT 10SM BKN014 M23/M27 A3068 RMK AO2 SLP390 T12331267 FZRANO,61.519,-166.138,8,Hooper Bay Arpt,BKN,"[{'cover': 'BKN', 'base': 1400}]",MVFR,,,1039.0,,,,,,,"Hooper Bay Arpt, AK, US",US,United States,-32.37899612438586
1600,PAIG,2026-02-27 03:59:00.138000+00:00,1772164560,2026-02-27T04:00:00.000Z,-22.8,-27.2,170,5.0,10+,1028.2,70,METAR,METAR PAIG 270356Z AUTO 17005KT 10SM CLR M23/M27 A3036 RMK AO2 SLP293 T12281272 FZRANO,59.325,-155.897,24,Igiugig Arpt,CLR,[],VFR,,,1029.3,,,,,,,"Igiugig Arpt, AK, US",US,United States,-30.15939351258588
1601,PAIK,2026-02-27 03:59:00.159000+00:00,1772164560,2026-02-27T04:00:00.000Z,-31.1,-34.4,0,0.0,10+,1040.0,70,METAR,METAR PAIK 270356Z AUTO 00000KT 10SM CLR M31/M34 A3071 RMK AO2 SLP407 T13111344 FZRANO,66.975,-160.439,49,Kiana/Baker Mem Arpt,CLR,[],VFR,,,1040.7,,,,,,,"Kiana/Baker Mem Arpt, AK, US",US,United States,-6.201983333333334
1662,PAIL,2026-02-27 03:56:35.209000+00:00,1772164380,2026-02-27T04:00:00.000Z,-24.4,-31.1,270,4.0,10+,1026.8,4,METAR,METAR PAIL 270353Z 27004KT 10SM CLR M24/M31 A3032 RMK AO2 SLP277 T12441311,59.7492,-154.9091,44,Iliamna Arpt,CLR,[],VFR,,,1027.7,,,,,,,"Iliamna Arpt, AK, US",US,United States,-31.00577609651165
2203,PAIN,2026-02-27 03:59:00.179000+00:00,1772164560,2026-02-27T04:00:00.000Z,-27.8,-32.2,360,9.0,10+,1024.1,110,METAR,METAR PAIN 270356Z AUTO 36009G16KT 10SM CLR M28/M32 A3024 RMK AO2 SLP319 T12781322 FZRANO TSNO $,63.733,-148.912,525,McKinley Park Arpt,CLR,[],VFR,16.0,,1031.9,,,,,,,"McKinley Park Arpt, AK, US",US,United States,-39.24469280099443
3824,PAIW,2026-02-27 03:59:00.206000+00:00,1772164560,2026-02-27T04:00:00.000Z,-25.0,-27.2,60,7.0,10+,1041.7,70,METAR,METAR PAIW 270356Z AUTO 06007KT 10SM CLR M25/M27 A3076 RMK AO2 SLP419 T12501272 FZRANO,65.621,-168.093,6,Wales Arpt,CLR,[],VFR,,,1041.9,,,,,,,"Wales Arpt, AK, US",US,United States,-34.45018706324149
1826,PAJC,2026-02-27 03:59:00.232000+00:00,1772164560,2026-02-27T04:00:00.000Z,-11.7,-18.9,270,15.0,10+,1027.5,70,METAR,METAR PAJC 270356Z AUTO 27015G19KT 10SM CLR M12/M19 A3034 RMK AO2 SLP276 T11171189 FZRANO,56.312,-158.374,10,Chignik Arpt,CLR,[],VFR,19.0,,1027.6,,,,,,,"Chignik Arpt, AK, US",US,United States,-21.371835748186413
1846,PAJN,2026-02-27 03:56:35.233000+00:00,1772164380,2026-02-27T04:00:00.000Z,-8.9,-11.7,280,7.0,5,1013.6,12,METAR,METAR PAJN 270353Z 28007KT 5SM -SN BR FEW005 BKN030 OVC045 M09/M12 A2993 RMK AO2 SLP134 P0001 T10891117 $,58.354,-134.5561,6,Juneau Intl,OVC,"[{'cover': 'FEW', 'base': 500}, {'cover': 'BKN', 'base': 3000}, {'cover': 'OVC', 'base': 4500}]",MVFR,,-SN BR,1013.4,0.01,,,,,,"Juneau Intl, AK, US",US,United States,-14.83479052466749
30,PAKH,2026-02-27 03:59:00.253000+00:00,1772164560,2026-02-27T04:00:00.000Z,-12.8,-16.1,350,13.0,,1020.4,206,METAR,METAR PAKH 270356Z AUTO 35013G17KT CLR M13/M16 A3013 RMK AO2 SLP204 T11281161 PWINO FZRANO $,56.94,-154.181,15,Akhiok Arpt,CLR,[],,17.0,,1020.4,,,,,,,"Akhiok Arpt, AK, US",US,United States,-22.164065056179272
1985,PAKI,2026-02-27 03:59:00.270000+00:00,1772164560,2026-02-27T04:00:00.000Z,-25.6,-28.3,360,14.0,10+,1037.0,70,METAR,METAR PAKI 270356Z AUTO 36014KT 10SM CLR M26/M28 A3062 RMK AO2 SLP371 T12561283 FZRANO,59.935,-164.033,4,Kipnuk Arpt,CLR,[],VFR,,,1037.1,,,,,,,"Kipnuk Arpt, AK, US",US,United States,-38.98100126346296
1827,PAKK,2026-02-27 03:59:00.286000+00:00,1772164560,2026-02-27T04:00:00.000Z,-28.3,-32.2,350,5.0,10+,1037.3,78,METAR,METAR PAKK 270356Z AUTO 35005KT 10SM BKN120 M28/M32 A3063 RMK AO2 SLP388 T12831322 FZRANO $,64.939,-161.156,56,Koyuk Arpt,BKN,"[{'cover': 'BKN', 'base': 12000}]",VFR,,,1038.8,,,,,,,"Koyuk Arpt, AK, US",US,United States,-36.688254227919145
73,PAKN,2026-02-27 03:58:44.196000+00:00,1772164440,2026-02-27T04:00:00.000Z,-22.2,-27.8,40,5.0,10+,1027.9,38,METAR,METAR PAKN 270354Z AUTO 04005KT 10SM CLR M22/M28 A3035 RMK AO2 SLP281 T12221278 TSNO,58.683,-156.656,20,King Salmon Arpt,CLR,[],VFR,,,1028.1,,,,,,,"King Salmon Arpt, AK, US",US,United States,-29.447154161822237
2028,PAKT,2026-02-27 03:56:35.261000+00:00,1772164380,2026-02-27T04:00:00.000Z,-2.2,-3.3,190,3.0,10+,1014.3,12,METAR,METAR PAKT 270353Z 19003KT 10SM SCT041 BKN090 M02/M03 A2995 RMK AO2 SLP143 T10221033 PNO $,55.3592,-131.7219,27,Ketchikan Intl,BKN,"[{'cover': 'SCT', 'base': 4100}, {'cover': 'BKN', 'base': 9000}]",VFR,,,1014.3,,,,,,,"Ketchikan Intl, AK, US",US,United States,-4.335151910636566
3906,PAKU,2026-02-27 03:38:30.172000+00:00,1772163900,2026-02-27T04:00:00.000Z,-36.0,,250,11.0,7,1042.4,0,METAR,METAR PAKU 270345Z 25011KT 7SM R24/P6000FT SCT030 M36/ A3078 RMK LAST,70.331,-149.613,23,Kuparuk Arpt,SCT,"[{'cover': 'SCT', 'base': 3000}]",VFR,,,,,,,,,,"Kuparuk Arpt, AK, US",US,United States,-50.747235360347666
1845,PAKV,2026-02-27 03:56:35.288000+00:00,1772164380,2026-02-27T04:00:00.000Z,-31.1,-34.4,0,0.0,10+,1038.0,38,METAR,METAR PAKV 270353Z AUTO 00000KT 10SM CLR M31/M34 A3065 RMK AO2 SLP391 T13111344 TSNO,64.321,-158.732,53,Kaltag Arpt,CLR,[],VFR,,,1039.1,,,,,,,"Kaltag Arpt, AK, US",US,United States,-6.201983333333334
1852,PAKW,2026-02-27 03:54:28.192000+00:00,1772164260,2026-02-27T03:51:00.000Z,0.0,-3.0,160,8.0,4,1013.0,38,SPECI,SPECI PAKW 270351Z AUTO 16008KT 4SM -SN SCT010 OVC015 00/M03 A2991 RMK AO2 SNB08 P0002 TSNO,55.582,-133.075,7,Klawock Arpt,OVC,"[{'cover': 'SCT', 'base': 1000}, {'cover': 'OVC', 'base': 1500}]",MVFR,,-SN,,0.02,,,,,,"Klawock Arpt, AK, US",US,United States,-4.36116162616972
1823,PALG,2026-02-27 03:59:00.302000+00:00,1772164560,2026-02-27T04:00:00.000Z,-25.0,-30.6,0,0.0,10+,1035.6,70,METAR,METAR PALG 270356Z AUTO 00000KT 10SM CLR M25/M31 A3058 RMK AO2 SLP359 T12501306 FZRANO,61.538,-160.34,13,Kalskag Arpt,CLR,[],VFR,,,1035.9,,,,,,,"Kalskag Arpt, AK, US",US,United States,-2.410833333333334
2236,PALU,2026-02-27 04:02:04.753000+00:00,1772164500,2026-02-27T04:00:00.000Z,-25.6,-28.5,200,2.0,10+,1040.4,6,METAR,METAR PALU 270355Z AUTO 20002KT 10SM CLR M26/M28 A3072 RMK AO2 SLP404 T12561285,68.873,-166.101,8,Cape Lisburne Arpt,CLR,[],VFR,,,1040.4,,,,,,,"Cape Lisburne Arpt, AK, US",US,United States,-29.296808679399973
1988,PAMB,2026-02-27 03:59:00.317000+00:00,1772164560,2026-02-27T04:00:00.000Z,-20.6,-26.7,230,3.0,10+,1029.9,70,METAR,METAR PAMB 270356Z AUTO 23003KT 10SM CLR M21/M27 A3041 RMK AO2 SLP305 T12061267 FZRANO,58.986,-159.05,28,Manokotak Arpt,CLR,[],VFR,,,1030.5,,,,,,,"Manokotak Arpt, AK, US",US,United States,-25.360451384704167
2274,PAMC,2026-02-27 03:56:35.343000+00:00,1772164380,2026-02-27T04:00:00.000Z,-22.2,-28.3,30,6.0,10+,1032.3,38,METAR,METAR PAMC 270353Z AUTO 03006KT 10SM CLR M22/M28 A3048 RMK AO2 SLP339 T12221283 TSNO,62.957,-155.61,101,McGrath Arpt,CLR,[],VFR,,,1033.9,,,,,,,"McGrath Arpt, AK, US",US,United States,-30.298970933603055
2204,PAMD,2026-02-27 03:59:00.335000+00:00,1772164560,2026-02-27T04:00:00.000Z,-6.7,-10.0,0,0.0,9,1011.9,78,METAR,METAR PAMD 270356Z AUTO 00000KT 9SM -SN SCT024 OVC037 M07/M10 A2988 RMK AO2 SLP120 P0000 T10671100 FZRANO $,59.442,-146.317,20,Middleton Isl Arpt,OVC,"[{'cover': 'SCT', 'base': 2400}, {'cover': 'OVC', 'base': 3700}]",VFR,,-SN,1012.0,0.005,,,,,,"Middleton Isl Arpt, AK, US",US,United States,8.96261666666667
1987,PAMH,2026-02-27 03:59:00.351000+00:00,1772164560,2026-02-27T04:00:00.000Z,-26.7,-30.6,0,0.0,10+,1030.9,78,METAR,METAR PAMH 270356Z AUTO 00000KT 10SM CLR M27/M31 A3044 RMK AO2 SLP160 T12671306 FZRANO $,63.889,-152.292,200,Minchumina Arpt,CLR,[],VFR,,,1016.0,,,,,,,"Minchumina Arpt, AK, US",US,United States,-3.467383333333331
3367,PAMK,2026-02-27 03:58:58.585000+00:00,1772164560,2026-02-27T04:00:00.000Z,-26.7,-29.4,0,0.0,10+,1039.0,70,METAR,METAR PAMK 270356Z AUTO 00000KT 10SM FEW065 M27/M29 A3068 RMK AO2 SLP394 T12671294 FZRANO,63.484,-162.115,31,St Michael Arpt,FEW,"[{'cover': 'FEW', 'base': 6500}]",VFR,,,1039.4,,,,,,,"St Michael Arpt, AK, US",US,United States,-3.467383333333331
2478,PAMO,2026-02-27 03:58:58.599000+00:00,1772164560,2026-02-27T04:00:00.000Z,-27.2,-30.0,340,14.0,10+,1036.7,78,METAR,METAR PAMO 270356Z AUTO 34014KT 10SM CLR M27/M30 A3061 RMK AO2 SLP383 T12721300 FZRANO $,62.095,-163.686,93,Mountain Village Arpt,CLR,[],VFR,,,1038.3,,,,,,,"Mountain Village Arpt, AK, US",US,United States,-41.04236151828171
2528,PAMR,2026-02-27 03:56:35.368000+00:00,1772164380,2026-02-27T04:00:00.000Z,-15.6,-23.9,140,3.0,10+,1017.7,12,METAR,METAR PAMR 270353Z 14003KT 10SM CLR M16/M24 A3005 RMK AO2 SLP182 T11561239 $,61.215,-149.85,43,Anchorage/Merrill Fld,CLR,[],VFR,,,1018.2,,,,,,,"Anchorage/Merrill Fld, AK, US",US,United States,-19.647054788490145
4036,PANA,2026-02-27 03:58:58.610000+00:00,1772164560,2026-02-27T04:00:00.000Z,-25.0,-28.9,340,6.0,10+,1036.7,102,METAR,METAR PANA 270356Z AUTO 34006KT 10SM CLR M25/M29 A3061 RMK AO2 SLP365 T12501289 FZRANO TSNO,60.694,-161.978,7,Napakiak Arpt,CLR,[],VFR,,,1036.5,,,,,,,"Napakiak Arpt, AK, US",US,United States,-33.66963039365688
95,PANC,2026-02-27 03:56:35.392000+00:00,1772164380,2026-02-27T04:00:00.000Z,-17.2,-22.2,170,4.0,10+,1017.7,4,METAR,METAR PANC 270353Z 17004KT 10SM CLR M17/M22 A3005 RMK AO2 SLP181 T11721222,61.1691,-150.0277,39,Anchorage Intl,CLR,[],VFR,,,1018.1,,,,,,,"Anchorage Intl, AK, US",US,United States,-22.60172422618194
36,PANI,2026-02-27 03:58:58.643000+00:00,1772164560,2026-02-27T04:00:00.000Z,-24.4,-29.4,VRB,5.0,10+,1034.6,78,METAR,METAR PANI 270356Z AUTO VRB05KT 10SM CLR M24/M29 A3055 RMK AO2 SLP350 T12441294 FZRANO $,61.578,-159.539,21,Aniak Arpt,CLR,[],VFR,,,1035.0,,,,,,,"Aniak Arpt, AK, US",US,United States,-32.05869844795555
1129,PANN,2026-02-27 03:56:35.418000+00:00,1772164380,2026-02-27T04:00:00.000Z,-33.3,-36.1,0,0.0,6,1032.3,38,METAR,METAR PANN 270353Z AUTO 00000KT 6SM HZ CLR M33/M36 A3048 RMK AO2 SLP345 T13331361 TSNO,64.547,-149.087,110,Nenana Muni,CLR,[],VFR,,HZ,1034.5,,,,,,,"Nenana Muni, AK, US",US,United States,-7.569283333333331
2657,PANU,2026-02-27 03:59:03.010000+00:00,1772164560,2026-02-27T04:00:00.000Z,-27.2,-31.7,10,3.0,10+,1037.3,70,METAR,METAR PANU 270356Z AUTO 01003KT 10SM CLR M27/M32 A3063 RMK AO2 SLP286 T12721317 FZRANO,64.7304,-158.0752,117,Nulato Arpt,CLR,[],VFR,,,1028.6,,,,,,,"Nulato Arpt, AK, US",US,United States,-32.90213489170667
31,PANV,2026-02-27 03:58:58.708000+00:00,1772164560,2026-02-27T04:00:00.000Z,-20.0,-27.2,0,0.0,10+,1034.3,102,METAR,METAR PANV 270356Z AUTO 00000KT 10SM CLR M20/M27 A3054 RMK AO2 SLP547 T12001272 FZRANO TSNO,62.647,-160.191,91,Anvik Arpt,CLR,[],VFR,,,1054.7,,,,,,,"Anvik Arpt, AK, US",US,United States,0.6966666666666694
1596,PAOH,2026-02-27 03:58:58.735000+00:00,1772164560,2026-02-27T04:00:00.000Z,-7.8,-9.4,120,9.0,5,1013.0,78,METAR,METAR PAOH 270356Z AUTO 12009KT 5SM -SN BR FEW018 BKN024 OVC036 M08/M09 A2991 RMK AO2 SLP130 P0000 T10781094 FZRANO $,58.108,-135.448,0,Hoonah,OVC,"[{'cover': 'FEW', 'base': 1800}, {'cover': 'BKN', 'base': 2400}, {'cover': 'OVC', 'base': 3600}]",MVFR,,-SN BR,1013.0,0.005,,,,,,"Hoonah, AK, US",US,United States,-14.387971146787557
2697,PAOM,2026-02-27 03:56:35.444000+00:00,1772164380,2026-02-27T04:00:00.000Z,-25.6,-29.4,0,0.0,10+,1039.4,4,METAR,METAR PAOM 270353Z 00000KT 10SM OVC013 M26/M29 A3069 RMK AO2 SLP392 T12561294,64.5111,-165.4401,6,Nome Arpt,OVC,"[{'cover': 'OVC', 'base': 1300}]",MVFR,,,1039.2,,,,,,,"Nome Arpt, AK, US",US,United States,-2.7837333333333327
2648,PAOO,2026-02-27 03:58:58.756000+00:00,1772164560,2026-02-27T04:00:00.000Z,-22.8,-27.2,350,19.0,3,1037.7,110,METAR,METAR PAOO 270356Z AUTO 35019KT 3SM HZ CLR M23/M27 A3064 RMK AO2 PK WND 33026/0315 SNB08E27 SLP385 P0000 T12281272 FZRANO TSNO $,60.537,-165.089,15,Tooksok Bay Arpt,CLR,[],MVFR,,HZ,1038.5,0.005,,,,,,"Tooksok Bay Arpt, AK, US",US,United States,-37.09268097700797
2703,PAOR,2026-02-27 03:56:35.462000+00:00,1772164380,2026-02-27T04:00:00.000Z,-31.7,-34.4,280,3.0,10+,1022.4,12,METAR,METAR PAOR 270353Z 28003KT 10SM BKN090 M32/M34 A3019 RMK AO2 SLP324 T13171344 $,62.962,-141.938,524,Northway Arpt,BKN,"[{'cover': 'BKN', 'base': 9000}]",VFR,,,1032.4,,,,,,,"Northway Arpt, AK, US",US,United States,-38.044191828299304
2701,PAOT,2026-02-27 03:56:35.484000+00:00,1772164380,2026-02-27T04:00:00.000Z,-32.8,-35.6,0,0.0,10+,1039.0,4,METAR,METAR PAOT 270353Z 00000KT 10SM CLR M33/M36 A3068 RMK AO2 SLP390 T13281356,66.886,-162.607,3,Kotzebue/Wien Mem,CLR,[],VFR,,,1039.0,,,,,,,"Kotzebue/Wien Mem, AK, US",US,United States,-7.258533333333332
2647,PAOU,2026-02-27 03:58:58.781000+00:00,1772164560,2026-02-27T04:00:00.000Z,-11.1,-13.9,20,13.0,9,1028.9,70,METAR,METAR PAOU 270356Z AUTO 02013G19KT 9SM -SN OVC019 M11/M14 A3038 RMK AO2 SLP288 P0000 T11111139 FZRANO,56.006,-161.162,3,Nelson Lagoon Arpt,OVC,"[{'cover': 'OVC', 'base': 1900}]",MVFR,19.0,-SN,1028.8,0.005,,,,,,"Nelson Lagoon Arpt, AK, US",US,United States,-19.987232351407254
3420,PAPB,2026-02-27 03:56:35.533000+00:00,1772164380,2026-02-27T04:00:00.000Z,-11.7,-13.9,70,24.0,6,1031.2,38,METAR,METAR PAPB 270353Z AUTO 07024G33KT 6SM -SN BR OVC015 M12/M14 A3045 RMK AO2 PK WND 06035/0330 SLP299 P0000 T11171139 TSNO,56.576,-169.663,33,St George Arpt,OVC,"[{'cover': 'OVC', 'base': 1500}]",MVFR,33.0,-SN BR,1029.9,0.005,,,,,,"St George Arpt, AK, US",US,United States,-23.49827095017977
2882,PAPG,2026-02-27 03:58:58.808000+00:00,1772164560,2026-02-27T04:00:00.000Z,-3.3,-5.0,220,6.0,9,1012.6,12,METAR,METAR PAPG 270356Z 22006KT 9SM -SN FEW024 SCT055 BKN100 M03/M05 A2990 RMK AO2 SNB23 SLP128 P0000 T10331050 $,56.805,-132.935,24,Petersburg Arpt,BKN,"[{'cover': 'FEW', 'base': 2400}, {'cover': 'SCT', 'base': 5500}, {'cover': 'BKN', 'base': 10000}]",VFR,,-SN,1012.8,0.005,,,,,,"Petersburg Arpt, AK, US",US,United States,-7.547019578239782
2883,PAPM,2026-02-27 03:58:58.833000+00:00,1772164560,2026-02-27T04:00:00.000Z,,,350,22.0,10+,1032.3,110,METAR,METAR PAPM 270356Z AUTO 35022KT 10SM CLR A3048 RMK AO2 PK WND 35026/0349 SLPNO FZRANO TSNO $,59.011,-161.82,4,Platinum Arpt,CLR,[],VFR,,,,,,,,,,"Platinum Arpt, AK, US",US,United States,
2879,PAPN,2026-02-27 03:58:58.860000+00:00,1772164560,2026-02-27T04:00:00.000Z,,,70,5.0,10+,1029.2,78,METAR,METAR PAPN 270356Z AUTO 07005KT 10SM CLR A3039 RMK AO2 SLPNO FZRANO $,57.578,-157.569,19,Pilot Point Arpt,CLR,[],VFR,,,,,,,,,,"Pilot Point Arpt, AK, US",US,United States,
2884,PAPO,2026-02-27 03:58:58.882000+00:00,1772164560,2026-02-27T04:00:00.000Z,-29.4,-32.2,340,8.0,10+,1040.7,78,METAR,METAR PAPO 270356Z AUTO 34008KT 10SM M29/M32 A3073 RMK AO2 SLP404 T12941322 FZRANO $,68.345,-166.807,4,Point Hope Arpt,,,,,,1040.4,,,,,,,"Point Hope Arpt, AK, US",US,United States,-40.559513815445904
1986,PAQH,2026-02-27 03:58:58.907000+00:00,1772164560,2026-02-27T04:00:00.000Z,-26.1,-29.4,340,10.0,10+,1035.6,70,METAR,METAR PAQH 270356Z AUTO 34010KT 10SM CLR M26/M29 A3058 RMK AO2 SLP357 T12611294 FZRANO,59.751,-161.842,8,Quinhagak Arpt,CLR,[],VFR,,,1035.7,,,,,,,"Quinhagak Arpt, AK, US",US,United States,-37.71052663179621
2696,PAQT,2026-02-27 03:56:35.559000+00:00,1772164380,2026-02-27T04:00:00.000Z,-35.0,,220,8.0,10+,1043.4,46,METAR,METAR PAQT 270353Z AUTO 22008KT 10SM OVC003 M35/ A3081 RMK AO2 SLP437 T1350 TSNO $,70.213,-150.994,11,Nuiqsut Arpt,OVC,"[{'cover': 'OVC', 'base': 300}]",LIFR,,,1043.7,,,,,,,"Nuiqsut Arpt, AK, US",US,United States,-47.454438041974704
37,PARC,2026-02-27 03:58:58.931000+00:00,1772164560,2026-02-27T04:00:00.000Z,-30.6,-33.3,0,0.0,10+,1026.2,102,METAR,METAR PARC 270356Z AUTO 00000KT 10SM CLR M31/M33 A3030 RMK AO2 SLP385 T13061333 FZRANO TSNO,68.113,-145.576,626,Arctic Village Arpt,CLR,[],VFR,,,1038.5,,,,,,,"Arctic Village Arpt, AK, US",US,United States,-5.891233333333336
3130,PARS,2026-02-27 03:58:58.966000+00:00,1772164560,2026-02-27T04:00:00.000Z,-19.4,-25.6,340,3.0,10+,1036.0,78,METAR,METAR PARS 270356Z AUTO 34003KT 10SM CLR M19/M26 A3059 RMK AO2 SLP363 T11941256 FZRANO $,61.78,-161.321,15,Russian Mission Arpt,CLR,[],VFR,,,1036.3,,,,,,,"Russian Mission Arpt, AK, US",US,United States,-23.989236201612798
3357,PASA,2026-02-27 03:58:58.990000+00:00,1772164560,2026-02-27T04:00:00.000Z,-21.7,-24.4,0,0.0,10+,1042.8,70,METAR,METAR PASA 270356Z AUTO 00000KT 10SM CLR M22/M24 A3079 RMK AO2 SLP428 T12171244 FZRANO,63.689,-170.49,9,Savoonga Arpt,CLR,[],VFR,,,1042.8,,,,,,,"Savoonga Arpt, AK, US",US,United States,-0.35988333333332967
3177,PASC,2026-02-27 03:58:17.570000+00:00,1772164380,2026-02-27T04:00:00.000Z,-37.2,,250,10.0,10+,1042.1,12,METAR,METAR PASC 270353Z 25010KT 10SM FEW003 M37/ A3077 RMK AO2 SLP424 T1372 $,70.191,-148.48,17,Deadhorse Arpt,FEW,"[{'cover': 'FEW', 'base': 300}]",VFR,,,1042.4,,,,,,,"Deadhorse Arpt, AK, US",US,United States,-51.623257234720874
3368,PASD,2026-02-27 03:58:59.026000+00:00,1772164560,2026-02-27T04:00:00.000Z,-8.9,-14.4,350,14.0,10+,1026.8,12,METAR,METAR PASD 270356Z 35014KT 10SM FEW027 SCT055 M09/M14 A3032 RMK AO2 SLP268 LAST T10891144 $,55.318,-160.525,6,Sand Point Arpt,SCT,"[{'cover': 'FEW', 'base': 2700}, {'cover': 'SCT', 'base': 5500}]",VFR,,,1026.8,,,,,,,"Sand Point Arpt, AK, US",US,United States,-17.46555360379219
3356,PASH,2026-02-27 03:58:59.052000+00:00,1772164560,2026-02-27T04:00:00.000Z,,,280,7.0,10+,1041.1,78,METAR,METAR PASH 270356Z AUTO 28007KT 10SM CLR A3074 RMK AO2 SNB0257E15 SLPNO P0000 FZRANO $,66.252,-166.084,3,Shishmaref Arpt,CLR,[],VFR,,,,0.005,,,,,,"Shishmaref Arpt, AK, US",US,United States,
3419,PASI,2026-02-27 03:56:35.616000+00:00,1772164380,2026-02-27T04:00:00.000Z,-2.2,-5.0,80,5.0,,1010.9,110,METAR,METAR PASI 270353Z AUTO 08005KT -SN BR FEW022 OVC035 M02/M05 A2985 RMK AO2 SNE23B32 SLP107 P0000 T10221050 FZRANO TSNO $,57.047,-135.364,2,Sitka/Gutierrez Arpt,OVC,"[{'cover': 'FEW', 'base': 2200}, {'cover': 'OVC', 'base': 3500}]",,,-SN BR,1010.7,0.005,,,,,,"Sitka/Gutierrez Arpt, AK, US",US,United States,-5.705842469701243
4029,PASK,2026-02-27 03:58:59.077000+00:00,1772164560,2026-02-27T04:00:00.000Z,-37.8,,10,4.0,10+,1041.4,70,METAR,METAR PASK 270356Z AUTO 01004KT 10SM CLR M38/ A3075 RMK AO2 SLP410 T1378 FZRANO,66.599,-159.991,3,Selawik Arpt,CLR,[],VFR,,,1041.0,,,,,,,"Selawik Arpt, AK, US",US,United States,-46.646650410736385
1992,PASM,2026-02-27 03:58:59.099000+00:00,1772164560,2026-02-27T04:00:00.000Z,-27.2,-31.1,10,5.0,10+,1037.3,70,METAR,METAR PASM 270356Z AUTO 01005KT 10SM CLR M27/M31 A3063 RMK AO2 SLP391 T12721311 FZRANO,62.057,-163.298,108,St Marys Arpt,CLR,[],VFR,,,1039.1,,,,,,,"St Marys Arpt, AK, US",US,United States,-35.38248208485249
3418,PASN,2026-02-27 03:56:35.648000+00:00,1772164380,2026-02-27T04:00:00.000Z,-12.8,-15.0,60,18.0,2,1033.6,46,METAR,METAR PASN 270353Z AUTO 06018G25KT 2SM -SN BR OVC014 M13/M15 A3052 RMK AO2 PK WND 05026/0330 UPB0259E01SNE0259B20 SLP337 P0000 T11281150 TSNO $,57.155,-170.223,8,St Paul Island Arpt,OVC,"[{'cover': 'OVC', 'base': 1400}]",IFR,25.0,-SN BR,1033.7,0.005,,,,,,"St Paul Island Arpt, AK, US",US,United States,-23.625065479950802
3417,PASO,2026-02-27 03:56:35.686000+00:00,1772164380,2026-02-27T04:00:00.000Z,-10.6,-18.9,10,11.0,10+,1018.4,46,METAR,METAR PASO 270353Z AUTO 01011G16KT 10SM CLR M11/M19 A3007 RMK AO2 SLP184 T11061189 TSNO $,59.443,-151.702,20,Seldovia Arpt,CLR,[],VFR,16.0,,1018.4,,,,,,,"Seldovia Arpt, AK, US",US,United States,-18.66426091108697
3375,PASV,2026-02-27 03:58:09.033000+00:00,1772164500,2026-02-27T04:00:00.000Z,-25.6,-29.8,VRB,5.0,10+,1020.4,6,METAR,METAR PASV 270355Z AUTO VRB05KT 10SM CLR M26/M30 A3013 RMK AO2 SLP299 T12561298,61.101,-155.577,462,Sparrevohn Arpt,CLR,[],VFR,,,1029.9,,,,,,,"Sparrevohn Arpt, AK, US",US,United States,-33.48317714948281
3643,PASX,2026-02-27 03:58:59.121000+00:00,1772164560,2026-02-27T04:00:00.000Z,-15.0,-22.2,160,5.0,10+,1018.7,102,METAR,METAR PASX 270356Z AUTO 16005KT 10SM CLR M15/M22 A3008 RMK AO2 SLP196 T11501222 FZRANO TSNO,60.476,-151.053,28,Soldotna Arpt,CLR,[],VFR,,,1019.6,,,,,,,"Soldotna Arpt, AK, US",US,United States,-20.900281952658684
3650,PASY,2026-02-27 04:00:05.224000+00:00,1772164500,2026-02-27T04:00:00.000Z,0.6,-5.0,60,28.0,10+,1020.1,78,METAR,METAR PASY 270355Z AUTO 06028G43KT 10SM OVC027 01/M05 A3012 RMK AO2 PK WND 06045/23 UPB0259E11 SLP204 P0000 T00061050 FZRANO $,52.711,174.107,6,Shemya/Eareckson Arpt,OVC,"[{'cover': 'OVC', 'base': 2700}]",MVFR,43.0,,1020.4,0.005,,,,,,"Shemya/Eareckson Arpt, AK, US",US,United States,-7.422521848750413
3683,PATA,2026-02-27 03:56:20.214000+00:00,1772164320,2026-02-27T04:00:00.000Z,-31.1,-33.9,40,3.0,10+,1034.6,4,METAR,METAR PATA 270352Z 04003KT 10SM CLR M31/M34 A3055 RMK AO2 SLP360 T13111339,65.173,-152.107,62,Tanana/Calhoun Mem,CLR,[],VFR,,,1036.0,,,,,,,"Tanana/Calhoun Mem, AK, US",US,United States,-37.358584236753615
3645,PATG,2026-02-27 03:58:59.140000+00:00,1772164560,2026-02-27T04:00:00.000Z,-19.4,-25.0,340,6.0,10+,1030.9,70,METAR,METAR PATG 270356Z AUTO 34006KT 10SM CLR M19/M25 A3044 RMK AO2 SLP307 T11941250 FZRANO,59.051,-160.398,1,Togiak Arpt,CLR,[],VFR,,,1030.7,,,,,,,"Togiak Arpt, AK, US",US,United States,-26.928311473549236
3672,PATK,2026-02-27 03:56:35.710000+00:00,1772164380,2026-02-27T04:00:00.000Z,-13.9,-27.2,40,12.0,10+,1018.0,38,METAR,METAR PATK 270353Z AUTO 04012KT 10SM CLR M14/M27 A3006 RMK AO2 SLP190 T11391272 TSNO,62.319,-150.097,107,Talkeetna Arpt,CLR,[],VFR,,,1019.0,,,,,,,"Talkeetna Arpt, AK, US",US,United States,-23.21553011154397
3649,PATL,2026-02-27 03:58:09.072000+00:00,1772164500,2026-02-27T04:00:00.000Z,-22.3,-26.4,70,5.0,10+,1030.2,6,METAR,METAR PATL 270355Z AUTO 07005KT 10SM CLR M22/M26 A3042 RMK AO2 SLP357 T12231264,62.893,-155.977,261,Tatalina Arpt,CLR,[],VFR,,,1035.7,,,,,,,"Tatalina Arpt, AK, US",US,United States,-29.56586072028285
38,PATQ,2026-02-27 03:58:59.164000+00:00,1772164560,2026-02-27T04:00:00.000Z,-33.3,-36.1,,,10+,1043.1,110,METAR,METAR PATQ 270356Z AUTO 10SM OVC004 M33/M36 A3080 RMK AO2 SLP439 T13331361 FZRANO TSNO $,70.469,-157.428,28,Atqasuk/Burnell Mem,OVC,"[{'cover': 'OVC', 'base': 400}]",LIFR,,,1043.9,,,,,,,"Atqasuk/Burnell Mem, AK, US",US,United States,
3828,PAUN,2026-02-27 03:58:59.182000+00:00,1772164560,2026-02-27T04:00:00.000Z,-29.4,-33.3,0,0.0,10+,1039.4,70,METAR,METAR PAUN 270356Z AUTO 00000KT 10SM CLR M29/M33 A3069 RMK AO2 SLP398 T12941333 FZRANO,63.885,-160.794,4,Unalakleet Arpt,CLR,[],VFR,,,1039.8,,,,,,,"Unalakleet Arpt, AK, US",US,United States,-5.14543333333333
3823,PAVA,2026-02-27 03:58:59.210000+00:00,1772164560,2026-02-27T04:00:00.000Z,-22.2,-26.1,10,5.0,10+,1040.0,70,METAR,METAR PAVA 270356Z AUTO 01005KT 10SM CLR M22/M26 A3071 RMK AO2 SLP400 T12221261 FZRANO,61.537,-165.604,14,Chevak Arpt,CLR,[],VFR,,,1040.0,,,,,,,"Chevak Arpt, AK, US",US,United States,-29.447154161822237
1984,PAVC,2026-02-27 03:59:03.506000+00:00,1772164560,2026-02-27T04:00:00.000Z,-9.4,-15.0,270,7.0,,1026.8,206,METAR,METAR PAVC 270356Z AUTO 27007KT CLR M09/M15 A3032 RMK AO2 SLP272 T10941150 PWINO FZRANO $,55.115,-162.271,48,King Cove Arpt,CLR,[],,,,1027.2,,,,,,,"King Cove Arpt, AK, US",US,United States,-15.443964330213268
3825,PAVD,2026-02-27 04:02:19.312000+00:00,1772164560,2026-02-27T04:00:00.000Z,-11.0,-23.0,70,29.0,10+,1018.0,0,METAR,METAR PAVD 270356Z 07029G41KT 10SM CLR M11/M23 A3006 RMK PK WND 06046/0332,61.133,-146.251,21,Valdez Arpt,CLR,[],VFR,41.0,,,,,,,,,"Valdez Arpt, AK, US",US,United States,-23.44111572157222
2037,PAVL,2026-02-27 03:56:35.779000+00:00,1772164380,2026-02-27T04:00:00.000Z,-33.9,-37.2,60,3.0,10+,1039.4,238,METAR,METAR PAVL 270353Z AUTO 06003KT 10SM M34/M37 A3069 RMK AO2 SLP391 T13391372 PWINO FZRANO TSNO $,67.731,-164.548,6,Kivalina Arpt,,,,,,1039.1,,,,,,,"Kivalina Arpt, AK, US",US,United States,-40.55808633063347
4027,PAWG,2026-02-27 03:58:59.251000+00:00,1772164560,2026-02-27T04:00:00.000Z,-1.7,-3.9,160,6.0,10+,1013.0,12,METAR,METAR PAWG 270356Z 16006KT 10SM BKN035 OVC060 M02/M04 A2991 RMK AO2 SLP130 T10171039 $,56.486,-132.377,6,Wrangell Arpt,OVC,"[{'cover': 'BKN', 'base': 3500}, {'cover': 'OVC', 'base': 6000}]",VFR,,,1013.0,,,,,,,"Wrangell Arpt, AK, US",US,United States,-5.6209284582090255
4037,PAWM,2026-02-27 03:58:59.275000+00:00,1772164560,2026-02-27T04:00:00.000Z,-26.1,-30.0,350,4.0,7,1038.0,78,METAR,METAR PAWM 270356Z AUTO 35004KT 7SM OVC090 M26/M30 A3065 RMK AO2 SLP394 T12611300 FZRANO $,64.688,-163.41,80,White Mouintain Arpt,OVC,"[{'cover': 'OVC', 'base': 9000}]",VFR,,,1039.4,,,,,,,"White Mouintain Arpt, AK, US",US,United States,-32.99006612145061
4038,PAWS,2026-02-27 03:58:59.294000+00:00,1772164560,2026-02-27T04:00:00.000Z,-13.3,-25.6,,,10+,1017.7,78,METAR,METAR PAWS 270356Z AUTO 10SM CLR M13/M26 A3005 RMK AO2 SLPNO T11331256 FZRANO $,61.571,-149.538,102,Wasilla Arpt,CLR,[],VFR,,,,,,,,,,"Wasilla Arpt, AK, US",US,United States,
4063,PAYA,2026-02-27 03:56:35.833000+00:00,1772164380,2026-02-27T04:00:00.000Z,-9.4,-16.1,90,8.0,10+,1008.9,110,METAR,METAR PAYA 270353Z AUTO 09008KT 10SM FEW049 OVC060 M09/M16 A2979 RMK AO2 SLP086 T10941161 FZRANO TSNO $,59.512,-139.671,9,Yakutat Arpt,OVC,"[{'cover': 'FEW', 'base': 4900}, {'cover': 'OVC', 'base': 6000}]",VFR,,,1008.6,,,,,,,"Yakutat Arpt, AK, US",US,United States,-15.934784434985918
2594,PFCB,2026-02-27 03:50:31.579000+00:00,1772163000,2026-02-27T03:30:00.000Z,-7.2,-14.0,360,3.0,10+,1013.3,6,METAR,METAR PFCB 270330Z AUTO 36003KT 10SM CLR M07/M14 A2992 RMK AO2 T10721140,60.0785,-147.9947,22,Chenega Bay Arpt,CLR,[],VFR,,,,,,,,,,"Chenega Bay Arpt, AK, US",US,United States,-10.048548506850588
555,PFCL,2026-02-27 03:58:59.331000+00:00,1772164560,2026-02-27T04:00:00.000Z,-16.7,-22.2,,,10+,1029.9,78,METAR,METAR PFCL 270356Z AUTO 10SM CLR M17/M22 A3041 RMK AO2 SLP291 T11671222 FZRANO $,58.837,-158.526,23,Clarks Point Arpt,CLR,[],VFR,,,1029.1,,,,,,,"Clarks Point Arpt, AK, US",US,United States,
1040,PFEL,2026-02-27 03:58:59.356000+00:00,1772164560,2026-02-27T04:00:00.000Z,-28.3,-32.2,0,0.0,10+,1038.0,78,METAR,METAR PFEL 270356Z AUTO 00000KT 10SM CLR M28/M32 A3065 RMK AO2 SLP386 T12831322 FZRANO $,64.616,-162.272,50,Elim Arpt,CLR,[],VFR,,,1038.6,,,,,,,"Elim Arpt, AK, US",US,United States,-4.461783333333334
1995,PFKO,2026-02-27 03:59:08.526000+00:00,1772164560,2026-02-27T04:00:00.000Z,-27.2,-30.6,360,4.0,,1039.4,206,METAR,METAR PFKO 270356Z AUTO 36004KT CLR M27/M31 A3069 RMK AO2 SLP395 T12721306 PWINO FZRANO RVRNO $,63.0334,-163.5323,13,Kotlik Arpt,CLR,[],,,,1039.5,,,,,,,"Kotlik Arpt, AK, US",US,United States,-34.27401849052875
1993,PFKT,2026-02-27 03:58:59.424000+00:00,1772164560,2026-02-27T04:00:00.000Z,-27.2,-29.4,0,0.0,10+,1041.4,78,METAR,METAR PFKT 270356Z AUTO 00000KT 10SM CLR M27/M29 A3075 RMK AO2 SLP415 T12721294 FZRANO $,65.33,-166.479,8,Brevig Mission Arpt,CLR,[],VFR,,,1041.5,,,,,,,"Brevig Mission Arpt, AK, US",US,United States,-3.7781333333333302
1994,PFKW,2026-02-27 03:58:59.433000+00:00,1772164560,2026-02-27T04:00:00.000Z,-25.6,-29.4,330,6.0,10+,1036.3,78,METAR,METAR PFKW 270356Z AUTO 33006KT 10SM CLR M26/M29 A3060 RMK AO2 SLP362 T12561294 FZRANO $,60.793,-161.44,4,Kwethluk Arpt,CLR,[],VFR,,,1036.2,,,,,,,"Kwethluk Arpt, AK, US",US,United States,-34.39191456366841
2645,PFNO,2026-02-27 03:58:51.717000+00:00,1772164560,2026-02-27T04:00:00.000Z,-34.4,,130,7.0,8,1040.4,78,METAR,METAR PFNO 270356Z AUTO 13007KT 8SM CLR M34/ A3072 RMK AO2 SLP405 T1344 FZRANO $,66.819,-161.024,14,Noorvik/Curtis Mem,CLR,[],VFR,,,1040.5,,,,,,,"Noorvik/Curtis Mem, AK, US",US,United States,-45.90265460750209
3355,PFSH,2026-02-27 03:58:51.746000+00:00,1772164560,2026-02-27T04:00:00.000Z,-32.8,-36.1,20,5.0,10+,1039.7,78,METAR,METAR PFSH 270356Z AUTO 02005KT 10SM CLR M33/M36 A3070 RMK AO2 SLP398 T13281361 FZRANO $,64.367,-161.217,6,Shaktoolik Arpt,CLR,[],VFR,,,1039.8,,,,,,,"Shaktoolik Arpt, AK, US",US,United States,-42.03004935864638
3646,PFTO,2026-02-27 03:58:59.469000+00:00,1772164560,2026-02-27T04:00:00.000Z,-30.0,-33.3,0,0.0,10+,1024.1,78,METAR,METAR PFTO 270356Z AUTO 00000KT 10SM CLR M30/M33 A3024 RMK AO2 SLP754 T13001333 FZRANO $,63.329,-142.954,500,Tok Junction Arpt,CLR,[],VFR,,,975.4,,,,,,,"Tok Junction Arpt, AK, US",US,United States,-5.5183333333333335
4026,PFWS,2026-02-27 03:58:51.776000+00:00,1772164560,2026-02-27T04:00:00.000Z,-20.6,-26.1,20,9.0,10+,1029.2,70,METAR,METAR PFWS 270356Z AUTO 02009KT 10SM CLR M21/M26 A3039 RMK AO2 SLP296 T12061261 FZRANO,58.704,-157.005,40,South Naknek Arpt,CLR,[],VFR,,,1029.6,,,,,,,"South Naknek Arpt, AK, US",US,United States,-30.29627300547995
1350,PFYU,2026-02-27 03:58:59.489000+00:00,1772164560,2026-02-27T04:00:00.000Z,-27.2,-31.7,30,3.0,10+,1034.6,4,METAR,METAR PFYU 270356Z 03003KT 10SM CLR M27/M32 A3055 RMK AO2 SLPNO T12721317,66.572,-145.243,130,Fort Yukon Arpt,CLR,[],VFR,,,,,,,,,,"Fort Yukon Arpt, AK, US",US,United States,-32.90213489170667
3217,PGRO,2026-02-27 03:53:11.843000+00:00,1772164200,2026-02-27T04:00:00.000Z,29.0,23.0,50,13.0,7,1006.9,0,METAR,METAR PGRO 270350Z 05013KT 7SM SCT015 29/23 A2973,14.172,145.24,181,Rota Intl,SCT,"[{'cover': 'SCT', 'base': 1500}]",VFR,,,,,,,,,,"Rota Intl, , MP",MP,Northern Mariana Islands,31.360409684685653
3409,PGSN,2026-02-27 04:00:08.770000+00:00,1772164440,2026-02-27T04:00:00.000Z,28.9,23.3,70,17.0,10+,1007.2,4,METAR,METAR PGSN 270354Z 07017KT 10SM FEW017CB SCT030 BKN050 29/23 A2974 RMK AO2 SLP092 CB W-N MOV W T02890233,15.116,145.72,65,Saipan/Ada Intl,BKN,"[{'cover': 'FEW', 'base': 1700}, {'cover': 'SCT', 'base': 3000}, {'cover': 'BKN', 'base': 5000}]",VFR,,,1009.2,,,,,,,"Saipan/Ada Intl, , MP",MP,Northern Mariana Islands,31.23869115787389
3843,PGUA,2026-02-27 04:02:14.960000+00:00,1772164500,2026-02-27T04:00:00.000Z,28.3,23.4,70,14.0,10+,1007.2,12,METAR,METAR PGUA 270355Z 07014KT 10SM BKN018 BKN025 BKN037 28/23 A2974 RMK AO2A CIG 018V022 SLP061 T02830234 $,13.583,144.918,159,Guam/Andersen AFB,BKN,"[{'cover': 'BKN', 'base': 1800}, {'cover': 'BKN', 'base': 2500}, {'cover': 'BKN', 'base': 3700}]",MVFR,,,1006.1,,,,,,,"Guam/Andersen AFB, , GU",GU,Guam,30.461072320743895
1389,PGUM,2026-02-27 04:00:14.234000+00:00,1772164440,2026-02-27T04:00:00.000Z,30.6,22.2,80,15.0,10+,1006.9,4,METAR,METAR PGUM 270354Z 08015G22KT 10SM FEW026 SCT034 SCT044 31/22 A2973 RMK AO2 SLP058 T03060222,13.4796,144.7958,74,Guam/Pat Intl,SCT,"[{'cover': 'FEW', 'base': 2600}, {'cover': 'SCT', 'base': 3400}, {'cover': 'SCT', 'base': 4400}]",VFR,22.0,,1005.8,,,,,,,"Guam/Pat Intl, , GU",GU,Guam,33.438482495316606
3660,PGWT,2026-02-27 03:55:54.416000+00:00,1772164500,2026-02-27T04:00:00.000Z,28.0,24.0,90,14.0,7,1007.5,0,METAR,METAR PGWT 270355Z 09014KT 7SM SCT017 SCT030 28/24 A2975,14.997,145.624,84,Tinian/San Jose Arpt,SCT,"[{'cover': 'SCT', 'base': 1700}, {'cover': 'SCT', 'base': 3000}]",VFR,,,,,,,,,,"Tinian/San Jose Arpt, , MP",MP,Northern Mariana Islands,30.074567272965382
384,PHBK,2026-02-27 04:00:06.918000+00:00,1772164260,2026-02-27T04:00:00.000Z,24.4,16.7,340,7.0,,1014.0,14,METAR,METAR PHBK 270351Z AUTO 34007KT FEW033 24/17 A2994 RMK AO2 SLP141 T02440167 $,22.034,-159.783,5,Kekaha/Barking Sands Arpt,FEW,"[{'cover': 'FEW', 'base': 3300}]",,,,1014.1,,,,,,,"Kekaha/Barking Sands Arpt, HI, US",US,United States,25.736184924681236
1629,PHHI,2026-02-27 04:00:07.004000+00:00,1772164500,2026-02-27T04:00:00.000Z,21.8,14.4,0,0.0,10+,1016.0,14,METAR,METAR PHHI 270355Z AUTO 00000KT 10SM CLR 22/14 A3000 RMK AO2 DZB15E25 SLP151 P0000 T02180144 $,21.478,-158.044,246,Wheeler,CLR,[],VFR,,,1015.1,0.005,,,,,,"Wheeler, HI, US",US,United States,26.675366666666676
1848,PHJR,2026-02-27 04:00:28.437000+00:00,1772164380,2026-02-27T04:00:00.000Z,23.3,15.0,40,6.0,10+,1015.7,4,METAR,METAR PHJR 270353Z 04006KT 10SM CLR 23/15 A2999 RMK AO2 SLP161 T02330150,21.312,-158.07,9,Kalaeloa Arpt,CLR,[],VFR,,,1016.1,,,,,,,"Kalaeloa Arpt, HI, US",US,United States,24.4742452922715
2036,PHKO,2026-02-27 04:00:28.455000+00:00,1772164380,2026-02-27T04:00:00.000Z,26.1,16.1,270,5.0,10+,1014.6,4,METAR,METAR PHKO 270353Z 27005KT 10SM CLR 26/16 A2996 RMK AO2 SLP143 T02610161,19.7378,-156.048,11,Keahole Point/Kona Intl,CLR,[],VFR,,,1014.3,,,,,,,"Keahole Point/Kona Intl, HI, US",US,United States,27.88811357464998
2035,PHLI,2026-02-27 03:56:35.980000+00:00,1772164380,2026-02-27T04:00:00.000Z,22.8,16.7,80,9.0,10+,1015.7,12,METAR,METAR PHLI 270353Z 08009KT 10SM OVC036 23/17 A2999 RMK AO2 SLP152 T02280167 $,21.9805,-159.3386,32,Lihue Arpt,OVC,"[{'cover': 'OVC', 'base': 3600}]",VFR,,,1015.2,,,,,,,"Lihue Arpt, HI, US",US,United States,23.642812984148957
2505,PHMK,2026-02-27 03:58:44.232000+00:00,1772164440,2026-02-27T04:00:00.000Z,22.8,14.4,50,6.0,10+,1015.7,4,METAR,METAR PHMK 270354Z 05006KT 10SM CLR 23/14 A2999 RMK AO2 SLP160 T02280144,21.1545,-157.0961,135,Molokai Arpt,CLR,[],VFR,,,1016.0,,,,,,,"Molokai Arpt, HI, US",US,United States,23.872341817261887
2472,PHNG,2026-02-27 04:00:04.560000+00:00,1772164620,2026-02-27T04:00:00.000Z,22.8,15.6,VRB,5.0,7,1015.0,4,METAR,METAR PHNG 270357Z VRB05KT 7SM SCT040 23/16 A2997 RMK AO2 SLP142 T02280156 ,21.45,-157.763,1,Kaneohe Bay,SCT,"[{'cover': 'SCT', 'base': 4000}]",VFR,,,1014.2,,,,,,,"Kaneohe Bay , HI, US",US,United States,23.97079714545002
1649,PHNL,2026-02-27 04:00:28.473000+00:00,1772164380,2026-02-27T04:00:00.000Z,23.9,15.0,40,8.0,10+,1015.3,12,METAR,METAR PHNL 270353Z 04008KT 10SM FEW028 FEW033 FEW250 24/15 A2998 RMK AO2 SLP151 T02390150 $,21.315,-157.924,2,Honolulu Intl,FEW,"[{'cover': 'FEW', 'base': 2800}, {'cover': 'FEW', 'base': 3300}, {'cover': 'FEW', 'base': 25000}]",VFR,,,1015.1,,,,,,,"Honolulu Intl, HI, US",US,United States,25.065389983479964
2201,PHNY,2026-02-27 04:00:28.491000+00:00,1772164560,2026-02-27T04:00:00.000Z,20.6,13.9,40,13.0,10+,1017.0,14,METAR,METAR PHNY 270356Z AUTO 04013KT 10SM CLR 21/14 A3003 RMK AO2 SLP151 T02060139 $,20.783,-156.955,395,Lanai Arpt,CLR,[],VFR,,,1015.1,,,,,,,"Lanai Arpt, HI, US",US,United States,20.604295143459215
2681,PHOG,2026-02-27 04:00:28.510000+00:00,1772164440,2026-02-27T04:00:00.000Z,23.3,14.4,30,8.0,10+,1015.7,4,METAR,METAR PHOG 270354Z 03008KT 10SM CLR 23/14 A2999 RMK AO2 SLP159 T02330144,20.8887,-156.4345,14,Kahului Arpt,CLR,[],VFR,,,1015.9,,,,,,,"Kahului Arpt, HI, US",US,United States,24.326648102066173
320,PHSF,2026-02-27 04:02:38.485000+00:00,1772164500,2026-02-27T04:00:00.000Z,15.1,7.1,270,5.0,8,1024.8,14,METAR,METAR PHSF 270355Z AUTO 27005KT 8SM CLR 15/07 A3026 RMK AO2 SLP161 T01510071 $,19.758,-155.557,1863,Bradshaw,CLR,[],VFR,,,1016.1,,,,,,,"Bradshaw, HI, US",US,United States,14.830392143983428
1844,PHTO,2026-02-27 04:00:28.529000+00:00,1772164380,2026-02-27T04:00:00.000Z,22.2,14.4,0,0.0,10+,1016.3,4,METAR,METAR PHTO 270353Z 00000KT 10SM OVC040 22/14 A3001 RMK AO2 SLP162 T02220144,19.7191,-155.049,9,Hilo Intl,OVC,"[{'cover': 'OVC', 'base': 4000}]",VFR,,,1016.2,,,,,,,"Hilo Intl, HI, US",US,United States,26.923966666666672
1972,PKWA,2026-02-27 04:02:53.342000+00:00,1772164800,2026-02-27T04:00:00.000Z,28.7,23.7,50,16.0,10+,1004.8,6,METAR,METAR PKWA 270400Z AUTO 05016KT 10SM SCT023 SCT035 SCT042 29/24 A2967 RMK AO2 T02870237,8.72,167.724,6,Kwajalein/Bucholz AA,SCT,"[{'cover': 'SCT', 'base': 2300}, {'cover': 'SCT', 'base': 3500}, {'cover': 'SCT', 'base': 4200}]",VFR,,,,,,,,,,"Kwajalein/Bucholz AA, L, MH",MH,Marshall Islands,30.97668654706528
2202,PMDY,2026-02-27 04:00:08.430000+00:00,1772164560,2026-02-27T04:00:00.000Z,18.9,8.9,280,7.0,10+,1016.3,14,METAR,METAR PMDY 270356Z AUTO 28007KT 10SM BKN047 19/09 A3001 RMK AO2 SLP162 T01890089 $,28.206,-177.382,6,Midway Island Arpt,BKN,"[{'cover': 'BKN', 'base': 4700}]",VFR,,,1016.2,,,,,,,"Midway Island Arpt, MQ, UM",UM,United States Minor Outlying Islands,19.03527306367769
2881,PPIZ,2026-02-27 04:02:17.318000+00:00,1772164560,2026-02-27T04:00:00.000Z,-38.9,,40,6.0,10+,1040.4,70,METAR,METAR PPIZ 270356Z AUTO 04006KT 10SM CLR M39/ A3072 RMK AO2 SLP408 T1389 FZRANO,69.735,-163.003,5,Point Lay Arpt,CLR,[],VFR,,,1040.8,,,,,,,"Point Lay Arpt, AK, US",US,United States,-50.402546998924045
3685,PTKK,2026-02-27 04:00:14.198000+00:00,1772164320,2026-02-27T04:00:00.000Z,29.4,26.0,110,6.0,10+,1003.1,0,METAR,METAR PTKK 270352Z 11006KT 10SM -SHRA SCT012CB OVC120 29/26 A2962 RMK SHRAB46 CB ALQDS MOV W SLP032 T02940260,7.462,151.843,3,Meno Isl/Chuuk Intl,OVC,"[{'cover': 'SCT', 'base': 1200}, {'cover': 'OVC', 'base': 12000}]",VFR,,-SHRA,1003.2,,,,,,,"Meno Isl/Chuuk Intl, TR, FM",FM,"Micronesia, Federated States of",31.817467687388742
2921,PTPN,2026-02-27 04:00:08.815000+00:00,1772164440,2026-02-27T04:00:00.000Z,31.0,25.0,90,11.0,15,1002.8,0,METAR,METAR PTPN 270354Z 09011KT 15SM BKN017CB BKN300 31/25 A2961 RMK CB NE-SE MOV W,6.986,158.21,3,Pohnpeo Intl,BKN,"[{'cover': 'BKN', 'base': 1700}, {'cover': 'BKN', 'base': 30000}]",MVFR,,,,,,,,,,"Pohnpeo Intl, PN, FM",FM,"Micronesia, Federated States of",33.88108306880456
3204,PTRO,2026-02-27 04:02:11.605000+00:00,1772164200,2026-02-27T04:00:00.000Z,29.0,25.0,50,9.0,12,1004.8,0,METAR,METAR PTRO 270350Z 05009G14KT 12SM BKN014TCU BKN120 OVC300 29/25 A2967 RMK TCU OHD AND ALQDS,7.367,134.544,30,Palau/Tmetochl Intl,OVC,"[{'cover': 'BKN', 'base': 1400}, {'cover': 'BKN', 'base': 12000}, {'cover': 'OVC', 'base': 30000}]",MVFR,14.0,,,,,,,,,"Palau/Tmetochl Intl, KO, PW",PW,Palau,31.34839669695307
2069,PTSA,2026-02-27 03:59:02.241000+00:00,1772164200,2026-02-27T04:00:00.000Z,31.0,25.0,50,8.0,10+,1002.5,0,METAR,METAR PTSA 270350Z 05008KT 10SM BKN017TCU BKN130 BKN300 31/25 A2960 RMK TCU W-NW CB DSNT W LAST,5.352,162.956,3,Kosrae Intl,BKN,"[{'cover': 'BKN', 'base': 1700}, {'cover': 'BKN', 'base': 13000}, {'cover': 'BKN', 'base': 30000}]",MVFR,,,,,,,,,,"Kosrae Intl, KS, FM",FM,"Micronesia, Federated States of",33.807168913543265
4073,PTYA,2026-02-27 03:59:02.259000+00:00,1772164200,2026-02-27T04:00:00.000Z,29.9,26.5,VRB,6.0,12,1004.8,0,METAR,METAR PTYA 270350Z VRB06KT 12SM VCSH SCT016CB BKN130 OVC300 30/27 A2967 RMK VCSH E-S AND W-NW CB ALQDS SLP049 T02990265,9.487,138.077,4,Yap Island Intl,OVC,"[{'cover': 'SCT', 'base': 1600}, {'cover': 'BKN', 'base': 13000}, {'cover': 'OVC', 'base': 30000}]",VFR,,VCSH,1004.9,,,,,,,"Yap Island Intl, YA, FM",FM,"Micronesia, Federated States of",32.419371162398356
67,PWAK,2026-02-27 04:00:07.041000+00:00,1772164500,2026-02-27T04:00:00.000Z,25.9,15.6,50,20.0,9,1012.6,6,METAR,METAR PWAK 270355Z AUTO 05020G26KT 9SM BKN065 26/16 A2990 RMK AO2 PK WND 04026/49 SLP128 T02590156,19.287,166.623,7,Wake Island Arpt,BKN,"[{'cover': 'BKN', 'base': 6500}]",VFR,26.0,,1012.8,,,,,,,"Wake Island Arpt, WQ, UM",UM,United States Minor Outlying Islands,27.260122145241862
3942,RCFN,2026-02-27 03:36:20.728000+00:00,1772163000,2026-02-27T03:30:00.000Z,28.0,23.0,40,9.0,6+,1009.0,16,METAR,METAR RCFN 270330Z 04009KT 350V070 9999 FEW025 BKN150 28/23 Q1009 NOSIG RMK A2980,22.755,121.102,42,Feng Nin Arpt,BKN,"[{'cover': 'FEW', 'base': 2500}, {'cover': 'BKN', 'base': 15000}]",VFR,,,,,,,,,,"Feng Nin Arpt, TT, TW",TW,"Taiwan, Province of China",30.10556061424274
1914,RCKH,2026-02-27 03:44:06.954000+00:00,1772163000,2026-02-27T03:30:00.000Z,30.0,17.0,320,8.0,6+,1009.0,16,METAR,METAR RCKH 270330Z 32008KT 280V020 9999 FEW016 SCT150 BKN200 30/17 Q1009 NOSIG RMK 33010KT/R09 A2981,22.577,120.35,6,Kaohsiung Intl,BKN,"[{'cover': 'FEW', 'base': 1600}, {'cover': 'SCT', 'base': 15000}, {'cover': 'BKN', 'base': 20000}]",VFR,,,,,,,,,,"Kaohsiung Intl, KH, TW",TW,"Taiwan, Province of China",32.57593244452026
3222,RCMQ,2026-02-27 03:53:03.236000+00:00,1772164140,2026-02-27T03:49:00.000Z,24.0,19.0,30,4.0,6+,1012.0,16,SPECI,SPECI RCMQ 270349Z 03004KT 9999 VCSH FEW008 BKN020 BKN040 24/19 Q1012 NOSIG RMK A2990 VCSH SE,24.265,120.621,202,Cingcyuangang Arpt,BKN,"[{'cover': 'FEW', 'base': 800}, {'cover': 'BKN', 'base': 2000}, {'cover': 'BKN', 'base': 4000}]",MVFR,,VCSH,,,,,,,,"Cingcyuangang Arpt, TX, TW",TW,"Taiwan, Province of China",25.48812814292694
3737,RCNN,2026-02-27 03:36:20.692000+00:00,1772163000,2026-02-27T03:30:00.000Z,30.0,14.0,20,13.0,6+,1011.0,16,METAR,METAR RCNN 270330Z 02013KT 9999 FEW012 SCT050 BKN080 30/14 Q1011 NOSIG RMK A2985,22.95,120.206,15,Tainan,BKN,"[{'cover': 'FEW', 'base': 1200}, {'cover': 'SCT', 'base': 5000}, {'cover': 'BKN', 'base': 8000}]",VFR,,,,,,,,,,"Tainan, TN, TW",TW,"Taiwan, Province of China",32.640899511022134
2585,RCQC,2026-02-27 03:36:20.775000+00:00,1772163000,2026-02-27T03:30:00.000Z,22.0,20.0,10,4.0,6+,1012.0,20,METAR,METAR RCQC 270330Z 01004KT 9999 -RA FEW010 BKN030 BKN060 22/20 Q1012 NOSIG RMK A2990 AWOS R02 N/A,23.569,119.628,26,Makung,BKN,"[{'cover': 'FEW', 'base': 1000}, {'cover': 'BKN', 'base': 3000}, {'cover': 'BKN', 'base': 6000}]",MVFR,,-RA,,,,,,,,"Makung, PE, TW",TW,"Taiwan, Province of China",23.153669290057575
3736,RCSS,2026-02-27 03:36:20.591000+00:00,1772163000,2026-02-27T03:30:00.000Z,27.0,19.0,270,11.0,6+,1010.0,16,METAR,METAR RCSS 270330Z 27011KT 240V300 9999 FEW016 SCT030 BKN100 27/19 Q1010 NOSIG RMK 29009KT/R10 A2984,25.069,121.552,8,Taipei/Songshan Arpt,BKN,"[{'cover': 'FEW', 'base': 1600}, {'cover': 'SCT', 'base': 3000}, {'cover': 'BKN', 'base': 10000}]",VFR,,,,,,,,,,"Taipei/Songshan Arpt, TP, TW",TW,"Taiwan, Province of China",28.828646147661136
3761,RCTP,2026-02-27 03:44:07.257000+00:00,1772163000,2026-02-27T03:30:00.000Z,24.0,17.0,250,10.0,6+,1011.0,16,METAR,METAR RCTP 270330Z 25010KT 9999 FEW012 BKN120 24/17 Q1011 NOSIG RMK A2987,25.078,121.233,33,Taipei/Taoyuan Arpt,BKN,"[{'cover': 'FEW', 'base': 1200}, {'cover': 'BKN', 'base': 12000}]",VFR,,,,,,,,,,"Taipei/Taoyuan Arpt, TA, TW",TW,"Taiwan, Province of China",25.08477095437723
2788,RJAA,2026-02-27 03:38:41.864000+00:00,1772163000,2026-02-27T03:30:00.000Z,12.0,8.0,20,12.0,6+,1012.0,16,METAR,METAR RJAA 270330Z 02012KT 9999 FEW010 BKN014 12/08 Q1012 NOSIG,35.765,140.386,36,Narita Intl,BKN,"[{'cover': 'FEW', 'base': 1000}, {'cover': 'BKN', 'base': 1400}]",MVFR,,,,,,,,,,"Narita Intl, 12, JP",JP,Japan,9.731965189219384
1895,RJBB,2026-02-27 03:40:40.004000+00:00,1772163000,2026-02-27T03:30:00.000Z,12.0,9.0,20,3.0,6+,1011.0,16,METAR,METAR RJBB 270330Z 02003KT 9999 FEW015 BKN150 BKN/// 12/09 Q1011 NOSIG,34.434,135.233,8,Osaka/Kansai Intl,BKN,"[{'cover': 'FEW', 'base': 1500}, {'cover': 'BKN', 'base': 15000}]",VFR,,,,,,,,,,"Osaka/Kansai Intl, 28, JP",JP,Japan,11.89089442261126
952,RJCC,2026-02-27 03:38:41.924000+00:00,1772163000,2026-02-27T03:30:00.000Z,4.0,0.0,170,4.0,6+,1021.0,0,METAR,METAR RJCC 270330Z 17004KT 140V220 9999 FEW010 BKN015 04/M00 Q1021,42.774,141.693,19,Sapporo/Chitose Arpt,BKN,"[{'cover': 'FEW', 'base': 1000}, {'cover': 'BKN', 'base': 1500}]",MVFR,,,,,,,,,,"Sapporo/Chitose Arpt, 1, JP",JP,Japan,2.143539614233304
1514,RJFF,2026-02-27 03:42:12.021000+00:00,1772163000,2026-02-27T03:30:00.000Z,13.0,12.0,300,4.0,3.11,1010.0,0,METAR,METAR RJFF 270330Z 30004KT 260V010 5000 -SHRA BR FEW003 SCT005 BKN007 13/12 Q1010 TEMPO 2000 SHRA BR BKN005 BKN010,33.584,130.452,7,Fukuoka Arpt,BKN,"[{'cover': 'FEW', 'base': 300}, {'cover': 'SCT', 'base': 500}, {'cover': 'BKN', 'base': 700}]",IFR,,-SHRA BR,,,,,,,,"Fukuoka Arpt, 40, JP",JP,Japan,12.648604452145433
2579,RJGG,2026-02-27 03:40:40.036000+00:00,1772163000,2026-02-27T03:30:00.000Z,13.0,11.0,330,4.0,6+,1012.0,0,METAR,METAR RJGG 270330Z 33004KT 9999 FEW010 BKN025 13/11 Q1012 BECMG TL0430 25005KT,34.858,136.805,5,Nagoya/Chubu Intl,BKN,"[{'cover': 'FEW', 'base': 1000}, {'cover': 'BKN', 'base': 2500}]",MVFR,,,,,,,,,,"Nagoya/Chubu Intl, 23, JP",JP,Japan,12.648604452145433
1832,RJOI,2026-02-27 04:02:04.808000+00:00,1772164560,2026-02-27T04:00:00.000Z,11.7,10.0,20,3.0,3,1011.3,12,METAR,METAR RJOI 270356Z 02003KT 3SM -RA BR FEW005 BKN055 OVC070 12/10 A2986 RMK AO2 SLP110 PIREP 0319Z ON DEP OVC055 P0007 T01170100 $,34.144,132.236,2,Iwakuni Arpt,OVC,"[{'cover': 'FEW', 'base': 500}, {'cover': 'BKN', 'base': 5500}, {'cover': 'OVC', 'base': 7000}]",MVFR,,-RA BR,1011.0,0.07,,,,,,"Iwakuni Arpt, 35, JP",JP,Japan,11.54809062683842
1706,RJSH,2026-02-27 03:46:08.048000+00:00,1772163780,2026-02-27T03:43:00.000Z,4.0,4.0,90,10.0,1.43,1019.0,0,SPECI,SPECI RJSH 270343Z 09010KT 2300 -RADZ BR FEW001 OVC003 04/04 Q1019 RMK 2ST001 8ST003 A3011,40.552,141.467,46,Hachinohe,OVC,"[{'cover': 'FEW', 'base': 100}, {'cover': 'OVC', 'base': 300}]",LIFR,,-RA -DZ BR,,,,,,,,"Hachinohe , 2, JP",JP,Japan,0.01678788604451932
1761,RJTT,2026-02-27 03:44:12+00:00,1772163000,2026-02-27T03:30:00.000Z,13.0,8.0,90,6.0,6+,1012.0,16,METAR,METAR RJTT 270330Z 09006KT 9999 FEW030 BKN/// 13/08 Q1012 NOSIG,35.553,139.781,5,Tokyo/Haneda Intl,FEW,"[{'cover': 'FEW', 'base': 3000}]",VFR,,,,,,,,,,"Tokyo/Haneda Intl, 13, JP",JP,Japan,12.075033707073512
2679,RJTY,2026-02-27 03:59:09.122000+00:00,1772164500,2026-02-27T04:00:00.000Z,17.1,6.6,80,6.0,10+,1013.3,14,METAR,METAR RJTY 270355Z AUTO 08006KT 10SM SCT200 17/07 A2992 RMK AO2 SLP136 T01710066 $,35.749,139.349,136,Yokota,SCT,"[{'cover': 'SCT', 'base': 20000}]",VFR,,,1013.6,,,,,,,"Yokota, 13, JP",JP,Japan,17.01064220215233
2001,RKJK,2026-02-27 03:57:24.603000+00:00,1772164500,2026-02-27T04:00:00.000Z,11.4,3.9,340,8.0,10+,1015.0,12,METAR,METAR RKJK 270355Z 34008KT 10SM BKN041 OVC055 11/04 A2997 RMK AO2A SLP153 WND DATA ESTMD T01140039 $,35.9,126.618,8,Kunsan,OVC,"[{'cover': 'BKN', 'base': 4100}, {'cover': 'OVC', 'base': 5500}]",VFR,,,1015.3,,,,,,,"Kunsan , 45, KR",KR,"Korea, Republic of",9.674934120692475
1743,RKSI,2026-02-27 03:34:49.624000+00:00,1772163000,2026-02-27T03:30:00.000Z,11.0,1.0,30,10.0,6+,1017.0,16,METAR,METAR RKSI 270330Z 03010KT 9999 FEW040 11/01 Q1017 NOSIG,37.469,126.451,7,Seoul/Incheon Intl,FEW,"[{'cover': 'FEW', 'base': 4000}]",VFR,,,,,,,,,,"Seoul/Incheon Intl, 28, KR",KR,"Korea, Republic of",8.790581959960969
2662,RKSO,2026-02-27 03:57:38.576000+00:00,1772164500,2026-02-27T04:00:00.000Z,11.7,2.4,60,4.0,9,1015.7,76,METAR,METAR RKSO 270355Z 06004KT 9SM OVC040 12/02 A2999 RMK AO2A SLP159 T01170024 FZRANO $,37.091,127.03,10,Osan Arpt,OVC,"[{'cover': 'OVC', 'base': 4000}]",VFR,,,1015.9,,,,,,,"Osan Arpt, 41, KR",KR,"Korea, Republic of",11.131206197780356
2789,ROAH,2026-02-27 03:38:42.035000+00:00,1772163000,2026-02-27T03:30:00.000Z,21.0,20.0,190,18.0,6+,1008.0,0,METAR,METAR ROAH 270330Z 19018KT 9999 RA FEW007 SCT015 BKN030 21/20 Q1008,26.196,127.646,6,Naha Arpt,BKN,"[{'cover': 'FEW', 'base': 700}, {'cover': 'SCT', 'base': 1500}, {'cover': 'BKN', 'base': 3000}]",MVFR,,RA,,,,,,,,"Naha Arpt, 47, JP",JP,Japan,20.845960020825785
821,RODN,2026-02-27 04:01:28.278000+00:00,1772164500,2026-02-27T04:00:00.000Z,23.0,20.0,180,8.0,10+,1008.5,204,METAR,METAR RODN 270355Z 18008KT 10SM SCT014 SCT022 BKN035 23/20 A2978 RMK AO2A RAE0255 SLPNO ALSTG ESTMD PWINO FZRANO $,26.356,127.768,38,Kadena,BKN,"[{'cover': 'SCT', 'base': 1400}, {'cover': 'SCT', 'base': 2200}, {'cover': 'BKN', 'base': 3500}]",VFR,,,,,,,,,,"Kadena, 47, JP",JP,Japan,23.957277161359276
3345,RPLB,2026-02-27 04:01:52.548000+00:00,1772164800,2026-02-27T04:00:00.000Z,29.0,24.0,220,10.0,6+,1009.0,16,METAR,METAR RPLB 270400Z 22010KT 9999 FEW020 29/24 Q1009 NOSIG RMK A2980,14.794,120.271,19,Olongapo/Subic Bay Intl,FEW,"[{'cover': 'FEW', 'base': 2000}]",VFR,,,,,,,,,,"Olongapo/Subic Bay Intl, BA, PH",PH,Philippines,31.351766721460407
780,RPLC,2026-02-27 04:02:38.500000+00:00,1772164800,2026-02-27T04:00:00.000Z,31.0,21.0,350,5.0,4.97,1009.0,16,METAR,METAR RPLC 270400Z 35005KT 8000 SCT020 31/21 Q1009 NOSIG RMK A2980,15.186,120.56,138,Angeles City/Clark Intl,SCT,"[{'cover': 'SCT', 'base': 2000}]",MVFR,,,,,,,,,,"Angeles City/Clark Intl, BA, PH",PH,Philippines,33.70473493921963
1978,RPLI,2026-02-27 04:01:52.591000+00:00,1772164800,2026-02-27T04:00:00.000Z,28.0,24.0,290,10.0,6+,1009.0,16,METAR,METAR RPLI 270400Z 29010KT 9999 FEW018 28/24 Q1009 NOSIG RMK A2980,18.178,120.532,5,Laoag Intl,FEW,"[{'cover': 'FEW', 'base': 1800}]",VFR,,,,,,,,,,"Laoag Intl, IL, PH",PH,Philippines,30.098367568043777
2468,RPLL,2026-02-27 04:01:52.470000+00:00,1772164800,2026-02-27T04:00:00.000Z,30.0,22.0,270,7.0,4.97,1009.0,16,METAR,METAR RPLL 270400Z 27007KT 250V320 8000 SCT025 BKN100 30/22 Q1009 NOSIG RMK A2980,14.507,121.004,15,Manila/Aquino Intl,BKN,"[{'cover': 'SCT', 'base': 2500}, {'cover': 'BKN', 'base': 10000}]",MVFR,,,,,,,,,,"Manila/Aquino Intl, NC, PH",PH,Philippines,32.55893154679393
1021,RPMD,2026-02-27 04:01:52.520000+00:00,1772164800,2026-02-27T04:00:00.000Z,31.0,22.0,10,9.0,6+,1006.0,0,METAR,METAR RPMD 270400Z 01009KT 320V070 9999 FEW019 BKN260 31/22 Q1006 RMK A2971,7.125,125.646,19,Davao/Bangoy Intl,BKN,"[{'cover': 'FEW', 'base': 1900}, {'cover': 'BKN', 'base': 26000}]",VFR,,,,,,,,,,"Davao/Bangoy Intl, DA, PH",PH,Philippines,33.83406886237376
1332,RPMR,2026-02-27 04:01:52.657000+00:00,1772164800,2026-02-27T04:00:00.000Z,31.0,23.0,120,13.0,6+,1007.0,0,METAR,METAR RPMR 270400Z 12013KT 9999 FEW018 SCT080 31/23 Q1007 RMK A2974,6.058,125.096,47,Tambler/Santos Intl,SCT,"[{'cover': 'FEW', 'base': 1800}, {'cover': 'SCT', 'base': 8000}]",VFR,,,,,,,,,,"Tambler/Santos Intl, SC, PH",PH,Philippines,33.92138933735862
4159,RPMZ,2026-02-27 04:01:52.612000+00:00,1772164800,2026-02-27T04:00:00.000Z,30.0,24.0,250,6.0,6+,1008.0,0,METAR,METAR RPMZ 270400Z 25006KT 190V290 9999 FEW017 30/24 Q1008 RMK A2977,6.92,122.063,8,Zamboanga Intl,FEW,"[{'cover': 'FEW', 'base': 1700}]",VFR,,,,,,,,,,"Zamboanga Intl, ZS, PH",PH,Philippines,32.53975185740027
790,RPVD,2026-02-27 04:01:52.769000+00:00,1772164800,2026-02-27T04:00:00.000Z,29.0,23.0,340,8.0,6+,1008.0,0,METAR,METAR RPVD 270400Z 34008G18KT 9999 FEW015 29/23 Q1008 RMK A2977,9.334,123.297,11,Dumaguete Arpt,FEW,"[{'cover': 'FEW', 'base': 1500}]",VFR,18.0,,,,,,,,,"Dumaguete Arpt, NE, PH",PH,Philippines,31.344695975497263
1819,RPVK,2026-02-27 04:01:52.677000+00:00,1772164800,2026-02-27T04:00:00.000Z,27.0,22.0,40,5.0,6+,1009.0,0,METAR,METAR RPVK 270400Z 04005KT 300V090 9999 FEW013TCU SCT016 BKN240 27/22 Q1009 RMK A2980 TCU OHD S/SW,11.683,122.383,6,Kalibo Arpt,BKN,"[{'cover': 'FEW', 'base': 1300}, {'cover': 'SCT', 'base': 1600}, {'cover': 'BKN', 'base': 24000}]",VFR,,,,,,,,,,"Kalibo Arpt, AK, PH",PH,Philippines,28.95647260079541
550,RPVM,2026-02-27 04:01:52.494000+00:00,1772164800,2026-02-27T04:00:00.000Z,30.0,22.0,40,13.0,6+,1008.0,16,METAR,METAR RPVM 270400Z 04013KT 9999 FEW044 30/22 30/22 Q1008 NOSIG RMK A2977,10.308,123.978,9,Mactan-Cebu Intl,FEW,"[{'cover': 'FEW', 'base': 4400}]",VFR,,,,,,,,,,"Mactan-Cebu Intl, CE, PH",PH,Philippines,32.640899511022134
2872,RPVP,2026-02-27 04:01:52.637000+00:00,1772164800,2026-02-27T04:00:00.000Z,30.0,23.0,60,12.0,6+,1009.0,0,METAR,METAR RPVP 270400Z 06012KT 9999 FEW019 SCT250 30/23 Q1009 RMK A2980,9.742,118.759,15,Puerto Princesa Intl,SCT,"[{'cover': 'FEW', 'base': 1900}, {'cover': 'SCT', 'base': 25000}]",VFR,,,,,,,,,,"Puerto Princesa Intl, PL, PH",PH,Philippines,32.62983837121707
2407,SAME,2026-02-27 03:18:41.288000+00:00,1772162220,2026-02-27T03:17:00.000Z,22.0,18.0,230,5.0,6+,1012.0,0,SPECI,SPECI SAME 270317Z 23005KT 180V300 9999 BKN045 FEW050CB 22/18 Q1012,-32.832,-68.793,709,Mendoza/Plumerillo Arpt,FEW,"[{'cover': 'BKN', 'base': 4500}, {'cover': 'FEW', 'base': 5000}]",VFR,,,,,,,,,,"Mendoza/Plumerillo Arpt, M, AR",AR,Argentina,23.02114467776517
3997,SANT,2026-02-27 03:17:16.788000+00:00,1772162160,2026-02-27T03:16:00.000Z,22.0,21.0,240,3.0,4.35,1009.0,0,SPECI,SPECI SANT 270316Z 24003KT 210V300 7000 TS BR BKN040 FEW050CB 22/21 Q1009,-26.841,-65.105,446,Tucuman/Matlenzo Intl,FEW,"[{'cover': 'BKN', 'base': 4000}, {'cover': 'FEW', 'base': 5000}]",MVFR,,TS BR,,,,,,,,"Tucuman/Matlenzo Intl, T, AR",AR,Argentina,23.317687615039304
28,SBAR,2026-02-27 03:55:51.947000+00:00,1772164800,2026-02-27T04:00:00.000Z,27.0,25.0,20,4.0,6+,1009.0,0,METAR,METAR SBAR 270400Z 02004KT 9999 SCT017 SCT040 27/25 Q1009,-10.984,-37.07,4,Aracaju/Santa Maria Intl,SCT,"[{'cover': 'SCT', 'base': 1700}, {'cover': 'SCT', 'base': 4000}]",VFR,,,,,,,,,,"Aracaju/Santa Maria Intl, SP, BR",BR,Brazil,28.989816422230977
297,SBBE,2026-02-27 03:56:02.846000+00:00,1772164800,2026-02-27T04:00:00.000Z,26.0,23.0,30,4.0,6+,1011.0,0,METAR,METAR SBBE 270400Z 03004KT CAVOK 26/23 Q1011,-1.379,-48.476,16,Belém/Val de Cans Arpt,CAVOK,[],VFR,,,,,,,,,,"Belém/Val de Cans Arpt, PA, BR",BR,Brazil,27.8225869957963
294,SBBR,2026-02-27 03:51:36.207000+00:00,1772164800,2026-02-27T04:00:00.000Z,20.0,19.0,280,4.0,6+,1013.0,0,METAR,METAR SBBR 270400Z 28004KT 9999 FEW010 SCT040 BKN100 20/19 Q1013,-15.867,-47.933,1051,Brasília Intl,BKN,"[{'cover': 'FEW', 'base': 1000}, {'cover': 'SCT', 'base': 4000}, {'cover': 'BKN', 'base': 10000}]",VFR,,,,,,,,,,"Brasília Intl, DF, BR",BR,Brazil,20.819210437188218
540,SBBV,2026-02-27 03:50:44.747000+00:00,1772164800,2026-02-27T04:00:00.000Z,27.0,18.0,110,7.0,6+,1012.0,0,METAR,METAR SBBV 270400Z 11007KT CAVOK 27/18 Q1012,2.846,-60.69,80,Boa Vista Arpt,CAVOK,[],VFR,,,,,,,,,,"Boa Vista Arpt, RR, BR",BR,Brazil,28.90388871351926
788,SBCF,2026-02-27 03:52:15.588000+00:00,1772164800,2026-02-27T04:00:00.000Z,22.0,21.0,10,7.0,1.86,1009.0,0,METAR,METAR SBCF 270400Z 01007KT 3000 BR BKN003 BKN012 22/21 Q1009,-19.635,-43.966,825,Belo Horizonte/Neves Intl,BKN,"[{'cover': 'BKN', 'base': 300}, {'cover': 'BKN', 'base': 1200}]",LIFR,,BR,,,,,,,,"Belo Horizonte/Neves Intl, MG, BR",BR,Brazil,22.812150658061498
539,SBCG,2026-02-27 03:57:23.528000+00:00,1772164800,2026-02-27T04:00:00.000Z,23.0,20.0,320,4.0,6+,1009.0,0,METAR,METAR SBCG 270400Z 32004KT CAVOK 23/20 Q1009,-20.469,-54.672,556,Campo Grande Intl,CAVOK,[],VFR,,,,,,,,,,"Campo Grande Intl, MS, BR",BR,Brazil,24.32089871649226
781,SBCT,2026-02-27 03:57:54.125000+00:00,1772164800,2026-02-27T04:00:00.000Z,17.0,17.0,130,9.0,5.59,1013.0,0,METAR,METAR SBCT 270400Z 13009KT 9000 -DZ OVC005 17/17 Q1013,-25.529,-49.176,914,Curitiba/Pena Intl,OVC,"[{'cover': 'OVC', 'base': 500}]",IFR,,-DZ,,,,,,,,"Curitiba/Pena Intl, PR, BR",BR,Brazil,16.43436370442896
542,SBCY,2026-02-27 03:53:05.624000+00:00,1772164800,2026-02-27T04:00:00.000Z,25.0,25.0,330,4.0,6+,1008.0,0,METAR,METAR SBCY 270400Z 33004KT 9999 FEW020 SCT100 25/25 Q1008,-15.653,-56.116,182,Cuiabá/Rondon Arpt,SCT,"[{'cover': 'FEW', 'base': 2000}, {'cover': 'SCT', 'base': 10000}]",VFR,,,,,,,,,,"Cuiabá/Rondon Arpt, MT, BR",BR,Brazil,26.655357569361623
2191,SBEG,2026-02-27 03:52:15.059000+00:00,1772164800,2026-02-27T04:00:00.000Z,23.0,23.0,VRB,2.0,6+,1012.0,0,METAR,METAR SBEG 270400Z VRB02KT 9999 FEW017 BKN080 23/23 Q1012,-3.039,-60.05,69,Manaus/Gomes Intl,BKN,"[{'cover': 'FEW', 'base': 1700}, {'cover': 'BKN', 'base': 8000}]",VFR,,,,,,,,,,"Manaus/Gomes Intl, AM, BR",BR,Brazil,24.6463491246661
1579,SBFI,2026-02-27 03:57:23.554000+00:00,1772164800,2026-02-27T04:00:00.000Z,20.0,18.0,170,5.0,6+,1008.0,0,METAR,METAR SBFI 270400Z 17005KT CAVOK 20/18 Q1008,-25.595,-54.488,233,Foz do Iguacu Arpt,CAVOK,[],VFR,,,,,,,,,,"Foz do Iguacu Arpt, PR, BR",BR,Brazil,20.647013508553073
1011,SBFL,2026-02-27 04:00:51.906000+00:00,1772164800,2026-02-27T04:00:00.000Z,23.0,17.0,180,10.0,6+,1009.0,0,METAR,METAR SBFL 270400Z 18010KT CAVOK 23/17 Q1009,-27.671,-48.547,5,Florianopolis Intl,CAVOK,[],VFR,,,,,,,,,,"Florianopolis Intl, SC, BR",BR,Brazil,23.8313718009606
1229,SBFN,2026-02-27 03:35:03.166000+00:00,1772163000,2026-02-27T03:30:00.000Z,27.0,24.0,80,5.0,6+,1010.0,2,SPECI,SPECI SBFN 270330Z AUTO 08005KT 050V120 9999 BKN014 BKN018 27/24 Q1010,-3.855,-32.423,52,Fernando de Noronha Arpt,BKN,"[{'cover': 'BKN', 'base': 1400}, {'cover': 'BKN', 'base': 1800}]",MVFR,,,,,,,,,,"Fernando de Noronha Arpt, RN, BR",BR,Brazil,28.95647260079541
1018,SBFZ,2026-02-27 03:53:05.678000+00:00,1772164800,2026-02-27T04:00:00.000Z,27.0,24.0,10,5.0,6+,1010.0,0,METAR,METAR SBFZ 270400Z 01005KT 340V050 9999 SCT017 27/24 Q1010,-3.776,-38.533,32,Fortaleza/Martins Intl,SCT,"[{'cover': 'SCT', 'base': 1700}]",VFR,,,,,,,,,,"Fortaleza/Martins Intl, GO, BR",BR,Brazil,28.95647260079541
1317,SBGL,2026-02-27 04:00:43.233000+00:00,1772164800,2026-02-27T04:00:00.000Z,24.0,23.0,270,5.0,1.86,1005.0,0,METAR,METAR SBGL 270400Z 27005KT 3000 -RA BR BKN006 BKN012 OVC021 24/23 Q1005,-22.815,-43.261,3,Rio de Janeiro/Galeão Intl,OVC,"[{'cover': 'BKN', 'base': 600}, {'cover': 'BKN', 'base': 1200}, {'cover': 'OVC', 'base': 2100}]",IFR,,-RA BR,,,,,,,,"Rio de Janeiro/Galeão Intl, RJ, BR",BR,Brazil,25.39527584697727
1329,SBGO,2026-02-27 04:01:15.714000+00:00,1772164800,2026-02-27T04:00:00.000Z,22.0,21.0,340,4.0,6+,1011.0,0,METAR,METAR SBGO 270400Z 34004KT 9999 SCT005 SCT035 BKN100 22/21 Q1011,-16.632,-49.221,740,Goiania/Genoveva Arpt,BKN,"[{'cover': 'SCT', 'base': 500}, {'cover': 'SCT', 'base': 3500}, {'cover': 'BKN', 'base': 10000}]",VFR,,,,,,,,,,"Goiania/Genoveva Arpt, GO, BR",BR,Brazil,23.153669290057575
1328,SBGR,2026-02-27 04:01:15.444000+00:00,1772164800,2026-02-27T04:00:00.000Z,20.0,20.0,150,4.0,4.97,1011.0,0,METAR,METAR SBGR 270400Z 15004KT 8000 -RA OVC011 20/20 Q1011,-23.432,-46.469,745,Sao Paulo Intl,OVC,"[{'cover': 'OVC', 'base': 1100}]",MVFR,,-RA,,,,,,,,"Sao Paulo Intl, PR, BR",BR,Brazil,20.819210437188218
1919,SBJP,2026-02-27 03:31:02.608000+00:00,1772163000,2026-02-27T03:30:00.000Z,24.0,23.0,310,10.0,6+,1011.0,0,SPECI,SPECI SBJP 270330Z 31010KT 9999 SCT012 BKN015 24/23 Q1011,-7.148,-34.951,66,Joao Pessoa/Pinto Arpt,BKN,"[{'cover': 'SCT', 'base': 1200}, {'cover': 'BKN', 'base': 1500}]",MVFR,,,,,,,,,,"Joao Pessoa/Pinto Arpt, PB, BR",BR,Brazil,25.08477095437723
3797,SBKP,2026-02-27 03:57:54.148000+00:00,1772164800,2026-02-27T04:00:00.000Z,22.0,19.0,0,0.0,6+,1010.0,0,METAR,METAR SBKP 270400Z 00000KT 9999 FEW015 BKN100 22/19 Q1010,-23.007,-47.135,659,Campinas/Viracopos Arpt,BKN,"[{'cover': 'FEW', 'base': 1500}, {'cover': 'BKN', 'base': 10000}]",VFR,,,,,,,,,,"Campinas/Viracopos Arpt, SP, BR",BR,Brazil,26.799666666666667
1969,SBLO,2026-02-27 03:57:53.772000+00:00,1772164800,2026-02-27T04:00:00.000Z,22.0,20.0,90,4.0,6+,1009.0,0,METAR,METAR SBLO 270400Z 09004KT CAVOK 22/20 Q1009,-23.334,-51.13,563,Londrina Arpt,CAVOK,[],VFR,,,,,,,,,,"Londrina Arpt, PR, BR",BR,Brazil,23.153669290057575
2194,SBMA,2026-02-27 03:55:52.774000+00:00,1772164800,2026-02-27T04:00:00.000Z,25.0,24.0,130,2.0,6+,1010.0,0,METAR,METAR SBMA 270400Z 13002KT 9999 SCT009 BKN080 25/24 Q1010,-5.368,-49.137,110,Marabá Arpt,BKN,"[{'cover': 'SCT', 'base': 900}, {'cover': 'BKN', 'base': 8000}]",VFR,,,,,,,,,,"Marabá Arpt, PA, BR",BR,Brazil,26.866232161870457
2864,SBMN,2026-02-27 03:51:52.111000+00:00,1772164800,2026-02-27T04:00:00.000Z,24.0,22.0,330,3.0,6+,1012.0,0,METAR,METAR SBMN 270400Z 33003KT 9999 FEW023 BKN080 24/22 Q1012,-3.146,-59.986,71,Manaus/Ponta Peleda,BKN,"[{'cover': 'FEW', 'base': 2300}, {'cover': 'BKN', 'base': 8000}]",VFR,,,,,,,,,,"Manaus/Ponta Peleda, AM, BR",BR,Brazil,25.603046253524912
2190,SBMO,2026-02-27 03:50:44.525000+00:00,1772164800,2026-02-27T04:00:00.000Z,26.0,24.0,20,6.0,6+,1010.0,0,METAR,METAR SBMO 270400Z 02006KT 9999 FEW020 FEW022TCU 26/24 Q1010 RETS,-9.511,-35.792,116,Maceió/Palmares Arpt,FEW,"[{'cover': 'FEW', 'base': 2000}, {'cover': 'FEW', 'base': 2200}]",VFR,,,,,,,,,,"Maceió/Palmares Arpt, AL, BR",BR,Brazil,27.724524057323393
2195,SBMQ,2026-02-27 03:56:02.874000+00:00,1772164800,2026-02-27T04:00:00.000Z,25.0,23.0,10,7.0,6+,1011.0,0,METAR,METAR SBMQ 270400Z 01007KT CAVOK 25/23 Q1011,0.051,-51.072,15,Macapá Intl,CAVOK,[],VFR,,,,,,,,,,"Macapá Intl, AP, BR",BR,Brazil,26.467193491336168
2637,SBOI,2026-02-27 03:56:43.248000+00:00,1772164800,2026-02-27T04:00:00.000Z,23.0,22.0,0,0.0,4.97,1013.0,2,METAR,METAR SBOI 270400Z AUTO 00000KT 8000 NCD 23/22 Q1013,3.861,-51.796,15,Oiapoque Arpt,CLR,[],MVFR,,,,,,,,,,"Oiapoque Arpt, AP, BR",BR,Brazil,27.42116666666667
2849,SBPA,2026-02-27 03:56:56.589000+00:00,1772164800,2026-02-27T04:00:00.000Z,18.0,15.0,0,0.0,6+,1012.0,0,METAR,METAR SBPA 270400Z 00000KT CAVOK 18/15 Q1012,-29.994,-51.171,3,Porto Alegre/Filho Intl,CAVOK,[],VFR,,,,,,,,,,"Porto Alegre/Filho Intl, RS, BR",BR,Brazil,24.313666666666666
2847,SBPJ,2026-02-27 04:02:26.724000+00:00,1772164800,2026-02-27T04:00:00.000Z,23.0,23.0,VRB,1.0,6+,1011.0,0,METAR,METAR SBPJ 270400Z VRB01KT 9999 -TSRA FEW007 SCT025 FEW030CB OVC070 23/23 Q1011,-10.291,-48.357,226,Palmas/Rodrigues Arpt,OVC,"[{'cover': 'FEW', 'base': 700}, {'cover': 'SCT', 'base': 2500}, {'cover': 'FEW', 'base': 3000}, {'cover': 'OVC', 'base': 7000}]",VFR,,-TSRA,,,,,,,,"Palmas/Rodrigues Arpt, TP, BR",BR,Brazil,24.93763539932543
2848,SBPL,2026-02-27 03:56:43.281000+00:00,1772164800,2026-02-27T04:00:00.000Z,24.0,24.0,280,3.0,6+,1011.0,0,METAR,METAR SBPL 270400Z 28003KT 9999 FEW020 BKN070 24/24 Q1011,-9.367,-40.565,386,Petrolina Arpt,BKN,"[{'cover': 'FEW', 'base': 2000}, {'cover': 'BKN', 'base': 7000}]",VFR,,,,,,,,,,"Petrolina Arpt, PE, BR",BR,Brazil,25.603046253524912
295,SBPS,2026-02-27 03:51:51.367000+00:00,1772164800,2026-02-27T04:00:00.000Z,27.0,25.0,10,8.0,6+,1007.0,0,METAR,METAR SBPS 270400Z 01008KT 9999 SCT015 BKN100 27/25 Q1007,-16.439,-39.081,44,Porto Seguro Arpt,BKN,"[{'cover': 'SCT', 'base': 1500}, {'cover': 'BKN', 'base': 10000}]",VFR,,,,,,,,,,"Porto Seguro Arpt, BA, BR",BR,Brazil,28.882223037451254
2865,SBPV,2026-02-27 03:53:05.495000+00:00,1772164800,2026-02-27T04:00:00.000Z,24.0,22.0,260,3.0,6+,1011.0,0,METAR,METAR SBPV 270400Z 26003KT 9999 OVC007 24/22 Q1011,-8.708,-63.901,89,Porto Velho Intl,OVC,"[{'cover': 'OVC', 'base': 700}]",IFR,,,,,,,,,,"Porto Velho Intl, RO, BR",BR,Brazil,25.603046253524912
3114,SBRB,2026-02-27 03:50:31.746000+00:00,1772164800,2026-02-27T04:00:00.000Z,23.0,23.0,360,3.0,4.35,1011.0,0,METAR,METAR SBRB 270400Z 36003KT 7000 SCT002 SCT100 23/23 Q1011,-9.867,-67.897,190,Rio Branco Intl,SCT,"[{'cover': 'SCT', 'base': 200}, {'cover': 'SCT', 'base': 10000}]",MVFR,,,,,,,,,,"Rio Branco Intl, AC, BR",BR,Brazil,24.46036693428211
3124,SBRF,2026-02-27 03:55:54.552000+00:00,1772164800,2026-02-27T04:00:00.000Z,26.0,23.0,VRB,2.0,4.97,1010.0,0,METAR,METAR SBRF 270400Z VRB02KT 8000 -RA BKN020 26/23 Q1010,-8.126,-34.923,10,Recife Arpt,BKN,"[{'cover': 'BKN', 'base': 2000}]",MVFR,,-RA,,,,,,,,"Recife Arpt, PE, BR",BR,Brazil,27.97617368047264
3343,SBRJ,2026-02-27 03:55:54.499000+00:00,1772164800,2026-02-27T04:00:00.000Z,25.0,25.0,270,5.0,1.86,1004.0,0,METAR,METAR SBRJ 270400Z 27005KT 230V290 3000 RA BR SCT004 BKN008 OVC020 25/25 Q1004,-22.91,-43.163,6,Rio de Janeiro/Dumont Arpt,OVC,"[{'cover': 'SCT', 'base': 400}, {'cover': 'BKN', 'base': 800}, {'cover': 'OVC', 'base': 2000}]",IFR,,RA BR,,,,,,,,"Rio de Janeiro/Dumont Arpt, RJ, BR",BR,Brazil,26.582341431583323
2463,SBSG,2026-02-27 03:51:13.503000+00:00,1772164800,2026-02-27T04:00:00.000Z,26.0,24.0,340,2.0,6+,1010.0,0,METAR,METAR SBSG 270400Z 34002KT 9999 FEW021 26/24 Q1010,-5.768,-35.376,83,Natal/Alves Intl,FEW,"[{'cover': 'FEW', 'base': 2100}]",VFR,,,,,,,,,,"Natal/Alves Intl, RN, BR",BR,Brazil,27.97617368047264
3336,SBSL,2026-02-27 03:53:11.799000+00:00,1772164800,2026-02-27T04:00:00.000Z,26.0,24.0,30,8.0,6+,1010.0,0,METAR,METAR SBSL 270400Z 03008KT 9999 SCT015 SCT100 26/24 Q1010,-2.585,-44.234,53,São Luís/Machado Intl,SCT,"[{'cover': 'SCT', 'base': 1500}, {'cover': 'SCT', 'base': 10000}]",VFR,,,,,,,,,,"São Luís/Machado Intl, MA, BR",BR,Brazil,27.65098656842827
3330,SBSN,2026-02-27 03:57:35.776000+00:00,1772164800,2026-02-27T04:00:00.000Z,27.0,24.0,120,7.0,6+,1010.0,0,METAR,METAR SBSN 270400Z 12007KT 9999 -RA SCT015 FEW040TCU OVC080 27/24 Q1010,-2.423,-54.789,57,Santarem Intl,OVC,"[{'cover': 'SCT', 'base': 1500}, {'cover': 'FEW', 'base': 4000}, {'cover': 'OVC', 'base': 8000}]",VFR,,-RA,,,,,,,,"Santarem Intl, PA, BR",BR,Brazil,28.90388871351926
589,SBSP,2026-02-27 03:59:31.541000+00:00,1772164500,2026-02-27T03:55:00.000Z,20.0,19.0,180,11.0,6+,1011.0,2,SPECI,SPECI SBSP 270355Z AUTO 18011KT 9999 BKN008 OVC014 20/19 Q1011,-23.627,-46.655,802,Sao Paulo/Congonhas,OVC,"[{'cover': 'BKN', 'base': 800}, {'cover': 'OVC', 'base': 1400}]",IFR,,,,,,,,,,"Sao Paulo/Congonhas, SP, BR",BR,Brazil,19.98688153566017
3340,SBSV,2026-02-27 03:54:53.693000+00:00,1772164800,2026-02-27T04:00:00.000Z,25.0,22.0,10,6.0,6+,1008.0,0,METAR,METAR SBSV 270400Z 01006KT 9999 FEW006 FEW024TCU BKN055 25/22 Q1008,-12.911,-38.331,9,Salvador/Magalhães Intl,BKN,"[{'cover': 'FEW', 'base': 600}, {'cover': 'FEW', 'base': 2400}, {'cover': 'BKN', 'base': 5500}]",VFR,,,,,,,,,,"Salvador/Magalhães Intl, BA, BR",BR,Brazil,26.520717107304172
3635,SBTE,2026-02-27 03:57:35.738000+00:00,1772164800,2026-02-27T04:00:00.000Z,26.0,24.0,360,5.0,6+,1010.0,0,METAR,METAR SBTE 270400Z 36005KT 9999 -RA BKN012 OVC090 26/24 Q1010,-5.06,-42.824,60,Teresina Arpt,OVC,"[{'cover': 'BKN', 'base': 1200}, {'cover': 'OVC', 'base': 9000}]",MVFR,,-RA,,,,,,,,"Teresina Arpt, PI, BR",BR,Brazil,27.769407016189373
3818,SBVT,2026-02-27 03:56:02.718000+00:00,1772164800,2026-02-27T04:00:00.000Z,26.0,25.0,10,8.0,6+,1004.0,0,METAR,METAR SBVT 270400Z 01008KT 9999 SCT009 BKN100 26/25 Q1004,-20.258,-40.286,4,Vitória/Salles Arpt,BKN,"[{'cover': 'SCT', 'base': 900}, {'cover': 'BKN', 'base': 10000}]",VFR,,,,,,,,,,"Vitória/Salles Arpt, ES, BR",BR,Brazil,27.65098656842827
14,SCAR,2026-02-27 04:00:38.551000+00:00,1772164800,2026-02-27T04:00:00.000Z,24.0,19.0,280,4.0,6+,1011.0,0,METAR,METAR SCAR 270400Z 28004KT CAVOK 24/19 Q1011,-18.351,-70.336,57,Arica/Chacalluta Arpt,CAVOK,[],VFR,,,,,,,,,,"Arica/Chacalluta Arpt, TA, CL",CL,Chile,25.48812814292694
784,SCAT,2026-02-27 04:00:38.516000+00:00,1772164800,2026-02-27T04:00:00.000Z,18.0,15.0,220,6.0,1.24,1012.0,2,METAR,METAR SCAT 270400Z AUTO 22006KT //// R17/P2000N OVC011/// 18/15 Q1012,-27.262,-70.774,209,Desierto Atacama Arpt,OVC,"[{'cover': 'OVC', 'base': 1100}]",IFR,,,,,,,,,,"Desierto Atacama Arpt, AT, CL",CL,Chile,18.094068457169627
299,SCBA,2026-02-27 03:59:03.033000+00:00,1772164740,2026-02-27T04:00:00.000Z,14.0,8.0,310,14.0,6+,1006.0,2,METAR,METAR SCBA 270359Z AUTO 31014KT 9999 OVC051/// 14/08 Q1006,-45.913,-71.694,516,Balmaceda/Vidal Arpt,OVC,"[{'cover': 'OVC', 'base': 5100}]",VFR,,,,,,,,,,"Balmaceda/Vidal Arpt, AI, CL",CL,Chile,12.037665043301265
552,SCCF,2026-02-27 04:00:38.435000+00:00,1772164800,2026-02-27T04:00:00.000Z,11.0,5.0,130,8.0,6+,1025.0,2,METAR,METAR SCCF 270400Z AUTO 13008KT 9999 NCD 11/05 Q1025,-22.496,-68.905,2290,Calama/El Loa Intl,CLR,[],VFR,,,,,,,,,,"Calama/El Loa Intl, AN, CL",CL,Chile,9.182439533083274
2867,SCCI,2026-02-27 03:54:45.893000+00:00,1772164800,2026-02-27T04:00:00.000Z,10.0,6.0,270,8.0,6+,998.0,16,METAR,METAR SCCI 270400Z 27008KT CAVOK 10/06 Q0998 NOSIG,-53.003,-70.855,37,Punta Arenas Arpt,CAVOK,[],VFR,,,,,,,,,,"Punta Arenas Arpt, MA, CL",CL,Chile,7.951203064060274
1581,SCDA,2026-02-27 04:00:38.592000+00:00,1772164800,2026-02-27T04:00:00.000Z,22.0,16.0,190,8.0,6+,1011.0,0,METAR,METAR SCDA 270400Z 19008KT CAVOK 22/16 Q1011,-20.535,-70.181,41,Iquique/Diego Aracena Arpt,CAVOK,[],VFR,,,,,,,,,,"Iquique/Diego Aracena Arpt, TA, CL",CL,Chile,22.726040692336273
3118,SCEL,2026-02-27 03:53:54.223000+00:00,1772164800,2026-02-27T04:00:00.000Z,19.0,-4.0,150,8.0,6+,1013.0,16,METAR,METAR SCEL 270400Z 15008KT CAVOK 19/M04 Q1013 NOSIG,-33.393,-70.786,478,Santiago/Benítez Intl,CAVOK,[],VFR,,,,,,,,,,"Santiago/Benítez Intl, RM, CL",CL,Chile,19.032331285267276
13,SCFA,2026-02-27 04:00:38.633000+00:00,1772164800,2026-02-27T04:00:00.000Z,19.0,17.0,210,11.0,6+,1011.0,16,METAR,METAR SCFA 270400Z 21011KT 9999 SCT005 19/17 Q1011 NOSIG,-23.45,-70.441,113,Antofagasta/Sabella Arpt,SCT,"[{'cover': 'SCT', 'base': 500}]",VFR,,,,,,,,,,"Antofagasta/Sabella Arpt, AN, CL",CL,Chile,18.72377230537431
1006,SCFT,2026-02-27 04:00:38.686000+00:00,1772164800,2026-02-27T04:00:00.000Z,15.0,7.0,280,5.0,6+,1010.0,2,METAR,METAR SCFT 270400Z AUTO 28005KT 9999 OVC051/// 15/07 Q1010,-43.189,-71.853,345,Futaleufú Arpt,OVC,"[{'cover': 'OVC', 'base': 5100}]",VFR,,,,,,,,,,"Futaleufú Arpt, LL, CL",CL,Chile,14.711685585522819
4024,SCGZ,2026-02-27 04:00:38.533000+00:00,1772164800,2026-02-27T04:00:00.000Z,10.0,7.0,100,8.0,6+,996.0,2,METAR,METAR SCGZ 270400Z AUTO 10008KT 9999 BKN030/// 10/07 Q0996,-54.932,-67.631,21,Guardiamarina/Zahart,BKN,"[{'cover': 'BKN', 'base': 3000}]",MVFR,,,,,,,,,,"Guardiamarina/Zahart, MA, CL",CL,Chile,7.951203064060274
551,SCIE,2026-02-27 04:00:38.378000+00:00,1772164800,2026-02-27T04:00:00.000Z,16.0,11.0,VRB,1.0,6+,1013.0,2,METAR,METAR SCIE 270400Z AUTO VRB01KT 9999 BKN180/// 16/11 Q1013,-36.773,-73.063,8,Concepcion/Sur Intl,BKN,"[{'cover': 'BKN', 'base': 18000}]",VFR,,,,,,,,,,"Concepcion/Sur Intl, BI, CL",CL,Chile,17.52696356550782
1582,SCIP,2026-02-27 04:00:38.416000+00:00,1772164800,2026-02-27T04:00:00.000Z,24.0,19.0,120,7.0,6+,1020.0,16,METAR,METAR SCIP 270400Z 12007KT 9999 SCT025 BKN050 24/19 Q1020 NOSIG,-27.161,-109.427,48,Pascua Island Arpt,BKN,"[{'cover': 'SCT', 'base': 2500}, {'cover': 'BKN', 'base': 5000}]",VFR,,,,,,,,,,"Pascua Island Arpt, VS, CL",CL,Chile,25.248845880244605
4156,SCJO,2026-02-27 04:00:38.651000+00:00,1772164800,2026-02-27T04:00:00.000Z,16.0,13.0,360,3.0,6+,,2,METAR,METAR SCJO 270400Z AUTO 36003KT 9999 FEW150/// OVC170/// 16/13 Q////,-40.605,-73.061,61,Osorno/Siebert Arpt,OVC,"[{'cover': 'FEW', 'base': 15000}, {'cover': 'OVC', 'base': 17000}]",VFR,,,,,,,,,,"Osorno/Siebert Arpt, LL, CL",CL,Chile,16.46161169958247
2185,SCPQ,2026-02-27 04:00:38.669000+00:00,1772164800,2026-02-27T04:00:00.000Z,13.0,13.0,340,7.0,6+,1010.0,2,METAR,METAR SCPQ 270400Z AUTO 34007KT 9999 OVC004 13/13 Q1010,-42.347,-73.718,166,Monopulli Arpt,OVC,"[{'cover': 'OVC', 'base': 400}]",LIFR,,,,,,,,,,"Monopulli Arpt, LL, CL",CL,Chile,11.847022158237518
4158,SCQP,2026-02-27 04:00:38.356000+00:00,1772164800,2026-02-27T04:00:00.000Z,12.0,10.0,0,0.0,6+,1012.0,0,METAR,METAR SCQP 270400Z 00000KT CAVOK 12/10 Q1012,-38.925,-72.648,97,Temuco Arpt,CAVOK,[],VFR,,,,,,,,,,"Temuco Arpt, LL, CL",CL,Chile,20.58466666666667
2196,SCSE,2026-02-27 04:00:38.339000+00:00,1772164800,2026-02-27T04:00:00.000Z,15.0,14.0,280,4.0,6+,1011.0,2,METAR,METAR SCSE 270400Z AUTO 28004KT 9999 SCT005/// 15/14 Q1011,-29.918,-71.201,141,La Serena/La Florida Arpt,SCT,"[{'cover': 'SCT', 'base': 500}]",VFR,,,,,,,,,,"La Serena/La Florida Arpt, CO, CL",CL,Chile,14.983063305014802
2853,SCTE,2026-02-27 04:00:38.572000+00:00,1772164800,2026-02-27T04:00:00.000Z,14.0,13.0,0,0.0,6+,1011.0,16,METAR,METAR SCTE 270400Z 00000KT 9999 SCT070 OVC150 14/13 Q1011 NOSIG,-41.439,-73.094,85,Puerto Montt/Tepua Arpt,OVC,"[{'cover': 'SCT', 'base': 7000}, {'cover': 'OVC', 'base': 15000}]",VFR,,,,,,,,,,"Puerto Montt/Tepua Arpt, AR, CL",CL,Chile,21.827666666666673
4157,SCVD,2026-02-27 04:00:38.453000+00:00,1772164800,2026-02-27T04:00:00.000Z,13.0,10.0,VRB,2.0,6+,1012.0,2,METAR,METAR SCVD 270400Z AUTO VRB02KT CAVOK 13/10 Q1012,-39.65,-73.086,19,Valdivia/Pichoy Arpt,CAVOK,[],VFR,,,,,,,,,,"Valdivia/Pichoy Arpt, LL, CL",CL,Chile,13.546933938644262
1970,SCVM,2026-02-27 04:00:38.478000+00:00,1772164800,2026-02-27T04:00:00.000Z,11.0,7.0,150,5.0,6+,1013.0,0,METAR,METAR SCVM 270400Z 15005KT CAVOK 11/07 Q1013,-32.947,-71.479,136,Concon/Vina Del Mar Arpt,CAVOK,[],VFR,,,,,,,,,,"Concon/Vina Del Mar Arpt, VS, CL",CL,Chile,9.963423247098614
1326,SEGU,2026-02-27 04:02:53.396000+00:00,1772164800,2026-02-27T04:00:00.000Z,27.0,25.0,200,4.0,6+,1009.0,16,METAR,METAR SEGU 270400Z 20004KT 9999 -TSRA FEW010 FEW020CB BKN023 BKN100 27/25 Q1009 NOSIG RMK A2982,-2.158,-79.884,6,Guayaquil/Olmedo Intl,BKN,"[{'cover': 'FEW', 'base': 1000}, {'cover': 'FEW', 'base': 2000}, {'cover': 'BKN', 'base': 2300}, {'cover': 'BKN', 'base': 10000}]",MVFR,,-TSRA,,,,,,,,"Guayaquil/Olmedo Intl, G, EC",EC,Ecuador,28.989816422230977
2189,SEMT,2026-02-27 04:02:53.375000+00:00,1772164800,2026-02-27T04:00:00.000Z,26.0,24.0,,,6+,1009.0,0,METAR,METAR SEMT 270400Z 2802KT 9999 BKN023 26/24 Q1009 RMK A2979,-0.946,-80.679,13,Manta/Alfaro Intl,BKN,"[{'cover': 'BKN', 'base': 2300}]",MVFR,,,,,,,,,,"Manta/Alfaro Intl, M, EC",EC,Ecuador,
3813,SEQM,2026-02-27 04:02:53.356000+00:00,1772164800,2026-02-27T04:00:00.000Z,14.0,13.0,330,4.0,6+,1027.0,16,METAR,METAR SEQM 270400Z 33004KT 280V010 9999 OVC004 14/13 Q1027 NOSIG RMK A3032,-0.124,-78.354,2386,Quito/New Intl,OVC,"[{'cover': 'OVC', 'base': 400}]",LIFR,,,,,,,,,,"Quito/New Intl, P, EC",EC,Ecuador,13.815833878580127
23,SGAS,2026-02-27 03:52:29.401000+00:00,1772164800,2026-02-27T04:00:00.000Z,23.0,15.0,150,3.0,5.59,1009.0,0,METAR,METAR SGAS 270400Z 15003KT 9000 NSC 23/15 Q1009,-25.248,-57.519,83,Asunción/Pettriossi,CLR,[],VFR,,,,,,,,,,"Asunción/Pettriossi, 11, PY",PY,Paraguay,24.46036693428211
24,SGES,2026-02-27 03:52:44.325000+00:00,1772164800,2026-02-27T04:00:00.000Z,21.0,16.0,170,7.0,6+,1008.0,0,METAR,METAR SGES 270400Z 17007KT CAVOK 21/16 Q1008,-25.461,-54.849,256,Guarani Intl,CAVOK,[],VFR,,,,,,,,,,"Guarani Intl, 10, PY",PY,Paraguay,21.593803046969942
18,SKAR,2026-02-27 04:02:51.922000+00:00,1772164800,2026-02-27T04:00:00.000Z,19.0,18.0,VRB,2.0,6+,1016.0,0,METAR,METAR SKAR 270400Z VRB02KT 9999 SCT040 19/18 Q1016,4.455,-75.766,1214,Armenia/El Eden Arpt,SCT,"[{'cover': 'SCT', 'base': 4000}]",VFR,,,,,,,,,,"Armenia/El Eden Arpt, QU, CO",CO,Colombia,20.20658305025737
2857,SKAS,2026-02-27 04:02:51.945000+00:00,1772164800,2026-02-27T04:00:00.000Z,23.0,23.0,VRB,2.0,,1011.0,2,METAR,METAR SKAS 270400Z AUTO VRB02KT //// ////// 23/23 Q1011,0.505,-76.501,251,Puerto Asis,,,,,,,,,,,,,"Puerto Asis, PU, CO",CO,Colombia,24.6463491246661
281,SKBG,2026-02-27 04:00:42.157000+00:00,1772164800,2026-02-27T04:00:00.000Z,22.0,19.0,200,4.0,6+,1015.0,0,METAR,METAR SKBG 270400Z 20004KT 150V230 9999 SCT040 22/19 Q1015,7.127,-73.185,1187,Bucaramango/Palonegro Arpt,SCT,"[{'cover': 'SCT', 'base': 4000}]",VFR,,,,,,,,,,"Bucaramango/Palonegro Arpt, SA, CO",CO,Colombia,23.153669290057575
282,SKBO,2026-02-27 04:00:42.187000+00:00,1772164800,2026-02-27T04:00:00.000Z,12.0,12.0,30,3.0,6+,1027.0,16,METAR,METAR SKBO 270400Z 03003KT 9999 BKN100 12/12 Q1027 NOSIG,4.706,-74.151,2547,Bogota/El Dorado Arpt,BKN,"[{'cover': 'BKN', 'base': 10000}]",VFR,,,,,,,,,,"Bogota/El Dorado Arpt, CA, CO",CO,Colombia,11.89089442261126
283,SKBQ,2026-02-27 04:00:42.210000+00:00,1772164800,2026-02-27T04:00:00.000Z,27.0,24.0,10,5.0,6+,1009.0,0,METAR,METAR SKBQ 270400Z 01005KT 310V050 CAVOK 27/24 Q1009,10.883,-74.78,23,Barranquilla/Cortissoz Arpt,CAVOK,[],VFR,,,,,,,,,,"Barranquilla/Cortissoz Arpt, AT, CO",CO,Colombia,28.95647260079541
292,SKBS,2026-02-27 04:02:51.971000+00:00,1772164800,2026-02-27T04:00:00.000Z,25.0,25.0,VRB,1.0,,1008.0,2,METAR,METAR SKBS 270400Z AUTO VRB01KT //// FEW034/// 25/25 Q1008,6.203,-77.395,24,Bahia Soland Arpt,FEW,"[{'cover': 'FEW', 'base': 3400}]",,,,,,,,,,,"Bahia Soland Arpt, CH, CO",CO,Colombia,27.054970208987598
773,SKCC,2026-02-27 04:00:42.232000+00:00,1772164800,2026-02-27T04:00:00.000Z,26.0,21.0,140,2.0,6+,1013.0,0,METAR,METAR SKCC 270400Z 14002KT 9999 SCT020 SCT060 26/21 Q1013,7.93,-72.509,308,Cucuta/Daza Intl,SCT,"[{'cover': 'SCT', 'base': 2000}, {'cover': 'SCT', 'base': 6000}]",VFR,,,,,,,,,,"Cucuta/Daza Intl, ND, CO",CO,Colombia,27.97617368047264
774,SKCG,2026-02-27 04:00:42.253000+00:00,1772164800,2026-02-27T04:00:00.000Z,27.0,24.0,360,6.0,6+,1008.0,0,METAR,METAR SKCG 270400Z 36006KT CAVOK 27/24 Q1008,10.447,-75.516,6,Cartagena/Nuñez Intl,CAVOK,[],VFR,,,,,,,,,,"Cartagena/Nuñez Intl, BO, CO",CO,Colombia,28.9283310073426
524,SKCL,2026-02-27 04:00:42.274000+00:00,1772164800,2026-02-27T04:00:00.000Z,22.0,19.0,VRB,1.0,6+,1015.0,0,METAR,METAR SKCL 270400Z VRB01KT 9999 BKN050 22/19 Q1015,3.543,-76.382,967,Cali/Aragon Arpt,BKN,"[{'cover': 'BKN', 'base': 5000}]",VFR,,,,,,,,,,"Cali/Aragon Arpt, VD, CO",CO,Colombia,23.878967994494335
3638,SKCO,2026-02-27 04:02:52+00:00,1772164800,2026-02-27T04:00:00.000Z,27.0,24.0,VRB,2.0,,1010.0,2,METAR,METAR SKCO 270400Z AUTO VRB02KT //// ////// 27/24 Q1010,1.814,-78.749,6,Tumaco/La Florida Arpt,,,,,,,,,,,,,"Tumaco/La Florida Arpt, NA, CO",CO,Colombia,29.08611519907482
785,SKCZ,2026-02-27 04:02:52.020000+00:00,1772164800,2026-02-27T04:00:00.000Z,26.0,24.0,70,5.0,6+,1008.0,2,METAR,METAR SKCZ 270400Z AUTO 07005KT CAVOK 26/24 Q1008,9.334,-75.283,81,Corozal/Las Brujas Arpt,CAVOK,[],VFR,,,,,,,,,,"Corozal/Las Brujas Arpt, SU, CO",CO,Colombia,27.769407016189373
1008,SKEJ,2026-02-27 04:02:52.039000+00:00,1772164800,2026-02-27T04:00:00.000Z,28.0,25.0,VRB,2.0,6+,1008.0,2,METAR,METAR SKEJ 270400Z AUTO VRB02KT CAVOK 28/25 Q1008,7.026,-73.809,123,Barrancabermeja/Yariguies Arpt,CAVOK,[],VFR,,,,,,,,,,"Barrancabermeja/Yariguies Arpt, SA, CO",CO,Colombia,30.196056717677013
1009,SKFL,2026-02-27 04:02:52.058000+00:00,1772164800,2026-02-27T04:00:00.000Z,24.0,22.0,30,3.0,6+,1012.0,2,METAR,METAR SKFL 270400Z AUTO 03003KT 330V070 CAVOK 24/22 Q1012,1.589,-75.564,244,Florencia Arpt,CAVOK,[],VFR,,,,,,,,,,"Florencia Arpt, CA, CO",CO,Colombia,25.603046253524912
786,SKGO,2026-02-27 04:02:52.080000+00:00,1772164800,2026-02-27T04:00:00.000Z,22.0,20.0,20,2.0,6+,1014.0,2,METAR,METAR SKGO 270400Z AUTO 02002KT 9999 OVC120/// 22/20 Q1014,4.758,-75.956,908,Cartago//Santa Ana Arpt,OVC,"[{'cover': 'OVC', 'base': 12000}]",VFR,,,,,,,,,,"Cartago//Santa Ana Arpt, VD, CO",CO,Colombia,23.536407606063914
1583,SKIB,2026-02-27 04:02:52.122000+00:00,1772164800,2026-02-27T04:00:00.000Z,24.0,17.0,280,5.0,,1013.0,2,METAR,METAR SKIB 270400Z AUTO 28005KT //// R32///// // ////// 24/17 Q1013,4.418,-75.13,899,Ibague/Perales Arpt,,,,,,,,,,,,,"Ibague/Perales Arpt, TO, CO",CO,Colombia,25.39527584697727
1584,SKIP,2026-02-27 04:02:52.146000+00:00,1772164800,2026-02-27T04:00:00.000Z,10.0,10.0,50,6.0,,1030.0,2,METAR,METAR SKIP 270400Z AUTO 05006KT 9999NDV // FEW019/// BKN024/// OVC027/// 10/10 Q1030,0.858,-77.677,2964,Ipiales/San Luis Arpt,OVC,"[{'cover': 'FEW', 'base': 1900}, {'cover': 'BKN', 'base': 2400}, {'cover': 'OVC', 'base': 2700}]",,,,,,,,,,,"Ipiales/San Luis Arpt, NA, CO",CO,Colombia,8.463612857015855
19,SKLC,2026-02-27 04:02:52.169000+00:00,1772164800,2026-02-27T04:00:00.000Z,26.0,24.0,360,5.0,6+,1009.0,2,METAR,METAR SKLC 270400Z AUTO 36005KT 9999 FEW015/// 26/24 Q1009,7.817,-76.718,20,Apartado/Betencourt Arpt,FEW,"[{'cover': 'FEW', 'base': 1500}]",VFR,,,,,,,,,,"Apartado/Betencourt Arpt, AN, CO",CO,Colombia,27.769407016189373
1971,SKLT,2026-02-27 04:02:52.183000+00:00,1772164800,2026-02-27T04:00:00.000Z,24.0,23.0,VRB,2.0,6+,1010.0,2,METAR,METAR SKLT 270400Z AUTO VRB02KT 9999 2100// // SCT049/// OVC058/// 24/23 Q1010,-4.196,-69.943,78,Leticia/Cobo Intl,OVC,"[{'cover': 'SCT', 'base': 4900}, {'cover': 'OVC', 'base': 5800}]",VFR,,,,,,,,,,"Leticia/Cobo Intl, AM, CO",CO,Colombia,25.756290643268276
2459,SKMR,2026-02-27 04:02:52.205000+00:00,1772164800,2026-02-27T04:00:00.000Z,27.0,25.0,280,3.0,6+,1009.0,0,METAR,METAR SKMR 270400Z 28003KT 9999 SCT020 27/25 Q1009,8.826,-75.825,12,Monteria/Garzones Arpt,SCT,"[{'cover': 'SCT', 'base': 2000}]",VFR,,,,,,,,,,"Monteria/Garzones Arpt, CO, CO",CO,Colombia,29.031084211253326
2460,SKMU,2026-02-27 04:02:52.226000+00:00,1772164800,2026-02-27T04:00:00.000Z,24.0,23.0,VRB,2.0,,1010.0,2,METAR,METAR SKMU 270400Z AUTO VRB02KT //// ////// 24/23 Q1010,1.117,-70.083,207,Mitu Arpt,,,,,,,,,,,,,"Mitu Arpt, VP, CO",CO,Colombia,25.756290643268276
2461,SKMZ,2026-02-27 04:02:52.249000+00:00,1772164800,2026-02-27T04:00:00.000Z,15.0,12.0,90,5.0,,1026.0,2,METAR,METAR SKMZ 270400Z AUTO 09005KT 070V130 4300NDV BR ////// 15/12 Q1026,5.03,-75.47,2075,Manizales/La Nubia Arpt,,,,,BR,,,,,,,,"Manizales/La Nubia Arpt, CA, CO",CO,Colombia,14.711685585522819
2638,SKNV,2026-02-27 04:02:52.271000+00:00,1772164800,2026-02-27T04:00:00.000Z,27.0,21.0,210,5.0,6+,1011.0,0,METAR,METAR SKNV 270400Z 21005KT 9999 SCT050 27/21 Q1011,2.949,-75.294,449,Neiva/Salas Arpt,SCT,"[{'cover': 'SCT', 'base': 5000}]",VFR,,,,,,,,,,"Neiva/Salas Arpt, HU, CO",CO,Colombia,28.95647260079541
2858,SKPC,2026-02-27 04:02:52.296000+00:00,1772164800,2026-02-27T04:00:00.000Z,29.0,20.0,60,5.0,6+,1009.0,2,METAR,METAR SKPC 270400Z AUTO 06005KT CAVOK 29/20 Q1009,6.184,-67.491,51,Puerto Carreno Arpt,CAVOK,[],VFR,,,,,,,,,,"Puerto Carreno Arpt, VI, CO",CO,Colombia,31.330603770007517
2859,SKPD,2026-02-27 04:02:52.319000+00:00,1772164800,2026-02-27T04:00:00.000Z,24.0,24.0,0,0.0,6+,1009.0,2,METAR,METAR SKPD 270400Z AUTO 00000KT CAVOK 24/24 Q1009,3.854,-67.906,140,Puerto Inirida Arpt,CAVOK,[],VFR,,,,,,,,,,"Puerto Inirida Arpt, GN, CO",CO,Colombia,28.042666666666666
2831,SKPE,2026-02-27 04:00:42.315000+00:00,1772164800,2026-02-27T04:00:00.000Z,21.0,15.0,100,9.0,6+,1017.0,0,METAR,METAR SKPE 270400Z 10009KT 9999 SCT050 21/15 Q1017,4.814,-75.735,1341,Pereira/Matecana Arpt,SCT,"[{'cover': 'SCT', 'base': 5000}]",VFR,,,,,,,,,,"Pereira/Matecana Arpt, RI, CO",CO,Colombia,21.40570803527033
2854,SKPP,2026-02-27 04:02:50.359000+00:00,1772164800,2026-02-27T04:00:00.000Z,18.0,17.0,250,6.0,,1020.0,2,METAR,METAR SKPP 270400Z AUTO 25006KT 210V280 //// BKN028CB BKN049 OVC087 18/17 Q1020,2.453,-76.609,1726,Popayan/Guillermo,OVC,"[{'cover': 'BKN', 'base': 2800}, {'cover': 'BKN', 'base': 4900}, {'cover': 'OVC', 'base': 8700}]",,,,,,,,,,,"Popayan/Guillermo, CA, CO",CO,Colombia,18.094068457169627
2855,SKPS,2026-02-27 04:02:50.389000+00:00,1772164800,2026-02-27T04:00:00.000Z,17.0,15.0,170,5.0,6+,1020.0,2,METAR,METAR SKPS 270400Z AUTO 17005KT 9999 BKN075/// BKN150/// 17/15 Q1020,1.394,-77.291,1798,Pasto/Nariño Arpt,BKN,"[{'cover': 'BKN', 'base': 7500}, {'cover': 'BKN', 'base': 15000}]",VFR,,,,,,,,,,"Pasto/Nariño Arpt, NA, CO",CO,Colombia,17.08581675473492
2856,SKPV,2026-02-27 04:02:50.420000+00:00,1772164800,2026-02-27T04:00:00.000Z,27.0,23.0,80,5.0,6+,1012.0,2,METAR,METAR SKPV 270400Z AUTO 08005KT 360V150 CAVOK 27/23 Q1012,13.358,-81.358,7,Providencia Isl Arpt,CAVOK,[],VFR,,,,,,,,,,"Providencia Isl Arpt, SA, CO",CO,Colombia,28.95647260079541
2458,SKQU,2026-02-27 04:02:50.446000+00:00,1772164800,2026-02-27T04:00:00.000Z,26.0,23.0,0,0.0,6+,1010.0,2,METAR,METAR SKQU 270400Z AUTO 00000KT 9999 SCT028/// BKN035/// BKN120/// 26/23 Q1010,5.213,-74.884,467,Mariquita Arpt,BKN,"[{'cover': 'SCT', 'base': 2800}, {'cover': 'BKN', 'base': 3500}, {'cover': 'BKN', 'base': 12000}]",VFR,,,,,,,,,,"Mariquita Arpt, TO, CO",CO,Colombia,29.28566666666667
2188,SKRG,2026-02-27 04:02:50.459000+00:00,1772164800,2026-02-27T04:00:00.000Z,16.0,15.0,VRB,1.0,6+,1026.0,0,METAR,METAR SKRG 270400Z VRB01KT 9999 SCT009TCU 16/15 Q1026 RMK TCU/SE,6.169,-75.426,2132,Rionegro/Córdova Intl,SCT,"[{'cover': 'SCT', 'base': 900}]",VFR,,,,,,,,,,"Rionegro/Córdova Intl, AN, CO",CO,Colombia,17.52696356550782
3112,SKRH,2026-02-27 04:02:50.483000+00:00,1772164800,2026-02-27T04:00:00.000Z,27.0,21.0,110,13.0,1.24,1010.0,2,METAR,METAR SKRH 270400Z AUTO 11013KT //// R10/P2000 // ////// 27/21 Q1010,11.528,-72.918,11,Riohacha/Padilla Arpt,,,,,,,,,,,,,"Riohacha/Padilla Arpt, GJ, CO",CO,Colombia,28.79943003201269
3113,SKSA,2026-02-27 04:02:50.505000+00:00,1772164800,2026-02-27T04:00:00.000Z,25.0,17.0,310,4.0,,1011.0,2,METAR,METAR SKSA 270400Z AUTO 31004KT //// ////// 25/17 Q1011,6.955,-71.86,207,Saravena/Los Colonizadores Arpt,,,,,,,,,,,,,"Saravena/Los Colonizadores Arpt, AR, CO",CO,Colombia,26.655357569361623
3332,SKSJ,2026-02-27 04:02:50.528000+00:00,1772164800,2026-02-27T04:00:00.000Z,24.0,23.0,VRB,1.0,6+,1011.0,2,METAR,METAR SKSJ 270400Z AUTO VRB01KT CAVOK 24/23 Q1011,2.574,-72.64,185,San Jose del Guaviar,CAVOK,[],VFR,,,,,,,,,,"San Jose del Guaviar, GV, CO",CO,Colombia,25.996302804156503
3333,SKSM,2026-02-27 04:02:50.550000+00:00,1772164800,2026-02-27T04:00:00.000Z,27.0,21.0,50,3.0,6+,1008.0,0,METAR,METAR SKSM 270400Z 05003KT 020V080 9999 NSC 27/21 Q1008,11.12,-74.231,5,Santa Marta/Bolivar Arpt,CLR,[],VFR,,,,,,,,,,"Santa Marta/Bolivar Arpt, MA, CO",CO,Colombia,29.031084211253326
0,SKSP,2026-02-27 04:00:42.361000+00:00,1772164800,2026-02-27T04:00:00.000Z,27.0,24.0,70,6.0,6+,1012.0,2,METAR,METAR SKSP 270400Z AUTO 07006KT 030V100 CAVOK 27/24 Q1012,12.587,-81.704,6,San Andres Island Arpt,CAVOK,[],VFR,,,,,,,,,,"San Andres Island Arpt, SA, CO",CO,Colombia,28.9283310073426
3637,SKTM,2026-02-27 04:02:50.572000+00:00,1772164800,2026-02-27T04:00:00.000Z,25.0,17.0,290,4.0,6+,1013.0,2,METAR,METAR SKTM 270400Z AUTO 29004KT CAVOK 25/17 Q1013,6.451,-71.76,361,Tame/Vargas Arpt,CAVOK,[],VFR,,,,,,,,,,"Tame/Vargas Arpt, AR, CO",CO,Colombia,26.655357569361623
17,SKUC,2026-02-27 04:02:50.594000+00:00,1772164800,2026-02-27T04:00:00.000Z,27.0,21.0,VRB,1.0,6+,1011.0,0,METAR,METAR SKUC 270400Z VRB01KT 9999 FEW030 27/21 Q1011,7.066,-70.735,127,Arauca/Perez Arpt,FEW,"[{'cover': 'FEW', 'base': 3000}]",VFR,,,,,,,,,,"Arauca/Perez Arpt, AR, CO",CO,Colombia,29.17230501864976
3811,SKVP,2026-02-27 04:02:50.616000+00:00,1772164800,2026-02-27T04:00:00.000Z,28.0,20.0,70,9.0,6+,1011.0,0,METAR,METAR SKVP 270400Z 07009KT 9999 SCT045 28/20 Q1011,10.436,-73.248,137,Valledupar/Pumerejo Arpt,SCT,"[{'cover': 'SCT', 'base': 4500}]",VFR,,,,,,,,,,"Valledupar/Pumerejo Arpt, CE, CO",CO,Colombia,30.10556061424274
3812,SKVV,2026-02-27 04:02:50.638000+00:00,1772164800,2026-02-27T04:00:00.000Z,25.0,20.0,VRB,1.0,6+,1013.0,2,METAR,METAR SKVV 270400Z AUTO VRB01KT CAVOK 25/20 Q1013,4.162,-73.618,421,Villavicencio/Vangardia Arpt,CAVOK,[],VFR,,,,,,,,,,"Villavicencio/Vangardia Arpt, ME, CO",CO,Colombia,27.054970208987598
1007,SKYP,2026-02-27 04:02:50.660000+00:00,1772164800,2026-02-27T04:00:00.000Z,28.0,18.0,350,8.0,,1011.0,2,METAR,METAR SKYP 270400Z AUTO 35008KT 5000NDV // ////// 28/18 Q1011,5.319,-72.384,312,Yopal/El Alcaravan,,,,,,,,,,,,,"Yopal/El Alcaravan, CA, CO",CO,Colombia,30.11345950647428
3328,SLAL,2026-02-27 04:02:25.238000+00:00,1772164800,2026-02-27T04:00:00.000Z,11.0,8.0,60,6.0,6+,1027.0,0,METAR,METAR SLAL 270400Z 06006KT 9999 FEW070 11/08 Q1027,-19.247,-65.15,3109,Alcantarí Arpt,FEW,"[{'cover': 'FEW', 'base': 7000}]",VFR,,,,,,,,,,"Alcantarí Arpt, H, BO",BO,"Bolivia, Plurinational State of",9.667419807035076
538,SLCB,2026-02-27 04:02:25.198000+00:00,1772164800,2026-02-27T04:00:00.000Z,18.0,10.0,140,8.0,6+,1022.0,16,METAR,METAR SLCB 270400Z 14008KT 100V190 9999 FEW027 BKN200 18/10 Q1022 NOSIG,-17.421,-66.179,2560,Cochabamba/Wilstermann Intl,BKN,"[{'cover': 'FEW', 'base': 2700}, {'cover': 'BKN', 'base': 20000}]",VFR,,,,,,,,,,"Cochabamba/Wilstermann Intl, C, BO",BO,"Bolivia, Plurinational State of",17.80109481624427
2187,SLLP,2026-02-27 04:02:47.685000+00:00,1772164800,2026-02-27T04:00:00.000Z,6.0,6.0,80,6.0,6+,1036.0,16,METAR,METAR SLLP 270400Z 08006KT 9999 4000E BCFG FEW003 BKN200 06/06 Q1036 NOSIG,-16.511,-68.182,4061,La Paz/El Alto Intl,BKN,"[{'cover': 'FEW', 'base': 300}, {'cover': 'BKN', 'base': 20000}]",VFR,,BCFG,,,,,,,,"La Paz/El Alto Intl, L, BO",BO,"Bolivia, Plurinational State of",3.648385056938971
3634,SLTJ,2026-02-27 04:02:25.217000+00:00,1772164800,2026-02-27T04:00:00.000Z,17.0,17.0,0,0.0,6+,1017.0,0,METAR,METAR SLTJ 270400Z 00000KT 9999 SCT025 BKN070 BKN200 17/17 Q1017,-21.556,-64.701,1850,Tarija/Plaza Arpt,BKN,"[{'cover': 'SCT', 'base': 2500}, {'cover': 'BKN', 'base': 7000}, {'cover': 'BKN', 'base': 20000}]",VFR,,,,,,,,,,"Tarija/Plaza Arpt, T, BO",BO,"Bolivia, Plurinational State of",23.692166666666672
3806,SLVR,2026-02-27 04:02:25.176000+00:00,1772164800,2026-02-27T04:00:00.000Z,24.0,23.0,330,6.0,6+,1009.0,16,METAR,METAR SLVR 270400Z 33006KT 9999 NSC 24/23 Q1009 NOSIG,-17.645,-63.135,377,Santa Cruz/Viru Intl,CLR,[],VFR,,,,,,,,,,"Santa Cruz/Viru Intl, S, BO",BO,"Bolivia, Plurinational State of",25.316910157284948
2850,SMJP,2026-02-27 03:57:09.508000+00:00,1772164800,2026-02-27T04:00:00.000Z,24.0,22.0,60,2.0,4.97,1014.0,0,METAR,METAR SMJP 270400Z 06002KT 8000 FEW007 24/22 Q1014,5.453,-55.188,14,Paramaribo/Pengel Intl,FEW,"[{'cover': 'FEW', 'base': 700}]",MVFR,,,,,,,,,,"Paramaribo/Pengel Intl, PA, SR",SR,Suriname,25.756290643268276
544,SOCA,2026-02-27 04:01:13.829000+00:00,1772164800,2026-02-27T04:00:00.000Z,25.0,21.0,VRB,3.0,6+,1012.0,2,METAR,METAR SOCA 270400Z AUTO VRB03KT 9999 SCT028 BKN035 BKN045 25/21 Q1012 TEMPO SCT018TCU,4.822,-52.365,7,Cayenne/Rochambeau Arpt,BKN,"[{'cover': 'SCT', 'base': 2800}, {'cover': 'BKN', 'base': 3500}, {'cover': 'BKN', 'base': 4500}]",VFR,,,,,,,,,,"Cayenne/Rochambeau Arpt, CA, GF",GF,French Guiana,26.74572557276772
2836,SPCL,2026-02-27 04:00:43.524000+00:00,1772164800,2026-02-27T04:00:00.000Z,26.0,24.0,0,0.0,6+,1010.0,0,METAR,METAR SPCL 270400Z 00000KT 9999 SCT015 BKN080 26/24 Q1010 RMK PP000,-8.378,-74.574,154,Pucallpa/Rengifo Intl,BKN,"[{'cover': 'SCT', 'base': 1500}, {'cover': 'BKN', 'base': 8000}]",VFR,,,,,,,,,,"Pucallpa/Rengifo Intl, UC, PE",PE,Peru,29.28566666666667
547,SPHI,2026-02-27 04:01:25.131000+00:00,1772164800,2026-02-27T04:00:00.000Z,25.0,22.0,160,8.0,6+,1009.0,0,METAR,METAR SPHI 270400Z 16008KT CAVOK 25/22 Q1009 RMK BIRD HAZARD RWY 19/01 PP000,-6.787,-79.828,33,Chiclayo Arpt,CAVOK,[],VFR,,,,,,,,,,"Chiclayo Arpt, LA, PE",PE,Peru,26.419750099405274
1577,SPQT,2026-02-27 04:00:42.440000+00:00,1772164800,2026-02-27T04:00:00.000Z,25.0,24.0,VRB,2.0,6+,1010.0,16,METAR,METAR SPQT 270400Z VRB02KT 9999 FEW015 SCT100 25/24 Q1010 NOSIG RMK PP000,-3.786,-73.306,92,Iquitos/Vignetta Arpt,SCT,"[{'cover': 'FEW', 'base': 1500}, {'cover': 'SCT', 'base': 10000}]",VFR,,,,,,,,,,"Iquitos/Vignetta Arpt, LO, PE",PE,Peru,26.866232161870457
27,SPQU,2026-02-27 04:01:25.145000+00:00,1772164800,2026-02-27T04:00:00.000Z,12.0,11.0,VRB,2.0,6+,1025.0,0,METAR,METAR SPQU 270400Z VRB02KT CAVOK 12/11 Q1025 RMK PP000,-16.341,-71.583,2527,Arequipa/Ballon Intl,CAVOK,[],VFR,,,,,,,,,,"Arequipa/Ballon Intl, AR, PE",PE,Peru,12.436992420042088
3642,SPRU,2026-02-27 04:01:25.157000+00:00,1772164800,2026-02-27T04:00:00.000Z,24.0,22.0,130,7.0,5.59,1010.0,0,METAR,METAR SPRU 270400Z 13007KT 9000 NSC 24/22 Q1010 RMK PP000,-8.087,-79.109,23,Trujillo Arpt,CLR,[],VFR,,,,,,,,,,"Trujillo Arpt, LA, PE",PE,Peru,25.248845880244605
2832,SPSO,2026-02-27 04:00:42.503000+00:00,1772164800,2026-02-27T04:00:00.000Z,22.0,19.0,210,10.0,6+,1009.0,0,METAR,METAR SPSO 270400Z 21010KT CAVOK 22/19 Q1009 RMK PP000,-13.744,-76.221,8,Pisco Intl,CAVOK,[],VFR,,,,,,,,,,"Pisco Intl, IC, PE",PE,Peru,22.57797264754396
3625,SPTN,2026-02-27 04:00:42.524000+00:00,1772164800,2026-02-27T04:00:00.000Z,23.0,17.0,240,2.0,6+,1013.0,0,METAR,METAR SPTN 270400Z 24002KT 9999 FEW030 BKN080 23/17 Q1013 RMK PP000,-18.049,-70.277,459,Tacna Arpt,BKN,"[{'cover': 'FEW', 'base': 3000}, {'cover': 'BKN', 'base': 8000}]",VFR,,,,,,,,,,"Tacna Arpt, TA, PE",PE,Peru,24.6463491246661
2833,SPUR,2026-02-27 04:00:42.545000+00:00,1772164800,2026-02-27T04:00:00.000Z,28.0,21.0,170,9.0,6+,1010.0,0,METAR,METAR SPUR 270400Z 17009KT 9999 BKN040 28/21 Q1010 RMK PP000,-5.206,-80.616,30,Piura/Iberico Intl,BKN,"[{'cover': 'BKN', 'base': 4000}]",VFR,,,,,,,,,,"Piura/Iberico Intl, PI, PE",PE,Peru,30.10556061424274
775,SPZO,2026-02-27 04:00:42.576000+00:00,1772164800,2026-02-27T04:00:00.000Z,13.0,8.0,250,4.0,6+,1030.0,16,METAR,METAR SPZO 270400Z 25004KT 9999 SCT050 BKN100 13/08 Q1030 NOSIG RMK BIRD HAZARD RWY 10/28 PP000,-13.536,-71.939,3249,Cuzco/Astete Arpt,BKN,"[{'cover': 'SCT', 'base': 5000}, {'cover': 'BKN', 'base': 10000}]",VFR,,,,,,,,,,"Cuzco/Astete Arpt, CU, PE",PE,Peru,12.648604452145433
1017,SUDU,2026-02-27 03:59:09.605000+00:00,1772164800,2026-02-27T04:00:00.000Z,15.0,13.0,110,6.0,6+,1014.0,0,METAR,METAR SUDU 270400Z 11006KT CAVOK 15/13 Q1014,-33.359,-56.499,91,Durazno/Santa Bernadina Arpt,CAVOK,[],VFR,,,,,,,,,,"Durazno/Santa Bernadina Arpt, DU, UY",UY,Uruguay,14.482647607111959
2835,SULS,2026-02-27 04:00:43.411000+00:00,1772164800,2026-02-27T04:00:00.000Z,13.0,11.0,310,2.0,6+,1014.0,0,METAR,METAR SULS 270400Z 31002KT 9999 MIFG NSC 13/11 Q1014,-34.855,-55.094,22,Maldonado Intl,CLR,[],VFR,,MIFG,,,,,,,,"Maldonado Intl, MA, UY",UY,Uruguay,13.546933938644262
2448,SUMO,2026-02-27 04:00:43.253000+00:00,1772164800,2026-02-27T04:00:00.000Z,13.0,11.0,160,2.0,,1013.0,2,METAR,METAR SUMO 270400Z AUTO 16002KT //// ////// 13/11 Q1013,-32.34,-54.224,113,Melo/Cerro Largo Arpt,,,,,,,,,,,,,"Melo/Cerro Largo Arpt, CL, UY",UY,Uruguay,13.546933938644262
2455,SUMU,2026-02-27 03:56:43.594000+00:00,1772164800,2026-02-27T04:00:00.000Z,13.0,13.0,0,0.0,6+,1014.0,16,METAR,METAR SUMU 270400Z 00000KT CAVOK 13/13 Q1014 NOSIG,-34.838,-56.031,32,Carrasco Intl,CAVOK,[],VFR,,,,,,,,,,"Carrasco Intl, CA, UY",UY,Uruguay,21.206166666666665
2852,SUPU,2026-02-27 04:00:38.924000+00:00,1772164800,2026-02-27T04:00:00.000Z,19.0,12.0,110,1.0,,1012.0,2,METAR,METAR SUPU 270400Z AUTO 11001KT //// ////// 19/12 Q1012,-32.362,-58.067,23,Paysandu Arpt,,,,,,,,,,,,,"Paysandu Arpt, PA, UY",UY,Uruguay,20.702965780001087
3117,SURV,2026-02-27 03:53:52.690000+00:00,1772164800,2026-02-27T04:00:00.000Z,16.0,12.0,130,8.0,6+,1013.0,0,METAR,METAR SURV 270400Z 13008KT CAVOK 16/12 Q1013,-30.97,-55.474,201,Rivera Intl,CAVOK,[],VFR,,,,,,,,,,"Rivera Intl, RV, UY",UY,Uruguay,15.338621878198264
3339,SUSO,2026-02-27 03:54:45.939000+00:00,1772164800,2026-02-27T04:00:00.000Z,18.0,13.0,140,6.0,6+,1012.0,0,METAR,METAR SUSO 270400Z 14006KT CAVOK 18/13 Q1012,-31.438,-57.982,37,Salto Arpt,CAVOK,[],VFR,,,,,,,,,,"Salto Arpt, SL, UY",UY,Uruguay,18.094068457169627
541,SVMI,2026-02-27 03:52:34.047000+00:00,1772164800,2026-02-27T04:00:00.000Z,25.0,22.0,0,0.0,6+,1012.0,0,METAR,METAR SVMI 270400Z 00000KT CAVOK 25/22 Q1012 ,10.603,-66.991,48,Caracas/Bolívar Intl,CAVOK,[],VFR,,,,,,,,,,"Caracas/Bolívar Intl, A, VE",VE,"Venezuela, Bolivarian Republic of",28.664166666666674
1318,SYCJ,2026-02-27 04:00:43.437000+00:00,1772164800,2026-02-27T04:00:00.000Z,23.0,22.0,60,4.0,6+,1013.0,16,METAR,METAR SYCJ 270400Z 06004KT 9999 FEW018 23/22 Q1013 NOSIG,6.499,-58.254,30,Georgetown/Jagan Intl,FEW,"[{'cover': 'FEW', 'base': 1800}]",VFR,,,,,,,,,,"Georgetown/Jagan Intl, DE, GY",GY,Guyana,24.32089871649226
298,TBPB,2026-02-27 04:02:04.477000+00:00,1772164800,2026-02-27T04:00:00.000Z,26.0,20.0,90,15.0,6+,1015.0,16,METAR,METAR TBPB 270400Z 09015KT 9999 FEW020 26/20 Q1015 NOSIG,13.075,-59.492,55,Bridgetown/Adams Intl,FEW,"[{'cover': 'FEW', 'base': 2000}]",VFR,,,,,,,,,,"Bridgetown/Adams Intl, 1, BB",BB,Barbados,27.47802235536118
1019,TFFF,2026-02-27 04:01:12.782000+00:00,1772164800,2026-02-27T04:00:00.000Z,25.0,20.0,60,6.0,6+,1016.0,18,METAR,METAR TFFF 270400Z AUTO 06006KT 9999 FEW029 25/20 Q1016 NOSIG,14.591,-61.003,3,Le Lamentin/Cesaire Intl,FEW,"[{'cover': 'FEW', 'base': 2900}]",VFR,,,,,,,,,,"Le Lamentin/Cesaire Intl, FD, MQ",MQ,Martinique,26.520717107304172
3266,TFFJ,2026-02-27 03:33:01.219000+00:00,1772163000,2026-02-27T03:30:00.000Z,26.0,21.0,90,9.0,4.97,1017.0,2,METAR,METAR TFFJ 270330Z AUTO 09009KT 060V130 8000 SCT028 SCT036 26/21 Q1017,17.904,-62.844,13,St Barthelemy/Gustav Arpt,SCT,"[{'cover': 'SCT', 'base': 2800}, {'cover': 'SCT', 'base': 3600}]",MVFR,,,,,,,,,,"St Barthelemy/Gustav Arpt, , BL",BL,Saint Barthélemy,27.619888448822046
2838,TFFR,2026-02-27 04:02:38.522000+00:00,1772164800,2026-02-27T04:00:00.000Z,24.0,21.0,120,5.0,6+,1016.0,2,METAR,METAR TFFR 270400Z AUTO 12005KT 9999 ///TCU 24/21 Q1016 TEMPO 4000 SHRA,16.265,-61.532,6,Guadeloupe/Pitre Intl,,,,,,,,,,,,,"Guadeloupe/Pitre Intl, , GP",GP,Guadeloupe,25.39527584697727
3416,TIST,2026-02-27 03:58:38.404000+00:00,1772164380,2026-02-27T04:00:00.000Z,26.1,20.6,100,9.0,10+,1017.7,14,METAR,METAR TIST 270353Z AUTO 10009KT 10SM CLR 26/21 A3005 RMK AO2 SLP174 T02610206 403110244 $,18.3362,-64.9799,5,St Thomas/King Arpt,CLR,[],VFR,,,1017.4,,,31.1,24.4,,,"St Thomas/King Arpt, , VI",VI,"Virgin Islands, U.S.",27.744172057093092
3415,TISX,2026-02-27 03:58:38.081000+00:00,1772164380,2026-02-27T04:00:00.000Z,23.9,20.6,60,5.0,10+,1017.7,6,METAR,METAR TISX 270353Z AUTO 06005KT 10SM CLR 24/21 A3005 RMK AO2 SLP174 T02390206 402940233 PNO,17.6997,-64.8126,16,St Croix/Rohlsen Arpt,CLR,[],VFR,,,1017.4,,,29.4,23.3,,,"St Croix/Rohlsen Arpt, , VI",VI,"Virgin Islands, U.S.",25.276569288516665
2902,TJPS,2026-02-27 04:02:17.251000+00:00,1772164500,2026-02-27T04:00:00.000Z,23.0,20.0,60,3.0,10+,1016.7,6,METAR,METAR TJPS 270355Z AUTO 06003KT 10SM 23/20 A3002 RMK AO2,18.011,-66.567,12,Ponce/Mercedita Arpt,,,,,,,,,,,,,"Ponce/Mercedita Arpt, , PR",PR,Puerto Rico,24.46036693428211
3363,TJSJ,2026-02-27 04:02:15.533000+00:00,1772164560,2026-02-27T04:00:00.000Z,24.4,20.0,110,4.0,10+,1017.7,12,METAR,METAR TJSJ 270356Z 11004KT 10SM FEW022 SCT065 24/20 A3005 RMK AO2 SLP175 T02440200 403000233 $,18.4326,-66.0106,3,San Juan/Marin Intl,SCT,"[{'cover': 'FEW', 'base': 2200}, {'cover': 'SCT', 'base': 6500}]",VFR,,,1017.5,,,30.0,23.3,,,"San Juan/Marin Intl, , PR",PR,Puerto Rico,25.95501991350081
3815,TLPL,2026-02-27 03:59:28.360000+00:00,1772164800,2026-02-27T04:00:00.000Z,26.0,21.0,100,17.0,6+,1016.0,16,METAR,METAR TLPL 270400Z 10017KT 9999 SCT026 26/21 Q1016 NOSIG,13.743,-60.948,13,St Lucia/Hewanorra Intl,SCT,"[{'cover': 'SCT', 'base': 2600}]",VFR,,,,,,,,,,"St Lucia/Hewanorra Intl, VF, LC",LC,Saint Lucia,27.441457379449204
4,TNCA,2026-02-27 04:02:06.229000+00:00,1772164800,2026-02-27T04:00:00.000Z,27.0,22.0,100,18.0,6+,1012.0,18,METAR,METAR TNCA 270400Z AUTO 10018G28KT 9999 FEW021/// BKN027/// BKN032/// 27/22 Q1012 NOSIG,12.501,-70.015,7,Aruba/Beatrix Intl,BKN,"[{'cover': 'FEW', 'base': 2100}, {'cover': 'BKN', 'base': 2700}, {'cover': 'BKN', 'base': 3200}]",MVFR,28.0,,,,,,,,,"Aruba/Beatrix Intl, , AW",AW,Aruba,28.740224902620444
340,TNCB,2026-02-27 04:02:47.637000+00:00,1772164500,2026-02-27T04:00:00.000Z,27.0,22.0,90,18.0,6+,1012.0,2,METAR,METAR TNCB 270355Z AUTO 09018KT 070V130 9999 FEW018/// SCT024/// BKN028/// 27/22 Q1012,12.133,-68.277,6,Bonaire/Flamingo Arpt,BKN,"[{'cover': 'FEW', 'base': 1800}, {'cover': 'SCT', 'base': 2400}, {'cover': 'BKN', 'base': 2800}]",MVFR,,,,,,,,,,"Bonaire/Flamingo Arpt, BQ, BQ",BQ,,28.740224902620444
1088,TNCE,2026-02-27 04:02:47.672000+00:00,1772164500,2026-02-27T04:00:00.000Z,25.0,21.0,100,10.0,,1017.0,2,METAR,METAR TNCE 270355Z AUTO 10010KT 070V140 //// // ///////// 25/21 Q1017 RE//,17.497,-62.979,38,St Eustatius/Roosevelt Arpt,,,,,,,,,,,,,"St Eustatius/Roosevelt Arpt, SE, BQ",BQ,,26.33817010779388
335,TXKF,2026-02-27 03:53:03.844000+00:00,1772164500,2026-02-27T04:00:00.000Z,19.0,16.0,200,6.0,6+,1023.0,0,METAR,METAR TXKF 270355Z 20006KT 9999 VCSH FEW026 BKN045 BKN300 19/16 Q1023 ,32.364,-64.679,4,Bermuda/Wade Intl,BKN,"[{'cover': 'FEW', 'base': 2600}, {'cover': 'BKN', 'base': 4500}, {'cover': 'BKN', 'base': 30000}]",VFR,,VCSH,,,,,,,,"Bermuda/Wade Intl, SH, BM",BM,Bermuda,19.297875407188847
204,UAAA,2026-02-27 03:35:32.646000+00:00,1772163000,2026-02-27T03:30:00.000Z,0.0,-1.0,VRB,2.0,3.11,1017.0,16,METAR,METAR UAAA 270330Z VRB01MPS 5000 BR FU SCT050 BKN100 00/M01 Q1017 NOSIG,43.35,77.027,673,Almaty Intl,BKN,"[{'cover': 'SCT', 'base': 5000}, {'cover': 'BKN', 'base': 10000}]",MVFR,,BR FU,,,,,,,,"Almaty Intl, AL, KZ",KZ,Kazakhstan,-0.8823058031841057
695,UAAH,2026-02-27 03:36:04.254000+00:00,1772163000,2026-02-27T03:30:00.000Z,-21.0,-28.0,70,17.0,6+,1025.0,16,METAR,METAR UAAH 270330Z 07009MPS CAVOK M21/M28 Q1025 NOSIG RMK QFE731/0975,46.893,75.005,427,Balkhash Arpt,CAVOK,[],VFR,,,,,,,,,,"Balkhash Arpt, KA, KZ",KZ,Kazakhstan,-34.099917650192246
3728,UAAT,2026-02-27 03:35:34.755000+00:00,1772163000,2026-02-27T03:30:00.000Z,-14.0,-16.0,50,10.0,4.35,1019.0,16,METAR,METAR UAAT 270330Z 05005MPS 7000 -SN SCT013 OVC036 M14/M16 Q1019 NOSIG RMK QFE713/0950,45.121,78.445,588,Taldykorgan Arpt,OVC,"[{'cover': 'SCT', 'base': 1300}, {'cover': 'OVC', 'base': 3600}]",MVFR,,-SN,,,,,,,,"Taldykorgan Arpt, AL, KZ",KZ,Kazakhstan,-22.54439687545492
2764,UACC,2026-02-27 03:40:48.177000+00:00,1772163000,2026-02-27T03:30:00.000Z,-31.0,-34.0,80,6.0,6+,1034.0,16,METAR,METAR UACC 270330Z 08003MPS 9999 FEW006 M31/M34 Q1034 NOSIG RMK QBB200 QFE743/0991,51.024,71.468,354,Astana Intl,FEW,"[{'cover': 'FEW', 'base': 600}]",VFR,,,,,,,,,,"Astana Intl, AK, KZ",KZ,Kazakhstan,-40.8924720937722
2103,UACK,2026-02-27 03:36:16.485000+00:00,1772163000,2026-02-27T03:30:00.000Z,-35.0,-38.0,170,2.0,6+,1037.0,16,METAR,METAR UACK 270330Z 17001MPS CAVOK M35/M38 Q1037 NOSIG RMK QFE753/1005,53.332,69.594,261,Kokshetau Arpt,CAVOK,[],VFR,,,,,,,,,,"Kokshetau Arpt, AK, KZ",KZ,Kazakhstan,-39.7302589542605
3016,UACP,2026-02-27 03:36:04.297000+00:00,1772163000,2026-02-27T03:30:00.000Z,-30.0,-33.0,230,6.0,2.24,1038.0,16,METAR,METAR UACP 270330Z 23003MPS 3600 BR FU NSC M30/M33 Q1038 NOSIG RMK QFE766/1022,54.775,69.183,134,Petropavlovsk Arpt,CLR,[],IFR,,BR FU,,,,,,,,"Petropavlovsk Arpt, SE, KZ",KZ,Kazakhstan,-39.688665143752985
927,UADD,2026-02-27 03:36:04.320000+00:00,1772163000,2026-02-27T03:30:00.000Z,1.0,1.0,50,6.0,5.59,1017.0,16,METAR,METAR UADD 270330Z 05003MPS 010V070 9000 OVC003 01/01 Q1017 NOSIG RMK QBB100 MT OBSC QFE706/0941,42.854,71.304,663,Taraz Arpt,OVC,"[{'cover': 'OVC', 'base': 300}]",LIFR,,,,,,,,,,"Taraz Arpt, ZH, KZ",KZ,Kazakhstan,-2.370649693157133
696,UAII,2026-02-27 03:36:04.340000+00:00,1772163000,2026-02-27T03:30:00.000Z,6.0,4.0,VRB,2.0,6+,1017.0,16,METAR,METAR UAII 270330Z VRB01MPS 9999 BKN050CB 06/04 Q1017 NOSIG RMK QFE725/0967,42.366,69.476,410,Shymkent Intl,BKN,"[{'cover': 'BKN', 'base': 5000}]",VFR,,,,,,,,,,"Shymkent Intl, YU, KZ",KZ,Kazakhstan,5.7773433084289865
1735,UAIT,2026-02-27 03:35:35.394000+00:00,1772163000,2026-02-27T03:30:00.000Z,4.0,3.0,90,8.0,6+,1017.0,16,METAR,METAR UAIT 270330Z 09004MPS 9999 -RA BKN033 04/03 Q1017 NOSIG RMK QFE738/0984,43.311,68.55,301,Turkistan Arpt,BKN,"[{'cover': 'BKN', 'base': 3300}]",VFR,,-RA,,,,,,,,"Turkistan Arpt, YU, KZ",KZ,Kazakhstan,0.5637842499222777
1222,UAKD,2026-02-27 03:36:04.358000+00:00,1772163000,2026-02-27T03:30:00.000Z,-19.0,-26.0,40,16.0,6+,1028.0,16,METAR,METAR UAKD 270330Z 04008MPS CAVOK M19/M26 Q1028 NOSIG RMK QFE737/0982,47.711,67.739,379,Zhezkazgan Arpt,CAVOK,[],VFR,,,,,,,,,,"Zhezkazgan Arpt, KA, KZ",KZ,Kazakhstan,-31.16452253234128
1896,UAKK,2026-02-27 03:36:04.384000+00:00,1772163000,2026-02-27T03:30:00.000Z,-28.0,-32.0,60,12.0,5.59,1029.0,16,METAR,METAR UAKK 270330Z 06006MPS 9000 FEW003 M28/M32 Q1029 NOSIG RMK QBB110 QFE724/0965,49.672,73.333,532,Karaganda Arpt,FEW,"[{'cover': 'FEW', 'base': 300}]",VFR,,,,,,,,,,"Karaganda Arpt, KA, KZ",KZ,Kazakhstan,-41.15219743744217
2099,UAOO,2026-02-27 03:36:15.040000+00:00,1772163000,2026-02-27T03:30:00.000Z,-8.0,-10.0,40,14.0,6+,1022.0,16,METAR,METAR UAOO 270330Z 04007MPS 9999 OVC010 M08/M10 Q1022 NOSIG RMK QFE755/1007,44.707,65.593,130,Kzylorda Arpt,OVC,"[{'cover': 'OVC', 'base': 1000}]",MVFR,,,,,,,,,,"Kzylorda Arpt, KZ, KZ",KZ,Kazakhstan,-16.306038460456637
3938,UARR,2026-02-27 03:36:15.069000+00:00,1772163000,2026-02-27T03:30:00.000Z,-13.0,-17.0,150,4.0,6+,1035.0,16,METAR,METAR UARR 270330Z 15002MPS CAVOK M13/M17 Q1035 NOSIG RMK QFE773/1031,51.151,51.541,33,Uralsk Arpt,CAVOK,[],VFR,,,,,,,,,,"Uralsk Arpt, ZA, KZ",KZ,Kazakhstan,-17.69936063515628
3934,UASK,2026-02-27 03:35:34.939000+00:00,1772163000,2026-02-27T03:30:00.000Z,-32.0,-35.0,20,2.0,1.3,1032.0,0,METAR,METAR UASK 270330Z 02001MPS 2100 BR BCFG SCT006 M32/M35 Q1032 TEMPO 0200 FG VV002 RMK QBB200 QFE749/0998,50.027,82.5,285,Ust-Kamenogorsk Arpt,SCT,"[{'cover': 'SCT', 'base': 600}]",IFR,,BR BCFG,,,,,,,,"Ust-Kamenogorsk Arpt, VO, KZ",KZ,Kazakhstan,-36.400434398453946
3017,UASP,2026-02-27 03:36:04.460000+00:00,1772163000,2026-02-27T03:30:00.000Z,-31.0,-34.0,0,0.0,3.73,1036.0,16,METAR,METAR UASP 270330Z 00000MPS 6000 NSC M31/M34 Q1036 NOSIG RMK QFE766/1021,52.202,77.078,122,Pavlodar Arpt,CLR,[],MVFR,,,,,,,,,,"Pavlodar Arpt, PA, KZ",KZ,Kazakhstan,-6.139833333333332
3018,UASS,2026-02-27 03:36:04.479000+00:00,1772163000,2026-02-27T03:30:00.000Z,-29.0,-32.0,280,8.0,6+,1034.0,16,METAR,METAR UASS 270330Z 28004MPS CAVOK M29/M32 Q1034 NOSIG RMK QFE757/1010,50.352,80.228,215,Semey Arpt,CAVOK,[],VFR,,,,,,,,,,"Semey Arpt, VO, KZ",KZ,Kazakhstan,-40.06701922783671
3248,UATE,2026-02-27 03:40:48.200000+00:00,1772163000,2026-02-27T03:30:00.000Z,-3.0,-6.0,80,16.0,6+,1023.0,16,METAR,METAR UATE 270330Z 08008MPS CAVOK M03/M06 Q1023 NOSIG RMK QFE765/1021,43.86,51.092,21,Aktau Arpt,CAVOK,[],VFR,,,,,,,,,,"Aktau Arpt, MA, KZ",KZ,Kazakhstan,-10.320511101093793
1492,UATG,2026-02-27 03:36:15.114000+00:00,1772163000,2026-02-27T03:30:00.000Z,-8.0,-14.0,110,14.0,6+,1032.0,16,METAR,METAR UATG 270330Z 11007MPS CAVOK M08/M14 Q1032 NOSIG RMK QFE776/1035,47.122,51.829,-23,Atyrau Arpt,CAVOK,[],VFR,,,,,,,,,,"Atyrau Arpt, AT, KZ",KZ,Kazakhstan,-16.306038460456637
195,UATT,2026-02-27 03:40:48.226000+00:00,1772163000,2026-02-27T03:30:00.000Z,-23.0,-26.0,VRB,2.0,6+,1037.0,16,METAR,METAR UATT 270330Z VRB01MPS CAVOK M23/M26 Q1037 NOSIG RMK QFE757/1010,50.248,57.203,217,Aktjubinsk/Atkobe Arpt,CAVOK,[],VFR,,,,,,,,,,"Aktjubinsk/Atkobe Arpt, AK, KZ",KZ,Kazakhstan,-26.4109607310343
2095,UAUU,2026-02-27 03:36:04.589000+00:00,1772163000,2026-02-27T03:30:00.000Z,-23.0,-26.0,150,6.0,6+,1038.0,16,METAR,METAR UAUU 270330Z 15003MPS 9999 -SN NSC M23/M26 Q1038 NOSIG RMK QFE762/1016,53.215,63.553,177,Kostanay Arpt,CLR,[],VFR,,-SN,,,,,,,,"Kostanay Arpt, KU, KZ",KZ,Kazakhstan,-31.262016493618432
1331,UBBB,2026-02-27 04:01:35.261000+00:00,1772164800,2026-02-27T04:00:00.000Z,6.0,4.0,50,14.0,6+,1017.0,16,METAR,METAR UBBB 270400Z 05014KT 9999 OVC011 06/04 Q1017 NOSIG,40.469,50.061,94,Baku/Aliyev Intl,OVC,"[{'cover': 'OVC', 'base': 1100}]",MVFR,,,,,,,,,,"Baku/Aliyev Intl, BA, AZ",AZ,Azerbaijan,1.7308637692074749
1327,UBBG,2026-02-27 04:00:54.554000+00:00,1772164800,2026-02-27T04:00:00.000Z,6.0,4.0,100,26.0,6+,1009.0,16,METAR,METAR UBBG 270400Z 10026G36KT 9999 OVC015 06/04 Q1009 NOSIG,40.738,46.318,333,Gyanca Intl,OVC,"[{'cover': 'OVC', 'base': 1500}]",MVFR,36.0,,,,,,,,,"Gyanca Intl, GY, AZ",AZ,Azerbaijan,0.1561087735862385
1968,UBBL,2026-02-27 03:57:53.744000+00:00,1772164800,2026-02-27T04:00:00.000Z,9.0,9.0,VRB,3.0,4.35,1016.0,16,METAR,METAR UBBL 270400Z VRB03KT 7000 -RA OVC013 09/09 Q1016 NOSIG,38.746,48.818,-11,Lenkoran Intl,OVC,"[{'cover': 'OVC', 'base': 1300}]",MVFR,,-RA,,,,,,,,"Lenkoran Intl, LA, AZ",AZ,Azerbaijan,8.462856464882849
2449,UBBN,2026-02-27 04:00:43.579000+00:00,1772164800,2026-02-27T04:00:00.000Z,8.0,1.0,150,16.0,6+,1003.0,16,METAR,METAR UBBN 270400Z 15016KT 9999 -SHRA SCT040CB OVC100 08/01 Q1003 NOSIG RMK QFE678,39.189,45.458,857,Nakhchivan Arpt,OVC,"[{'cover': 'SCT', 'base': 4000}, {'cover': 'OVC', 'base': 10000}]",VFR,,-SHRA,,,,,,,,"Nakhchivan Arpt, NX, AZ",AZ,Azerbaijan,4.009746757888853
1319,UBBQ,2026-02-27 04:00:43.503000+00:00,1772164800,2026-02-27T04:00:00.000Z,6.0,3.0,80,4.0,6+,1014.0,16,METAR,METAR UBBQ 270400Z 08004KT 9999 OVC040 06/03 Q1014 NOSIG RMK MT PT OBSC,40.809,47.729,339,Qabala Intl,OVC,"[{'cover': 'OVC', 'base': 4000}]",VFR,,,,,,,,,,"Qabala Intl, QA, AZ",AZ,Azerbaijan,4.477998467102664
4153,UBBY,2026-02-27 04:00:39.881000+00:00,1772164800,2026-02-27T04:00:00.000Z,6.0,5.0,140,8.0,2.49,1016.0,16,METAR,METAR UBBY 270400Z 14008KT 4000 -DZ BR BKN005 OVC015 06/05 Q1016 NOSIG RMK MT OBSC,41.561,46.667,383,Zakataly Intl,OVC,"[{'cover': 'BKN', 'base': 500}, {'cover': 'OVC', 'base': 1500}]",IFR,,-DZ BR,,,,,,,,"Zakataly Intl, BA, AZ",AZ,Azerbaijan,3.026257187968279
4160,UBEE,2026-02-27 03:59:08.587000+00:00,1772164800,2026-02-27T04:00:00.000Z,7.0,5.0,170,10.0,6+,1014.0,16,METAR,METAR UBEE 270400Z 17010KT 9999 OVC030 07/05 Q1014 NOSIG,40.632,47.142,14,Yevlakh Arpt,OVC,"[{'cover': 'OVC', 'base': 3000}]",MVFR,,,,,,,,,,"Yevlakh Arpt, YE, AZ",AZ,Azerbaijan,3.776985346294433
2372,UDSG,2026-02-27 03:35:31.169000+00:00,1772163000,2026-02-27T03:30:00.000Z,0.0,-2.0,70,23.0,6+,1004.0,16,METAR,METAR UDSG 270330Z 07023G39KT 9999 DRSN OVC033 00/M02 Q1004 NOSIG,40.75,43.859,1515,Gyumri/Shirak Intl,OVC,"[{'cover': 'OVC', 'base': 3300}]",VFR,39.0,DRSN,,,,,,,,"Gyumri/Shirak Intl, SH, AM",AM,Armenia,-7.580369225580485
1231,UDYZ,2026-02-27 03:35:31.094000+00:00,1772163000,2026-02-27T03:30:00.000Z,4.0,3.0,220,6.0,6+,1005.0,16,METAR,METAR UDYZ 270330Z 22006KT 9999 -SHRA FEW006 OVC038CB 04/03 Q1005 NOSIG,40.147,44.396,851,Yerevan/Zvartnots Intl,OVC,"[{'cover': 'FEW', 'base': 600}, {'cover': 'OVC', 'base': 3800}]",VFR,,-SHRA,,,,,,,,"Yerevan/Zvartnots Intl, ER, AM",AM,Armenia,1.2407711569005286
4100,UEEE,2026-02-27 03:34:47.428000+00:00,1772163000,2026-02-27T03:30:00.000Z,-16.0,-20.0,140,2.0,1.99,1025.0,16,METAR,METAR UEEE 270330Z 14001MPS 3200 -SHSN SCT008 OVC021CB M16/M20 Q1025 R23/490239 NOSIG RMK QFE760,62.093,129.774,106,Yakutsk Arpt,OVC,"[{'cover': 'SCT', 'base': 800}, {'cover': 'OVC', 'base': 2100}]",IFR,,-SHSN,,,,,,,,"Yakutsk Arpt, SA, RU",RU,Russian Federation,-18.641370100819028
3041,UERP,2026-02-27 03:36:16.502000+00:00,1772163000,2026-02-27T03:30:00.000Z,-24.0,-27.0,260,8.0,2.86,1026.0,16,METAR,METAR UERP 270330Z 26004MPS 4600 -SN SCT016 BKN100 M24/M27 Q1026 R36/450135 NOSIG RMK QFE725,66.4,112.03,514,Polyarny Arpt,BKN,"[{'cover': 'SCT', 'base': 1600}, {'cover': 'BKN', 'base': 10000}]",IFR,,-SN,,,,,,,,"Polyarny Arpt, SA, RU",RU,Russian Federation,-33.91083688272171
2364,UERR,2026-02-27 03:36:16.523000+00:00,1772163000,2026-02-27T03:30:00.000Z,-27.0,-30.0,0,0.0,6+,1027.0,16,METAR,METAR UERR 270330Z 00000MPS CAVOK M27/M30 Q1027 R25/490141 NOSIG RMK QFE739/0985,62.538,114.056,352,Mirny Arpt,CAVOK,[],VFR,,,,,,,,,,"Mirny Arpt, SA, RU",RU,Russian Federation,-3.6538333333333344
2106,UGKO,2026-02-27 03:34:50.821000+00:00,1772163000,2026-02-27T03:30:00.000Z,1.0,1.0,90,6.0,6+,1014.0,16,METAR,METAR UGKO 270330Z 09006KT 9999 -RA SCT011 BKN033 01/01 Q1014 NOSIG,42.177,42.483,44,Kutaisi/Kopitnarii Intl,BKN,"[{'cover': 'SCT', 'base': 1100}, {'cover': 'BKN', 'base': 3300}]",VFR,,-RA,,,,,,,,"Kutaisi/Kopitnarii Intl, IM, GE",GE,Georgia,-2.370649693157133
704,UGSB,2026-02-27 03:34:50.915000+00:00,1772163000,2026-02-27T03:30:00.000Z,5.0,3.0,170,6.0,6+,1015.0,16,METAR,METAR UGSB 270330Z 17006KT 140V200 9999 -RA OVC016 05/03 Q1015 NOSIG,41.61,41.6,32,Batumi Intl,OVC,"[{'cover': 'OVC', 'base': 1600}]",MVFR,,-RA,,,,,,,,"Batumi Intl, AJ, GE",GE,Georgia,2.4445781069197556
3740,UGTB,2026-02-27 03:34:50.985000+00:00,1772163000,2026-02-27T03:30:00.000Z,6.0,5.0,100,11.0,6+,1011.0,16,METAR,METAR UGTB 270330Z 10011KT 9999 -SHRA FEW009 BKN025CB OVC030 06/05 Q1011 NOSIG,41.669,44.955,468,Tbilisi Intl,OVC,"[{'cover': 'FEW', 'base': 900}, {'cover': 'BKN', 'base': 2500}, {'cover': 'OVC', 'base': 3000}]",MVFR,,-SHRA,,,,,,,,"Tbilisi Intl, TB, GE",GE,Georgia,2.303352311658205
460,UHBB,2026-02-27 03:34:34.076000+00:00,1772163000,2026-02-27T03:30:00.000Z,-17.0,-26.0,VRB,2.0,6+,1027.0,16,METAR,METAR UHBB 270330Z VRB01MPS CAVOK M17/M26 Q1027 R36/450256 NOSIG RMK QFE752/1003,50.425,127.412,185,Blagoveshchensk Arpt,CAVOK,[],VFR,,,,,,,,,,"Blagoveshchensk Arpt, AM, RU",RU,Russian Federation,-19.751311619421205
1908,UHHH,2026-02-27 03:35:23.929000+00:00,1772163000,2026-02-27T03:30:00.000Z,-8.0,-19.0,270,6.0,6+,1027.0,16,METAR,METAR UHHH 270330Z 27003MPS CAVOK M08/M19 Q1027 R23R/090060 NOSIG RMK QFE764/1019,48.527,135.184,74,Khabarovsk/Novy Arpt,CAVOK,[],VFR,,,,,,,,,,"Khabarovsk/Novy Arpt, KH, RU",RU,Russian Federation,-13.20491224333012
1230,UHMA,2026-02-27 03:35:23.964000+00:00,1772163000,2026-02-27T03:30:00.000Z,-25.0,-29.0,350,4.0,6+,1042.0,16,METAR,METAR UHMA 270330Z 35002MPS CAVOK M25/M29 Q1042 R02/910160 NOSIG RMK MID 35002MPS END R02/35002MPS QFE777/1037,64.733,177.739,53,Anadyr Arpt,CAVOK,[],VFR,,,,,,,,,,"Anadyr Arpt, CH, RU",RU,Russian Federation,-31.706113752372467
3022,UHMD,2026-02-27 03:36:15.148000+00:00,1772163000,2026-02-27T03:30:00.000Z,-22.0,-27.0,30,6.0,6+,1041.0,0,METAR,METAR UHMD 270330Z 03003MPS 9999 FEW023 BKN200 M22/M27 Q1041 RMK QBB700 QFE781/1041,64.378,-173.243,40,Providenja Bay Arpt,BKN,"[{'cover': 'FEW', 'base': 2300}, {'cover': 'BKN', 'base': 20000}]",VFR,,,,,,,,,,"Providenja Bay Arpt, CH, RU",RU,Russian Federation,-30.05820954359921
1504,UHMM,2026-02-27 03:35:23.992000+00:00,1772163000,2026-02-27T03:30:00.000Z,-8.0,-12.0,90,10.0,6+,1032.0,0,METAR,METAR UHMM 270330Z 09005MPS 9999 -SHSN BKN026CB M08/M12 Q1032 R10/490250 TEMPO 3100 -SHSN RMK MT OBSC QFE759 R28/14005MPS,59.911,150.725,175,Magadan/Sokol Arpt,BKN,"[{'cover': 'BKN', 'base': 2600}]",MVFR,,-SHSN,,,,,,,,"Magadan/Sokol Arpt, MA, RU",RU,Russian Federation,-15.024001954955104
3032,UHPP,2026-02-27 03:35:24.009000+00:00,1772163000,2026-02-27T03:30:00.000Z,1.0,-8.0,200,4.0,6+,1033.0,16,METAR,METAR UHPP 270330Z 20002MPS 170V240 9999 SCT033CB BKN063 01/M08 Q1033 R34L/CLRD60 NOSIG RMK MT OBSC QFE771/1028,53.175,158.444,33,Petropavlovsk-Kamchatsky Arpt,BKN,"[{'cover': 'SCT', 'base': 3300}, {'cover': 'BKN', 'base': 6300}]",VFR,,,,,,,,,,"Petropavlovsk-Kamchatsky Arpt, KA, RU",RU,Russian Federation,-1.3581486650707397
3950,UHSS,2026-02-27 03:35:24.031000+00:00,1772163000,2026-02-27T03:30:00.000Z,0.0,-8.0,360,4.0,6+,1025.0,16,METAR,METAR UHSS 270330Z 36002MPS 9999 NSC 00/M08 Q1025 R01/810365 NOSIG RMK QFE767/1023,46.887,142.719,14,Yuzhno-Sakhalinsk Arpt,CLR,[],VFR,,,,,,,,,,"Yuzhno-Sakhalinsk Arpt, SA, RU",RU,Russian Federation,-2.525378091505422
3964,UHWW,2026-02-27 03:40:48.247000+00:00,1772163000,2026-02-27T03:30:00.000Z,-1.0,-12.0,330,16.0,6+,1022.0,16,METAR,METAR UHWW 270330Z 33008MPS 9999 NSC M01/M12 Q1022 R07R/0///70 NOSIG RMK QFE766,43.399,132.146,11,Vladivostok Intl,CLR,[],VFR,,,,,,,,,,"Vladivostok Intl, PR, RU",RU,Russian Federation,-7.715009672187857
1737,UIAA,2026-02-27 03:36:15.174000+00:00,1772163000,2026-02-27T03:30:00.000Z,-25.0,-30.0,VRB,2.0,6+,1022.0,16,METAR,METAR UIAA 270330Z VRB01MPS 9999 NSC M25/M30 Q1022 R29/410160 NOSIG RMK QFE708/0944,52.026,113.31,650,Chita/Kadala Arpt,CLR,[],VFR,,,,,,,,,,"Chita/Kadala Arpt, CH, RU",RU,Russian Federation,-28.63084376823867
714,UIBB,2026-02-27 03:40:48.277000+00:00,1772163000,2026-02-27T03:30:00.000Z,-25.0,-28.0,130,4.0,4.35,1027.0,16,METAR,METAR UIBB 270330Z 13002MPS 7000 SCT024 M25/M28 Q1027 R12/490055 NOSIG RMK QFE727/0969,56.365,101.716,485,Bratsk Arpt,SCT,"[{'cover': 'SCT', 'base': 2400}]",MVFR,,,,,,,,,,"Bratsk Arpt, IR, RU",RU,Russian Federation,-31.706113752372467
1747,UIII,2026-02-27 03:36:15.243000+00:00,1772163000,2026-02-27T03:30:00.000Z,-23.0,-28.0,VRB,2.0,6+,1026.0,16,METAR,METAR UIII 270330Z VRB01MPS CAVOK M23/M28 Q1026 R12/810350 NOSIG RMK QFE727/0969,52.273,104.38,480,Irkutsk Intl,CAVOK,[],VFR,,,,,,,,,,"Irkutsk Intl, IR, RU",RU,Russian Federation,-26.4109607310343
3951,UIUU,2026-02-27 03:36:15.287000+00:00,1772163000,2026-02-27T03:30:00.000Z,-26.0,-30.0,VRB,2.0,1.86,1026.0,16,METAR,METAR UIUU 270330Z VRB01MPS 3000 FU NSC M26/M30 Q1026 R08/810555 NOSIG RMK QFE723/0965,51.808,107.443,508,Ulan-Ude Arpt,CLR,[],IFR,,FU,,,,,,,,"Ulan-Ude Arpt, BU, RU",RU,Russian Federation,-29.74078528684085
196,ULAA,2026-02-27 03:36:15.319000+00:00,1772163000,2026-02-27T03:30:00.000Z,-10.0,-11.0,140,12.0,6+,1022.0,16,METAR,METAR ULAA 270330Z 14006MPS 100V170 9999 -SN BKN016 M10/M11 Q1022 R08/490541 NOSIG RMK QFE765/1020,64.599,40.712,10,Arhangelsk/Talagi Arpt,BKN,"[{'cover': 'BKN', 'base': 1600}]",MVFR,,-SN,,,,,,,,"Arhangelsk/Talagi Arpt, AR, RU",RU,Russian Federation,-18.25432425544447
2098,ULLI,2026-02-27 03:36:14.806000+00:00,1772163000,2026-02-27T03:30:00.000Z,0.0,-1.0,220,14.0,6+,1012.0,16,METAR,METAR ULLI 270330Z 22007MPS 9999 OVC011 00/M01 Q1012 R28R/550540 NOSIG,59.798,30.267,25,St Petersburg/Pulkovo Arpt,OVC,"[{'cover': 'OVC', 'base': 1100}]",MVFR,,,,,,,,,,"St Petersburg/Pulkovo Arpt, LE, RU",RU,Russian Federation,-5.999237186362858
2583,ULMM,2026-02-27 03:36:14.845000+00:00,1772163000,2026-02-27T03:30:00.000Z,-14.0,-16.0,50,2.0,6+,1013.0,16,METAR,METAR ULMM 270330Z 05001MPS 9999 SCT033CB M14/M16 Q1013 R13/490040 NOSIG RMK QFE753,68.781,32.749,79,Murmansk Arpt,SCT,"[{'cover': 'SCT', 'base': 3300}]",VFR,,,,,,,,,,"Murmansk Arpt, MU, RU",RU,Russian Federation,-16.421487063614663
3023,ULOO,2026-02-27 03:36:16.551000+00:00,1772163000,2026-02-27T03:30:00.000Z,-1.0,-6.0,200,14.0,6+,1017.0,16,METAR,METAR ULOO 270330Z 20007MPS 9999 BKN021 M01/M06 Q1017 R19/450334 NOSIG RMK QFE759,57.79,28.397,46,Pskov Arpt,BKN,"[{'cover': 'BKN', 'base': 2100}]",MVFR,,,,,,,,,,"Pskov Arpt, PS, RU",RU,Russian Federation,-7.2875873456245825
1508,UMGG,2026-02-27 03:34:22.500000+00:00,1772163000,2026-02-27T03:30:00.000Z,-6.0,-7.0,190,4.0,3.73,1031.0,16,METAR,METAR UMGG 270330Z 19002MPS 6000 BKN025 M06/M07 Q1031 NOSIG,52.525,31.015,135,Gomel Arpt,BKN,"[{'cover': 'BKN', 'base': 2500}]",MVFR,,,,,,,,,,"Gomel Arpt, HO, BY",BY,Belarus,-9.52875465011351
1897,UMKK,2026-02-27 03:40:48.309000+00:00,1772163000,2026-02-27T03:30:00.000Z,3.0,-1.0,200,6.0,6+,1019.0,16,METAR,METAR UMKK 270330Z 20003MPS CAVOK 03/M01 Q1019 R24/19//95 NOSIG RMK QFE763/1017,54.885,20.583,6,Kaliningrad/Khrabrovo Arpt,CAVOK,[],VFR,,,,,,,,,,"Kaliningrad/Khrabrovo Arpt, KG, RU",RU,Russian Federation,0.03696420688130549
2590,UMMS,2026-02-27 03:34:22.786000+00:00,1772163000,2026-02-27T03:30:00.000Z,-6.0,-7.0,190,8.0,5.59,1028.0,16,METAR,METAR UMMS 270330Z 19004MPS 9000 NSC M06/M07 Q1028 NOSIG,53.883,28.031,196,Minsk Arpt,CLR,[],VFR,,,,,,,,,,"Minsk Arpt, MI, BY",BY,Belarus,-11.748580440307714
197,UNAA,2026-02-27 03:36:15.348000+00:00,1772163000,2026-02-27T03:30:00.000Z,-24.0,-27.0,0,0.0,2.36,1030.0,16,METAR,METAR UNAA 270330Z 00000MPS 3800 FU NSC M24/M27 Q1030 R02/810165 NOSIG RMK QFE750,53.74,91.385,249,Abakan Intl,CLR,[],IFR,,FU,,,,,,,,"Abakan Intl, KK, RU",RU,Russian Federation,-1.7893333333333337
441,UNBB,2026-02-27 03:36:16.622000+00:00,1772163000,2026-02-27T03:30:00.000Z,-28.0,-33.0,290,8.0,6+,1031.0,16,METAR,METAR UNBB 270330Z 29004MPS CAVOK M28/M33 Q1031 R24/810255 NOSIG RMK QFE751,53.362,83.54,249,Barnaul Arpt,CAVOK,[],VFR,,,,,,,,,,"Barnaul Arpt, AL, RU",RU,Russian Federation,-38.8357827588137
1898,UNEE,2026-02-27 03:36:16.655000+00:00,1772163000,2026-02-27T03:30:00.000Z,-30.0,-33.0,120,2.0,6+,1030.0,16,METAR,METAR UNEE 270330Z 12001MPS CAVOK M30/M33 Q1030 R23/810250 NOSIG RMK QFE749,55.27,86.107,261,Kemerovo Intl,CAVOK,[],VFR,,,,,,,,,,"Kemerovo Intl, KE, RU",RU,Russian Federation,-34.18055136124958
1886,UNKL,2026-02-27 03:41:39.179000+00:00,1772163600,2026-02-27T03:40:00.000Z,-24.0,-29.0,170,2.0,6+,1030.0,16,SPECI,SPECI UNKL 270340Z 17001MPS CAVOK M24/M29 Q1030 R29/65D NOSIG RMK QFE747,56.173,92.493,278,Krasnoyarsk Arpt,CAVOK,[],VFR,,,,,,,,,,"Krasnoyarsk Arpt, KY, RU",RU,Russian Federation,-27.52090224963649
2770,UNNT,2026-02-27 03:36:15.379000+00:00,1772163000,2026-02-27T03:30:00.000Z,-30.0,-33.0,150,6.0,4.35,1033.0,16,METAR,METAR UNNT 270330Z 15003MPS 7000 NSC M30/M33 Q1033 R25/920260 R16/////// NOSIG RMK QFE765/1020,55.013,82.651,106,Novosibirsk/Tolmachevo Arpt,CLR,[],MVFR,,,,,,,,,,"Novosibirsk/Tolmachevo Arpt, NV, RU",RU,Russian Federation,-39.688665143752985
2784,UNOO,2026-02-27 03:36:16.706000+00:00,1772163000,2026-02-27T03:30:00.000Z,-27.0,-31.0,280,8.0,6+,1036.0,16,METAR,METAR UNOO 270330Z 28004MPS CAVOK M27/M31 Q1036 R25/820550 NOSIG RMK QFE769,54.964,73.32,85,Omsk Arpt,CAVOK,[],VFR,,,,,,,,,,"Omsk Arpt, OM, RU",RU,Russian Federation,-37.604546289790704
3760,UNTT,2026-02-27 03:34:37.189000+00:00,1772163000,2026-02-27T03:30:00.000Z,-28.0,-32.0,220,4.0,6+,1030.0,16,METAR,METAR UNTT 270330Z 22002MPS CAVOK M28/M32 Q1030 R21/820145 NOSIG RMK QFE757,56.381,85.207,179,Tomsk/Bogashevo Arpt,CAVOK,[],VFR,,,,,,,,,,"Tomsk/Bogashevo Arpt, TO, RU",RU,Russian Federation,-35.2078020316765
2785,UNWW,2026-02-27 03:36:16.727000+00:00,1772163000,2026-02-27T03:30:00.000Z,-29.0,-33.0,110,4.0,3.11,1030.0,16,METAR,METAR UNWW 270330Z 11002MPS 5000 FU NSC M29/M33 Q1030 R19/810247 NOSIG RMK QFE745,53.811,86.878,307,Novokuznetsk Arpt,CLR,[],MVFR,,FU,,,,,,,,"Novokuznetsk Arpt, KE, RU",RU,Russian Federation,-36.37503145811119
2781,UOOO,2026-02-27 03:36:14.875000+00:00,1772163000,2026-02-27T03:30:00.000Z,-14.0,-22.0,50,6.0,6+,1040.0,16,METAR,METAR UOOO 270330Z 05003MPS CAVOK M14/M22 Q1040 R01/39//46 NOSIG RMK QFE765/1020,69.308,87.322,177,Norilsk/Alykel Arpt,CAVOK,[],VFR,,,,,,,,,,"Norilsk/Alykel Arpt, TA, RU",RU,Russian Federation,-20.42775394344545
198,URKA,2026-02-27 03:36:16.234000+00:00,1772163000,2026-02-27T03:30:00.000Z,1.0,-1.0,60,21.0,6+,1019.0,0,METAR,METAR URKA 270330Z 06011MPS 9999 BKN009 01/M01 Q1019 R03/290155 TEMPO 04010G17MPS RMK QFE761/1014,44.995,37.341,41,Anapa Arpt,BKN,"[{'cover': 'BKN', 'base': 900}]",IFR,,,,,,,,,,"Anapa Arpt, KD, RU",RU,Russian Federation,-5.948105397829552
2102,URKK,2026-02-27 03:36:16.269000+00:00,1772163000,2026-02-27T03:30:00.000Z,0.0,-2.0,50,14.0,6+,1020.0,0,METAR,METAR URKK 270330Z 05007MPS 9999 BKN029 00/M02 Q1020 R05R/CLRD70 TEMPO 2000 SHSN BKN005 BKN016CB RMK QFE762,45.033,39.15,29,Krasnodar Arpt,BKN,"[{'cover': 'BKN', 'base': 2900}]",MVFR,,,,,,,,,,"Krasnodar Arpt, KD, RU",RU,Russian Federation,-5.999237186362858
2365,URML,2026-02-27 03:36:16.759000+00:00,1772163000,2026-02-27T03:30:00.000Z,5.0,4.0,140,12.0,3.73,1020.0,0,METAR,METAR URML 270330Z 14006MPS 6000 -DZ OVC003 05/04 Q1020 R14/290360 TEMPO 1000 DZ BR OVC002 RMK QBB110 MT OBSC QFE765/1020,42.817,47.652,4,Makhachkala/Uytash Arpt,OVC,"[{'cover': 'OVC', 'base': 300}]",LIFR,,-DZ,,,,,,,,"Makhachkala/Uytash Arpt, DA, RU",RU,Russian Federation,0.8272367295536122
2557,URMM,2026-02-27 03:53:03.208000+00:00,1772164080,2026-02-27T03:48:00.000Z,-2.0,-2.0,60,4.0,2.98,1020.0,16,SPECI,SPECI URMM 270348Z 06002MPS 030V110 4800 -SN SCT004 OVC030 M02/M02 Q1020 R11/620141 NOSIG RMK MT OBSC OBST OBSC QFE736/0982,44.225,43.082,318,Mineralyne Vody Arpt,OVC,"[{'cover': 'SCT', 'base': 400}, {'cover': 'OVC', 'base': 3000}]",IFR,,-SN,,,,,,,,"Mineralyne Vody Arpt, ST, RU",RU,Russian Federation,-4.8598369443747815
2783,URMO,2026-02-27 03:34:32.937000+00:00,1772163000,2026-02-27T03:30:00.000Z,-1.0,-1.0,270,6.0,2.17,1017.0,16,METAR,METAR URMO 270330Z 27003MPS 3500 -FZDZ BR OVC003 M01/M01 Q1017 R09/290250 NOSIG RMK QBB090 MT OBSC OBST OBSC QFE719/0959,43.204,44.608,505,Vladikavkaz Arpt,OVC,"[{'cover': 'OVC', 'base': 300}]",LIFR,,-FZDZ BR,,,,,,,,"Vladikavkaz Arpt, SE, RU",RU,Russian Federation,-4.778263593195575
3346,URMT,2026-02-27 04:01:03.651000+00:00,1772164680,2026-02-27T03:58:00.000Z,-3.0,-3.0,60,10.0,1.12,1019.0,16,SPECI,SPECI URMT 270358Z 06005MPS 1800 R07/1800D BR OVC003 M03/M03 Q1019 R07/190060 NOSIG RMK QBB090 OBST OBSC QFE724,45.108,42.1,448,Stavropol/Shpakovskoye Intl,OVC,"[{'cover': 'OVC', 'base': 300}]",LIFR,,BR,,,,,,,,"Stavropol/Shpakovskoye Intl, ST, RU",RU,Russian Federation,-8.757006187871927
3274,URRP,2026-02-27 03:34:33.251000+00:00,1772163000,2026-02-27T03:30:00.000Z,-4.0,-5.0,60,12.0,6+,1026.0,16,METAR,METAR URRP 270330Z 06006MPS CAVOK M04/M05 Q1026 R05/CLRD70 NOSIG RMK QFE765/1020,47.494,39.925,73,Platov Intl,CAVOK,[],VFR,,,,,,,,,,"Platov Intl, RO, RU",RU,Russian Federation,-10.621699861445233
199,URSS,2026-02-27 03:40:48.372000+00:00,1772163000,2026-02-27T03:30:00.000Z,5.0,4.0,60,4.0,6+,1013.0,16,METAR,METAR URSS 270330Z 06002MPS 9999 SCT021 OVC110 05/04 Q1013 WS ALL RWY R02/190065 R06/190065 NOSIG RMK R06/11002MPS MT OBSC QFE758,43.438,39.926,4,Sochi Intl,OVC,"[{'cover': 'SCT', 'base': 2100}, {'cover': 'OVC', 'base': 11000}]",VFR,,,,,,,,,,"Sochi Intl, KD, RU",RU,Russian Federation,3.310769040667986
214,URWA,2026-02-27 03:36:16.373000+00:00,1772163000,2026-02-27T03:30:00.000Z,-3.0,-5.0,90,14.0,6+,1027.0,16,METAR,METAR URWA 270330Z 09007MPS CAVOK M03/M05 Q1027 R09/010070 NOSIG RMK QFE772/1030,46.286,47.995,-19,Astrakhan Arpt,CAVOK,[],VFR,,,,,,,,,,"Astrakhan Arpt, AS, RU",RU,Russian Federation,-9.864287664148025
1225,URWI,2026-02-27 03:36:16.395000+00:00,1772163000,2026-02-27T03:30:00.000Z,-3.0,-4.0,90,14.0,6+,1024.0,2,METAR,METAR URWI 270330Z AUTO 09007MPS 9999 // ///007/// M03/M04 Q1024,46.374,44.331,145,Elista Arpt,,,,,,,,,,,,,"Elista Arpt, KL, RU",RU,Russian Federation,-9.864287664148025
3941,URWW,2026-02-27 03:36:16.429000+00:00,1772163000,2026-02-27T03:30:00.000Z,-11.0,-13.0,80,16.0,6+,1029.0,16,METAR,METAR URWW 270330Z 08008MPS CAVOK M11/M13 Q1029 R05/810155 NOSIG,48.788,44.336,131,Volgograd Intl,CAVOK,[],VFR,,,,,,,,,,"Volgograd Intl, VG, RU",RU,Russian Federation,-20.742516816717536
715,USCC,2026-02-27 03:36:16.084000+00:00,1772163000,2026-02-27T03:30:00.000Z,-20.0,-22.0,130,8.0,6+,1036.0,16,METAR,METAR USCC 270330Z 13004MPS 9999 SCT046CB M20/M22 Q1036 R09/490250 NOSIG RMK QFE756,55.306,61.503,227,Cheljabinsk Arpt,SCT,"[{'cover': 'SCT', 'base': 4600}]",VFR,,,,,,,,,,"Cheljabinsk Arpt, CH, RU",RU,Russian Federation,-28.985891006629704
2586,USCM,2026-02-27 03:34:47.806000+00:00,1772163000,2026-02-27T03:30:00.000Z,-16.0,-20.0,180,6.0,6+,1032.0,16,METAR,METAR USCM 270330Z 18003MPS 9999 BKN040 M16/M20 Q1032 R18/090060 NOSIG RMK QFE736,53.393,58.756,425,Magnitogorsk Intl,BKN,"[{'cover': 'BKN', 'base': 4000}]",VFR,,,,,,,,,,"Magnitogorsk Intl, BA, RU",RU,Russian Federation,-22.835367843483894
3261,USDA,2026-02-27 03:34:47.538000+00:00,1772163000,2026-02-27T03:30:00.000Z,-25.0,-28.0,50,10.0,6+,1045.0,16,METAR,METAR USDA 270330Z 05005MPS CAVOK M25/M28 Q1045 R04/390134 NOSIG RMK QFE782/1043,71.216,72.05,5,Sabette Arpt,CAVOK,[],VFR,,,,,,,,,,"Sabette Arpt, YA, RU",RU,Russian Federation,-36.33178756303791
3358,USDD,2026-02-27 03:56:56.645000+00:00,1772164560,2026-02-27T03:56:00.000Z,-26.0,-30.0,0,0.0,6+,1041.0,16,SPECI,SPECI USDD 270356Z 00000MPS CAVOK M26/M30 Q1041 R22/420260 NOSIG RMK QFE776/1035,66.591,66.611,53,Salekhard Arpt,CAVOK,[],VFR,,,,,,,,,,"Salekhard Arpt, YA, RU",RU,Russian Federation,-3.032333333333332
1760,USHH,2026-02-27 03:34:37.572000+00:00,1772163000,2026-02-27T03:30:00.000Z,-25.0,-30.0,300,4.0,6+,1037.0,16,METAR,METAR USHH 270330Z 30002MPS 240V340 9999 FEW048 M25/M30 Q1037 R24/010060 NOSIG,61.029,69.086,46,Khanty-Mansijsk Arpt,FEW,"[{'cover': 'FEW', 'base': 4800}]",VFR,,,,,,,,,,"Khanty-Mansijsk Arpt, KH, RU",RU,Russian Federation,-31.706113752372467
2771,USNN,2026-02-27 03:36:16.129000+00:00,1772163000,2026-02-27T03:30:00.000Z,-27.0,-30.0,10,6.0,6+,1032.0,16,METAR,METAR USNN 270330Z 01003MPS 9999 SCT022 M27/M30 Q1032 R03/490348 NOSIG RMK QFE770,60.959,76.497,52,Nizhnevartovsk Arpt,SCT,"[{'cover': 'SCT', 'base': 2200}]",VFR,,,,,,,,,,"Nizhnevartovsk Arpt, KH, RU",RU,Russian Federation,-36.077244293695315
3019,USPP,2026-02-27 03:36:16.134000+00:00,1772163000,2026-02-27T03:30:00.000Z,-14.0,-17.0,100,8.0,3.11,1033.0,16,METAR,METAR USPP 270330Z 10004MPS 5000 -SN BKN023 M14/M17 Q1033 RESN R03/490540 NOSIG RMK QFE764,57.914,56.021,120,Perm/Savino Arpt,BKN,"[{'cover': 'BKN', 'base': 2300}]",MVFR,,-SN,,,,,,,,"Perm/Savino Arpt, PE, RU",RU,Russian Federation,-21.598472192491712
3541,USRR,2026-02-27 03:36:16.171000+00:00,1772163000,2026-02-27T03:30:00.000Z,-26.0,-30.0,360,8.0,6+,1034.0,0,METAR,METAR USRR 270330Z 36004MPS 9999 FEW041 M26/M30 Q1034 R25/450540 RMK QFE770,61.342,73.422,52,Surgut Intl,FEW,"[{'cover': 'FEW', 'base': 4100}]",VFR,,,,,,,,,,"Surgut Intl, KH, RU",RU,Russian Federation,-36.3733098207677
3480,USSS,2026-02-27 03:53:03.183000+00:00,1772164020,2026-02-27T03:47:00.000Z,-19.0,-21.0,110,6.0,1.93,1036.0,16,SPECI,SPECI USSS 270347Z 11003MPS 3100 -SHSN BKN020CB OVC049 M19/M21 Q1036 R08R/490337 NOSIG RMK QFE756/1009,56.745,60.792,222,Yekaterinburg/Koltsovo Arpt,OVC,"[{'cover': 'BKN', 'base': 2000}, {'cover': 'OVC', 'base': 4900}]",IFR,,-SHSN,,,,,,,,"Yekaterinburg/Koltsovo Arpt, SV, RU",RU,Russian Federation,-26.446788693541553
3732,USTR,2026-02-27 03:36:16.209000+00:00,1772163000,2026-02-27T03:30:00.000Z,-29.0,-32.0,0,0.0,6+,1040.0,16,METAR,METAR USTR 270330Z 00000MPS CAVOK M29/M32 Q1040 R30/450350 R03/450350 NOSIG,57.19,65.324,93,Tyumen/Roschino Intl,CAVOK,[],VFR,,,,,,,,,,"Tyumen/Roschino Intl, TY, RU",RU,Russian Federation,-4.896833333333335
1223,UTDD,2026-02-27 03:40:48.404000+00:00,1772163000,2026-02-27T03:30:00.000Z,6.0,4.0,0,0.0,1.06,1017.0,16,METAR,METAR UTDD 270330Z 00000MPS 1700 1300N BR FU NSC 06/04 Q1017 R09/D NOSIG RMK QFE694/0926,38.543,68.825,785,Dushanbe Arpt,CLR,[],IFR,,FU BR,,,,,,,,"Dushanbe Arpt, DU, TJ",TJ,Tajikistan,16.855666666666668
3746,UTDK,2026-02-27 03:35:32+00:00,1772163000,2026-02-27T03:30:00.000Z,9.0,6.0,10,4.0,6+,1016.0,0,METAR,METAR UTDK 270330Z 01002MPS 9999 NSC 09/06 Q1016 R01/09//70 RMK QFE705/0939,37.988,69.805,675,Kulob Arpt,CLR,[],VFR,,,,,,,,,,"Kulob Arpt, KT, TJ",TJ,Tajikistan,7.979686746406713
2100,UTDL,2026-02-27 03:36:15.490000+00:00,1772163000,2026-02-27T03:30:00.000Z,8.0,4.0,70,6.0,6+,1018.0,16,METAR,METAR UTDL 270330Z 07003MPS 9999 SCT067CB OVC080 08/04 Q1018 R08/CLRD70 NOSIG RMK QFE724/0966,40.215,69.695,436,Khujand Arpt,OVC,"[{'cover': 'SCT', 'base': 6700}, {'cover': 'OVC', 'base': 8000}]",VFR,,,,,,,,,,"Khujand Arpt, GB, TJ",TJ,Tajikistan,6.0559989569774135
2111,UTDT,2026-02-27 03:35:32.148000+00:00,1772163000,2026-02-27T03:30:00.000Z,9.0,9.0,VRB,2.0,3.11,1015.0,0,METAR,METAR UTDT 270330Z VRB01MPS 5000 BR FEW100 09/09 Q1015 R35/CLRD70 RMK QFE722/0962,37.866,68.865,443,Qurghonteppa Intl,FEW,"[{'cover': 'FEW', 'base': 10000}]",MVFR,,BR,,,,,,,,"Qurghonteppa Intl, KT, TJ",TJ,Tajikistan,9.10716786423554
1899,UUBC,2026-02-27 03:34:45.633000+00:00,1772163000,2026-02-27T03:30:00.000Z,-5.0,-6.0,220,4.0,5.59,1030.0,16,METAR,METAR UUBC 270330Z 22002MPS 180V240 9000 OVC004 M05/M06 Q1030 R31/810250 NOSIG RMK QFE756/1008,54.552,36.37,198,Kaluga Intl,OVC,"[{'cover': 'OVC', 'base': 400}]",LIFR,,,,,,,,,,"Kaluga Intl, KL, RU",RU,Russian Federation,-8.361525223678829
4216,UUBW,2026-02-27 03:34:29.363000+00:00,1772163000,2026-02-27T03:30:00.000Z,-5.0,-6.0,200,6.0,5.59,1030.0,16,METAR,METAR UUBW 270330Z 20003MPS 9000 OVC007 M05/M06 Q1030 R30/820240 NOSIG RMK QFE762,55.553,38.15,111,Moscow/Ramenskoye Arpt,OVC,"[{'cover': 'OVC', 'base': 700}]",IFR,,,,,,,,,,"Moscow/Ramenskoye Arpt, MO, RU",RU,Russian Federation,-9.59349139327246
921,UUDD,2026-02-27 03:40:48.434000+00:00,1772163000,2026-02-27T03:30:00.000Z,-5.0,-6.0,230,10.0,4.97,1029.0,16,METAR,METAR UUDD 270330Z 23005MPS 8000 OVC006 M05/M06 Q1029 R13R/520242 NOSIG,55.409,37.906,165,Moscow/Domodedovo Arpt,OVC,"[{'cover': 'OVC', 'base': 600}]",IFR,,,,,,,,,,"Moscow/Domodedovo Arpt, MO, RU",RU,Russian Federation,-11.2638044947052
1741,UUDL,2026-02-27 03:34:41.843000+00:00,1772163000,2026-02-27T03:30:00.000Z,-7.0,-8.0,160,6.0,6+,1028.0,16,METAR,METAR UUDL 270330Z 16003MPS 9999 OVC013 M07/M08 Q1028 R23/450152 NOSIG RMK QFE763,57.561,40.157,88,Yaroslav/Tunoshna Arpt,OVC,"[{'cover': 'OVC', 'base': 1300}]",MVFR,,,,,,,,,,"Yaroslav/Tunoshna Arpt, YA, RU",RU,Russian Federation,-12.001105293310903
3524,UUEE,2026-02-27 03:40:48.484000+00:00,1772163000,2026-02-27T03:30:00.000Z,-6.0,-7.0,230,10.0,3.73,1029.0,16,METAR,METAR UUEE 270330Z 23005MPS 6000 OVC004 M06/M07 Q1029 R24L/420330 R24C/420330 NOSIG,55.973,37.415,186,Moscow/Sheremetyevo Intl,OVC,"[{'cover': 'OVC', 'base': 400}]",LIFR,,,,,,,,,,"Moscow/Sheremetyevo Intl, MO, RU",RU,Russian Federation,-12.517203648121834
1227,UUOB,2026-02-27 03:34:45.736000+00:00,1772163000,2026-02-27T03:30:00.000Z,0.0,0.0,50,4.0,0.12,1030.0,16,METAR,METAR UUOB 270330Z 05002MPS 0200 0150W R29/0750N FZFG VV002 M00/M00 Q1030 R29/390140 NOSIG RMK QBB070,50.644,36.59,218,Belgorod Intl,OVX,"[{'cover': 'OVX', 'base': 200}]",LIFR,,FZFG,,,,,,,2.0,"Belgorod Intl, BE, RU",RU,Russian Federation,-2.525378091505422
3946,UUOK,2026-02-27 03:34:45.898000+00:00,1772163000,2026-02-27T03:30:00.000Z,-3.0,-4.0,0,0.0,4.97,1030.0,16,METAR,METAR UUOK 270330Z 00000MPS 8000 BKN007 BKN039 M03/M04 Q1030 R12/////// NOSIG RMK QBB220 QFE755/1006,51.751,36.297,203,Kursk/Vostochmy Arpt,BKN,"[{'cover': 'BKN', 'base': 700}, {'cover': 'BKN', 'base': 3900}]",IFR,,,,,,,,,,"Kursk/Vostochmy Arpt, KR, RU",RU,Russian Federation,11.262166666666667
2376,UUOL,2026-02-27 03:34:29.555000+00:00,1772163000,2026-02-27T03:30:00.000Z,-2.0,-2.0,50,2.0,1.8,1031.0,16,METAR,METAR UUOL 270330Z 05001MPS 2900 BR OVC002 M02/M02 Q1031 R33/////// NOSIG RMK QBB060,52.702,39.534,176,Lipetsk Arpt,OVC,"[{'cover': 'OVC', 'base': 200}]",LIFR,,BR,,,,,,,,"Lipetsk Arpt, LI, RU",RU,Russian Federation,-3.1021888403884685
3937,UUOO,2026-02-27 03:36:15.794000+00:00,1772163000,2026-02-27T03:30:00.000Z,-1.0,-1.0,110,2.0,3.73,1031.0,16,METAR,METAR UUOO 270330Z 11001MPS 6000 OVC004 M01/M01 Q1031 R12/590240 NOSIG RMK QFE759,51.814,39.228,154,Voronez Intl,OVC,"[{'cover': 'OVC', 'base': 400}]",LIFR,,,,,,,,,,"Voronez Intl, VO, RU",RU,Russian Federation,-1.9922473217862882
3939,UUWW,2026-02-27 03:40:48.521000+00:00,1772163000,2026-02-27T03:30:00.000Z,-6.0,-7.0,220,10.0,2.86,1029.0,16,METAR,METAR UUWW 270330Z 22005MPS 4600 BR OVC004 M06/M07 Q1029 R24/510342 NOSIG,55.592,37.261,195,Moscow/Vnukovo Arpt,OVC,"[{'cover': 'OVC', 'base': 400}]",LIFR,,BR,,,,,,,,"Moscow/Vnukovo Arpt, MO, RU",RU,Russian Federation,-12.517203648121834
3249,UUYY,2026-02-27 03:37:20.585000+00:00,1772163000,2026-02-27T03:30:00.000Z,-25.0,-27.0,20,2.0,6+,1033.0,16,METAR,METAR UUYY 270330Z 02001MPS CAVOK M25/M27 Q1033 R36/450342 NOSIG RMK QFE766/1021,61.647,50.845,107,Syktyvkar Arpt,CAVOK,[],VFR,,,,,,,,,,"Syktyvkar Arpt, KO, RU",RU,Russian Federation,-28.63084376823867
1497,UWGG,2026-02-27 03:40:48.561000+00:00,1772163000,2026-02-27T03:30:00.000Z,-10.0,-11.0,0,0.0,5.59,1031.0,16,METAR,METAR UWGG 270330Z 00000MPS 9000 BKN013 M10/M11 Q1031 R36R/410155 NOSIG,56.225,43.786,73,Nizhny Novgorod Intl,BKN,"[{'cover': 'BKN', 'base': 1300}]",MVFR,,,,,,,,,,"Nizhny Novgorod Intl, NI, RU",RU,Russian Federation,6.911666666666668
2101,UWKD,2026-02-27 03:36:15.942000+00:00,1772163000,2026-02-27T03:30:00.000Z,-8.0,-9.0,80,2.0,3.11,1031.0,16,METAR,METAR UWKD 270330Z 08001MPS 5000 BR BKN006 M08/M09 Q1031 R11/450340 NOSIG RMK QFE763/1018,55.61,49.275,114,Kazan Intl,BKN,"[{'cover': 'BKN', 'base': 600}]",IFR,,BR,,,,,,,,"Kazan Intl, TA, RU",RU,Russian Federation,-9.761837952001564
2584,UWKE,2026-02-27 03:36:15.969000+00:00,1772163000,2026-02-27T03:30:00.000Z,-9.0,-10.0,220,6.0,3.73,1031.0,16,METAR,METAR UWKE 270330Z 22003MPS 6000 -SN OVC017 M09/M10 Q1031 R21/450539 NOSIG RMK QFE756/1009,55.566,52.1,193,Begishevo Arpt,OVC,"[{'cover': 'OVC', 'base': 1700}]",MVFR,,-SN,,,,,,,,"Begishevo Arpt, TA, RU",RU,Russian Federation,-14.40871919334934
936,UWKS,2026-02-27 03:34:42.850000+00:00,1772163000,2026-02-27T03:30:00.000Z,-7.0,-8.0,70,2.0,3.11,1031.0,16,METAR,METAR UWKS 270330Z 07001MPS 5000 BR OVC005 M07/M08 Q1031 R06/490335 NOSIG RMK QFE758,56.09,47.347,165,Cheboksary Arpt,OVC,"[{'cover': 'OVC', 'base': 500}]",IFR,,BR,,,,,,,,"Cheboksary Arpt, CU, RU",RU,Russian Federation,-8.651896433399381
3947,UWLL,2026-02-27 03:36:16.790000+00:00,1772163000,2026-02-27T03:30:00.000Z,-8.0,-12.0,190,8.0,6+,1032.0,16,METAR,METAR UWLL 270330Z 19004MPS 9999 OVC020 M08/M12 Q1032 R20/820242 NOSIG RMK QFE763/1018,54.274,48.236,119,Ulyanovsk/Barataevka,OVC,"[{'cover': 'OVC', 'base': 2000}]",MVFR,,,,,,,,,,"Ulyanovsk/Barataevka, UL, RU",RU,Russian Federation,-14.211053378353714
3260,UWOO,2026-02-27 03:36:15.995000+00:00,1772163000,2026-02-27T03:30:00.000Z,-19.0,-22.0,100,6.0,6+,1037.0,16,METAR,METAR UWOO 270330Z 10003MPS CAVOK M19/M22 Q1037 R08/820245 NOSIG RMK QFE767/1023,51.795,55.457,90,Orenburg Arpt,CAVOK,[],VFR,,,,,,,,,,"Orenburg Arpt, OR, RU",RU,Russian Federation,-26.446788693541553
3532,UWPS,2026-02-27 03:34:46.267000+00:00,1772163000,2026-02-27T03:30:00.000Z,-4.0,-5.0,210,4.0,6+,1031.0,16,METAR,METAR UWPS 270330Z 21002MPS 9999 BKN016 M04/M05 Q1031 R20/////// NOSIG RMK QFE755,54.116,45.203,206,Saransk Arpt,BKN,"[{'cover': 'BKN', 'base': 1600}]",MVFR,,,,,,,,,,"Saransk Arpt, MR, RU",RU,Russian Federation,-7.194295797244146
1496,UWSG,2026-02-27 03:34:43.152000+00:00,1772163000,2026-02-27T03:30:00.000Z,-17.0,-19.0,310,4.0,5.59,1034.0,16,METAR,METAR UWSG 270330Z 31002MPS 9000 NSC M17/M19 Q1034 R26/810160 NOSIG RMK QFE773/1030,51.713,46.171,31,Saratov/Gagarin Arpt,CLR,[],VFR,,,,,,,,,,"Saratov/Gagarin Arpt, SA, RU",RU,Russian Federation,-22.368278340895007
3940,UWUU,2026-02-27 03:36:16.022000+00:00,1772163000,2026-02-27T03:30:00.000Z,-10.0,-15.0,190,6.0,6+,1034.0,16,METAR,METAR UWUU 270330Z 19003MPS 160V220 CAVOK M10/M15 Q1034 R14R/811050 NOSIG,54.57,55.87,137,Ufa Intl,CAVOK,[],VFR,,,,,,,,,,"Ufa Intl, BA, RU",RU,Russian Federation,-15.612526143368562
2105,UWWW,2026-02-27 03:36:16.057000+00:00,1772163000,2026-02-27T03:30:00.000Z,-13.0,-16.0,0,0.0,6+,1032.0,16,METAR,METAR UWWW 270330Z 00000MPS CAVOK M13/M16 Q1032 R15/810155 NOSIG RMK QFE763/1017,53.509,50.163,124,Samara/Kurumoch Intl,CAVOK,[],VFR,,,,,,,,,,"Samara/Kurumoch Intl, SA, RU",RU,Russian Federation,5.047166666666669
15,VAAH,2026-02-27 04:02:41.951000+00:00,1772164800,2026-02-27T04:00:00.000Z,22.0,15.0,180,7.0,2.17,1011.0,16,METAR,METAR VAAH 270400Z 18007KT 3500 HZ NSC 22/15 Q1011 NOSIG,23.077,72.635,52,Ahmadabad/Patel Intl,CLR,[],IFR,,HZ,,,,,,,,"Ahmadabad/Patel Intl, GJ, IN",IN,India,22.812150658061498
1913,VAAU,2026-02-27 03:32:28.995000+00:00,1772163000,2026-02-27T03:30:00.000Z,23.0,14.0,0,0.0,1.55,1013.0,16,METAR,METAR VAAU 270330Z 00000KT 2500 HZ NSC 23/14 Q1013 NOSIG,19.863,75.398,578,Aurangabad Arpt,CLR,[],IFR,,HZ,,,,,,,,"Aurangabad Arpt, MM, IN",IN,India,27.42116666666667
462,VABB,2026-02-27 03:32:31.522000+00:00,1772163000,2026-02-27T03:30:00.000Z,26.0,18.0,50,4.0,1.55,1013.0,16,METAR,METAR VABB 270330Z 05004KT 2500 HZ FEW020 26/18 Q1013 NOSIG,19.1,72.859,14,Mumbai/Shivaji Intl,FEW,"[{'cover': 'FEW', 'base': 2000}]",IFR,,HZ,,,,,,,,"Mumbai/Shivaji Intl, MM, IN",IN,India,27.8225869957963
444,VABO,2026-02-27 03:34:59.072000+00:00,1772163000,2026-02-27T03:30:00.000Z,24.0,18.0,220,8.0,2.49,1011.0,0,METAR,METAR VABO 270330Z 22008KT 4000 HZ NSC 24/18 Q1011 TEMPO 5000,22.333,73.225,36,Vadodara Arpt,CLR,[],IFR,,HZ,,,,,,,,"Vadodara Arpt, GJ, IN",IN,India,25.188513630382264
442,VABP,2026-02-27 03:36:45.108000+00:00,1772163000,2026-02-27T03:30:00.000Z,22.0,9.0,200,2.0,3.73,1013.0,16,METAR,METAR VABP 270330Z 20002KT 6000 BKN020 22/09 Q1013 NOSIG,23.288,77.337,520,Bhopal/Raja Bhoj Arpt,BKN,"[{'cover': 'BKN', 'base': 2000}]",MVFR,,,,,,,,,,"Bhopal/Raja Bhoj Arpt, MP, IN",IN,India,23.536407606063914
470,VABV,2026-02-27 03:38:42.140000+00:00,1772163000,2026-02-27T03:30:00.000Z,22.0,16.0,200,4.0,3.11,1012.0,0,METAR,METAR VABV 270330Z 20004KT 5000 HZ FEW025 22/16 Q1012,21.752,72.185,8,Bhavnagar Arpt,FEW,"[{'cover': 'FEW', 'base': 2500}]",MVFR,,HZ,,,,,,,,"Bhavnagar Arpt, GJ, IN",IN,India,23.153669290057575
1744,VAID,2026-02-27 03:34:57.584000+00:00,1772163000,2026-02-27T03:30:00.000Z,21.0,15.0,310,4.0,2.49,1014.0,16,METAR,METAR VAID 270330Z 31004KT 4000 HZ FEW020 BKN100 21/15 Q1014 NOSIG,22.722,75.801,564,Indore Arpt,BKN,"[{'cover': 'FEW', 'base': 2000}, {'cover': 'BKN', 'base': 10000}]",IFR,,HZ,,,,,,,,"Indore Arpt, MP, IN",IN,India,21.98643986362289
1900,VAJB,2026-02-27 03:34:48+00:00,1772163000,2026-02-27T03:30:00.000Z,21.0,12.0,170,6.0,3.73,1013.0,16,METAR,METAR VAJB 270330Z 17006KT 6000 SCT100 21/12 Q1013 NOSIG,23.178,80.05,489,Jabalpur Arpt,SCT,"[{'cover': 'SCT', 'base': 10000}]",MVFR,,,,,,,,,,"Jabalpur Arpt, MP, IN",IN,India,21.70548930722728
2457,VANP,2026-02-27 04:02:47.524000+00:00,1772164800,2026-02-27T04:00:00.000Z,24.0,12.0,VRB,1.0,2.17,1013.0,16,METAR,METAR VANP 270400Z VRB01KT 3500 HZ SCT020 BKN100 24/12 Q1013 NOSIG,21.089,79.055,309,Nagpur/Ambedkar Intl,BKN,"[{'cover': 'SCT', 'base': 2000}, {'cover': 'BKN', 'base': 10000}]",IFR,,HZ,,,,,,,,"Nagpur/Ambedkar Intl, MM, IN",IN,India,25.996302804156503
1904,VAOZ,2026-02-27 03:34:58.417000+00:00,1772163000,2026-02-27T03:30:00.000Z,21.0,21.0,300,10.0,3.11,1014.0,16,METAR,METAR VAOZ 270330Z 30010KT 5000 BR FEW030 21/21 Q1014 NOSIG,20.119,73.914,598,Ozar Arpt,FEW,"[{'cover': 'FEW', 'base': 3000}]",MVFR,,BR,,,,,,,,"Ozar Arpt, MM, IN",IN,India,21.32457349412732
3944,VAUD,2026-02-27 03:36:45.201000+00:00,1772163000,2026-02-27T03:30:00.000Z,21.0,14.0,200,2.0,2.17,1013.0,16,METAR,METAR VAUD 270330Z 20002KT 3500 HZ FEW100 21/14 Q1013 NOSIG,24.618,73.896,506,Udaipur/Pratap Arpt,FEW,"[{'cover': 'FEW', 'base': 10000}]",IFR,,HZ,,,,,,,,"Udaipur/Pratap Arpt, RJ, IN",IN,India,22.42646608746172
771,VCBI,2026-02-27 03:20:47.246000+00:00,1772161800,2026-02-27T03:10:00.000Z,27.0,26.0,130,4.0,3.73,1010.0,16,METAR,METAR VCBI 270310Z 13004KT 6000 FEW018 27/26 Q1010 NOSIG,7.181,79.884,10,Katunayake/Bandaranaike Intl,FEW,"[{'cover': 'FEW', 'base': 1800}]",MVFR,,,,,,,,,,"Katunayake/Bandaranaike Intl, WE, LK",LK,Sri Lanka,28.989816422230977
1956,VCCJ,2026-02-27 03:34:57.084000+00:00,1772161800,2026-02-27T03:10:00.000Z,25.0,24.0,320,1.0,6+,1010.0,16,METAR,METAR VCCJ 270310Z 32001KT CAVOK 25/24 Q1010 NOSIG RMK: THE OBSERVATION POINT IS 20 KM FROM VCCJ,9.7931,80.0707,15,Jaffna Intl,CAVOK,[],VFR,,,,,,,,,,"Jaffna Intl, NO, LK",LK,Sri Lanka,27.054970208987598
1807,VCRI,2026-02-27 03:20:47.272000+00:00,1772161800,2026-02-27T03:10:00.000Z,26.0,25.0,350,3.0,6+,1011.0,0,METAR,METAR VCRI 270310Z 35003KT 310V020 9999 BKN080 26/25 Q1011,6.287,81.125,50,Mattala/Rajapaksa Intl,BKN,"[{'cover': 'BKN', 'base': 8000}]",VFR,,,,,,,,,,"Mattala/Rajapaksa Intl, SO, LK",LK,Sri Lanka,27.888404892010524
3255,VDSA,2026-02-27 03:35:35.697000+00:00,1772163000,2026-02-27T03:30:00.000Z,29.0,23.0,150,8.0,6+,1010.0,0,METAR,METAR VDSA 270330Z 15008KT 9999 SCT015 BKN040 29/23 Q1010,13.371,104.225,59,Siem Reap-Ankr Intl,BKN,"[{'cover': 'SCT', 'base': 1500}, {'cover': 'BKN', 'base': 4000}]",VFR,,,,,,,,,,"Siem Reap-Ankr Intl, 17, KH",KH,Cambodia,31.344695975497263
2093,VDSV,2026-02-27 03:35:35.639000+00:00,1772163000,2026-02-27T03:30:00.000Z,25.0,23.0,250,4.0,5.59,1011.0,0,METAR,METAR VDSV 270330Z 25004KT 210V280 9000 -RA SCT015 FEW017CB BKN040 25/23 Q1011 RMK CB:SE/S,10.582,103.637,1,Sihanoukville Intl,BKN,"[{'cover': 'SCT', 'base': 1500}, {'cover': 'FEW', 'base': 1700}, {'cover': 'BKN', 'base': 4000}]",VFR,,-RA,,,,,,,,"Sihanoukville Intl, , KH",KH,Cambodia,26.655357569361623
1905,VEAT,2026-02-27 03:34:59.621000+00:00,1772163000,2026-02-27T03:30:00.000Z,23.0,17.0,220,3.0,1.24,1010.0,16,METAR,METAR VEAT 270330Z 22003KT 2000 HZ NSC 23/17 Q1010 NOSIG,23.887,91.24,20,Agartala Arpt,CLR,[],IFR,,HZ,,,,,,,,"Agartala Arpt, TR, IN",IN,India,24.46036693428211
291,VEBS,2026-02-27 04:02:47.610000+00:00,1772164800,2026-02-27T04:00:00.000Z,26.0,17.0,240,3.0,1.55,1011.0,16,METAR,METAR VEBS 270400Z 24003KT 2500 HZ NSC 26/17 Q1011 NOSIG,20.244,85.818,42,Bhubaneswar Intl,CLR,[],IFR,,HZ,,,,,,,,"Bhubaneswar Intl, OR, IN",IN,India,27.888404892010524
548,VECC,2026-02-27 04:01:28.786000+00:00,1772164800,2026-02-27T04:00:00.000Z,27.0,11.0,270,6.0,1.99,1011.0,16,METAR,METAR VECC 270400Z 27006KT 3200 HZ NSC 27/11 Q1011 NOSIG,22.651,88.445,11,Kolkata/Bose Intl,CLR,[],IFR,,HZ,,,,,,,,"Kolkata/Bose Intl, WB, IN",IN,India,28.9283310073426
3263,VEDG,2026-02-27 03:34:59.141000+00:00,1772163000,2026-02-27T03:30:00.000Z,26.0,9.0,260,6.0,1.49,1011.0,16,METAR,METAR VEDG 270330Z 26006KT 2400 HZ NSC 26/09 Q1011 NOSIG,23.623,87.243,88,Durgapur/Kazi Nazrul Arpt,CLR,[],IFR,,HZ,,,,,,,,"Durgapur/Kazi Nazrul Arpt, WB, IN",IN,India,27.724524057323393
1499,VEGT,2026-02-27 03:34:58.011000+00:00,1772163000,2026-02-27T03:30:00.000Z,23.0,16.0,290,3.0,1.24,1010.0,16,METAR,METAR VEGT 270330Z 29003KT 2000 HZ SCT020 BKN100 23/16 Q1010 NOSIG,26.107,91.587,50,Guwahati/Bordoloi Intl,BKN,"[{'cover': 'SCT', 'base': 2000}, {'cover': 'BKN', 'base': 10000}]",IFR,,HZ,,,,,,,,"Guwahati/Bordoloi Intl, AS, IN",IN,India,24.46036693428211
1500,VEGY,2026-02-27 03:34:59.492000+00:00,1772163000,2026-02-27T03:30:00.000Z,22.0,12.0,200,3.0,2.49,1011.0,16,METAR,METAR VEGY 270330Z 20003KT 4000 HZ NSC 22/12 Q1011 NOSIG,24.744,84.951,115,Gaya Arpt,CLR,[],IFR,,HZ,,,,,,,,"Gaya Arpt, BR, IN",IN,India,23.317687615039304
1742,VEIM,2026-02-27 03:34:48.128000+00:00,1772163000,2026-02-27T03:30:00.000Z,19.0,15.0,VRB,2.0,1.24,1014.0,16,METAR,METAR VEIM 270330Z VRB02KT 2000 BR FEW100 19/15 Q1014 NOSIG,24.76,93.897,777,Imphal Arpt,FEW,"[{'cover': 'FEW', 'base': 10000}]",IFR,,BR,,,,,,,,"Imphal Arpt, MN, IN",IN,India,20.20658305025737
938,VEMN,2026-02-27 03:34:57.851000+00:00,1772163000,2026-02-27T03:30:00.000Z,21.0,16.0,VRB,2.0,1.24,1011.0,16,METAR,METAR VEMN 270330Z VRB02KT 2000 HZ FEW020 BKN100 21/16 Q1011 NOSIG,27.481,95.014,111,Dibrugarh Arpt,BKN,"[{'cover': 'FEW', 'base': 2000}, {'cover': 'BKN', 'base': 10000}]",IFR,,HZ,,,,,,,,"Dibrugarh Arpt, AS, IN",IN,India,22.42646608746172
3027,VEPT,2026-02-27 03:34:47.924000+00:00,1772163000,2026-02-27T03:30:00.000Z,23.0,12.0,240,3.0,1.86,1010.0,16,METAR,METAR VEPT 270330Z 24003KT 3000 HZ NSC 23/12 Q1010 NOSIG,25.591,85.088,53,Patna/Narayan Intl,CLR,[],IFR,,HZ,,,,,,,,"Patna/Narayan Intl, BR, IN",IN,India,24.46036693428211
1814,VERC,2026-02-27 04:02:47.472000+00:00,1772164800,2026-02-27T04:00:00.000Z,24.0,1.0,240,4.0,3.11,1015.0,16,METAR,METAR VERC 270400Z 24004KT 5000 HZ NSC 24/01 Q1015 NOSIG,23.314,85.322,646,Ranchi/Bursa Munda Arpt,CLR,[],MVFR,,HZ,,,,,,,,"Ranchi/Bursa Munda Arpt, BR, IN",IN,India,25.48812814292694
1587,VHHH,2026-02-27 04:01:34.951000+00:00,1772164800,2026-02-27T04:00:00.000Z,24.0,20.0,80,8.0,6+,1010.0,16,METAR,METAR VHHH 270400Z 08008KT 9999 -RA FEW012 SCT025 24/20 Q1010 NOSIG,22.309,113.922,9,Hong Kong Intl,SCT,"[{'cover': 'FEW', 'base': 1200}, {'cover': 'SCT', 'base': 2500}]",VFR,,-RA,,,,,,,,"Hong Kong Intl, HK, HK",HK,Hong Kong,25.188513630382264
193,VIAR,2026-02-27 03:36:45.128000+00:00,1772163000,2026-02-27T03:30:00.000Z,16.0,14.0,VRB,2.0,0.75,1010.0,0,METAR,METAR VIAR 270330Z VRB02KT 1200 R34/1600 BR NSC 16/14 Q1010 BECMG 1500 BR,31.707,74.801,226,Amritsar/Jee Intl,CLR,[],LIFR,,BR,,,,,,,,"Amritsar/Jee Intl, PB, IN",IN,India,16.876758494450808
2107,VIBR,2026-02-27 03:34:58.999000+00:00,1772163000,2026-02-27T03:30:00.000Z,12.0,7.0,0,0.0,3.73,1015.0,0,METAR,METAR VIBR 270330Z 00000KT 6000 NSC 12/07 Q1015,31.876,77.154,1089,Bhuntar Arpt,CLR,[],MVFR,,,,,,,,,,"Bhuntar Arpt, HP, IN",IN,India,20.58466666666667
935,VIDP,2026-02-27 03:48:43.589000+00:00,1772163000,2026-02-27T03:30:00.000Z,20.0,12.0,VRB,2.0,1.55,1011.0,0,METAR,METAR VIDP 270330Z VRB02KT 2500 HZ NSC 20/12 Q1011 BECMG 3000 HZ,28.567,77.117,236,New Delhi/Gandhi Intl,CLR,[],IFR,,HZ,,,,,,,,"New Delhi/Gandhi Intl, DL, IN",IN,India,21.316524568859545
944,VIGG,2026-02-27 03:32:38.976000+00:00,1772163000,2026-02-27T03:30:00.000Z,15.0,11.0,140,2.0,3.11,1012.0,0,METAR,METAR VIGG 270330Z 14002KT 5000 HZ NSC 15/11 Q1012,32.165,76.263,760,Kangra Arpt,CLR,[],MVFR,,HZ,,,,,,,,"Kangra Arpt, HP, IN",IN,India,15.766816975848634
1901,VIJP,2026-02-27 03:34:48.620000+00:00,1772163000,2026-02-27T03:30:00.000Z,23.0,9.0,100,4.0,1.24,1012.0,16,METAR,METAR VIJP 270330Z 10004KT 2000 HZ SCT100 23/09 Q1012 NOSIG,26.824,75.812,383,Jaipur Intl,SCT,"[{'cover': 'SCT', 'base': 10000}]",IFR,,HZ,,,,,,,,"Jaipur Intl, RJ, IN",IN,India,24.32089871649226
2112,VIKG,2026-02-27 03:33:02.517000+00:00,1772163000,2026-02-27T03:30:00.000Z,24.0,14.0,250,4.0,3.11,1011.0,16,METAR,METAR VIKG 270330Z 25004KT 5000 HZ NSC 24/14 Q1011 NOSIG,26.591,74.816,450,Kishangarh Arpt,CLR,[],MVFR,,HZ,,,,,,,,"Kishangarh Arpt, RJ, IN",IN,India,25.48812814292694
2094,VILK,2026-02-27 03:35:40.994000+00:00,1772163000,2026-02-27T03:30:00.000Z,21.0,13.0,250,6.0,1.86,1010.0,16,METAR,METAR VILK 270330Z 25006KT 3000 HZ NSC 21/13 Q1010 NOSIG,26.761,80.889,121,Lucknow/Singh Arpt,CLR,[],IFR,,HZ,,,,,,,,"Lucknow/Singh Arpt, JK, IN",IN,India,21.70548930722728
2862,VIPT,2026-02-27 04:03:02.530000+00:00,1772164800,2026-02-27T04:00:00.000Z,21.0,15.0,160,3.0,1.24,1010.0,0,METAR,METAR VIPT 270400Z 16003KT 2000 HZ NSC 21/15 Q1010,29.033,79.474,236,Pantnagar Arpt,CLR,[],IFR,,HZ,,,,,,,,"Pantnagar Arpt, PB, IN",IN,India,22.175008295796495
3326,VISM,2026-02-27 04:00:43.688000+00:00,1772164800,2026-02-27T04:00:00.000Z,14.0,6.0,0,0.0,3.11,1016.0,0,METAR,METAR VISM 270400Z 00000KT 5000 HZ NSC 14/06 Q1016,31.082,77.068,1537,Shimla Arpt,CLR,[],MVFR,,HZ,,,,,,,,"Shimla Arpt, HP, IN",IN,India,21.827666666666673
2368,VMMC,2026-02-27 03:36:20.436000+00:00,1772163000,2026-02-27T03:30:00.000Z,22.0,20.0,VRB,2.0,6+,1011.0,16,METAR,METAR VMMC 270330Z VRB02KT 9999 FEW008 SCT018 22/20 Q1011 NOSIG,22.141,113.596,1,Macao Intl,SCT,"[{'cover': 'FEW', 'base': 800}, {'cover': 'SCT', 'base': 1800}]",VFR,,,,,,,,,,"Macao Intl, MO, MO",MO,Macao,23.536407606063914
1979,VNKT,2026-02-27 04:00:38.293000+00:00,1772164800,2026-02-27T04:00:00.000Z,16.0,10.0,VRB,2.0,1.24,1015.0,0,METAR,METAR VNKT 270400Z VRB02KT 2000 BR FEW015 16/10 Q1015 BECMG FM0500 3000 HZ,27.697,85.359,1334,Kathmandu/Tribhuvan Intl,FEW,"[{'cover': 'FEW', 'base': 1500}]",IFR,,BR,,,,,,,,"Kathmandu/Tribhuvan Intl, BA, NP",NP,Nepal,16.876758494450808
16,VOAT,2026-02-27 04:02:47.548000+00:00,1772164800,2026-02-27T04:00:00.000Z,29.0,22.0,330,9.0,3.11,1011.0,0,METAR,METAR VOAT 270400Z 33009KT 5000 HZ SCT015 29/22 Q1011,10.824,72.176,5,Agatti Arpt,SCT,"[{'cover': 'SCT', 'base': 1500}]",MVFR,,HZ,,,,,,,,"Agatti Arpt, LD, IN",IN,India,31.34839669695307
464,VOBL,2026-02-27 03:44:51.493000+00:00,1772163000,2026-02-27T03:30:00.000Z,24.0,17.0,180,5.0,1.86,1016.0,0,METAR,METAR VOBL 270330Z 18005KT 3000 HZ FEW012 SCT080 24/17 Q1016 BECMG 5000 HZ,13.205,77.704,908,Bangaluru Intl,SCT,"[{'cover': 'FEW', 'base': 1200}, {'cover': 'SCT', 'base': 8000}]",IFR,,HZ,,,,,,,,"Bangaluru Intl, KA, IN",IN,India,25.39527584697727
3810,VOBZ,2026-02-27 04:02:47.578000+00:00,1772164800,2026-02-27T04:00:00.000Z,27.0,21.0,0,0.0,3.11,1011.0,16,METAR,METAR VOBZ 270400Z 00000KT 5000 HZ NSC 27/21 Q1011 NOSIG,16.53,80.797,26,Vijayawada Arpt,CLR,[],MVFR,,HZ,,,,,,,,"Vijayawada Arpt, AP, IN",IN,India,29.907166666666665
549,VOCB,2026-02-27 04:01:34.891000+00:00,1772164800,2026-02-27T04:00:00.000Z,26.0,19.0,VRB,2.0,2.49,1014.0,0,METAR,METAR VOCB 270400Z VRB02KT 4000 HZ SCT012 BKN080 26/19 Q1014 BECMG 5000 HZ,11.03,77.043,394,Coimbatore Arpt,BKN,"[{'cover': 'SCT', 'base': 1200}, {'cover': 'BKN', 'base': 8000}]",IFR,,HZ,,,,,,,,"Coimbatore Arpt, TN, IN",IN,India,27.97617368047264
934,VOCI,2026-02-27 03:36:43.796000+00:00,1772163000,2026-02-27T03:30:00.000Z,27.0,23.0,120,2.0,2.49,1011.0,16,METAR,METAR VOCI 270330Z 12002KT 4000 BR SCT015 BKN080 27/23 Q1011 NOSIG,10.152,76.402,8,Cochin Intl,BKN,"[{'cover': 'SCT', 'base': 1500}, {'cover': 'BKN', 'base': 8000}]",IFR,,BR,,,,,,,,"Cochin Intl, KL, IN",IN,India,29.08611519907482
702,VOCL,2026-02-27 03:34:58.888000+00:00,1772163000,2026-02-27T03:30:00.000Z,27.0,22.0,80,2.0,3.73,1011.0,16,METAR,METAR VOCL 270330Z 08002KT 6000 FEW012 27/22 Q1011 NOSIG,11.137,75.955,104,Calicut Intl,FEW,"[{'cover': 'FEW', 'base': 1200}]",MVFR,,,,,,,,,,"Calicut Intl, KL, IN",IN,India,29.08611519907482
723,VOCP,2026-02-27 03:38:41.603000+00:00,1772163000,2026-02-27T03:30:00.000Z,28.0,18.0,100,2.0,2.17,1011.0,16,METAR,METAR VOCP 270330Z 10002KT 3500 HZ FEW020 28/18 Q1011 NOSIG,14.513,78.771,134,Kadapa Arpt,FEW,"[{'cover': 'FEW', 'base': 2000}]",IFR,,HZ,,,,,,,,"Kadapa Arpt, AP, IN",IN,India,30.196056717677013
1739,VOHS,2026-02-27 03:36:45.068000+00:00,1772163000,2026-02-27T03:30:00.000Z,24.0,17.0,250,9.0,3.73,1015.0,16,METAR,METAR VOHS 270330Z 25009KT 6000 SCT020 SCT100 24/17 Q1015 NOSIG,17.233,78.429,607,Hyderabad/Gandhi Intl,SCT,"[{'cover': 'SCT', 'base': 2000}, {'cover': 'SCT', 'base': 10000}]",MVFR,,,,,,,,,,"Hyderabad/Gandhi Intl, AP, IN",IN,India,25.134216283401354
445,VOHY,2026-02-27 03:34:59.199000+00:00,1772163000,2026-02-27T03:30:00.000Z,26.0,15.0,230,8.0,3.11,1015.0,16,METAR,METAR VOHY 270330Z 23008KT 5000 HZ SCT015 SCT100 26/15 Q1015 NOSIG,17.453,78.468,540,Hyderabad/Begumpet Arpt,SCT,"[{'cover': 'SCT', 'base': 1500}, {'cover': 'SCT', 'base': 10000}]",MVFR,,HZ,,,,,,,,"Hyderabad/Begumpet Arpt, AP, IN",IN,India,27.65098656842827
937,VOKN,2026-02-27 03:34:57.675000+00:00,1772163000,2026-02-27T03:30:00.000Z,27.0,23.0,140,4.0,3.11,1011.0,16,METAR,METAR VOKN 270330Z 14004KT 5000 BR FEW012 27/23 Q1011 NOSIG,11.917,75.547,105,Kannur Intl,FEW,"[{'cover': 'FEW', 'base': 1200}]",MVFR,,BR,,,,,,,,"Kannur Intl, KL, IN",IN,India,28.989816422230977
1903,VOMD,2026-02-27 03:34:58.088000+00:00,1772163000,2026-02-27T03:30:00.000Z,28.0,24.0,VRB,2.0,2.8,1012.0,0,METAR,METAR VOMD 270330Z VRB02KT 4500 BR SCT018 SCT100 28/24 Q1012 BECMG 5000 HZ,9.835,78.093,135,Madurai Intl,SCT,"[{'cover': 'SCT', 'base': 1800}, {'cover': 'SCT', 'base': 10000}]",IFR,,BR,,,,,,,,"Madurai Intl, TN, IN",IN,India,30.196056717677013
1817,VOML,2026-02-27 04:01:28.814000+00:00,1772164800,2026-02-27T04:00:00.000Z,27.0,22.0,70,3.0,4.97,1012.0,16,METAR,METAR VOML 270400Z 07003KT 8000 FEW015 27/22 Q1012 NOSIG,12.961,74.89,100,Mangaluru Arpt,FEW,"[{'cover': 'FEW', 'base': 1500}]",MVFR,,,,,,,,,,"Mangaluru Arpt, KA, IN",IN,India,29.031084211253326
2186,VOMM,2026-02-27 04:02:41.696000+00:00,1772164800,2026-02-27T04:00:00.000Z,28.0,25.0,200,6.0,3.11,1011.0,16,METAR,METAR VOMM 270400Z 20006KT 5000 BR FEW020 28/25 Q1011 NOSIG,12.994,80.18,7,Chennai Intl,FEW,"[{'cover': 'FEW', 'base': 2000}]",MVFR,,BR,,,,,,,,"Chennai Intl, TN, IN",IN,India,30.132137957361845
2597,VOMY,2026-02-27 03:38:41.765000+00:00,1772163000,2026-02-27T03:30:00.000Z,24.0,19.0,VRB,2.0,2.49,1015.0,0,METAR,METAR VOMY 270330Z VRB02KT 4000 BR FEW012 24/19 Q1015,12.229,76.652,727,Mysuru Arpt,FEW,"[{'cover': 'FEW', 'base': 1200}]",IFR,,BR,,,,,,,,"Mysuru Arpt, KA, IN",IN,India,25.756290643268276
1915,VOPB,2026-02-27 03:24:36.725000+00:00,1772163000,2026-02-27T03:30:00.000Z,28.0,23.0,50,3.0,3.73,1009.0,16,METAR,METAR VOPB 270330Z 05003KT 6000 FEW016 SCT080 BKN220 28/23 Q1009 NOSIG,11.641,92.73,1,Port Blair/Veer Savarkar Intl,BKN,"[{'cover': 'FEW', 'base': 1600}, {'cover': 'SCT', 'base': 8000}, {'cover': 'BKN', 'base': 22000}]",MVFR,,,,,,,,,,"Port Blair/Veer Savarkar Intl, AN, IN",IN,India,30.173763530496128
2863,VOPC,2026-02-27 04:03:02.735000+00:00,1772164800,2026-02-27T04:00:00.000Z,27.0,22.0,50,10.0,2.49,1011.0,0,METAR,METAR VOPC 270400Z 05010KT 4000 HZ FEW020 SCT100 27/22 Q1011 BECMG 5000 HZ,11.969,79.81,43,Pondicherry Arpt,SCT,"[{'cover': 'FEW', 'base': 2000}, {'cover': 'SCT', 'base': 10000}]",IFR,,HZ,,,,,,,,"Pondicherry Arpt, TN, IN",IN,India,28.844968414627132
3262,VORY,2026-02-27 03:34:57.771000+00:00,1772163000,2026-02-27T03:30:00.000Z,27.0,23.0,30,5.0,1.86,1011.0,0,METAR,METAR VORY 270330Z 03005KT 3000 BR FEW020 27/23 Q1011 BECMG 4000 HZ,17.11,81.818,47,Rajahmundry Arpt,FEW,"[{'cover': 'FEW', 'base': 2000}]",IFR,,BR,,,,,,,,"Rajahmundry Arpt, AP, IN",IN,India,28.95647260079541
3750,VOSM,2026-02-27 03:33:02.344000+00:00,1772163000,2026-02-27T03:30:00.000Z,25.0,16.0,0,0.0,2.17,1012.0,0,METAR,METAR VOSM 270330Z 00000KT 3500 HZ SCT020 BKN080 25/16 Q1012 BECMG 4000 HZ,11.783,78.066,301,Salem Arpt,BKN,"[{'cover': 'SCT', 'base': 2000}, {'cover': 'BKN', 'base': 8000}]",IFR,,HZ,,,,,,,,"Salem Arpt, TN, IN",IN,India,28.664166666666674
3545,VOSR,2026-02-27 03:32:31.638000+00:00,1772163000,2026-02-27T03:30:00.000Z,25.0,20.0,10,10.0,3.73,1012.0,16,METAR,METAR VOSR 270330Z 01010KT 6000 NSC 25/20 Q1012 NOSIG,16.001,73.534,62,Sindhudurg Arpt,CLR,[],MVFR,,,,,,,,,,"Sindhudurg Arpt, MA, IN",IN,India,26.33817010779388
3739,VOTP,2026-02-27 03:34:48.422000+00:00,1772163000,2026-02-27T03:30:00.000Z,27.0,21.0,220,6.0,1.55,1011.0,0,METAR,METAR VOTP 270330Z 22006KT 2500 HZ FEW020 27/21 Q1011 BECMG 3000 HZ,13.633,79.543,103,Tirupati Arpt,FEW,"[{'cover': 'FEW', 'base': 2000}]",IFR,,HZ,,,,,,,,"Tirupati Arpt, AP, IN",IN,India,28.9283310073426
3741,VOTR,2026-02-27 03:34:58.355000+00:00,1772163000,2026-02-27T03:30:00.000Z,28.0,25.0,VRB,3.0,1.55,1011.0,16,METAR,METAR VOTR 270330Z VRB03KT 2500 BR SCT020 BKN100 28/25 Q1011 NOSIG,10.765,78.71,90,Tiruchchirapalli Arpt,BKN,"[{'cover': 'SCT', 'base': 2000}, {'cover': 'BKN', 'base': 10000}]",IFR,,BR,,,,,,,,"Tiruchchirapalli Arpt, TN, IN",IN,India,30.173763530496128
3727,VOTV,2026-02-27 03:36:45.384000+00:00,1772163000,2026-02-27T03:30:00.000Z,30.0,26.0,VRB,2.0,2.49,1010.0,16,METAR,METAR VOTV 270330Z VRB02KT 4000 HZ FEW015 FEW025CB 30/26 Q1010 NOSIG,8.484,76.919,9,Thiruvananthapuram Intl,FEW,"[{'cover': 'FEW', 'base': 1500}, {'cover': 'FEW', 'base': 2500}]",IFR,,HZ,,,,,,,,"Thiruvananthapuram Intl, KL, IN",IN,India,32.41593975488137
2837,VQPR,2026-02-27 04:00:43.707000+00:00,1772164800,2026-02-27T04:00:00.000Z,10.0,4.0,190,4.0,3.11,1018.0,0,METAR,METAR VQPR 270400Z 19004KT 150V230 5000 HZ FEW020 OVC045 10/04 Q1018,27.403,89.425,2227,Paro Intl,OVC,"[{'cover': 'FEW', 'base': 2000}, {'cover': 'OVC', 'base': 4500}]",MVFR,,HZ,,,,,,,,"Paro Intl, PA, BT",BT,Bhutan,9.146916172841392
942,VTBD,2026-02-27 03:35:32.211000+00:00,1772163000,2026-02-27T03:30:00.000Z,31.0,21.0,280,6.0,6+,1009.0,16,METAR,METAR VTBD 270330Z 28006KT 210V320 9999 FEW020 31/21 Q1009 NOSIG,13.913,100.607,6,Bangkok Intl,FEW,"[{'cover': 'FEW', 'base': 2000}]",VFR,,,,,,,,,,"Bangkok Intl, 10, TH",TH,Thailand,33.743558807419504
450,VTBS,2026-02-27 03:35:32.288000+00:00,1772163000,2026-02-27T03:30:00.000Z,31.0,21.0,VRB,3.0,6+,1009.0,16,METAR,METAR VTBS 270330Z VRB03KT 9999 FEW020 31/21 Q1009 NOSIG,13.686,100.767,1,Bangkok/Suvarnabhumi Arpt,FEW,"[{'cover': 'FEW', 'base': 2000}]",VFR,,,,,,,,,,"Bangkok/Suvarnabhumi Arpt, 20, TH",TH,Thailand,33.601801488224545
3954,VTBU,2026-02-27 03:35:32.563000+00:00,1772163000,2026-02-27T03:30:00.000Z,32.0,27.0,230,6.0,6+,1009.0,16,METAR,METAR VTBU 270330Z 23006KT 180V280 9999 VCSH FEW018CB 32/27 Q1009 NOSIG,12.68,101.001,12,Rayong/U-Tapao Intl,FEW,"[{'cover': 'FEW', 'base': 1800}]",VFR,,VCSH,,,,,,,,"Rayong/U-Tapao Intl, 21, TH",TH,Thailand,34.94736575743871
943,VTCC,2026-02-27 03:35:32.354000+00:00,1772163000,2026-02-27T03:30:00.000Z,28.0,19.0,VRB,4.0,6+,1010.0,16,METAR,METAR VTCC 270330Z VRB04KT 9999 FEW035 28/19 Q1010 NOSIG,18.771,98.963,308,Chiang Mai Intl,FEW,"[{'cover': 'FEW', 'base': 3500}]",VFR,,,,,,,,,,"Chiang Mai Intl, 50, TH",TH,Thailand,30.157045848665675
1750,VTSP,2026-02-27 03:35:32.422000+00:00,1772163000,2026-02-27T03:30:00.000Z,31.0,25.0,270,8.0,6+,1009.0,16,METAR,METAR VTSP 270330Z 27008KT 250V310 9999 SCT020 31/25 Q1009 NOSIG,8.105,98.308,12,Phuket Intl,SCT,"[{'cover': 'SCT', 'base': 2000}]",VFR,,,,,,,,,,"Phuket Intl, 83, TH",TH,Thailand,33.807168913543265
1751,VTSS,2026-02-27 03:35:32.491000+00:00,1772163000,2026-02-27T03:30:00.000Z,31.0,22.0,VRB,3.0,6+,1009.0,16,METAR,METAR VTSS 270330Z VRB03KT 9999 SCT020 SCT100 31/22 Q1009 NOSIG,6.933,100.393,28,Hat Yai Intl,SCT,"[{'cover': 'SCT', 'base': 2000}, {'cover': 'SCT', 'base': 10000}]",VFR,,,,,,,,,,"Hat Yai Intl, 90, TH",TH,Thailand,33.601801488224545
1748,VVCI,2026-02-27 03:35:31.328000+00:00,1772163000,2026-02-27T03:30:00.000Z,25.0,21.0,170,3.0,6+,1010.0,16,METAR,METAR VVCI 270330Z 17003KT 120V230 9999 FEW013 SCT015 BKN026 25/21 Q1010 NOSIG,20.823,106.727,6,Haiphong/Cat Bi Intl,BKN,"[{'cover': 'FEW', 'base': 1300}, {'cover': 'SCT', 'base': 1500}, {'cover': 'BKN', 'base': 2600}]",MVFR,,,,,,,,,,"Haiphong/Cat Bi Intl, HP, VN",VN,Viet Nam,26.74572557276772
941,VVCR,2026-02-27 03:35:31.406000+00:00,1772163000,2026-02-27T03:30:00.000Z,28.0,23.0,60,6.0,6+,1011.0,16,METAR,METAR VVCR 270330Z 06006KT 9999 FEW015 SCT050 28/23 Q1011 NOSIG,11.998,109.219,12,Cam Ranh Intl,SCT,"[{'cover': 'FEW', 'base': 1500}, {'cover': 'SCT', 'base': 5000}]",VFR,,,,,,,,,,"Cam Ranh Intl, BR, VN",VN,Viet Nam,30.132137957361845
3952,VVCT,2026-02-27 03:35:31.482000+00:00,1772163000,2026-02-27T03:30:00.000Z,28.0,25.0,50,4.0,6+,1009.0,16,METAR,METAR VVCT 270330Z 05004KT 020V080 9999 BKN013 FEW015CB 28/25 Q1009 NOSIG,10.085,105.712,6,Can Tho Intl,FEW,"[{'cover': 'BKN', 'base': 1300}, {'cover': 'FEW', 'base': 1500}]",MVFR,,,,,,,,,,"Can Tho Intl, 2, VN",VN,Viet Nam,30.157045848665675
939,VVDN,2026-02-27 03:35:31.547000+00:00,1772163000,2026-02-27T03:30:00.000Z,26.0,24.0,210,4.0,6+,1010.0,16,METAR,METAR VVDN 270330Z 21004KT 9999 -RA SCT011 BKN069 26/24 Q1010 NOSIG,16.044,108.199,7,Da Nang Intl,BKN,"[{'cover': 'SCT', 'base': 1100}, {'cover': 'BKN', 'base': 6900}]",VFR,,-RA,,,,,,,,"Da Nang Intl, DN, VN",VN,Viet Nam,27.8225869957963
1495,VVNB,2026-02-27 03:36:20.387000+00:00,1772163000,2026-02-27T03:30:00.000Z,24.0,21.0,110,5.0,2.8,1010.0,0,METAR,METAR VVNB 270330Z 11005KT 090V160 4500 BR FEW011 SCT016 OVC019 24/21 Q1010 BECMG TL0400 6000 NSW,21.218,105.805,6,Hanoi/Noi Bai Intl,OVC,"[{'cover': 'FEW', 'base': 1100}, {'cover': 'SCT', 'base': 1600}, {'cover': 'OVC', 'base': 1900}]",IFR,,BR,,,,,,,,"Hanoi/Noi Bai Intl, HI, VN",VN,Viet Nam,25.39527584697727
1749,VVPB,2026-02-27 03:35:31.675000+00:00,1772163000,2026-02-27T03:30:00.000Z,26.0,24.0,320,5.0,3.73,1009.0,16,METAR,METAR VVPB 270330Z 32005KT 6000 SCT008 BKN030 26/24 Q1009 NOSIG,16.399,107.699,15,Huế/Phu Bai Arpt,BKN,"[{'cover': 'SCT', 'base': 800}, {'cover': 'BKN', 'base': 3000}]",MVFR,,,,,,,,,,"Huế/Phu Bai Arpt, BC, VN",VN,Viet Nam,27.769407016189373
3036,VVPQ,2026-02-27 03:35:31.733000+00:00,1772163000,2026-02-27T03:30:00.000Z,24.0,23.0,260,12.0,3.73,1011.0,16,METAR,METAR VVPQ 270330Z 26012KT 6000 -TSRA SCT013 FEW015CB SCT040 24/23 Q1011 NOSIG,10.169,103.995,8,Phu Quoc Arpt,SCT,"[{'cover': 'SCT', 'base': 1300}, {'cover': 'FEW', 'base': 1500}, {'cover': 'SCT', 'base': 4000}]",MVFR,,-TSRA,,,,,,,,"Phu Quoc Arpt, 40, VN",VN,Viet Nam,24.99721397721784
3534,VVTS,2026-02-27 03:35:31.796000+00:00,1772163000,2026-02-27T03:30:00.000Z,29.0,24.0,130,8.0,6+,1009.0,16,METAR,METAR VVTS 270330Z 13008KT 080V170 9999 SCT025 BKN085 29/24 Q1009 NOSIG,10.817,106.667,10,Ho Chi Minh/Nhat Intl,BKN,"[{'cover': 'SCT', 'base': 2500}, {'cover': 'BKN', 'base': 8500}]",VFR,,,,,,,,,,"Ho Chi Minh/Nhat Intl, 23, VN",VN,Viet Nam,31.344695975497263
3953,VVVD,2026-02-27 03:35:31.855000+00:00,1772163000,2026-02-27T03:30:00.000Z,26.0,22.0,90,3.0,6+,1010.0,2,METAR,METAR VVVD 270330Z AUTO 09003KT 040V140 9999 SCT017/// BKN021/// BKN035/// 26/22 Q1010,21.118,107.414,8,Van Don Intl,BKN,"[{'cover': 'SCT', 'base': 1700}, {'cover': 'BKN', 'base': 2100}, {'cover': 'BKN', 'base': 3500}]",MVFR,,,,,,,,,,"Van Don Intl, 21, VN",VN,Viet Nam,27.888404892010524
2360,VYMD,2026-02-27 03:36:00.815000+00:00,1772163000,2026-02-27T03:30:00.000Z,28.0,16.0,220,2.0,3.73,1008.0,0,METAR,METAR VYMD 270330Z 22002KT 6000 HZ NSC 28/16 Q1008,21.702,95.978,87,Mandalay Intl,CLR,[],MVFR,,HZ,,,,,,,,"Mandalay Intl, 4, MM",MM,Myanmar,30.196056717677013
3254,VYYY,2026-02-27 03:35:35.577000+00:00,1772163000,2026-02-27T03:30:00.000Z,27.0,23.0,340,3.0,4.35,1009.0,16,METAR,METAR VYYY 270330Z 34003KT 7000 FEW020 SCT110 27/23 Q1009 NOSIG,16.906,96.137,31,Yangon Intl,SCT,"[{'cover': 'FEW', 'base': 2000}, {'cover': 'SCT', 'base': 11000}]",MVFR,,,,,,,,,,"Yangon Intl, 6, MM",MM,Myanmar,29.031084211253326
3936,WAAA,2026-02-27 03:36:10.827000+00:00,1772163000,2026-02-27T03:30:00.000Z,26.0,25.0,20,4.0,2.49,1008.0,0,METAR,METAR WAAA 270330Z 02004KT 350V050 4000 RA FEW017CB SCT018 26/25 Q1008 TEMPO TL0345 2000 RMK CB IN CLIMB-OUT,-5.062,119.554,13,Makassar/Hasanuddin Intl,SCT,"[{'cover': 'FEW', 'base': 1700}, {'cover': 'SCT', 'base': 1800}]",IFR,,RA,,,,,,,,"Makassar/Hasanuddin Intl, SN, ID",ID,Indonesia,27.8225869957963
438,WABB,2026-02-27 03:35:34.212000+00:00,1772163000,2026-02-27T03:30:00.000Z,30.0,26.0,230,6.0,6+,1004.0,16,METAR,METAR WABB 270330Z 23006KT 9999 FEW015 SCT100 30/26 Q1004 NOSIG,-1.19,136.108,12,Biak/Kaisiepo Arpt,SCT,"[{'cover': 'FEW', 'base': 1500}, {'cover': 'SCT', 'base': 10000}]",VFR,,,,,,,,,,"Biak/Kaisiepo Arpt, PA, ID",ID,Indonesia,32.53975185740027
926,WADD,2026-02-27 03:35:34.644000+00:00,1772163000,2026-02-27T03:30:00.000Z,30.0,24.0,290,15.0,6+,1006.0,16,METAR,METAR WADD 270330Z 29015KT 9999 SCT016 30/24 Q1006 NOSIG,-8.748,115.167,3,Bali/Rai Intl,SCT,"[{'cover': 'SCT', 'base': 1600}]",VFR,,,,,,,,,,"Bali/Rai Intl, BA, ID",ID,Indonesia,32.66103117271372
2371,WADL,2026-02-27 03:35:24.918000+00:00,1772163000,2026-02-27T03:30:00.000Z,28.0,22.0,290,11.0,4.35,1007.0,16,METAR,METAR WADL 270330Z 29011KT 270V330 7000 BKN016 28/22 Q1007 NOSIG,-8.757,116.277,97,Lombok Intl,BKN,"[{'cover': 'BKN', 'base': 1600}]",MVFR,,,,,,,,,,"Lombok Intl, NB, ID",ID,Indonesia,30.091755377947
4107,WAHI,2026-02-27 03:47:42.816000+00:00,1772163000,2026-02-27T03:30:00.000Z,25.0,24.0,350,6.0,4.97,1009.0,1,METAR,METAR WAHI 270330Z COR 35006KT 310V020 8000 -RA BKN016 25/24 Q1009 TEMPO TL0430 3000 RA,-7.9041,110.0575,7,Yogyakarta Intl,BKN,"[{'cover': 'BKN', 'base': 1600}]",MVFR,,-RA,,,,,,,,"Yogyakarta Intl, YO, ID",ID,Indonesia,26.520717107304172
940,WAJJ,2026-02-27 03:35:30.491000+00:00,1772163000,2026-02-27T03:30:00.000Z,31.0,25.0,250,5.0,6+,1002.0,16,METAR,METAR WAJJ 270330Z 25005KT 220V300 9999 FEW012 31/25 Q1002 NOSIG,-2.573,140.514,93,Jayapura/Sentani Arpt,FEW,"[{'cover': 'FEW', 'base': 1200}]",VFR,,,,,,,,,,"Jayapura/Sentani Arpt, PA, ID",ID,Indonesia,33.70473493921963
449,WALL,2026-02-27 03:35:24.841000+00:00,1772163000,2026-02-27T03:30:00.000Z,29.0,26.0,240,6.0,6+,1008.0,0,METAR,METAR WALL 270330Z 24006KT 9999 SCT019 29/26 Q1008,-1.268,116.894,3,Sepinggan Intl,SCT,"[{'cover': 'SCT', 'base': 1900}]",VFR,,,,,,,,,,"Sepinggan Intl, KI, ID",ID,Indonesia,31.33594490738105
2370,WAMM,2026-02-27 03:35:24.319000+00:00,1772163000,2026-02-27T03:30:00.000Z,29.0,26.0,VRB,5.0,6+,1009.0,16,METAR,METAR WAMM 270330Z VRB05KT 9999 SCT018 29/26 Q1009 RERA NOSIG,1.541,124.926,86,Manado/Ratulangi Intl,SCT,"[{'cover': 'SCT', 'base': 1800}]",VFR,,,,,,,,,,"Manado/Ratulangi Intl, SA, ID",ID,Indonesia,31.330603770007517
448,WAOO,2026-02-27 03:35:24.759000+00:00,1772163000,2026-02-27T03:30:00.000Z,31.0,23.0,270,12.0,6+,1008.0,16,METAR,METAR WAOO 270330Z 27012KT 250V360 9999 SCT018 31/23 Q1008 NOSIG,-3.44,114.759,23,Banjarmasin/Syamsudin Noor Arpt,SCT,"[{'cover': 'SCT', 'base': 1800}]",VFR,,,,,,,,,,"Banjarmasin/Syamsudin Noor Arpt, KS, ID",ID,Indonesia,33.90194243688362
192,WAPP,2026-02-27 03:35:39.682000+00:00,1772163000,2026-02-27T03:30:00.000Z,32.0,25.0,360,7.0,6+,1004.0,16,METAR,METAR WAPP 270330Z 36007KT 320V060 9999 SCT017 32/25 Q1004 NOSIG,-3.71,128.089,20,Ambon/Pattimura Arpt,SCT,"[{'cover': 'SCT', 'base': 1700}]",VFR,,,,,,,,,,"Ambon/Pattimura Arpt, MA, ID",ID,Indonesia,34.995626768977026
3527,WARR,2026-02-27 03:35:34.705000+00:00,1772163000,2026-02-27T03:30:00.000Z,32.0,23.0,10,7.0,6+,1007.0,16,METAR,METAR WARR 270330Z 01007KT 9999 FEW020 32/23 Q1007 NOSIG,-7.38,112.787,3,Surabaya/Juanda Intl,FEW,"[{'cover': 'FEW', 'base': 2000}]",VFR,,,,,,,,,,"Surabaya/Juanda Intl, JI, ID",ID,Indonesia,34.995626768977026
2110,WATT,2026-02-27 03:35:30.675000+00:00,1772163000,2026-02-27T03:30:00.000Z,31.0,26.0,320,10.0,6+,1005.0,16,METAR,METAR WATT 270330Z 32010KT 9999 BKN016 31/26 Q1005 NOSIG,-10.172,123.671,104,Kupang/El Tari Arpt,BKN,"[{'cover': 'BKN', 'base': 1600}]",MVFR,,,,,,,,,,"Kupang/El Tari Arpt, NT, ID",ID,Indonesia,33.85856502829369
1920,WBGG,2026-02-27 03:38:37.700000+00:00,1772163000,2026-02-27T03:30:00.000Z,31.0,24.0,VRB,4.0,6+,1010.0,16,METAR,METAR WBGG 270330Z VRB04KT 9999 FEW016 31/24 Q1010 NOSIG,1.484,110.34,26,Kuching Intl,FEW,"[{'cover': 'FEW', 'base': 1600}]",VFR,,,,,,,,,,"Kuching Intl, SR, MY",MY,Malaysia,33.658734127969716
469,WBKK,2026-02-27 03:38:37.729000+00:00,1772163000,2026-02-27T03:30:00.000Z,30.0,25.0,230,6.0,6+,1009.0,16,METAR,METAR WBKK 270330Z 23006KT 150V320 9999 FEW014 30/25 Q1009 NOSIG,5.937,116.051,9,Kota Kinabalu Intl,FEW,"[{'cover': 'FEW', 'base': 1400}]",VFR,,,,,,,,,,"Kota Kinabalu Intl, SB, MY",MY,Malaysia,32.53975185740027
721,WBSB,2026-02-27 03:38:37.755000+00:00,1772163000,2026-02-27T03:30:00.000Z,29.0,24.0,220,5.0,6+,1010.0,16,METAR,METAR WBSB 270330Z 22005KT 9999 FEW015 BKN140 29/24 Q1010 NOSIG,4.944,114.928,15,Brunei Intl,BKN,"[{'cover': 'FEW', 'base': 1500}, {'cover': 'BKN', 'base': 14000}]",VFR,,,,,,,,,,"Brunei Intl, BM, BN",BN,Brunei Darussalam,31.330603770007517
3033,WIBB,2026-02-27 03:35:24.394000+00:00,1772163000,2026-02-27T03:30:00.000Z,31.0,19.0,310,7.0,5.59,1008.0,16,METAR,METAR WIBB 270330Z 31007KT 9000 NSC 31/19 Q1008 NOSIG,0.461,101.445,41,Pakanbaru/Kasim Arpt,CLR,[],VFR,,,,,,,,,,"Pakanbaru/Kasim Arpt, RI, ID",ID,Indonesia,33.77727915788549
694,WIDD,2026-02-27 03:35:34.482000+00:00,1772163000,2026-02-27T03:30:00.000Z,27.0,24.0,350,3.0,6+,1010.0,16,METAR,METAR WIDD 270330Z 35003KT 9999 FEW014 27/24 Q1010 NOSIG,1.121,104.119,26,Batam/Hang Nadim,FEW,"[{'cover': 'FEW', 'base': 1400}]",VFR,,,,,,,,,,"Batam/Hang Nadim, RI, ID",ID,Indonesia,29.031084211253326
3744,WIDN,2026-02-27 03:35:24.462000+00:00,1772163000,2026-02-27T03:30:00.000Z,30.0,24.0,310,6.0,6+,1010.0,16,METAR,METAR WIDN 270330Z 31006KT 250V350 9999 SCT020 30/24 Q1010 NOSIG,0.923,104.532,18,Tanjung Pinang Arpt,SCT,"[{'cover': 'SCT', 'base': 2000}]",VFR,,,,,,,,,,"Tanjung Pinang Arpt, RI, ID",ID,Indonesia,32.53975185740027
1734,WIHH,2026-02-27 03:35:34.312000+00:00,1772163000,2026-02-27T03:30:00.000Z,26.0,24.0,260,10.0,3.11,1009.0,16,METAR,METAR WIHH 270330Z 26010KT 5000 -RA SCT016 26/24 Q1009 NOSIG,-6.267,106.891,26,Jakarta/Perdanakusum,SCT,"[{'cover': 'SCT', 'base': 1600}]",MVFR,,-RA,,,,,,,,"Jakarta/Perdanakusum, JK, ID",ID,Indonesia,27.59156926121051
693,WIII,2026-02-27 03:35:34.400000+00:00,1772163000,2026-02-27T03:30:00.000Z,25.0,24.0,230,9.0,3.11,1009.0,16,METAR,METAR WIII 270330Z 23009KT 5000 -RA BKN020 25/24 Q1009 NOSIG,-6.125,106.659,9,Jakarta/Hatta Intl,BKN,"[{'cover': 'BKN', 'base': 2000}]",MVFR,,-RA,,,,,,,,"Jakarta/Hatta Intl, JB, ID",ID,Indonesia,26.37705236611171
3745,WILL,2026-02-27 03:35:30.613000+00:00,1772163000,2026-02-27T03:30:00.000Z,31.0,21.0,VRB,3.0,6+,1009.0,16,METAR,METAR WILL 270330Z VRB03KT 9999 SCT015 31/21 Q1009 NOSIG,-5.242,105.179,83,Bandar Lampung Intl,SCT,"[{'cover': 'SCT', 'base': 1500}]",VFR,,,,,,,,,,"Bandar Lampung Intl, SS, ID",ID,Indonesia,33.601801488224545
2092,WIMM,2026-02-27 03:35:34.555000+00:00,1772163000,2026-02-27T03:30:00.000Z,29.0,24.0,240,2.0,5.59,1009.0,16,METAR,METAR WIMM 270330Z 24002KT 9000 BKN017 29/24 Q1009 NOSIG,3.636,98.874,7,Medan/Kualanamu Intl,BKN,"[{'cover': 'BKN', 'base': 1700}]",MVFR,,,,,,,,,,"Medan/Kualanamu Intl, SU, ID",ID,Indonesia,31.30599823627919
3034,WIOO,2026-02-27 03:35:24.628000+00:00,1772163000,2026-02-27T03:30:00.000Z,31.0,25.0,340,4.0,6+,1009.0,16,METAR,METAR WIOO 270330Z 34004KT 9999 SCT012 31/25 Q1009 NOSIG,-0.151,109.404,4,Pontianak/Supadio Arpt,SCT,"[{'cover': 'SCT', 'base': 1200}]",VFR,,,,,,,,,,"Pontianak/Supadio Arpt, KB, ID",ID,Indonesia,33.658734127969716
3035,WIPP,2026-02-27 03:35:24.696000+00:00,1772163000,2026-02-27T03:30:00.000Z,30.0,26.0,VRB,2.0,6+,1009.0,16,METAR,METAR WIPP 270330Z VRB02KT 9999 SCT015 30/26 Q1009 NOSIG,-2.898,104.7,7,Palembang/Badaruddin Arpt,SCT,"[{'cover': 'SCT', 'base': 1500}]",VFR,,,,,,,,,,"Palembang/Badaruddin Arpt, SS, ID",ID,Indonesia,32.41593975488137
708,WITT,2026-02-27 03:35:24.984000+00:00,1772163000,2026-02-27T03:30:00.000Z,29.0,22.0,VRB,1.0,6+,1009.0,16,METAR,METAR WITT 270330Z VRB01KT 9999 SCT018 29/22 Q1009 NOSIG,5.524,95.42,21,Banda Aceh,SCT,"[{'cover': 'SCT', 'base': 1800}]",VFR,,,,,,,,,,"Banda Aceh, AC, ID",ID,Indonesia,31.289639828311934
2123,WMKK,2026-02-27 03:38:37.780000+00:00,1772163000,2026-02-27T03:30:00.000Z,31.0,22.0,VRB,6.0,5.59,1009.0,16,METAR,METAR WMKK 270330Z VRB06KT 9000 FEW018 31/22 Q1009 NOSIG,2.747,101.714,21,Kuala Lumpur Intl,FEW,"[{'cover': 'FEW', 'base': 1800}]",VFR,,,,,,,,,,"Kuala Lumpur Intl, SL, MY",MY,Malaysia,33.743558807419504
3048,WMKP,2026-02-27 03:38:37.810000+00:00,1772163000,2026-02-27T03:30:00.000Z,29.0,22.0,80,3.0,4.35,1009.0,16,METAR,METAR WMKP 270330Z 08003KT 050V130 7000 FEW020 29/22 Q1009 NOSIG,5.297,100.277,4,Penang Intl,FEW,"[{'cover': 'FEW', 'base': 2000}]",MVFR,,,,,,,,,,"Penang Intl, 7, MY",MY,Malaysia,31.316442849738944
3110,WSAP,2026-02-27 04:02:25.132000+00:00,1772164800,2026-02-27T04:00:00.000Z,29.0,24.0,330,3.0,6+,1010.0,0,METAR,METAR WSAP 270400Z 33003KT 9999 FEW018 BKN280 29/24 Q1010,1.36,103.909,20,Singapore/Pays,BKN,"[{'cover': 'FEW', 'base': 1800}, {'cover': 'BKN', 'base': 28000}]",VFR,,,,,,,,,,"Singapore/Pays, 4, SG",SG,Singapore,31.316442849738944
3334,WSSS,2026-02-27 04:00:51.879000+00:00,1772164800,2026-02-27T04:00:00.000Z,28.0,24.0,VRB,2.0,6+,1009.0,16,METAR,METAR WSSS 270400Z VRB02KT 9999 FEW018 SCT200 28/24 Q1009 NOSIG,1.368,103.982,17,Singapore/Changi Intl,SCT,"[{'cover': 'FEW', 'base': 1800}, {'cover': 'SCT', 'base': 20000}]",VFR,,,,,,,,,,"Singapore/Changi Intl, 4, SG",SG,Singapore,30.196056717677013
194,YBAS,2026-02-27 03:36:08.177000+00:00,1772163000,2026-02-27T03:30:00.000Z,28.0,23.0,150,10.0,6+,1003.0,2,METAR,METAR YBAS 270330Z AUTO 15010KT 9999 // FEW023 BKN039 BKN046 28/23 Q1003,-23.795,133.889,549,Alice Springs Arpt,BKN,"[{'cover': 'FEW', 'base': 2300}, {'cover': 'BKN', 'base': 3900}, {'cover': 'BKN', 'base': 4600}]",VFR,,,,,,,,,,"Alice Springs Arpt, NT, AU",AU,Australia,30.098367568043777
466,YBBN,2026-02-27 03:46:12.894000+00:00,1772163000,2026-02-27T03:30:00.000Z,28.0,22.0,90,13.0,6+,1010.0,0,METAR,METAR YBBN 270330Z 09013KT 9999 VCSH FEW015 SCT029 BKN048 28/22 Q1010,-27.391,153.13,3,Brisbane Intl,BKN,"[{'cover': 'FEW', 'base': 1500}, {'cover': 'SCT', 'base': 2900}, {'cover': 'BKN', 'base': 4800}]",VFR,,VCSH,,,,,,,,"Brisbane Intl, QL, AU",AU,Australia,30.07991985834918
2787,YBCG,2026-02-27 03:38:06.252000+00:00,1772163000,2026-02-27T03:30:00.000Z,28.0,22.0,100,15.0,6+,1011.0,2,METAR,METAR YBCG 270330Z AUTO 10015KT 9999 // SCT022 SCT032 BKN047 28/22 Q1011,-28.168,153.505,5,Coolangatta/Gold Coast Arpt,BKN,"[{'cover': 'SCT', 'base': 2200}, {'cover': 'SCT', 'base': 3200}, {'cover': 'BKN', 'base': 4700}]",VFR,,,,,,,,,,"Coolangatta/Gold Coast Arpt, QL, AU",AU,Australia,30.069526764037455
948,YBCS,2026-02-27 03:38:06.281000+00:00,1772163000,2026-02-27T03:30:00.000Z,31.0,24.0,50,10.0,6+,1002.0,2,METAR,METAR YBCS 270330Z AUTO 05010KT 9999 // FEW051 BKN079 31/24 Q1002,-16.874,145.745,2,Cairns Intl,BKN,"[{'cover': 'FEW', 'base': 5100}, {'cover': 'BKN', 'base': 7900}]",VFR,,,,,,,,,,"Cairns Intl, QL, AU",AU,Australia,33.85856502829369
1738,YBHM,2026-02-27 03:36:16.828000+00:00,1772163000,2026-02-27T03:30:00.000Z,28.0,24.0,150,13.0,6+,1003.0,2,METAR,METAR YBHM 270330Z AUTO 15013KT 9999 // NCD 28/24 Q1003,-20.357,148.949,4,Hamilton Island Arpt,CLR,[],VFR,,,,,,,,,,"Hamilton Island Arpt, QL, AU",AU,Australia,30.07991985834918
447,YBLN,2026-02-27 03:35:14.020000+00:00,1772163000,2026-02-27T03:30:00.000Z,29.0,15.0,190,5.0,6+,1008.0,2,METAR,METAR YBLN 270330Z AUTO 19005KT 120V230 9999 // NCD 29/15 Q1008,-33.688,115.402,17,Busselton Rgnl,CLR,[],VFR,,,,,,,,,,"Busselton Rgnl, WA, AU",AU,Australia,31.330603770007517
1736,YBMA,2026-02-27 03:36:08.226000+00:00,1772163000,2026-02-27T03:30:00.000Z,31.0,24.0,30,9.0,6+,1003.0,2,METAR,METAR YBMA 270330Z AUTO 03009KT 9999 // BKN033 31/24 Q1003,-20.678,139.488,346,Mount Isa Arpt,BKN,"[{'cover': 'BKN', 'base': 3300}]",VFR,,,,,,,,,,"Mount Isa Arpt, QL, AU",AU,Australia,33.83406886237376
3256,YBRK,2026-02-27 03:36:08.275000+00:00,1772163000,2026-02-27T03:30:00.000Z,31.0,23.0,110,13.0,6+,1005.0,2,METAR,METAR YBRK 270330Z AUTO 11013KT 9999 // FEW069 31/23 Q1005,-23.375,150.477,10,Rockhampton Arpt,FEW,"[{'cover': 'FEW', 'base': 6900}]",VFR,,,,,,,,,,"Rockhampton Arpt, QL, AU",AU,Australia,33.92138933735862
446,YBRM,2026-02-27 03:36:08.307000+00:00,1772163000,2026-02-27T03:30:00.000Z,29.0,26.0,290,6.0,6+,1003.0,2,METAR,METAR YBRM 270330Z AUTO 29006KT 9999 // NCD 29/26 Q1003,-17.948,122.235,11,Broome Arpt,CLR,[],VFR,,,,,,,,,,"Broome Arpt, WA, AU",AU,Australia,31.33594490738105
2369,YBSU,2026-02-27 03:35:15.168000+00:00,1772163000,2026-02-27T03:30:00.000Z,26.0,22.0,110,11.0,6+,1009.0,2,METAR,METAR YBSU 270330Z AUTO 11011KT 9999 // SCT040 SCT051 OVC070 26/22 Q1009,-26.603,153.091,4,Sunshine Coast Arpt,OVC,"[{'cover': 'SCT', 'base': 4000}, {'cover': 'SCT', 'base': 5100}, {'cover': 'OVC', 'base': 7000}]",VFR,,,,,,,,,,"Sunshine Coast Arpt, QL, AU",AU,Australia,27.56553691737529
3735,YBTL,2026-02-27 03:36:20.289000+00:00,1772163000,2026-02-27T03:30:00.000Z,31.0,23.0,50,11.0,6+,1003.0,0,METAR,METAR YBTL 270330Z 05011KT 9999 FEW035 31/23 Q1003,-19.248,146.766,4,Townsville Arpt,FEW,"[{'cover': 'FEW', 'base': 3500}]",VFR,,,,,,,,,,"Townsville Arpt, QL, AU",AU,Australia,33.88108306880456
4102,YBWW,2026-02-27 03:35:13.844000+00:00,1772163000,2026-02-27T03:30:00.000Z,26.0,19.0,100,17.0,6+,1012.0,2,METAR,METAR YBWW 270330Z AUTO 10017KT 9999 // SCT019 BKN046 BKN057 26/19 Q1012,-27.558,151.793,460,Toowoomba/Wellcamp Arpt,BKN,"[{'cover': 'SCT', 'base': 1900}, {'cover': 'BKN', 'base': 4600}, {'cover': 'BKN', 'base': 5700}]",VFR,,,,,,,,,,"Toowoomba/Wellcamp Arpt, QL, AU",AU,Australia,27.441457379449204
705,YCFS,2026-02-27 03:35:14.361000+00:00,1772163000,2026-02-27T03:30:00.000Z,27.0,21.0,160,10.0,6+,1015.0,2,METAR,METAR YCFS 270330Z AUTO 16010KT 9999 // SCT033 BKN044 27/21 Q1015,-30.317,153.119,2,Coffs Harbour Arpt,BKN,"[{'cover': 'SCT', 'base': 3300}, {'cover': 'BKN', 'base': 4400}]",VFR,,,,,,,,,,"Coffs Harbour Arpt, NS, AU",AU,Australia,28.844968414627132
932,YCIN,2026-02-27 03:36:16.850000+00:00,1772163000,2026-02-27T03:30:00.000Z,29.0,23.0,290,5.0,6+,1003.0,2,METAR,METAR YCIN 270330Z AUTO 29005KT 240V320 9999 // NCD 29/23 Q1003,-17.574,123.831,83,Curtin,CLR,[],VFR,,,,,,,,,,"Curtin, WA, AU",AU,Australia,31.330603770007517
1226,YFRT,2026-02-27 03:36:16.873000+00:00,1772163000,2026-02-27T03:30:00.000Z,25.0,17.0,150,9.0,6+,1010.0,2,METAR,METAR YFRT 270330Z AUTO 15009KT 120V180 9999 // SCT025 25/17 Q1010,-30.848,128.114,159,Forrest Arpt,SCT,"[{'cover': 'SCT', 'base': 2500}]",VFR,,,,,,,,,,"Forrest Arpt, WA, AU",AU,Australia,26.37705236611171
1501,YGEL,2026-02-27 03:35:22.092000+00:00,1772163000,2026-02-27T03:30:00.000Z,29.0,20.0,210,12.0,6+,1006.0,2,METAR,METAR YGEL 270330Z AUTO 21012KT 9999 // NCD 29/20 Q1006,-28.805,114.699,32,Geraldton Arpt,CLR,[],VFR,,,,,,,,,,"Geraldton Arpt, WA, AU",AU,Australia,31.357734305550537
1502,YGLA,2026-02-27 03:35:22.207000+00:00,1772163000,2026-02-27T03:30:00.000Z,31.0,24.0,90,18.0,6+,1006.0,2,METAR,METAR YGLA 270330Z AUTO 09018KT 9999 // FEW021 31/24 Q1006,-23.87,151.221,17,Gladstone Arpt,FEW,"[{'cover': 'FEW', 'base': 2100}]",VFR,,,,,,,,,,"Gladstone Arpt, QL, AU",AU,Australia,34.00306815715023
1746,YHID,2026-02-27 03:35:22.301000+00:00,1772163000,2026-02-27T03:30:00.000Z,28.0,25.0,310,13.0,6+,1002.0,2,METAR,METAR YHID 270330Z AUTO 31013KT 9999 // BKN019 BKN024 28/25 Q1002,-10.584,142.29,5,Horn Island Arpt,BKN,"[{'cover': 'BKN', 'base': 1900}, {'cover': 'BKN', 'base': 2400}]",MVFR,,,,,,,,,,"Horn Island Arpt, QL, AU",AU,Australia,30.07991985834918
2108,YLHI,2026-02-27 03:35:14.766000+00:00,1772163000,2026-02-27T03:30:00.000Z,25.0,19.0,90,17.0,6+,1014.0,0,METAR,METAR YLHI 270330Z 09017KT 9999 FEW027 25/19 Q1014,-31.538,159.077,2,Lord Howe Island Arpt,FEW,"[{'cover': 'FEW', 'base': 2700}]",VFR,,,,,,,,,,"Lord Howe Island Arpt, NS, AU",AU,Australia,26.132066421371732
201,YMAV,2026-02-27 03:36:16.903000+00:00,1772163000,2026-02-27T03:30:00.000Z,26.0,17.0,110,13.0,6+,1013.0,2,METAR,METAR YMAV 270330Z AUTO 11013KT 9999 // SCT076 SCT097 BKN120 26/17 Q1013,-38.029,144.478,11,Avalon Arpt,BKN,"[{'cover': 'SCT', 'base': 7600}, {'cover': 'SCT', 'base': 9700}, {'cover': 'BKN', 'base': 12000}]",VFR,,,,,,,,,,"Avalon Arpt, VI, AU",AU,Australia,27.518940205676202
1511,YMHB,2026-02-27 03:38:06.311000+00:00,1772163000,2026-02-27T03:30:00.000Z,23.0,7.0,140,10.0,6+,1021.0,2,METAR,METAR YMHB 270330Z AUTO 14010KT 9999 // NCD 23/07 Q1021,-42.834,147.503,2,Hobart Intl,CLR,[],VFR,,,,,,,,,,"Hobart Intl, TA, AU",AU,Australia,23.8313718009606
2366,YMLT,2026-02-27 03:36:16.934000+00:00,1772163000,2026-02-27T03:30:00.000Z,23.0,6.0,200,5.0,6+,1021.0,2,METAR,METAR YMLT 270330Z AUTO 20005KT 9999 // BKN062 23/06 Q1021,-41.544,147.213,167,Launceston Arpt,BKN,"[{'cover': 'BKN', 'base': 6200}]",VFR,,,,,,,,,,"Launceston Arpt, TA, AU",AU,Australia,24.208210262371225
2367,YMML,2026-02-27 03:38:06.336000+00:00,1772163000,2026-02-27T03:30:00.000Z,32.0,18.0,10,12.0,6+,1013.0,2,METAR,METAR YMML 270330Z AUTO 01012KT 9999 // SCT069 BKN095 BKN120 32/18 Q1013,-37.666,144.832,115,Melbourne Intl,BKN,"[{'cover': 'SCT', 'base': 6900}, {'cover': 'BKN', 'base': 9500}, {'cover': 'BKN', 'base': 12000}]",VFR,,,,,,,,,,"Melbourne Intl, VI, AU",AU,Australia,35.17404650255015
203,YPAD,2026-02-27 03:36:19.736000+00:00,1772163000,2026-02-27T03:30:00.000Z,31.0,13.0,220,10.0,6+,1008.0,0,METAR,METAR YPAD 270330Z 22010KT CAVOK 31/13 Q1008,-34.952,138.52,2,Adelaide Intl,CAVOK,[],VFR,,,,,,,,,,"Adelaide Intl, SA, AU",AU,Australia,33.85856502829369
697,YPCC,2026-02-27 03:36:08.336000+00:00,1772163000,2026-02-27T03:30:00.000Z,28.0,27.0,130,14.0,6+,1007.0,2,METAR,METAR YPCC 270330Z AUTO 13014KT 9999 // FEW024 SCT033 BKN040 28/27 Q1007,-12.189,96.834,3,Cocos Isl Intl,BKN,"[{'cover': 'FEW', 'base': 2400}, {'cover': 'SCT', 'base': 3300}, {'cover': 'BKN', 'base': 4000}]",VFR,,,,,,,,,,"Cocos Isl Intl, , CC",CC,Cocos (Keeling) Islands,30.074567272965382
794,YPDN,2026-02-27 04:01:03.730000+00:00,1772164560,2026-02-27T03:56:00.000Z,29.0,27.0,300,12.0,6+,1002.0,2,SPECI,SPECI YPDN 270356Z AUTO 30012KT 9999 // SCT011 29/27 Q1002,-12.424,130.893,32,Darwin Intl,SCT,"[{'cover': 'SCT', 'base': 1100}]",VFR,,,,,,,,,,"Darwin Intl, NT, AU",AU,Australia,31.357734305550537
1494,YPGV,2026-02-27 03:36:16.963000+00:00,1772163000,2026-02-27T03:30:00.000Z,32.0,25.0,310,12.0,6+,1001.0,2,METAR,METAR YPGV 270330Z AUTO 31012KT 9999 // SCT033 SCT040 32/25 Q1001,-12.274,136.82,53,Gove Arpt,SCT,"[{'cover': 'SCT', 'base': 3300}, {'cover': 'SCT', 'base': 4000}]",VFR,,,,,,,,,,"Gove Arpt, NT, AU",AU,Australia,35.17404650255015
1907,YPJT,2026-02-27 03:35:22.392000+00:00,1772163000,2026-02-27T03:30:00.000Z,33.0,12.0,330,5.0,6+,1006.0,2,METAR,METAR YPJT 270330Z AUTO 33005KT 300V360 9999 // NCD 33/12 Q1006,-32.101,115.879,29,Perth/Jandakot Arpt,CLR,[],VFR,,,,,,,,,,"Perth/Jandakot Arpt, WA, AU",AU,Australia,36.07886610843173
1906,YPKG,2026-02-27 03:36:16.989000+00:00,1772163000,2026-02-27T03:30:00.000Z,30.0,8.0,140,9.0,6+,1010.0,2,METAR,METAR YPKG 270330Z AUTO 14009KT 070V150 9999 // NCD 30/08 Q1010,-30.785,121.453,372,Kalgoorlie/Boulder Arpt,CLR,[],VFR,,,,,,,,,,"Kalgoorlie/Boulder Arpt, WA, AU",AU,Australia,32.591232779663414
2104,YPKU,2026-02-27 03:36:17.018000+00:00,1772163000,2026-02-27T03:30:00.000Z,33.0,26.0,280,7.0,6+,1001.0,2,METAR,METAR YPKU 270330Z AUTO 28007KT 9999 // SCT033 33/26 Q1001,-15.781,128.71,42,Kununurra Arpt,SCT,"[{'cover': 'SCT', 'base': 3300}]",VFR,,,,,,,,,,"Kununurra Arpt, WA, AU",AU,Australia,36.2139743800686
2096,YPLM,2026-02-27 03:36:08.366000+00:00,1772163000,2026-02-27T03:30:00.000Z,33.0,23.0,90,8.0,6+,1002.0,2,METAR,METAR YPLM 270330Z AUTO 09008KT 9999 // NCD 33/23 Q1002,-22.241,114.097,5,Learmonth Arpt,CLR,[],VFR,,,,,,,,,,"Learmonth Arpt, WA, AU",AU,Australia,36.26964185158928
3020,YPPD,2026-02-27 03:36:08.397000+00:00,1772163000,2026-02-27T03:30:00.000Z,34.0,26.0,340,14.0,6+,1003.0,2,METAR,METAR YPPD 270330Z AUTO 34014KT 9999 // NCD 34/26 Q1003,-20.372,118.632,6,Port Hedland Intl,CLR,[],VFR,,,,,,,,,,"Port Hedland Intl, WA, AU",AU,Australia,37.804668228535725
3024,YPPH,2026-02-27 03:36:20.086000+00:00,1772163000,2026-02-27T03:30:00.000Z,37.0,7.0,240,8.0,6+,1006.0,0,METAR,METAR YPPH 270330Z 24008KT CAVOK 37/07 Q1006,-31.927,115.976,16,Perth Intl,CAVOK,[],VFR,,,,,,,,,,"Perth Intl, WA, AU",AU,Australia,41.19458772768127
1980,YPTN,2026-02-27 04:00:04.598000+00:00,1772164740,2026-02-27T03:59:00.000Z,28.0,25.0,270,1.0,4.35,1001.0,2,SPECI,SPECI YPTN 270359Z AUTO 27001KT 7000 SHRA FEW027 BKN035 BKN043 28/25 Q1001,-14.523,132.383,135,Tindal Arpt,BKN,"[{'cover': 'FEW', 'base': 2700}, {'cover': 'BKN', 'base': 3500}, {'cover': 'BKN', 'base': 4300}]",MVFR,,SHRA,,,,,,,,"Tindal Arpt, NT, AU",AU,Australia,30.230972423480846
3949,YPWR,2026-02-27 03:35:22.541000+00:00,1772163000,2026-02-27T03:30:00.000Z,32.0,19.0,50,10.0,6+,1008.0,2,METAR,METAR YPWR 270330Z AUTO 05010KT 9999 // SCT048 BKN066 OVC099 32/19 Q1008,-31.156,136.805,169,Woomera Arpt,OVC,"[{'cover': 'SCT', 'base': 4800}, {'cover': 'BKN', 'base': 6600}, {'cover': 'OVC', 'base': 9900}]",VFR,,,,,,,,,,"Woomera Arpt, SA, AU",AU,Australia,35.11196418171031
4099,YPXM,2026-02-27 03:36:08.452000+00:00,1772163000,2026-02-27T03:30:00.000Z,27.0,24.0,300,7.0,6+,1010.0,2,METAR,METAR YPXM 270330Z AUTO 30007KT 270V330 9999 // FEW010 27/24 Q1010,-10.453,105.688,262,Christmas Isl Arpt,FEW,"[{'cover': 'FEW', 'base': 1000}]",VFR,,,,,,,,,,"Christmas Isl Arpt, CX, CX",CX,Christmas Island,28.90388871351926
719,YSCB,2026-02-27 03:38:06.386000+00:00,1772163000,2026-02-27T03:30:00.000Z,23.0,15.0,110,14.0,6+,1019.0,2,METAR,METAR YSCB 270330Z AUTO 11014KT 9999 // OVC033 23/15 Q1019,-35.309,149.2,577,Canberra Intl,OVC,"[{'cover': 'OVC', 'base': 3300}]",VFR,,,,,,,,,,"Canberra Intl, AC, AU",AU,Australia,23.632816476656767
898,YSDU,2026-02-27 03:48:41.715000+00:00,1772163900,2026-02-27T03:45:00.000Z,33.0,15.0,90,17.0,6+,1012.0,2,SPECI,SPECI YSDU 270345Z AUTO 09017G27KT 9999 // NCD 33/15 Q1012,-32.221,148.575,285,Dubbo Rgnl,CLR,[],VFR,27.0,,,,,,,,,"Dubbo Rgnl, NS, AU",AU,Australia,36.60719408599156
2774,YSNF,2026-02-27 03:35:14.881000+00:00,1772163000,2026-02-27T03:30:00.000Z,25.0,19.0,110,14.0,6+,1011.0,0,METAR,METAR YSNF 270330Z 11014KT 9999 BKN021 SCT210 25/19 Q1011,-29.039,167.941,113,Norfolk Island Arpt,SCT,"[{'cover': 'BKN', 'base': 2100}, {'cover': 'SCT', 'base': 21000}]",MVFR,,,,,,,,,,"Norfolk Island Arpt, NS, NF",NF,Norfolk Island,26.209516795180214
4057,YSRI,2026-02-27 03:57:01.411000+00:00,1772164380,2026-02-27T03:53:00.000Z,21.0,20.0,160,10.0,6+,1018.0,2,SPECI,SPECI YSRI 270353Z AUTO 16010KT 9999 // SCT022 OVC029 OVC035 21/20 Q1018,-33.601,150.777,19,Richmond,OVC,"[{'cover': 'SCT', 'base': 2200}, {'cover': 'OVC', 'base': 2900}, {'cover': 'OVC', 'base': 3500}]",MVFR,,,,,,,,,,"Richmond, NS, AU",AU,Australia,21.32457349412732
3734,YSSY,2026-02-27 03:36:20.136000+00:00,1772163000,2026-02-27T03:30:00.000Z,25.0,18.0,120,16.0,6+,1018.0,0,METAR,METAR YSSY 270330Z 12016KT 9999 FEW026 SCT040 BKN055 25/18 Q1018,-33.946,151.173,3,Sydney Intl,BKN,"[{'cover': 'FEW', 'base': 2600}, {'cover': 'SCT', 'base': 4000}, {'cover': 'BKN', 'base': 5500}]",VFR,,,,,,,,,,"Sydney Intl, NS, AU",AU,Australia,26.15650890358931
3743,YSTW,2026-02-27 03:36:17.042000+00:00,1772163000,2026-02-27T03:30:00.000Z,33.0,11.0,110,8.0,6+,1013.0,2,METAR,METAR YSTW 270330Z AUTO 11008KT 050V130 9999 // NCD 33/11 Q1013,-31.084,150.847,404,Tamworth Arpt,CLR,[],VFR,,,,,,,,,,"Tamworth Arpt, NS, AU",AU,Australia,36.26964185158928
2767,YWLM,2026-02-27 03:37:03.038000+00:00,1772163000,2026-02-27T03:30:00.000Z,22.0,20.0,170,10.0,6+,1016.0,0,SPECI,SPECI YWLM 270330Z 17010KT 9999 -SHRA VCSH FEW012 BKN110 22/20 Q1016,-32.794,151.836,7,Williamtown/New Castle Arpt,BKN,"[{'cover': 'FEW', 'base': 1200}, {'cover': 'BKN', 'base': 11000}]",VFR,,-SHRA VCSH,,,,,,,,"Williamtown/New Castle Arpt, NS, AU",AU,Australia,22.57797264754396
3026,ZBAA,2026-02-27 03:35:33.251000+00:00,1772163000,2026-02-27T03:30:00.000Z,3.0,-4.0,210,6.0,6+,1022.0,16,METAR,METAR ZBAA 270330Z 21003MPS 180V240 9999 OVC040 03/M04 Q1022 NOSIG,40.082,116.603,31,Beijing Intl,OVC,"[{'cover': 'OVC', 'base': 4000}]",VFR,,,,,,,,,,"Beijing Intl, BJ, CN",CN,China,0.03696420688130549
3025,ZBAD,2026-02-27 03:35:33.312000+00:00,1772163000,2026-02-27T03:30:00.000Z,3.0,-3.0,VRB,2.0,6+,1022.0,16,METAR,METAR ZBAD 270330Z VRB01MPS 9999 BKN040 03/M03 Q1022 NOSIG,39.501,116.412,25,Beijing/Daxing Arpt,BKN,"[{'cover': 'BKN', 'base': 4000}]",VFR,,,,,,,,,,"Beijing/Daxing Arpt, BJ, CN",CN,China,2.4475187526224413
3738,ZBTJ,2026-02-27 03:35:33.374000+00:00,1772163000,2026-02-27T03:30:00.000Z,3.0,-2.0,VRB,2.0,4.35,1022.0,16,METAR,METAR ZBTJ 270330Z VRB01MPS 7000 BKN026 03/M02 Q1022 NOSIG,39.124,117.346,4,Tianjin/Binhai Intl,BKN,"[{'cover': 'BKN', 'base': 2600}]",MVFR,,,,,,,,,,"Tianjin/Binhai Intl, TJ, CN",CN,China,2.4475187526224413
3945,ZBYN,2026-02-27 03:35:33.440000+00:00,1772163000,2026-02-27T03:30:00.000Z,7.0,1.0,270,4.0,3.73,1015.0,16,METAR,METAR ZBYN 270330Z 27002MPS 220V340 6000 OVC033 07/01 Q1015 NOSIG,37.747,112.628,778,Taiyuan/Wusu Intl,OVC,"[{'cover': 'OVC', 'base': 3300}]",MVFR,,,,,,,,,,"Taiyuan/Wusu Intl, SX, CN",CN,China,5.645227893537354
701,ZGGG,2026-02-27 03:35:33.513000+00:00,1772163000,2026-02-27T03:30:00.000Z,26.0,20.0,200,4.0,6+,1011.0,16,METAR,METAR ZGGG 270330Z 20002MPS 160V260 9999 SCT016 BKN030 26/20 Q1011 NOSIG,23.392,113.307,11,Guangzhou/Baiyun Intl,BKN,"[{'cover': 'SCT', 'base': 1600}, {'cover': 'BKN', 'base': 3000}]",MVFR,,,,,,,,,,"Guangzhou/Baiyun Intl, GD, CN",CN,China,27.8225869957963
3817,ZMCK,2026-02-27 04:01:28.522000+00:00,1772164800,2026-02-27T04:00:00.000Z,-17.0,-22.0,90,12.0,6+,1012.0,16,METAR,METAR ZMCK 270400Z 09006MPS CAVOK M17/M22 Q1012 NOSIG RMK QFE644.4 64,47.651,106.822,1366,Ulaanbaatar Intl,CAVOK,[],VFR,,,,,,,,,,"Ulaanbaatar Intl, 1, MN",MN,Mongolia,-27.159052715110235
3814,ZMUB,2026-02-27 03:51:38.221000+00:00,1772164800,2026-02-27T04:00:00.000Z,-19.0,-25.0,VRB,2.0,6+,1014.0,16,METAR,METAR ZMUB 270400Z VRB01MPS CAVOK M19/M25 Q1014 NOSIG RMK QFE653.3 56,47.843,106.766,1300,Ulan-Bator/Khaan Arpt,CAVOK,[],VFR,,,,,,,,,,"Ulan-Bator/Khaan Arpt, 1, MN",MN,Mongolia,-21.971194656625574
1740,ZSHC,2026-02-27 03:35:33.592000+00:00,1772163000,2026-02-27T03:30:00.000Z,12.0,9.0,340,8.0,6+,1016.0,16,METAR,METAR ZSHC 270330Z 34004MPS 320V020 9999 BKN017 12/09 Q1016 NOSIG,30.229,120.434,8,Hangzhou/Xiaoshan Intl,BKN,"[{'cover': 'BKN', 'base': 1700}]",MVFR,,,,,,,,,,"Hangzhou/Xiaoshan Intl, ZJ, CN",CN,China,10.413676002106278
3015,ZSPD,2026-02-27 03:35:33.663000+00:00,1772163000,2026-02-27T03:30:00.000Z,11.0,11.0,360,14.0,6+,1016.0,16,METAR,METAR ZSPD 270330Z 36007MPS 9999 BKN007 11/11 Q1016 NOSIG,31.146,121.8,4,Shanghai/Pudong Intl,BKN,"[{'cover': 'BKN', 'base': 700}]",IFR,,,,,,,,,,"Shanghai/Pudong Intl, SH, CN",CN,China,8.172614565516088
3525,ZSSS,2026-02-27 03:35:33.736000+00:00,1772163000,2026-02-27T03:30:00.000Z,11.0,10.0,30,8.0,6+,1016.0,16,METAR,METAR ZSSS 270330Z 03004MPS 9999 BKN008 11/10 Q1016 NOSIG,31.209,121.337,2,Shanghai/Hongqiao Intl,BKN,"[{'cover': 'BKN', 'base': 800}]",IFR,,,,,,,,,,"Shanghai/Hongqiao Intl, SH, CN",CN,China,9.182439533083274
3932,ZWWW,2026-02-27 03:35:33.815000+00:00,1772163000,2026-02-27T03:30:00.000Z,-8.0,-11.0,50,2.0,3.73,1019.0,16,METAR,METAR ZWWW 270330Z 05001MPS 6000 NSC M08/M11 Q1019 NOSIG,43.907,87.474,654,Ürümqi/Diwopu Arpt,CLR,[],MVFR,,,,,,,,,,"Ürümqi/Diwopu Arpt, XJ, CN",CN,China,-9.761837952001564
925,ZYTL,2026-02-27 03:35:33.880000+00:00,1772163000,2026-02-27T03:30:00.000Z,3.0,-7.0,320,8.0,6+,1019.0,16,METAR,METAR ZYTL 270330Z 32004MPS 280V360 CAVOK 03/M07 Q1019 NOSIG,38.961,121.556,33,Dalian/Zhoushuizi Intl,CAVOK,[],VFR,,,,,,,,,,"Dalian/Zhoushuizi Intl, LN, CN",CN,China,-0.6674522191007229
3526,ZYTX,2026-02-27 03:35:33.950000+00:00,1772163000,2026-02-27T03:30:00.000Z,0.0,-12.0,330,4.0,6+,1021.0,16,METAR,METAR ZYTX 270330Z 33002MPS 270V020 9999 SCT026 OVC043 00/M12 Q1021 NOSIG,41.639,123.485,56,Shenyang/Taoxian Intl,OVC,"[{'cover': 'SCT', 'base': 2600}, {'cover': 'OVC', 'base': 4300}]",VFR,,,,,,,,,,"Shenyang/Taoxian Intl, LN, CN",CN,China,-2.525378091505422
