,icaoId,receiptTime,obsTime,reportTime,temp,dewp,wdir,wspd,visib,altim,qcField,wxString,precip,metarType,rawOb,lat,lon,elev,name,cover,clouds,fltCat,vertVis,wgst,slp,maxT,minT,letterCode2,country
4602,BGBW,2025-11-29 02:06:43.511000+00:00,1764381000,2025-11-29T02:00:00.000Z,-4.0,-12.0,60,10.0,,1007.0,2,,,METAR,METAR BGBW 290150Z AUTO 06010KT 9999NDV FEW140/// BKN190/// M04/M12 Q1007,61.164,-45.42,49,Narssarssuaq Arpt,BKN,"[{'cover': 'FEW', 'base': 14000}, {'cover': 'BKN', 'base': 19000}]",,,,,,,GL,Greenland
1645,BGGH,2025-11-29 01:53:18.068000+00:00,1764381000,2025-11-29T02:00:00.000Z,-2.0,-6.0,170,12.0,6+,1003.0,2,,,METAR,METAR BGGH 290150Z AUTO 17012KT 9999 FEW030/// BKN061/// M02/M06 Q1003,64.191,-51.677,76,Godthab/Nuuk Arpt,BKN,"[{'cover': 'FEW', 'base': 3000}, {'cover': 'BKN', 'base': 6100}]",VFR,,,,,,GL,Greenland
2168,BGJN,2025-11-29 02:06:43.565000+00:00,1764381000,2025-11-29T02:00:00.000Z,-2.0,-5.0,110,11.0,,999.0,2,-SHSN,,METAR,METAR BGJN 290150Z AUTO 11011KT 9999NDV -SHSN OVC050/// M02/M05 Q0999,69.24,-51.064,22,Ilulissat Arpt,OVC,"[{'cover': 'OVC', 'base': 5000}]",,,,,,,GL,Greenland
2397,BGKK,2025-11-29 02:06:43.605000+00:00,1764381000,2025-11-29T02:00:00.000Z,-5.0,-9.0,220,3.0,,1005.0,2,,,METAR,METAR BGKK 290150Z AUTO 22003KT 9999NDV FEW045/// BKN067/// M05/M09 Q1005,65.575,-37.133,37,Kulusuk Arpt,BKN,"[{'cover': 'FEW', 'base': 4500}, {'cover': 'BKN', 'base': 6700}]",,,,,,,GL,Greenland
4041,BGSF,2025-11-29 02:06:43.649000+00:00,1764381000,2025-11-29T02:00:00.000Z,-3.0,-10.0,60,6.0,,1002.0,2,,,METAR,METAR BGSF 290150Z AUTO 06006KT 020V100 9999NDV BKN065/// M03/M10 Q1002,67.013,-50.718,75,Stroemfjord Arpt,BKN,"[{'cover': 'BKN', 'base': 6500}]",,,,,,,GL,Greenland
4307,BGTL,2025-11-29 02:06:43.709000+00:00,1764381300,2025-11-29T02:00:00.000Z,-12.9,-21.7,120,9.0,6+,995.7,46,,,METAR,METAR BGTL 290155Z AUTO 12009KT 9999 OVC065 M13/M22 A2940 RMK AO2 SLP942 T11291217 TSNO $,76.527,-68.758,79,Thule,OVC,"[{'cover': 'OVC', 'base': 6500}]",VFR,,,994.2,,,GL,Greenland
59,BIAR,2025-11-29 02:03:13.176000+00:00,1764381600,2025-11-29T02:00:00.000Z,-7.0,-8.0,170,5.0,6+,1010.0,0,,,METAR,METAR BIAR 290200Z 17005KT 9999 OVC045 M07/M08 Q1010,65.655,-18.069,1,Akureyri Arpt,OVC,"[{'cover': 'OVC', 'base': 4500}]",VFR,,,,,,IS,Iceland
1157,BIEG,2025-11-29 02:03:13.204000+00:00,1764381600,2025-11-29T02:00:00.000Z,-5.0,-11.0,360,8.0,6+,1007.0,0,,,METAR,METAR BIEG 290200Z 36008KT 9999 BKN044 M05/M11 Q1007,65.275,-14.409,20,Egilsstaðir Arpt,BKN,"[{'cover': 'BKN', 'base': 4400}]",VFR,,,,,,IS,Iceland
2095,BIKF,2025-11-29 02:03:13.246000+00:00,1764381600,2025-11-29T02:00:00.000Z,-5.0,-11.0,20,9.0,6+,1008.0,0,,,METAR,METAR BIKF 290200Z 02009KT 9999 FEW031 M05/M11 Q1008,63.987,-22.614,49,Keflavik Intl,FEW,"[{'cover': 'FEW', 'base': 3100}]",VFR,,,,,,IS,Iceland
3604,BIRK,2025-11-29 02:03:13.270000+00:00,1764381600,2025-11-29T02:00:00.000Z,-7.0,-14.0,130,5.0,6+,1008.0,0,,,METAR,METAR BIRK 290200Z 13005KT CAVOK M07/M14 Q1008,64.129,-21.941,12,Reykjavik Arpt,CAVOK,[],VFR,,,,,,IS,Iceland
3341,BKPR,2025-11-29 02:04:24.391000+00:00,1764381600,2025-11-29T02:00:00.000Z,1.0,0.0,350,12.0,6+,1014.0,16,,,METAR,METAR BKPR 290200Z 35012KT 9999 FEW014 BKN030 01/M00 Q1014 NOSIG,42.576,21.03,545,Pristina Intl,BKN,"[{'cover': 'FEW', 'base': 1400}, {'cover': 'BKN', 'base': 3000}]",MVFR,,,,,,XK,
5038,CBBC,2025-11-29 02:07:26.248000+00:00,1764381600,2025-11-29T02:00:00.000Z,4.0,0.0,,,9,1024.5,2,,,METAR,METAR CBBC 290200Z AUTO /////KT 9SM OVC180 04/00 A3025 RMK WIND MISG SLP246,52.181,-128.154,36,Bella Bella Arpt,OVC,"[{'cover': 'OVC', 'base': 18000}]",VFR,,,1024.6,,,CA,Canada
4775,CYAH,2025-11-29 02:08:27.308000+00:00,1764381600,2025-11-29T02:00:00.000Z,-11.0,-13.0,30,3.0,9,1005.5,2,,,METAR,METAR CYAH 290200Z AUTO 03003KT 340V060 9SM SCT015 OVC160 M11/M13 A2969 RMK SLP081,53.757,-73.676,298,La Grande IV Arpt,OVC,"[{'cover': 'SCT', 'base': 1500}, {'cover': 'OVC', 'base': 16000}]",VFR,,,1008.1,,,CA,Canada
4740,CYAM,2025-11-29 02:08:27.329000+00:00,1764381600,2025-11-29T02:00:00.000Z,-5.0,-7.0,50,4.0,5,1023.5,0,-SHSN,,METAR,METAR CYAM 290200Z 05004KT 5SM -SHSN FEW010 SCT032 OVC044 M05/M07 A3022 RMK CF1CU4SC4 CF TR SLP246,46.484,-84.504,186,Sault Ste Marie Arpt,OVC,"[{'cover': 'FEW', 'base': 1000}, {'cover': 'SCT', 'base': 3200}, {'cover': 'OVC', 'base': 4400}]",MVFR,,,1024.6,,,CA,Canada
4744,CYAT,2025-11-29 02:07:38.575000+00:00,1764381600,2025-11-29T02:00:00.000Z,-6.0,-8.0,300,11.0,9,1018.0,2,,,METAR,METAR CYAT 290200Z AUTO 30011G17KT 9SM SCT014 M06/M08 A3006 RMK SLP183,52.927,-82.432,4,Attawapisket Arpt,SCT,"[{'cover': 'SCT', 'base': 1400}]",VFR,,17.0,1018.3,,,CA,Canada
4738,CYAY,2025-11-29 02:08:27.333000+00:00,1764381600,2025-11-29T02:00:00.000Z,0.0,-1.0,220,5.0,9,994.7,2,-SN,,METAR,METAR CYAY 290200Z AUTO 22005KT 9SM -SN SCT014 BKN026 BKN040 OVC120 M00/M01 A2937 RMK SLP951,51.39,-56.081,23,St Anthony Arpt,OVC,"[{'cover': 'SCT', 'base': 1400}, {'cover': 'BKN', 'base': 2600}, {'cover': 'BKN', 'base': 4000}, {'cover': 'OVC', 'base': 12000}]",MVFR,,,995.1,,,CA,Canada
4776,CYBC,2025-11-29 02:08:27.353000+00:00,1764381600,2025-11-29T02:00:00.000Z,-1.0,-2.0,250,11.0,9,998.1,2,-SN,,METAR,METAR CYBC 290200Z AUTO 25011KT 9SM -SN BKN046 BKN055 BKN074 OVC088 M01/M02 A2947 RMK SLP982,49.135,-68.202,20,Baie Comeau Arpt,OVC,"[{'cover': 'BKN', 'base': 4600}, {'cover': 'BKN', 'base': 5500}, {'cover': 'BKN', 'base': 7400}, {'cover': 'OVC', 'base': 8800}]",VFR,,,998.2,,,CA,Canada
4765,CYBG,2025-11-29 02:08:09.241000+00:00,1764381600,2025-11-29T02:00:00.000Z,-3.0,-4.0,260,8.0,5,1002.5,0,-SHSN,,METAR,METAR CYBG 290200Z 26008KT 5SM -SHSN SCT018 BKN025 OVC040 M03/M04 A2960 RMK SC3SC3SC2 DENSITY ALT -1178FT VIS VRB 3-7 SLP031,48.331,-70.989,151,Bagotville,OVC,"[{'cover': 'SCT', 'base': 1800}, {'cover': 'BKN', 'base': 2500}, {'cover': 'OVC', 'base': 4000}]",MVFR,,,1003.1,,,CA,Canada
4777,CYBK,2025-11-29 02:08:27.373000+00:00,1764381600,2025-11-29T02:00:00.000Z,-25.0,-28.0,310,18.0,15,1021.4,0,-SN DRSN,,METAR,METAR CYBK 290200Z 31018KT 15SM -SN DRSN BKN014 BKN070 M25/M28 A3016 RMK SC5AC1 SLP218,64.306,-96.078,14,Baker Lake Arpt,BKN,"[{'cover': 'BKN', 'base': 1400}, {'cover': 'BKN', 'base': 7000}]",MVFR,,,1021.8,,,CA,Canada
4778,CYBL,2025-11-29 02:08:27.388000+00:00,1764381600,2025-11-29T02:00:00.000Z,3.0,3.0,0,0.0,15,1025.8,0,BCFG,,METAR,METAR CYBL 290200Z 00000KT 15SM BCFG SCT160 BKN200 03/03 A3029 RMK AC3CI4 SLP263,49.951,-125.269,94,Campbell River Arpt,BKN,"[{'cover': 'SCT', 'base': 16000}, {'cover': 'BKN', 'base': 20000}]",VFR,,,1026.3,,,CA,Canada
4733,CYBQ,2025-11-29 02:07:30.674000+00:00,1764381600,2025-11-29T02:00:00.000Z,-17.0,-19.0,260,6.0,9,1024.5,2,,,METAR,METAR CYBQ 290200Z AUTO 26006KT 9SM FEW035 M17/M19 A3025 RMK ICE SLP280,58.707,-98.511,272,Tadoule Lake Arpt,FEW,"[{'cover': 'FEW', 'base': 3500}]",VFR,,,1028.0,,,CA,Canada
4734,CYBR,2025-11-29 02:07:30.695000+00:00,1764381600,2025-11-29T02:00:00.000Z,-8.0,-11.0,70,3.0,15,1027.2,0,,,METAR,METAR CYBR 290200Z 07003KT 15SM OVC075 M08/M11 A3033 RMK AC8 SLP311,49.91,-99.945,405,Brandon Arpt,OVC,"[{'cover': 'OVC', 'base': 7500}]",VFR,,,1031.1,,,CA,Canada
4779,CYBX,2025-11-29 02:08:27.441000+00:00,1764381600,2025-11-29T02:00:00.000Z,1.0,1.0,300,4.0,15,995.0,0,,,METAR,METAR CYBX 290200Z 30004KT 15SM OVC009 01/01 A2938 RMK SC8 SLP952,51.442,-57.188,32,Blanc Sablon Arpt,OVC,"[{'cover': 'OVC', 'base': 900}]",IFR,,,995.2,,,CA,Canada
4947,CYCA,2025-11-29 02:07:37.863000+00:00,1764381600,2025-11-29T02:00:00.000Z,-2.0,-4.0,230,9.0,9,993.6,2,,,METAR,METAR CYCA 290200Z AUTO 23009G15KT 9SM BKN017 OVC026 M02/M04 A2934 RMK SLP939,53.683,-57.042,12,Cartwright Arpt,OVC,"[{'cover': 'BKN', 'base': 1700}, {'cover': 'OVC', 'base': 2600}]",MVFR,,15.0,993.9,,,CA,Canada
4753,CYCB,2025-11-29 02:08:27.457000+00:00,1764381600,2025-11-29T02:00:00.000Z,-25.0,-28.0,320,16.0,15,1025.1,0,DRSN,,METAR,METAR CYCB 290200Z 32016G23KT 15SM DRSN SCT050 M25/M28 A3027 RMK SC4 SLP259,69.106,-105.116,19,Cambridge Bay Arpt,SCT,"[{'cover': 'SCT', 'base': 5000}]",VFR,,23.0,1025.9,,,CA,Canada
4756,CYCD,2025-11-29 02:08:27.474000+00:00,1764381600,2025-11-29T02:00:00.000Z,4.0,4.0,VRB,2.0,8,1026.8,0,PRFG,,METAR,METAR CYCD 290200Z VRB02KT 8SM PRFG SCT004 OVC220 04/04 A3032 RMK SF3CI5 VIS 1/2 N SLP271,49.052,-123.874,30,Nanaimo Arpt,OVC,"[{'cover': 'SCT', 'base': 400}, {'cover': 'OVC', 'base': 22000}]",VFR,,,1027.1,,,CA,Canada
4745,CYCK,2025-11-29 02:07:38.629000+00:00,1764381600,2025-11-29T02:00:00.000Z,-1.0,-8.0,320,7.0,9,1026.2,2,,,METAR,METAR CYCK 290200Z AUTO 32007KT 9SM OVC042 M01/M08 A3030 RMK SLP272,42.307,-82.085,196,Chatham/Kent Arpt,OVC,"[{'cover': 'OVC', 'base': 4200}]",VFR,,,1027.2,,,CA,Canada
4754,CYCO,2025-11-29 02:08:27.488000+00:00,1764381600,2025-11-29T02:00:00.000Z,-12.0,-14.0,320,10.0,10+,1032.3,0,-SN,,METAR,METAR CYCO 290200Z 32010KT 10SM -SN OVC019 M12/M14 A3048 RMK SC8 SLP326,67.817,-115.135,20,Coppermine/Kugluktuk Arpt,OVC,"[{'cover': 'OVC', 'base': 1900}]",MVFR,,,1032.6,,,CA,Canada
4780,CYCY,2025-11-29 02:08:27.518000+00:00,1764381600,2025-11-29T02:00:00.000Z,-22.0,-26.0,260,5.0,9,1002.5,2,,,METAR,METAR CYCY 290200Z AUTO 26005KT 240V300 9SM CLR M22/M26 A2960 RMK SLP030,70.484,-68.515,73,Cylde River Arpt,CLR,[],VFR,,,1003.0,,,CA,Canada
4759,CYDB,2025-11-29 02:08:27.537000+00:00,1764381600,2025-11-29T02:00:00.000Z,-13.0,-15.0,300,4.0,9,1018.7,2,,,METAR,METAR CYDB 290200Z AUTO 30004KT 9SM OVC008 M13/M15 A3008 RMK SLP257,61.37,-139.032,807,Burwash Arpt,OVC,"[{'cover': 'OVC', 'base': 800}]",IFR,,,1025.7,,,CA,Canada
4781,CYDF,2025-11-29 02:08:27.555000+00:00,1764381600,2025-11-29T02:00:00.000Z,1.0,0.0,0,0.0,6,997.4,0,-RA -SN,,METAR,METAR CYDF 290200Z 00000KT 6SM -RASN BKN018 OVC028 01/00 A2945 RMK SC5SC3 SLP976,49.212,-57.394,15,Deer Lake Arpt,OVC,"[{'cover': 'BKN', 'base': 1800}, {'cover': 'OVC', 'base': 2800}]",MVFR,,,997.6,,,CA,Canada
4757,CYDL,2025-11-29 02:07:26.319000+00:00,1764381600,2025-11-29T02:00:00.000Z,-12.0,-13.0,VRB,2.0,9,1024.5,2,,,METAR,METAR CYDL 290200Z AUTO VRB02KT 9SM BKN110 M12/M13 A3025 RMK SLP303,58.426,-130.025,804,Dease Lake Arpt,BKN,"[{'cover': 'BKN', 'base': 11000}]",VFR,,,1030.3,,,CA,Canada
4782,CYDN,2025-11-29 02:08:27.571000+00:00,1764381600,2025-11-29T02:00:00.000Z,-9.0,-11.0,200,4.0,9,1027.9,2,,,METAR,METAR CYDN 290200Z AUTO 20004KT 9SM OVC055 M09/M11 A3035 RMK SLP304,51.1,-100.057,302,Dauphin Arpt,OVC,"[{'cover': 'OVC', 'base': 5500}]",VFR,,,1030.4,,,CA,Canada
4760,CYDQ,2025-11-29 02:08:09.259000+00:00,1764381600,2025-11-29T02:00:00.000Z,-15.0,-17.0,120,7.0,9,1028.5,2,,,METAR,METAR CYDQ 290200Z AUTO 12007KT 9SM CLR M15/M17 A3037 RMK SLP352,55.741,-120.188,658,Dawson Creek Arpt,CLR,[],VFR,,,1035.2,,,CA,Canada
4758,CYEG,2025-11-29 02:08:09.276000+00:00,1764381600,2025-11-29T02:00:00.000Z,-16.0,-17.0,200,5.0,20,1031.6,0,,,METAR,METAR CYEG 290200Z 20005KT 20SM BKN051 M16/M17 A3046 RMK SC7 FROIN SLP378,53.308,-113.592,710,Edmonton Intl Arpt,BKN,"[{'cover': 'BKN', 'base': 5100}]",VFR,,,1037.8,,,CA,Canada
4783,CYEK,2025-11-29 02:08:27.593000+00:00,1764381600,2025-11-29T02:00:00.000Z,-15.0,-18.0,330,11.0,9,1022.1,2,,,METAR,METAR CYEK 290200Z AUTO 33011KT 9SM OVC021 M15/M18 A3018 RMK SLP222,61.098,-94.072,7,Arviat/Eskimo Pt Arpt,OVC,"[{'cover': 'OVC', 'base': 2100}]",MVFR,,,1022.2,,,CA,Canada
4735,CYEN,2025-11-29 02:08:27.610000+00:00,1764381600,2025-11-29T02:00:00.000Z,-10.0,-11.0,70,6.0,2,1025.1,2,-SN,,METAR,METAR CYEN 290200Z AUTO 07006KT 2SM -SN OVC034 M10/M11 A3027 RMK ICE INTMT SLP299,49.207,-102.963,580,Estevan Arpt,OVC,"[{'cover': 'OVC', 'base': 3400}]",IFR,,,1029.9,,,CA,Canada
4746,CYER,2025-11-29 02:07:38.691000+00:00,1764381600,2025-11-29T02:00:00.000Z,-10.0,-11.0,280,12.0,9,1021.1,2,,,METAR,METAR CYER 290200Z AUTO 28012G17KT 9SM FEW096 SCT120 BKN240 M10/M11 A3015 RMK SLP212,56.019,-87.675,11,Ft Severn Arpt,BKN,"[{'cover': 'FEW', 'base': 9600}, {'cover': 'SCT', 'base': 12000}, {'cover': 'BKN', 'base': 24000}]",VFR,,17.0,1021.2,,,CA,Canada
4736,CYET,2025-11-29 02:08:27.628000+00:00,1764381600,2025-11-29T02:00:00.000Z,-17.0,-19.0,VRB,2.0,9,1028.5,2,,,METAR,METAR CYET 290200Z AUTO VRB02KT 9SM CLR M17/M19 A3037 RMK SLP364,53.58,-116.455,925,Edson Arpt,CLR,[],VFR,,,1036.4,,,CA,Canada
4784,CYEV,2025-11-29 02:08:27.648000+00:00,1764381600,2025-11-29T02:00:00.000Z,-25.0,-27.0,170,3.0,15,1028.5,0,,,METAR,METAR CYEV 290200Z 17003KT 120V200 15SM FEW012 M25/M27 A3037 RMK ST1 ST TR SLP297,68.309,-133.5,74,Inuvik/Zubko Arpt,FEW,"[{'cover': 'FEW', 'base': 1200}]",VFR,,,1029.7,,,CA,Canada
4766,CYFB,2025-11-29 02:08:09.295000+00:00,1764381600,2025-11-29T02:00:00.000Z,-10.0,-13.0,120,11.0,15,1004.1,0,,,METAR,METAR CYFB 290200Z 12011KT 15SM FEW016 FEW057 BKN091 M10/M13 A2965 RMK SC1SC2AC4 SC TR SLP046,63.75,-68.544,23,Iqaluit Arpt,BKN,"[{'cover': 'FEW', 'base': 1600}, {'cover': 'FEW', 'base': 5700}, {'cover': 'BKN', 'base': 9100}]",VFR,,,1004.6,,,CA,Canada
4767,CYFC,2025-11-29 02:08:09.320000+00:00,1764381600,2025-11-29T02:00:00.000Z,-3.0,-4.0,220,5.0,9,1003.8,2,,,METAR,METAR CYFC 290200Z AUTO 22005KT 9SM CLR M03/M04 A2964 RMK SLP041,45.873,-66.539,16,Fredericton Intl,CLR,[],VFR,,,1004.1,,,CA,Canada
4785,CYFS,2025-11-29 02:08:27.664000+00:00,1764381600,2025-11-29T02:00:00.000Z,-17.0,-19.0,250,5.0,15,1032.6,0,-SN,,METAR,METAR CYFS 290200Z 25005KT 15SM -SN OVC005 M17/M19 A3049 RMK ST8 SLP347,61.76,-121.23,174,Fort Simpson Arpt,OVC,"[{'cover': 'OVC', 'base': 500}]",IFR,,,1034.7,,,CA,Canada
4747,CYGK,2025-11-29 02:08:27.681000+00:00,1764381600,2025-11-29T02:00:00.000Z,-2.0,-7.0,290,9.0,15,1017.7,0,,,METAR,METAR CYGK 290200Z 29009KT 15SM FEW100 SCT150 M02/M07 A3005 RMK AC1AC3 SLP181,44.223,-76.599,91,Kingston Arpt,SCT,"[{'cover': 'FEW', 'base': 10000}, {'cover': 'SCT', 'base': 15000}]",VFR,,,1018.1,,,CA,Canada
4768,CYGL,2025-11-29 02:08:09.341000+00:00,1764381600,2025-11-29T02:00:00.000Z,-7.0,-8.0,340,3.0,15,1009.9,0,,,METAR,METAR CYGL 290200Z 34003KT 300V020 15SM OVC100 M07/M08 A2982 RMK AC8 SLP116,53.625,-77.7,192,La Grande Riviere Arpt,OVC,"[{'cover': 'OVC', 'base': 10000}]",VFR,,,1011.6,,,CA,Canada
4786,CYGP,2025-11-29 02:08:27.700000+00:00,1764381600,2025-11-29T02:00:00.000Z,-1.0,-4.0,280,7.0,15,998.1,0,,,METAR,METAR CYGP 290200Z 28007KT 15SM BKN130 M01/M04 A2947 RMK AC5 SLP985,48.777,-64.478,31,Gaspé Arpt,BKN,"[{'cover': 'BKN', 'base': 13000}]",VFR,,,998.5,,,CA,Canada
4741,CYGR,2025-11-29 02:08:27.722000+00:00,1764381600,2025-11-29T02:00:00.000Z,2.0,0.0,260,9.0,15,999.7,0,,,METAR,METAR CYGR 290200Z 26009KT 15SM FEW020 SCT130 02/00 A2952 RMK CF2AC2 SLP998,47.425,-61.775,4,Îles de la Madeleine Arpt,SCT,"[{'cover': 'FEW', 'base': 2000}, {'cover': 'SCT', 'base': 13000}]",VFR,,,999.8,,,CA,Canada
4752,CYGV,2025-11-29 02:08:27.741000+00:00,1764381600,2025-11-29T02:00:00.000Z,-2.0,-2.0,50,3.0,9,996.4,2,,,METAR,METAR CYGV 290200Z AUTO 05003KT 020V120 9SM FEW044 BKN071 OVC110 M02/M02 A2942 RMK SLP967,50.286,-63.606,32,Havre St Pierre Arpt,OVC,"[{'cover': 'FEW', 'base': 4400}, {'cover': 'BKN', 'base': 7100}, {'cover': 'OVC', 'base': 11000}]",VFR,,,996.7,,,CA,Canada
4739,CYGW,2025-11-29 02:08:27.777000+00:00,1764381600,2025-11-29T02:00:00.000Z,-7.0,-11.0,100,5.0,9,1011.3,2,,,METAR,METAR CYGW 290200Z AUTO 10005KT 9SM FEW071 M07/M11 A2986 RMK SLP116,55.283,-77.76,13,Kuujjuarapik Arpt,FEW,"[{'cover': 'FEW', 'base': 7100}]",VFR,,,1011.6,,,CA,Canada
4742,CYHD,2025-11-29 02:08:27.809000+00:00,1764381600,2025-11-29T02:00:00.000Z,-11.0,-14.0,290,3.0,9,1026.5,2,-SN,,METAR,METAR CYHD 290200Z AUTO 29003KT 250V310 9SM -SN OVC015 M11/M14 A3031 RMK SLP305,49.83,-92.74,414,Dryden Rgnl,OVC,"[{'cover': 'OVC', 'base': 1500}]",MVFR,,,1030.5,,,CA,Canada
4729,CYHE,2025-11-29 02:08:27.844000+00:00,1764381600,2025-11-29T02:00:00.000Z,5.0,-1.0,110,12.0,9,1030.6,2,,,METAR,METAR CYHE 290200Z AUTO 11012G20KT 9SM CLR 05/M01 A3043 RMK SLP307,49.37,-121.493,43,Hope Rgnl Airpark,CLR,[],VFR,,20.0,1030.7,,,CA,Canada
4755,CYHK,2025-11-29 02:08:27.878000+00:00,1764381600,2025-11-29T02:00:00.000Z,-22.0,-24.0,310,13.0,3,1014.3,2,BR,,METAR,METAR CYHK 290200Z AUTO 31013KT 3SM BR FEW028 BKN035 M22/M24 A2995 RMK SLP152,68.633,-95.851,36,Gjoa Haven Arpt,BKN,"[{'cover': 'FEW', 'base': 2800}, {'cover': 'BKN', 'base': 3500}]",MVFR,,,1015.2,,,CA,Canada
4748,CYHM,2025-11-29 02:08:27.899000+00:00,1764381600,2025-11-29T02:00:00.000Z,-2.0,-5.0,260,13.0,15,1022.8,0,-SN DRSN,,METAR,METAR CYHM 290200Z 26013KT 15SM -SN DRSN FEW022 FEW043 SCT069 BKN250 M02/M05 A3020 RMK SC2SC1AC2CI1 SC TR SLP239,43.173,-79.936,237,Hamilton/Munro Intl,BKN,"[{'cover': 'FEW', 'base': 2200}, {'cover': 'FEW', 'base': 4300}, {'cover': 'SCT', 'base': 6900}, {'cover': 'BKN', 'base': 25000}]",VFR,,,1023.9,,,CA,Canada
4743,CYHU,2025-11-29 02:08:27.904000+00:00,1764381600,2025-11-29T02:00:00.000Z,-2.0,-6.0,260,18.0,9,1010.6,2,-SN,,METAR,METAR CYHU 290200Z AUTO 26018G26KT 9SM -SN FEW037 OVC060 M02/M06 A2984 RMK SLP109,45.516,-73.415,26,Montreal/St Hubert,OVC,"[{'cover': 'FEW', 'base': 3700}, {'cover': 'OVC', 'base': 6000}]",VFR,,26.0,1010.9,,,CA,Canada
4787,CYHY,2025-11-29 02:08:27.920000+00:00,1764381600,2025-11-29T02:00:00.000Z,-11.0,-13.0,200,6.0,15,1032.3,0,,,METAR,METAR CYHY 290200Z 20006KT 15SM BKN037 OVC056 M11/M13 A3048 RMK SC5SC3 SLP343,60.839,-115.781,159,Hay River/Carter Arpt,OVC,"[{'cover': 'BKN', 'base': 3700}, {'cover': 'OVC', 'base': 5600}]",VFR,,,1034.3,,,CA,Canada
4769,CYHZ,2025-11-29 02:08:09.360000+00:00,1764381600,2025-11-29T02:00:00.000Z,0.0,-1.0,230,18.0,15,1003.5,0,,,METAR,METAR CYHZ 290200Z 23018KT 15SM FEW015 M00/M01 A2963 RMK SC1 SC TR SLP043,44.8781,-63.5136,136,Halifax/Stanfield Intl,FEW,"[{'cover': 'FEW', 'base': 1500}]",VFR,,,1004.3,,,CA,Canada
4788,CYIO,2025-11-29 02:08:27.948000+00:00,1764381600,2025-11-29T02:00:00.000Z,-28.0,-30.0,180,4.0,9,1003.8,2,,,METAR,METAR CYIO 290200Z AUTO 18004KT 9SM CLR M28/M30 A2964 RMK ICE INTMT SLP049,72.694,-77.957,61,Pond Inlet Arpt,CLR,[],VFR,,,1004.9,,,CA,Canada
4730,CYIV,2025-11-29 02:08:27.969000+00:00,1764381600,2025-11-29T02:00:00.000Z,-9.0,-13.0,320,11.0,9,1026.2,2,-SN,,METAR,METAR CYIV 290200Z AUTO 32011G22KT 9SM -SN OVC020 M09/M13 A3030 RMK SLP284,53.857,-94.655,234,Island Lake Arpt,OVC,"[{'cover': 'OVC', 'base': 2000}]",MVFR,,22.0,1028.4,,,CA,Canada
4789,CYKA,2025-11-29 02:08:27.989000+00:00,1764381600,2025-11-29T02:00:00.000Z,1.0,-7.0,VRB,2.0,40,1030.9,0,,,METAR,METAR CYKA 290200Z VRB02KT 40SM FEW050 SCT160 01/M07 A3044 RMK SC1AC3 SLP328,50.704,-120.444,344,Kamloops Arpt,SCT,"[{'cover': 'FEW', 'base': 5000}, {'cover': 'SCT', 'base': 16000}]",VFR,,,1032.8,,,CA,Canada
4749,CYKF,2025-11-29 02:08:28.034000+00:00,1764381600,2025-11-29T02:00:00.000Z,-3.0,-5.0,270,17.0,9,1022.1,2,,,METAR,METAR CYKF 290200Z AUTO 27017KT 9SM BKN014 BKN020 M03/M05 A3018 RMK SLP236,43.462,-80.386,312,Waterloo Intl,BKN,"[{'cover': 'BKN', 'base': 1400}, {'cover': 'BKN', 'base': 2000}]",MVFR,,,1023.6,,,CA,Canada
4737,CYKJ,2025-11-29 02:08:28.063000+00:00,1764381600,2025-11-29T02:00:00.000Z,-13.0,-15.0,300,9.0,9,1027.9,2,-SN,,METAR,METAR CYKJ 290200Z AUTO 30009KT 9SM -SN OVC013 M13/M15 A3035 RMK SLP327,57.256,-105.618,519,Key Lake Arpt,OVC,"[{'cover': 'OVC', 'base': 1300}]",MVFR,,,1032.7,,,CA,Canada
4770,CYKL,2025-11-29 02:08:09.388000+00:00,1764381600,2025-11-29T02:00:00.000Z,-13.0,-14.0,350,11.0,9,997.7,2,-SN,,METAR,METAR CYKL 290200Z AUTO 35011G16KT 9SM -SN BKN009 OVC016 M13/M14 A2946 RMK SLP022,54.803,-66.804,507,Schefferville Arpt,OVC,"[{'cover': 'BKN', 'base': 900}, {'cover': 'OVC', 'base': 1600}]",IFR,,16.0,1002.2,,,CA,Canada
4731,CYKY,2025-11-29 02:08:28.082000+00:00,1764381600,2025-11-29T02:00:00.000Z,-18.0,-19.0,350,7.0,15,1030.6,0,,,METAR,METAR CYKY 290200Z 35007KT 15SM FEW100 M18/M19 A3043 RMK AC1 AC TR SLP363,51.517,-109.175,692,Kindersley Arpt,FEW,"[{'cover': 'FEW', 'base': 10000}]",VFR,,,1036.3,,,CA,Canada
4954,CYLD,2025-11-29 02:08:28.099000+00:00,1764381600,2025-11-29T02:00:00.000Z,-8.0,-10.0,320,6.0,15,1020.1,0,-SN,,METAR,METAR CYLD 290200Z 32006KT 280V340 15SM -SN OVC018 M08/M10 A3012 RMK SC8 LAST STFD OBS/NEXT 291000 UTC SLP238,47.818,-83.358,449,Chapleau Arpt,OVC,"[{'cover': 'OVC', 'base': 1800}]",MVFR,,,1023.8,,,CA,Canada
4955,CYLH,2025-11-29 02:07:38.922000+00:00,1764381600,2025-11-29T02:00:00.000Z,-10.0,-12.0,280,5.0,9,1023.8,2,-SN,,METAR,METAR CYLH 290200Z AUTO 28005KT 250V310 9SM -SN FEW018 OVC048 M10/M12 A3023 RMK SLP263,52.196,-87.936,245,Lansdowne House Arpt,OVC,"[{'cover': 'FEW', 'base': 1800}, {'cover': 'OVC', 'base': 4800}]",VFR,,,1026.3,,,CA,Canada
5042,CYLL,2025-11-29 02:08:28.122000+00:00,1764381600,2025-11-29T02:00:00.000Z,-12.0,-14.0,300,6.0,15,1030.6,0,-SN,,METAR,METAR CYLL 290200Z 30006KT 15SM -SN BKN007 OVC050 M12/M14 A3043 RMK SC6SC2 FROIN SLP364,53.312,-110.074,664,Lloydminster Arpt,OVC,"[{'cover': 'BKN', 'base': 700}, {'cover': 'OVC', 'base': 5000}]",IFR,,,1036.4,,,CA,Canada
5039,CYLW,2025-11-29 02:08:28.141000+00:00,1764381600,2025-11-29T02:00:00.000Z,0.0,-1.0,20,4.0,9,1030.6,2,,,METAR,METAR CYLW 290200Z AUTO 02004KT 9SM OVC048 00/M01 A3043 RMK SLP326,49.953,-119.375,420,Kelowna Arpt,OVC,"[{'cover': 'OVC', 'base': 4800}]",VFR,,,1032.6,,,CA,Canada
5040,CYMA,2025-11-29 02:08:28.157000+00:00,1764381600,2025-11-29T02:00:00.000Z,-23.0,-26.0,0,0.0,20,1026.2,0,,,METAR,METAR CYMA 290200Z 00000KT 20SM FEW011 BKN080 M23/M26 A3030 RMK ST2AC4 SLP329,63.616,-135.88,519,Mayo Arpt,BKN,"[{'cover': 'FEW', 'base': 1100}, {'cover': 'BKN', 'base': 8000}]",VFR,,,1032.9,,,CA,Canada
4975,CYMH,2025-11-29 02:08:09.412000+00:00,1764381600,2025-11-29T02:00:00.000Z,-1.0,-2.0,210,4.0,9,994.3,2,,,METAR,METAR CYMH 290200Z AUTO 21004KT 9SM BKN026 OVC049 M01/M02 A2936 RMK SLP946,52.304,-55.833,18,Mary's Harbor Arpt,OVC,"[{'cover': 'BKN', 'base': 2600}, {'cover': 'OVC', 'base': 4900}]",MVFR,,,994.6,,,CA,Canada
5051,CYMM,2025-11-29 02:08:29.016000+00:00,1764381600,2025-11-29T02:00:00.000Z,-12.0,-14.0,280,5.0,9,1033.3,2,-SN,,METAR,METAR CYMM 290200Z AUTO 28005KT 9SM -SN OVC019 M12/M14 A3051 RMK SLP368,56.65,-111.221,371,Fort McMurray Arpt,OVC,"[{'cover': 'OVC', 'base': 1900}]",MVFR,,,1036.8,,,CA,Canada
4948,CYMO,2025-11-29 02:08:29.021000+00:00,1764381600,2025-11-29T02:00:00.000Z,-5.0,-6.0,300,11.0,6,1015.3,2,-SN,,METAR,METAR CYMO 290200Z AUTO 30011G22KT 6SM -SN FEW018 OVC044 M05/M06 A2998 RMK SLP156,51.292,-80.607,8,Moosonee Arpt,OVC,"[{'cover': 'FEW', 'base': 1800}, {'cover': 'OVC', 'base': 4400}]",VFR,,22.0,1015.6,,,CA,Canada
4970,CYMT,2025-11-29 02:08:29.057000+00:00,1764381600,2025-11-29T02:00:00.000Z,-8.0,-9.0,290,6.0,9,1002.5,2,-SN,,METAR,METAR CYMT 290200Z AUTO 29006KT 9SM -SN BKN017 BKN043 M08/M09 A2960 RMK SLP052,49.779,-74.527,388,Chibougamau Arpt,BKN,"[{'cover': 'BKN', 'base': 1700}, {'cover': 'BKN', 'base': 4300}]",MVFR,,,1005.2,,,CA,Canada
4976,CYMX,2025-11-29 02:08:09.435000+00:00,1764381600,2025-11-29T02:00:00.000Z,-3.0,-6.0,240,10.0,25,1010.9,0,-SHSN,,METAR,METAR CYMX 290200Z 24010G16KT 210V280 25SM -SHSN BKN018 OVC032 M03/M06 A2985 RMK SC5SC3 CVCTV CLD EMBD SLP114,45.68,-74.038,78,Montreal/Mirabel Arpt,OVC,"[{'cover': 'BKN', 'base': 1800}, {'cover': 'OVC', 'base': 3200}]",MVFR,,16.0,1011.4,,,CA,Canada
5047,CYNA,2025-11-29 02:08:29.062000+00:00,1764381600,2025-11-29T02:00:00.000Z,-1.0,-1.0,0,0.0,9,996.4,2,,,METAR,METAR CYNA 290200Z AUTO 00000KT 9SM OVC026 M01/M01 A2942 RMK SLP965,50.19,-61.789,9,Natashquan Arpt,OVC,"[{'cover': 'OVC', 'base': 2600}]",MVFR,,,996.5,,,CA,Canada
4949,CYND,2025-11-29 02:08:29.082000+00:00,1764381600,2025-11-29T02:00:00.000Z,-2.0,-7.0,280,15.0,12,1013.3,0,-SN,,METAR,METAR CYND 290200Z 28015G20KT 12SM -SN OVC029 M02/M07 A2992 RMK SC8 LAST STFD OBS/NXT 291100Z SLP139,45.52,-75.563,57,Gatineau/Ottawa Exec,OVC,"[{'cover': 'OVC', 'base': 2900}]",MVFR,,20.0,1013.9,,,CA,Canada
5035,CYNE,2025-11-29 02:08:29.086000+00:00,1764381600,2025-11-29T02:00:00.000Z,-10.0,-12.0,330,3.0,9,1027.5,2,,,METAR,METAR CYNE 290200Z AUTO 33003KT 9SM OVC026 M10/M12 A3034 RMK SLP300,53.958,-97.845,220,Norway House Arpt,OVC,"[{'cover': 'OVC', 'base': 2600}]",MVFR,,,1030.0,,,CA,Canada
5034,CYNM,2025-11-29 02:08:29.110000+00:00,1764381600,2025-11-29T02:00:00.000Z,-6.0,-8.0,340,11.0,6,1008.9,2,-SN,,METAR,METAR CYNM 290200Z AUTO 34011G19KT 6SM -SN SCT018 BKN026 OVC037 M06/M08 A2979 RMK SLP111,49.759,-77.793,276,Matagami Arpt,OVC,"[{'cover': 'SCT', 'base': 1800}, {'cover': 'BKN', 'base': 2600}, {'cover': 'OVC', 'base': 3700}]",MVFR,,19.0,1011.1,,,CA,Canada
5033,CYOD,2025-11-29 02:08:29.127000+00:00,1764381600,2025-11-29T02:00:00.000Z,-11.0,-12.0,280,5.0,12,1031.9,0,,,METAR,METAR CYOD 290200Z 28005KT 12SM OVC027 M11/M12 A3047 RMK SC8 DENSITY ALT -1869FT SLP365,54.41,-110.287,540,Cold Lake,OVC,"[{'cover': 'OVC', 'base': 2700}]",MVFR,,,1036.5,,,CA,Canada
4941,CYOJ,2025-11-29 02:08:29.147000+00:00,1764381600,2025-11-29T02:00:00.000Z,-14.0,-15.0,130,4.0,10+,1031.2,0,-SN,,METAR,METAR CYOJ 290200Z 13004KT 10SM -SN SCT010 M14/M15 A3045 RMK ST3 LAST STFD OBS/NXT 291500Z SLP349,58.628,-117.174,339,High Level Arpt,SCT,"[{'cover': 'SCT', 'base': 1000}]",VFR,,,1034.9,,,CA,Canada
4957,CYOO,2025-11-29 02:07:38.961000+00:00,1764381600,2025-11-29T02:00:00.000Z,-3.0,-6.0,280,6.0,9,1020.4,2,,,METAR,METAR CYOO 290200Z AUTO 28006KT 9SM FEW240 M03/M06 A3013 RMK SLP211,43.921,-78.899,136,Oshawa Arpt,FEW,"[{'cover': 'FEW', 'base': 24000}]",VFR,,,1021.1,,,CA,Canada
4977,CYOW,2025-11-29 02:08:09.457000+00:00,1764381600,2025-11-29T02:00:00.000Z,-2.0,-8.0,270,18.0,15,1014.0,0,,,METAR,METAR CYOW 290200Z 27018G24KT 15SM OVC029 M02/M08 A2994 RMK SC8 SLP147,45.307,-75.66,111,Ottawa/Cartier Intl,OVC,"[{'cover': 'OVC', 'base': 2900}]",MVFR,,24.0,1014.7,,,CA,Canada
4942,CYPA,2025-11-29 02:08:29.166000+00:00,1764381600,2025-11-29T02:00:00.000Z,-10.0,-14.0,350,3.0,12,1030.2,0,-SN,,METAR,METAR CYPA 290200Z 35003KT 12SM -SN OVC025 M10/M14 A3042 RMK SC8 SLP338,53.217,-105.679,428,Prince Albert Arpt,OVC,"[{'cover': 'OVC', 'base': 2500}]",MVFR,,,1033.8,,,CA,Canada
4967,CYPD,2025-11-29 02:07:40.605000+00:00,1764381600,2025-11-29T02:00:00.000Z,0.0,0.0,250,7.0,9,1002.8,2,,,METAR,METAR CYPD 290200Z AUTO 25007KT 9SM CLR 00/M00 A2961 RMK SLP032,45.657,-61.374,106,Port Hawkesbury Arpt,CLR,[],VFR,,,1003.2,,,CA,Canada
4929,CYPE,2025-11-29 02:08:29.189000+00:00,1764381600,2025-11-29T02:00:00.000Z,-16.0,-18.0,,,0.38,1031.2,2,FZFG,,METAR,METAR CYPE 290200Z AUTO /////KT 3/8SM FZFG VV003 M16/M18 A3045 RMK WIND MISG SLP372,56.228,-117.453,572,Peace River Arpt,OVX,"[{'cover': 'OVX', 'base': 300}]",LIFR,3.0,,1037.2,,,CA,Canada
4981,CYPL,2025-11-29 02:08:09.500000+00:00,1764381600,2025-11-29T02:00:00.000Z,-12.0,-15.0,320,5.0,8,1025.1,2,-SN,,METAR,METAR CYPL 290200Z AUTO 32005KT 260V070 8SM -SN OVC022 M12/M15 A3027 RMK SLP289,51.449,-90.218,390,Pickle Lake Arpt,OVC,"[{'cover': 'OVC', 'base': 2200}]",MVFR,,,1028.9,,,CA,Canada
4959,CYPO,2025-11-29 02:07:39.054000+00:00,1764381600,2025-11-29T02:00:00.000Z,-8.0,-10.0,290,9.0,3,1019.4,2,-SN,,METAR,METAR CYPO 290200Z AUTO 29009G18KT 3SM -SN BKN026 BKN066 OVC120 M08/M10 A3010 RMK SLP199,54.988,-85.439,49,Peawanuck Arpt,OVC,"[{'cover': 'BKN', 'base': 2600}, {'cover': 'BKN', 'base': 6600}, {'cover': 'OVC', 'base': 12000}]",MVFR,,18.0,1019.9,,,CA,Canada
5032,CYPQ,2025-11-29 02:08:29.213000+00:00,1764381600,2025-11-29T02:00:00.000Z,-2.0,-5.0,280,11.0,9,1018.4,2,,,METAR,METAR CYPQ 290200Z AUTO 28011KT 9SM SCT200 SCT220 M02/M05 A3007 RMK ICE SLP195,44.232,-78.36,190,Peterborough Muni,SCT,"[{'cover': 'SCT', 'base': 20000}, {'cover': 'SCT', 'base': 22000}]",VFR,,,1019.5,,,CA,Canada
4936,CYPR,2025-11-29 02:08:29.231000+00:00,1764381600,2025-11-29T02:00:00.000Z,4.0,0.0,VRB,2.0,9,1023.5,2,,,METAR,METAR CYPR 290200Z AUTO VRB02KT 9SM BKN140 OVC160 04/00 A3022 RMK SLP236,54.291,-130.451,30,Prince Rupert Arpt,OVC,"[{'cover': 'BKN', 'base': 14000}, {'cover': 'OVC', 'base': 16000}]",VFR,,,1023.6,,,CA,Canada
5031,CYPW,2025-11-29 02:08:29.251000+00:00,1764381600,2025-11-29T02:00:00.000Z,4.0,4.0,70,2.0,0.13,1026.5,0,FG,,METAR,METAR CYPW 290200Z 07002KT 1/8SM FG VV000 04/04 A3031 RMK FG8 SLP269,49.835,-124.499,122,Powell River Arpt,OVX,"[{'cover': 'OVX', 'base': 0}]",LIFR,0.0,,1026.9,,,CA,Canada
5030,CYPX,2025-11-29 02:08:29.296000+00:00,1764381600,2025-11-29T02:00:00.000Z,-8.0,-9.0,20,9.0,2,1009.2,2,-SN,,METAR,METAR CYPX 290200Z AUTO 02009KT 2SM -SN OVC020 M08/M09 A2980 RMK VIS VRB 1 1/4-3 SLP096,60.045,-77.281,10,Puvungnituq Arpt,OVC,"[{'cover': 'OVC', 'base': 2000}]",IFR,,,1009.6,,,CA,Canada
5028,CYPY,2025-11-29 02:08:29.328000+00:00,1764381600,2025-11-29T02:00:00.000Z,-14.0,-16.0,290,3.0,9,1033.9,2,-SN,,METAR,METAR CYPY 290200Z AUTO 29003KT 260V350 9SM -SN OVC007 M14/M16 A3053 RMK SLP365,58.766,-111.117,225,Fort Chipewyan Arpt,OVC,"[{'cover': 'OVC', 'base': 700}]",IFR,,,1036.5,,,CA,Canada
5027,CYQA,2025-11-29 02:08:29.352000+00:00,1764381600,2025-11-29T02:00:00.000Z,-3.0,-8.0,330,11.0,9,1018.0,2,,,METAR,METAR CYQA 290200Z AUTO 33011KT 9SM FEW050 BKN210 BKN230 M03/M08 A3006 RMK SLP198,44.971,-79.303,277,Muskoka Arpt,BKN,"[{'cover': 'FEW', 'base': 5000}, {'cover': 'BKN', 'base': 21000}, {'cover': 'BKN', 'base': 23000}]",VFR,,,1019.8,,,CA,Canada
4982,CYQB,2025-11-29 02:08:09.526000+00:00,1764381600,2025-11-29T02:00:00.000Z,-3.0,-5.0,260,14.0,15,1005.2,0,,,METAR,METAR CYQB 290200Z 26014G20KT 15SM FEW011 SCT025 M03/M05 A2968 RMK SF1SC3 SF TR SLP055,46.791,-71.396,73,Quebec/Lesage Intl,SCT,"[{'cover': 'FEW', 'base': 1100}, {'cover': 'SCT', 'base': 2500}]",VFR,,20.0,1005.5,,,CA,Canada
4937,CYQD,2025-11-29 02:08:29.372000+00:00,1764381600,2025-11-29T02:00:00.000Z,-10.0,-14.0,350,8.0,9,1028.9,2,-SN,,METAR,METAR CYQD 290200Z AUTO 35008G17KT 9SM -SN OVC022 M10/M14 A3038 RMK SLP315,53.975,-101.089,268,The Pas Arpt,OVC,"[{'cover': 'OVC', 'base': 2200}]",MVFR,,17.0,1031.5,,,CA,Canada
5026,CYQF,2025-11-29 02:08:29.392000+00:00,1764381600,2025-11-29T02:00:00.000Z,-18.0,-20.0,210,5.0,8,1030.9,2,,,METAR,METAR CYQF 290200Z AUTO 21005KT 8SM CLR M18/M20 A3044 RMK SLP389,52.179,-113.903,912,Red Deer Rgnl,CLR,[],VFR,,,1038.9,,,CA,Canada
4983,CYQG,2025-11-29 02:08:09.555000+00:00,1764381600,2025-11-29T02:00:00.000Z,-1.0,-9.0,290,13.0,9,1027.5,2,,,METAR,METAR CYQG 290200Z AUTO 29013G19KT 9SM OVC040 M01/M09 A3034 RMK SLP283,42.269,-82.963,189,Windsor Intl,OVC,"[{'cover': 'OVC', 'base': 4000}]",VFR,,19.0,1028.3,,,CA,Canada
4923,CYQH,2025-11-29 02:08:29.408000+00:00,1764381600,2025-11-29T02:00:00.000Z,-14.0,-17.0,140,3.0,10+,1027.2,0,-SN,,METAR,METAR CYQH 290200Z 14003KT 10SM -SN OVC035 M14/M17 A3033 RMK SC8 SLP336,60.116,-128.832,692,Watson Lake Arpt,OVC,"[{'cover': 'OVC', 'base': 3500}]",VFR,,,1033.6,,,CA,Canada
4971,CYQI,2025-11-29 02:08:29.426000+00:00,1764381600,2025-11-29T02:00:00.000Z,1.0,0.0,300,8.0,7,1006.9,0,,,METAR,METAR CYQI 290200Z 30008G20KT 7SM FEW012 FEW042 FEW075 01/M00 A2973 RMK SF1SC1AC1 SC TR SLP072,43.831,-66.088,37,Yarmouth Arpt,FEW,"[{'cover': 'FEW', 'base': 1200}, {'cover': 'FEW', 'base': 4200}, {'cover': 'FEW', 'base': 7500}]",VFR,,20.0,1007.2,,,CA,Canada
5025,CYQK,2025-11-29 02:08:29.441000+00:00,1764381600,2025-11-29T02:00:00.000Z,-12.0,-14.0,350,3.0,20,1027.2,0,-SN,,METAR,METAR CYQK 290200Z 35003KT 20SM -SN OVC015 M12/M14 A3033 RMK SC8 -SN INTMT SLP308,49.791,-94.361,413,Kenora Arpt,OVC,"[{'cover': 'OVC', 'base': 1500}]",MVFR,,,1030.8,,,CA,Canada
5024,CYQL,2025-11-29 02:08:29.463000+00:00,1764381600,2025-11-29T02:00:00.000Z,-11.0,-14.0,330,8.0,15,1031.2,0,-SN,,METAR,METAR CYQL 290200Z 33008KT 15SM -SN OVC040 M11/M14 A3045 RMK SC8 /S01/ SLP383,49.627,-112.792,923,Lethbridge Cnty Arpt,OVC,"[{'cover': 'OVC', 'base': 4000}]",VFR,,,1038.3,,,CA,Canada
4984,CYQM,2025-11-29 02:08:09.581000+00:00,1764381600,2025-11-29T02:00:00.000Z,-1.0,-2.0,240,10.0,15,1001.8,0,,,METAR,METAR CYQM 290200Z 24010KT 15SM FEW045 FEW062 FEW130 FEW260 M01/M02 A2958 RMK SC1SC1AC1CI1 SC TR AC TR CI TR OCNL -SHSN CVCTV CLD EMBD SLP022,46.107,-64.682,67,Moncton Intl,FEW,"[{'cover': 'FEW', 'base': 4500}, {'cover': 'FEW', 'base': 6200}, {'cover': 'FEW', 'base': 13000}, {'cover': 'FEW', 'base': 26000}]",VFR,,,1002.2,,,CA,Canada
4985,CYQQ,2025-11-29 02:08:09.605000+00:00,1764381600,2025-11-29T02:00:00.000Z,4.0,3.0,0,0.0,20,1026.5,0,,,METAR,METAR CYQQ 290200Z 00000KT 20SM FEW010 BKN180 OVC220 04/03 A3031 RMK SF1AS6CS2 DENSITY ALT -1558FT MOON DIMLY VISBL SLP265,49.712,-124.895,24,Comox,OVC,"[{'cover': 'FEW', 'base': 1000}, {'cover': 'BKN', 'base': 18000}, {'cover': 'OVC', 'base': 22000}]",VFR,,,1026.5,,,CA,Canada
5023,CYQR,2025-11-29 02:08:29.483000+00:00,1764381600,2025-11-29T02:00:00.000Z,-9.0,-10.0,130,6.0,1.5,1025.8,0,-SN,,METAR,METAR CYQR 290200Z 13006KT 1 1/2SM -SN OVC021 M09/M10 A3029 RMK SC8 SLP304,50.427,-104.67,576,Regina Intl Arpt,OVC,"[{'cover': 'OVC', 'base': 2100}]",IFR,,,1030.4,,,CA,Canada
5022,CYQT,2025-11-29 02:08:29.505000+00:00,1764381600,2025-11-29T02:00:00.000Z,-7.0,-12.0,300,4.0,15,1027.9,0,,,METAR,METAR CYQT 290200Z 30004KT 15SM OVC044 M07/M12 A3035 RMK SC8 SLP295,48.374,-89.33,197,Thunder Bay Intl,OVC,"[{'cover': 'OVC', 'base': 4400}]",VFR,,,1029.5,,,CA,Canada
4924,CYQU,2025-11-29 02:08:29.525000+00:00,1764381600,2025-11-29T02:00:00.000Z,-21.0,-24.0,320,5.0,1.5,1029.2,0,BR,,METAR,METAR CYQU 290200Z 32005KT 1 1/2SM BR SKC M21/M24 A3039 RMK SLP362,55.182,-118.882,668,Grande Prairie Arpt,SKC,[],IFR,,,1036.2,,,CA,Canada
5021,CYQV,2025-11-29 02:08:29.545000+00:00,1764381600,2025-11-29T02:00:00.000Z,-8.0,-9.0,170,3.0,3,1026.2,2,-SN,,METAR,METAR CYQV 290200Z AUTO 17003KT 3SM -SN OVC030 M08/M09 A3030 RMK SLP304,51.26,-102.461,493,Yorkton Muni,OVC,"[{'cover': 'OVC', 'base': 3000}]",MVFR,,,1030.4,,,CA,Canada
5020,CYQW,2025-11-29 02:08:29.549000+00:00,1764381600,2025-11-29T02:00:00.000Z,-13.0,-15.0,300,6.0,9,1031.6,2,,,METAR,METAR CYQW 290200Z AUTO 30006KT 9SM OVC055 M13/M15 A3046 RMK ICE SLP361,52.769,-108.251,545,North Battleford Arpt,OVC,"[{'cover': 'OVC', 'base': 5500}]",VFR,,,1036.1,,,CA,Canada
4930,CYQX,2025-11-29 02:08:09.628000+00:00,1764381600,2025-11-29T02:00:00.000Z,1.0,1.0,220,10.0,20,997.4,0,,,METAR,METAR CYQX 290200Z 22010KT 20SM OVC051 01/01 A2945 RMK SC8 SLP981,48.946,-54.576,144,Gander Intl Arpt,OVC,"[{'cover': 'OVC', 'base': 5100}]",VFR,,,998.1,,,CA,Canada
4986,CYQY,2025-11-29 02:08:09.653000+00:00,1764381600,2025-11-29T02:00:00.000Z,2.0,2.0,250,12.0,15,1001.1,0,-RA,,METAR,METAR CYQY 290200Z 25012KT 15SM -RA SCT012 BKN024 BKN054 BKN120 02/02 A2956 RMK SC3SC2SC1AS1 SLP015,46.166,-60.049,58,Sydney Arpt,BKN,"[{'cover': 'SCT', 'base': 1200}, {'cover': 'BKN', 'base': 2400}, {'cover': 'BKN', 'base': 5400}, {'cover': 'BKN', 'base': 12000}]",MVFR,,,1001.5,,,CA,Canada
4938,CYQZ,2025-11-29 02:08:29.569000+00:00,1764381600,2025-11-29T02:00:00.000Z,-5.0,-8.0,90,3.0,9,1029.2,2,,,METAR,METAR CYQZ 290200Z AUTO 09003KT 9SM BKN130 M05/M08 A3039 RMK SLP333,53.027,-122.506,548,Quesnel Arpt,BKN,"[{'cover': 'BKN', 'base': 13000}]",VFR,,,1033.3,,,CA,Canada
4987,CYRB,2025-11-29 02:08:09.681000+00:00,1764381600,2025-11-29T02:00:00.000Z,-26.0,-29.0,330,20.0,3,1008.9,0,IC DRSN,,METAR,METAR CYRB 290200Z 33020G25KT 3SM IC DRSN OVC004 M26/M29 A2979 RMK ST8 SLP101,74.713,-94.982,59,Resolute Bay Arpt,OVC,"[{'cover': 'OVC', 'base': 400}]",LIFR,,25.0,1010.1,,,CA,Canada
5019,CYRJ,2025-11-29 02:08:29.589000+00:00,1764381600,2025-11-29T02:00:00.000Z,-4.0,-8.0,250,7.0,25,1002.8,0,,,METAR,METAR CYRJ 290200Z 25007KT 25SM FEW020 FEW095 M04/M08 A2961 RMK SC1AC1 SLP039,48.523,-72.266,173,Roberval Arpt,FEW,"[{'cover': 'FEW', 'base': 2000}, {'cover': 'FEW', 'base': 9500}]",VFR,,,1003.9,,,CA,Canada
4950,CYRL,2025-11-29 02:08:29.610000+00:00,1764381600,2025-11-29T02:00:00.000Z,-15.0,-17.0,0,0.0,15,1026.8,0,-SN,,METAR,METAR CYRL 290200Z 00000KT 15SM -SN SCT140 M15/M17 A3032 RMK AC3 SLP306,51.067,-93.799,370,Red Lake Arpt,SCT,"[{'cover': 'SCT', 'base': 14000}]",VFR,,,1030.6,,,CA,Canada
4960,CYRQ,2025-11-29 02:07:39.185000+00:00,1764381600,2025-11-29T02:00:00.000Z,-3.0,-6.0,230,9.0,9,1007.5,2,,,METAR,METAR CYRQ 290200Z AUTO 23009KT 9SM FEW055 OVC074 M03/M06 A2975 RMK SLP080,46.358,-72.68,58,Trois-Rivières,OVC,"[{'cover': 'FEW', 'base': 5500}, {'cover': 'OVC', 'base': 7400}]",VFR,,,1008.0,,,CA,Canada
5037,CYRT,2025-11-29 02:08:29.631000+00:00,1764381600,2025-11-29T02:00:00.000Z,-24.0,-27.0,330,16.0,15,1019.0,0,IC DRSN,,METAR,METAR CYRT 290200Z 33016KT 15SM IC DRSN FEW020 M24/M27 A3009 RMK SC1 SC TR SLP198,62.811,-92.1,29,Rankin Inlet Arpt,FEW,"[{'cover': 'FEW', 'base': 2000}]",VFR,,,1019.8,,,CA,Canada
5018,CYRV,2025-11-29 02:08:29.653000+00:00,1764381600,2025-11-29T02:00:00.000Z,-1.0,-4.0,0,0.0,9,1029.5,2,,,METAR,METAR CYRV 290200Z AUTO 00000KT 9SM BKN060 M01/M04 A3040 RMK SLP319,50.958,-118.176,456,Revelstoke Arpt,BKN,"[{'cover': 'BKN', 'base': 6000}]",VFR,,,1031.9,,,CA,Canada
4961,CYSB,2025-11-29 02:08:29.673000+00:00,1764381600,2025-11-29T02:00:00.000Z,-7.0,-10.0,310,12.0,15,1018.4,0,,,METAR,METAR CYSB 290200Z 31012G19KT 15SM OVC016 M07/M10 A3007 RMK SC8 SLP210,46.622,-80.799,349,Sudbury Arpt,OVC,"[{'cover': 'OVC', 'base': 1600}]",MVFR,,19.0,1021.0,,,CA,Canada
5017,CYSC,2025-11-29 02:08:29.696000+00:00,1764381600,2025-11-29T02:00:00.000Z,-4.0,-6.0,250,12.0,9,1007.5,2,-SN,,METAR,METAR CYSC 290200Z AUTO 25012G18KT 9SM -SN BKN019 OVC025 M04/M06 A2975 RMK SLP090,45.44,-71.692,236,Sherbrooke Arpt,OVC,"[{'cover': 'BKN', 'base': 1900}, {'cover': 'OVC', 'base': 2500}]",MVFR,,18.0,1009.0,,,CA,Canada
5016,CYSF,2025-11-29 02:08:29.726000+00:00,1764381600,2025-11-29T02:00:00.000Z,-14.0,-15.0,260,3.0,9,1030.2,2,,,METAR,METAR CYSF 290200Z AUTO 26003KT 9SM BKN048 BKN180 M14/M15 A3042 RMK SLP329,59.252,-105.837,238,Stony Rapids Arpt,BKN,"[{'cover': 'BKN', 'base': 4800}, {'cover': 'BKN', 'base': 18000}]",VFR,,,1032.9,,,CA,Canada
4988,CYSJ,2025-11-29 02:08:09.708000+00:00,1764381600,2025-11-29T02:00:00.000Z,0.0,-5.0,290,9.0,15,1003.8,0,,,METAR,METAR CYSJ 290200Z 29009G15KT 15SM BKN060 M00/M05 A2964 RMK SC6 SLP044,45.309,-65.886,89,Saint John Arpt,BKN,"[{'cover': 'BKN', 'base': 6000}]",VFR,,15.0,1004.4,,,CA,Canada
5015,CYSM,2025-11-29 02:08:29.750000+00:00,1764381600,2025-11-29T02:00:00.000Z,-13.0,-15.0,190,2.0,12,1032.9,0,-SN,,METAR,METAR CYSM 290200Z 19002KT 12SM -SN OVC011 M13/M15 A3050 RMK SC8 SLP354,60.026,-111.929,203,Fort Smith Arpt,OVC,"[{'cover': 'OVC', 'base': 1100}]",MVFR,,,1035.4,,,CA,Canada
4750,CYSN,2025-11-29 02:08:29.766000+00:00,1764381600,2025-11-29T02:00:00.000Z,-1.0,-5.0,260,18.0,15,1022.8,0,,,METAR,METAR CYSN 290200Z 26018G23KT 15SM SCT023 M01/M05 A3020 RMK SC4 LAST STFD OBS/NXT 291200Z SLP232,43.192,-79.176,96,St Catharines/Niagara Arpt,SCT,"[{'cover': 'SCT', 'base': 2300}]",VFR,,23.0,1023.2,,,CA,Canada
4989,CYTE,2025-11-29 02:08:09.752000+00:00,1764381600,2025-11-29T02:00:00.000Z,-13.0,-15.0,230,4.0,9,1003.5,2,,,METAR,METAR CYTE 290200Z AUTO 23004KT 9SM OVC060 M13/M15 A2963 RMK SLP041,64.23,-76.528,49,Cape Dorset Arpt,OVC,"[{'cover': 'OVC', 'base': 6000}]",VFR,,,1004.1,,,CA,Canada
4935,CYTH,2025-11-29 02:08:29.788000+00:00,1764381600,2025-11-29T02:00:00.000Z,-16.0,-18.0,330,6.0,15,1027.5,0,,,METAR,METAR CYTH 290200Z 33006KT 15SM SKC M16/M18 A3034 RMK SLP301,55.803,-97.846,212,Thompson Arpt,SKC,[],VFR,,,1030.1,,,CA,Canada
4990,CYTL,2025-11-29 02:08:09.788000+00:00,1764381600,2025-11-29T02:00:00.000Z,-10.0,-12.0,300,10.0,9,1024.1,2,-SN,,METAR,METAR CYTL 290200Z AUTO 30010KT 9SM -SN OVC071 M10/M12 A3024 RMK SLP264,53.816,-89.892,218,Big Trout Lake Arpt,OVC,"[{'cover': 'OVC', 'base': 7100}]",VFR,,,1026.4,,,CA,Canada
4931,CYTR,2025-11-29 02:08:09.818000+00:00,1764381600,2025-11-29T02:00:00.000Z,-1.0,-6.0,300,11.0,15,1018.7,0,,,METAR,METAR CYTR 290200Z 30011G17KT 15SM FEW030 BKN170 M01/M06 A3008 RMK SC1AS5 DENSITY ALT -1806FT SLP191,44.115,-77.531,80,Trenton,BKN,"[{'cover': 'FEW', 'base': 3000}, {'cover': 'BKN', 'base': 17000}]",VFR,,17.0,1019.1,,,CA,Canada
5014,CYTS,2025-11-29 02:08:29.809000+00:00,1764381600,2025-11-29T02:00:00.000Z,-8.0,-10.0,290,12.0,12,1018.4,0,-SN,,METAR,METAR CYTS 290200Z 29012G20KT 270V330 12SM -SN BKN013 OVC120 M08/M10 A3007 RMK SC6AC2 SLP207,48.568,-81.378,290,Timmins/Power Arpt,OVC,"[{'cover': 'BKN', 'base': 1300}, {'cover': 'OVC', 'base': 12000}]",MVFR,,20.0,1020.7,,,CA,Canada
5013,CYTZ,2025-11-29 02:08:29.831000+00:00,1764381600,2025-11-29T02:00:00.000Z,0.0,-5.0,280,12.0,9,1021.8,2,,,METAR,METAR CYTZ 290200Z AUTO 28012G20KT 9SM CLR M00/M05 A3017 RMK SLP222,43.627,-79.397,76,Toronto/Bishop Arpt,CLR,[],VFR,,20.0,1022.2,,,CA,Canada
4991,CYUL,2025-11-29 02:08:09.841000+00:00,1764381600,2025-11-29T02:00:00.000Z,-2.0,-6.0,270,16.0,15,1011.6,0,,,METAR,METAR CYUL 290200Z 27016G25KT 15SM FEW021 BKN036 BKN100 M02/M06 A2987 RMK CF2SC4AC1 SLP118,45.468,-73.742,31,Montreal/Trudeau Intl,BKN,"[{'cover': 'FEW', 'base': 2100}, {'cover': 'BKN', 'base': 3600}, {'cover': 'BKN', 'base': 10000}]",VFR,,25.0,1011.8,,,CA,Canada
5012,CYUX,2025-11-29 02:08:29.861000+00:00,1764381600,2025-11-29T02:00:00.000Z,-27.0,-30.0,300,11.0,9,1002.1,2,,,METAR,METAR CYUX 290200Z AUTO 30011KT 9SM CLR M27/M30 A2959 RMK SLP025,68.772,-81.233,8,Hall Beach Arpt,CLR,[],VFR,,,1002.5,,,CA,Canada
4992,CYUY,2025-11-29 02:08:09.872000+00:00,1764381600,2025-11-29T02:00:00.000Z,-6.0,-8.0,300,11.0,5,1013.3,0,-SN BLSN,,METAR,METAR CYUY 290200Z 30011G23KT 5SM -SN BLSN BKN020 M06/M08 A2992 RMK SC7 SLP154,48.209,-78.83,304,Rouyn/Noranda Arpt,BKN,"[{'cover': 'BKN', 'base': 2000}]",MVFR,,23.0,1015.4,,,CA,Canada
5011,CYVC,2025-11-29 02:08:29.880000+00:00,1764381600,2025-11-29T02:00:00.000Z,-11.0,-13.0,280,5.0,15,1030.6,0,-SN,,METAR,METAR CYVC 290200Z 28005KT 15SM -SN OVC065 M11/M13 A3043 RMK SC8 SLP340,55.15,-105.264,378,La Ronge Arpt,OVC,"[{'cover': 'OVC', 'base': 6500}]",VFR,,,1034.0,,,CA,Canada
4732,CYVL,2025-11-29 02:07:30.470000+00:00,1764381600,2025-11-29T02:00:00.000Z,-26.0,-28.0,320,3.0,9,1029.2,2,,,METAR,METAR CYVL 290200Z AUTO 32003KT 9SM CLR M26/M28 A3039 RMK SLP334,67.021,-126.129,261,Colville Lake,CLR,[],VFR,,,1033.4,,,CA,Canada
5009,CYVM,2025-11-29 02:08:29.906000+00:00,1764381600,2025-11-29T02:00:00.000Z,-11.0,-14.0,120,4.0,9,1002.8,2,,,METAR,METAR CYVM 290200Z AUTO 12004KT 9SM OVC050 M11/M14 A2961 RMK SLP030,67.552,-64.026,3,Broughton Isl/Qikiqtarjuaq Arpt,OVC,"[{'cover': 'OVC', 'base': 5000}]",VFR,,,1003.0,,,CA,Canada
5007,CYVO,2025-11-29 02:08:29.934000+00:00,1764381600,2025-11-29T02:00:00.000Z,-6.0,-7.0,280,12.0,6,1010.2,0,-SN DRSN,,METAR,METAR CYVO 290200Z 28012G21KT 6SM -SN DRSN OVC014 M06/M07 A2983 RMK SC8 /S01/ SLP129,48.056,-77.779,329,Val D'Or Arpt,OVC,"[{'cover': 'OVC', 'base': 1400}]",MVFR,,21.0,1012.9,,,CA,Canada
4993,CYVP,2025-11-29 02:08:09.903000+00:00,1764381600,2025-11-29T02:00:00.000Z,-8.0,-9.0,330,5.0,15,1006.9,0,-SHSN,,METAR,METAR CYVP 290200Z 33005KT 15SM -SHSN BKN034 OVC060 M08/M09 A2973 RMK SC6SC2 CVCTV CLD EMBD SLP074,58.1,-68.415,28,Kuujjuaq Arpt,OVC,"[{'cover': 'BKN', 'base': 3400}, {'cover': 'OVC', 'base': 6000}]",VFR,,,1007.4,,,CA,Canada
5006,CYVQ,2025-11-29 02:08:29.955000+00:00,1764381600,2025-11-29T02:00:00.000Z,-28.0,-32.0,0,0.0,30,1031.6,0,IC,,METAR,METAR CYVQ 290200Z 00000KT 30SM IC FEW250 M28/M32 A3046 RMK CI1 CI TR SLP328,65.278,-126.796,63,Norman Wells Arpt,FEW,"[{'cover': 'FEW', 'base': 25000}]",VFR,,,1032.8,,,CA,Canada
4994,CYVR,2025-11-29 02:08:09.933000+00:00,1764381600,2025-11-29T02:00:00.000Z,6.0,3.0,330,4.0,20,1026.5,0,,,METAR,METAR CYVR 290200Z 33004KT 20SM SKC 06/03 A3031 RMK SLP266,49.183,-123.168,2,Vancouver Intl,SKC,[],VFR,,,1026.6,,,CA,Canada
5043,CYVT,2025-11-29 02:08:28.188000+00:00,1764381600,2025-11-29T02:00:00.000Z,-12.0,-15.0,340,10.0,9,1031.6,2,,,METAR,METAR CYVT 290200Z AUTO 34010G15KT 9SM OVC055 M12/M15 A3046 RMK SLP356,55.842,-108.418,438,Buffalo Narrows Arpt,OVC,"[{'cover': 'OVC', 'base': 5500}]",VFR,,15.0,1035.6,,,CA,Canada
4951,CYVV,2025-11-29 02:08:28.204000+00:00,1764381600,2025-11-29T02:00:00.000Z,-1.0,-6.0,310,8.0,6,1020.7,0,-SHSN,,METAR,METAR CYVV 290200Z 31008KT 6SM -SHSN OVC048 M01/M06 A3014 RMK CU8 SLP220,44.745,-81.107,221,Wiarton Arpt,OVC,"[{'cover': 'OVC', 'base': 4800}]",VFR,,,1022.0,,,CA,Canada
4995,CYWG,2025-11-29 02:08:09.950000+00:00,1764381600,2025-11-29T02:00:00.000Z,-8.0,-11.0,0,0.0,15,1029.2,0,,,METAR,METAR CYWG 290200Z 00000KT 15SM OVC014 M08/M11 A3039 RMK SC8 SLP312,49.916,-97.249,238,Winnipeg Intl Arpt,OVC,"[{'cover': 'OVC', 'base': 1400}]",MVFR,,,1031.2,,,CA,Canada
4996,CYWK,2025-11-29 02:08:09.979000+00:00,1764381600,2025-11-29T02:00:00.000Z,-12.0,-13.0,350,5.0,10+,996.0,0,-SHSN,,METAR,METAR CYWK 290200Z 35005KT 320V020 10SM -SHSN OVC011 M12/M13 A2941 RMK CU8 SLP003,52.927,-66.874,547,Wabush Lake Arpt,OVC,"[{'cover': 'OVC', 'base': 1100}]",MVFR,,,1000.3,,,CA,Canada
4925,CYWL,2025-11-29 02:08:28.238000+00:00,1764381600,2025-11-29T02:00:00.000Z,-6.0,-8.0,130,3.0,15,1027.2,0,,,METAR,METAR CYWL 290200Z 13003KT 080V140 15SM OVC110 M06/M08 A3033 RMK AC8 SLP328,52.186,-122.066,942,Williams Lake Rgnl,OVC,"[{'cover': 'OVC', 'base': 11000}]",VFR,,,1032.8,,,CA,Canada
4939,CYXC,2025-11-29 02:08:28.254000+00:00,1764381600,2025-11-29T02:00:00.000Z,-4.0,-6.0,130,5.0,25,1027.2,0,,,METAR,METAR CYXC 290200Z 13005KT 25SM BKN037 BKN067 M04/M06 A3033 RMK SC5AC2 SLP315,49.614,-115.784,928,Cranbrook Intl,BKN,"[{'cover': 'BKN', 'base': 3700}, {'cover': 'BKN', 'base': 6700}]",VFR,,,1031.5,,,CA,Canada
5044,CYXE,2025-11-29 02:08:28.276000+00:00,1764381600,2025-11-29T02:00:00.000Z,-12.0,-15.0,10,8.0,15,1030.2,0,,,METAR,METAR CYXE 290200Z 01008KT 15SM BKN024 M12/M15 A3042 RMK SC8 SLP344,52.172,-106.695,504,Saskatoon/Diefenbaker Intl,BKN,"[{'cover': 'BKN', 'base': 2400}]",MVFR,,,1034.4,,,CA,Canada
5045,CYXH,2025-11-29 02:08:28.298000+00:00,1764381600,2025-11-29T02:00:00.000Z,-11.0,-14.0,10,9.0,5,1031.6,0,-SN DRSN,,METAR,METAR CYXH 290200Z 01009KT 5SM -SN DRSN OVC014 M11/M14 A3046 RMK SC8 SLP367,50.018,-110.717,717,Medicine Hat Arpt,OVC,"[{'cover': 'OVC', 'base': 1400}]",MVFR,,,1036.7,,,CA,Canada
5046,CYXJ,2025-11-29 02:08:28.328000+00:00,1764381600,2025-11-29T02:00:00.000Z,-16.0,-18.0,100,9.0,15,1027.9,0,,,METAR,METAR CYXJ 290200Z 10009KT 15SM FEW048 SCT200 M16/M18 A3035 RMK SC1CI2 SLP346,56.247,-120.737,700,Fort St John/N Peace Rgnl,SCT,"[{'cover': 'FEW', 'base': 4800}, {'cover': 'SCT', 'base': 20000}]",VFR,,,1034.6,,,CA,Canada
4962,CYXL,2025-11-29 02:08:28.361000+00:00,1764381600,2025-11-29T02:00:00.000Z,-10.0,-13.0,330,5.0,8,1026.8,0,-SN,,METAR,METAR CYXL 290200Z 33005KT 8SM -SN OVC012 M10/M13 A3032 RMK SC8 SLP305,50.114,-91.905,381,Sioux Lookout Arpt,OVC,"[{'cover': 'OVC', 'base': 1200}]",MVFR,,,1030.5,,,CA,Canada
4952,CYXR,2025-11-29 02:08:28.386000+00:00,1764381600,2025-11-29T02:00:00.000Z,-7.0,-9.0,290,15.0,5,1016.3,2,-SN,,METAR,METAR CYXR 290200Z AUTO 29015G24KT 5SM -SN BKN050 OVC071 M07/M09 A3001 RMK ICE INTMT SLP182,47.698,-79.852,244,Earlton Arpt,OVC,"[{'cover': 'BKN', 'base': 5000}, {'cover': 'OVC', 'base': 7100}]",MVFR,,24.0,1018.2,,,CA,Canada
5048,CYXS,2025-11-29 02:08:28.415000+00:00,1764381600,2025-11-29T02:00:00.000Z,-7.0,-8.0,350,5.0,9,1027.9,2,,,METAR,METAR CYXS 290200Z AUTO 35005KT 9SM SCT018 OVC130 M07/M08 A3035 RMK SLP329,53.884,-122.677,685,Prince George Arpt,OVC,"[{'cover': 'SCT', 'base': 1800}, {'cover': 'OVC', 'base': 13000}]",VFR,,,1032.9,,,CA,Canada
4926,CYXT,2025-11-29 02:08:28.440000+00:00,1764381600,2025-11-29T02:00:00.000Z,1.0,-2.0,360,12.0,20,1026.5,0,,,METAR,METAR CYXT 290200Z 36012KT 20SM OVC160 01/M02 A3031 RMK AC8 SLP278,54.471,-128.577,213,Terrace Arpt,OVC,"[{'cover': 'OVC', 'base': 16000}]",VFR,,,1027.8,,,CA,Canada
4963,CYXU,2025-11-29 02:08:10.001000+00:00,1764381600,2025-11-29T02:00:00.000Z,-2.0,-9.0,270,14.0,15,1023.8,0,,,METAR,METAR CYXU 290200Z 27014G22KT 15SM BKN051 BKN063 M02/M09 A3023 RMK SC5SC2 SLP253,43.039,-81.162,278,London Intl,BKN,"[{'cover': 'BKN', 'base': 5100}, {'cover': 'BKN', 'base': 6300}]",VFR,,22.0,1025.3,,,CA,Canada
4997,CYXX,2025-11-29 02:08:10.020000+00:00,1764381600,2025-11-29T02:00:00.000Z,8.0,-4.0,60,7.0,15,1026.2,0,,,METAR,METAR CYXX 290200Z 06007KT 15SM FEW210 OVC230 08/M04 A3030 RMK CI2CS6 SLP263,49.027,-122.377,54,Abbotsford Intl,OVC,"[{'cover': 'FEW', 'base': 21000}, {'cover': 'OVC', 'base': 23000}]",VFR,,,1026.3,,,CA,Canada
4998,CYXY,2025-11-29 02:08:10.038000+00:00,1764381600,2025-11-29T02:00:00.000Z,-10.0,-13.0,180,14.0,15,1021.1,0,,,METAR,METAR CYXY 290200Z 18014G20KT 15SM BKN016 BKN140 M10/M13 A3015 RMK SC5AC1 SLP270,60.71,-135.059,677,Whitehorse Arpt,BKN,"[{'cover': 'BKN', 'base': 1600}, {'cover': 'BKN', 'base': 14000}]",MVFR,,20.0,1027.0,,,CA,Canada
5049,CYYB,2025-11-29 02:08:28.482000+00:00,1764381600,2025-11-29T02:00:00.000Z,-7.0,-9.0,310,13.0,15,1016.7,0,-SN DRSN,,METAR,METAR CYYB 290200Z 31013G19KT 15SM -SN DRSN SCT015 SCT100 M07/M09 A3002 RMK SC3AC1 SLP191,46.365,-79.423,360,North Bay/Garland Arpt,SCT,"[{'cover': 'SCT', 'base': 1500}, {'cover': 'SCT', 'base': 10000}]",VFR,,19.0,1019.1,,,CA,Canada
4932,CYYC,2025-11-29 02:08:10.058000+00:00,1764381600,2025-11-29T02:00:00.000Z,-13.0,-15.0,100,2.0,12,1029.5,0,,,METAR,METAR CYYC 290200Z 10002KT 12SM FEW012 FEW073 M13/M15 A3040 RMK SF1AC1 SF TR FROIN SLP381,51.116,-114.011,1085,Calgary Intl,FEW,"[{'cover': 'FEW', 'base': 1200}, {'cover': 'FEW', 'base': 7300}]",VFR,,,1038.1,,,CA,Canada
5050,CYYD,2025-11-29 02:08:28.526000+00:00,1764381600,2025-11-29T02:00:00.000Z,0.0,-4.0,200,7.0,20,1026.8,0,,,METAR,METAR CYYD 290200Z 20007KT 160V230 20SM OVC032 M00/M04 A3032 RMK SC8 SLP292,54.823,-127.185,527,Smithers Arpt,OVC,"[{'cover': 'OVC', 'base': 3200}]",VFR,,,1029.2,,,CA,Canada
4927,CYYE,2025-11-29 02:08:28.551000+00:00,1764381600,2025-11-29T02:00:00.000Z,-27.0,-30.0,0,0.0,15,1030.9,0,,,METAR,METAR CYYE 290200Z 00000KT 15SM BKN120 M27/M30 A3044 RMK AC5 SLP364,58.839,-122.59,379,Fort Nelson Arpt,BKN,"[{'cover': 'BKN', 'base': 12000}]",VFR,,,1036.4,,,CA,Canada
4928,CYYF,2025-11-29 02:08:28.573000+00:00,1764381600,2025-11-29T02:00:00.000Z,1.0,-5.0,360,5.0,15,1030.9,0,,,METAR,METAR CYYF 290200Z 36005KT 15SM FEW080 BKN150 01/M05 A3044 RMK AC2AC3 SLP324,49.46,-119.606,342,Penticton Rgnl,BKN,"[{'cover': 'FEW', 'base': 8000}, {'cover': 'BKN', 'base': 15000}]",VFR,,,1032.4,,,CA,Canada
5052,CYYG,2025-11-29 02:08:28.597000+00:00,1764381600,2025-11-29T02:00:00.000Z,1.0,0.0,230,6.0,15,1001.4,0,-SN,,METAR,METAR CYYG 290200Z 23006KT 15SM -SN SCT030 OVC120 01/00 A2957 RMK SC4AC4 SLP016,46.289,-63.128,48,Charlottetown Arpt,OVC,"[{'cover': 'SCT', 'base': 3000}, {'cover': 'OVC', 'base': 12000}]",VFR,,,1001.6,,,CA,Canada
5053,CYYH,2025-11-29 02:08:28.618000+00:00,1764381600,2025-11-29T02:00:00.000Z,-24.0,-28.0,320,14.0,20,1011.6,0,,,METAR,METAR CYYH 290200Z 32014G21KT 20SM FEW061 M24/M28 A2987 RMK SC1 SLP121,69.543,-93.568,19,Taloyoak Arpt,FEW,"[{'cover': 'FEW', 'base': 6100}]",VFR,,21.0,1012.1,,,CA,Canada
4933,CYYJ,2025-11-29 02:08:10.081000+00:00,1764381600,2025-11-29T02:00:00.000Z,5.0,4.0,290,2.0,30,1026.5,0,,,METAR,METAR CYYJ 290200Z 29002KT 30SM BKN220 05/04 A3031 RMK CI7 SLP265,48.642,-123.433,16,Victoria Intl,BKN,"[{'cover': 'BKN', 'base': 22000}]",VFR,,,1026.5,,,CA,Canada
4943,CYYL,2025-11-29 02:08:28.648000+00:00,1764381600,2025-11-29T02:00:00.000Z,-15.0,-17.0,290,5.0,9,1026.8,2,-SN,,METAR,METAR CYYL 290200Z AUTO 29005KT 9SM -SN OVC086 M15/M17 A3032 RMK SLP305,56.863,-101.073,351,Lynn Lake Arpt,OVC,"[{'cover': 'OVC', 'base': 8600}]",VFR,,,1030.5,,,CA,Canada
4944,CYYN,2025-11-29 02:08:28.674000+00:00,1764381600,2025-11-29T02:00:00.000Z,-13.0,-14.0,350,16.0,3,1025.5,2,-SN,,METAR,METAR CYYN 290200Z AUTO 35016KT 3SM -SN OVC022 M13/M14 A3028 RMK SLP315,50.292,-107.691,814,Swift Current Arpt,OVC,"[{'cover': 'OVC', 'base': 2200}]",MVFR,,,1031.5,,,CA,Canada
5001,CYYQ,2025-11-29 02:08:10.101000+00:00,1764381600,2025-11-29T02:00:00.000Z,-13.0,-15.0,300,11.0,10+,1023.8,0,-SN DRSN,,METAR,METAR CYYQ 290200Z 30011G18KT 10SM -SN DRSN OVC015 M13/M15 A3023 RMK SC8 SLP244,58.745,-94.074,20,Churchill Arpt,OVC,"[{'cover': 'OVC', 'base': 1500}]",MVFR,,18.0,1024.4,,,CA,Canada
4934,CYYR,2025-11-29 02:08:10.121000+00:00,1764381600,2025-11-29T02:00:00.000Z,-6.0,-8.0,260,5.0,15,996.0,0,,,METAR,METAR CYYR 290200Z 26005KT 15SM SCT014 BKN021 M06/M08 A2941 RMK SC4SC2 DENSITY ALT -1783FT SLP963,53.32,-60.417,42,Goose Bay Arpt,BKN,"[{'cover': 'SCT', 'base': 1400}, {'cover': 'BKN', 'base': 2100}]",MVFR,,,996.3,,,CA,Canada
5002,CYYT,2025-11-29 02:08:10.142000+00:00,1764381600,2025-11-29T02:00:00.000Z,4.0,4.0,340,7.0,15,998.4,0,-DZ,,METAR,METAR CYYT 290200Z 34007KT 15SM -DZ OVC003 04/04 A2948 RMK ST8 SLP989,47.627,-52.748,128,St Johns Intl,OVC,"[{'cover': 'OVC', 'base': 300}]",LIFR,,,998.9,,,CA,Canada
5057,CYYU,2025-11-29 02:08:28.702000+00:00,1764381600,2025-11-29T02:00:00.000Z,-7.0,-8.0,300,15.0,12,1019.7,0,-SN DRSN,,METAR,METAR CYYU 290200Z 30015KT 12SM -SN DRSN BKN012 OVC016 M07/M08 A3011 RMK SC6SC2 SLP215,49.416,-82.47,228,Kapuskasing Arpt,OVC,"[{'cover': 'BKN', 'base': 1200}, {'cover': 'OVC', 'base': 1600}]",MVFR,,,1021.5,,,CA,Canada
4964,CYYW,2025-11-29 02:07:39.523000+00:00,1764381600,2025-11-29T02:00:00.000Z,-9.0,-12.0,300,5.0,9,1025.5,2,-SN,,METAR,METAR CYYW 290200Z AUTO 30005KT 9SM -SN SCT017 OVC038 M09/M12 A3028 RMK SLP290,50.296,-88.912,320,Armstrong Arpt,OVC,"[{'cover': 'SCT', 'base': 1700}, {'cover': 'OVC', 'base': 3800}]",VFR,,,1029.0,,,CA,Canada
5058,CYYY,2025-11-29 02:08:28.729000+00:00,1764381600,2025-11-29T02:00:00.000Z,-1.0,-2.0,260,13.0,1,999.7,0,-SN,,METAR,METAR CYYY 290200Z 26013KT 1SM R06/P6000FT/D -SN OVC005 M01/M02 A2952 RMK SF8 /S01/ SLP001,48.609,-68.208,43,Mont Joli Arpt,OVC,"[{'cover': 'OVC', 'base': 500}]",IFR,,,1000.1,,,CA,Canada
5003,CYYZ,2025-11-29 02:08:10.161000+00:00,1764381600,2025-11-29T02:00:00.000Z,-2.0,-6.0,270,13.0,15,1021.4,0,,,METAR,METAR CYYZ 290200Z 27013KT 15SM FEW180 M02/M06 A3016 RMK AC1 AC TR SLP225,43.679,-79.629,171,Toronto/Pearson Intl,FEW,"[{'cover': 'FEW', 'base': 18000}]",VFR,,,1022.5,,,CA,Canada
5059,CYZE,2025-11-29 02:08:28.757000+00:00,1764381600,2025-11-29T02:00:00.000Z,-3.0,-9.0,330,12.0,9,1021.8,2,,,METAR,METAR CYZE 290200Z AUTO 33012G19KT 9SM CLR M03/M09 A3017 RMK SLP231,45.885,-82.57,189,Gore Bay/Manitoulin Arpt,CLR,[],VFR,,19.0,1023.1,,,CA,Canada
5004,CYZF,2025-11-29 02:08:10.182000+00:00,1764381600,2025-11-29T02:00:00.000Z,-13.0,-15.0,70,2.0,15,1031.9,0,-SN,,METAR,METAR CYZF 290200Z 07002KT 15SM -SN OVC048 M13/M15 A3047 RMK SC8 SLP344,62.475,-114.448,202,Yellowknife Arpt,OVC,"[{'cover': 'OVC', 'base': 4800}]",VFR,,,1034.4,,,CA,Canada
4945,CYZH,2025-11-29 02:08:28.783000+00:00,1764381600,2025-11-29T02:00:00.000Z,-13.0,-15.0,210,2.0,9,1031.6,2,,,METAR,METAR CYZH 290200Z AUTO 21002KT 9SM OVC055 M13/M15 A3046 RMK SLP366,55.293,-114.773,583,Slave Lake Arpt,OVC,"[{'cover': 'OVC', 'base': 5500}]",VFR,,,1036.6,,,CA,Canada
5036,CYZP,2025-11-29 02:08:28.813000+00:00,1764381600,2025-11-29T02:00:00.000Z,5.0,4.0,220,7.0,9,1022.8,2,,,METAR,METAR CYZP 290200Z AUTO 22007KT 110V240 9SM FEW120 05/04 A3020 RMK SLP229,53.254,-131.814,7,Sandspit Arpt,FEW,"[{'cover': 'FEW', 'base': 12000}]",VFR,,,1022.9,,,CA,Canada
5041,CYZR,2025-11-29 02:08:28.840000+00:00,1764381600,2025-11-29T02:00:00.000Z,-1.0,-8.0,290,13.0,9,1025.8,2,,,METAR,METAR CYZR 290200Z AUTO 29013KT 9SM SCT034 OVC050 M01/M08 A3029 RMK SLP269,42.995,-82.307,181,Sarnia/Hadfield Arpt,OVC,"[{'cover': 'SCT', 'base': 3400}, {'cover': 'OVC', 'base': 5000}]",VFR,,,1026.9,,,CA,Canada
5056,CYZS,2025-11-29 02:08:28.864000+00:00,1764381600,2025-11-29T02:00:00.000Z,-25.0,-29.0,310,14.0,15,1007.9,0,IC,,METAR,METAR CYZS 290200Z 31014G20KT 15SM IC SCT042 M25/M29 A2976 RMK SC3 SLP089,64.188,-83.351,60,Coral Harbour Arpt,SCT,"[{'cover': 'SCT', 'base': 4200}]",VFR,,20.0,1008.9,,,CA,Canada
4940,CYZT,2025-11-29 02:08:28.886000+00:00,1764381600,2025-11-29T02:00:00.000Z,4.0,4.0,260,6.0,15,1023.5,0,,,METAR,METAR CYZT 290200Z 26006KT 15SM OVC170 04/04 A3022 RMK AC8 SLP236,50.685,-127.369,13,Port Hardy Arpt,OVC,"[{'cover': 'OVC', 'base': 17000}]",VFR,,,1023.6,,,CA,Canada
5055,CYZU,2025-11-29 02:08:28.906000+00:00,1764381600,2025-11-29T02:00:00.000Z,-13.0,-15.0,130,5.0,15,1030.2,0,,,METAR,METAR CYZU 290200Z 13005KT 15SM FEW120 M13/M15 A3042 RMK AC1 FROIN SLP365,54.142,-115.785,785,Whitecourt Arpt,FEW,"[{'cover': 'FEW', 'base': 12000}]",VFR,,,1036.5,,,CA,Canada
5005,CYZV,2025-11-29 02:08:10.204000+00:00,1764381600,2025-11-29T02:00:00.000Z,-2.0,-2.0,10,2.0,15,996.4,0,-SHSN,,METAR,METAR CYZV 290200Z 01002KT 15SM -SHSN BKN014 BKN044 OVC120 M02/M02 A2942 RMK SC5SC2AC1 CVCTV CLD EMBD SLP969,50.217,-66.26,43,Sept-Îles Arpt,OVC,"[{'cover': 'BKN', 'base': 1400}, {'cover': 'BKN', 'base': 4400}, {'cover': 'OVC', 'base': 12000}]",MVFR,,,996.9,,,CA,Canada
5008,CYZX,2025-11-29 02:08:10.230000+00:00,1764381600,2025-11-29T02:00:00.000Z,0.0,0.0,220,7.0,2.25,1004.5,0,-SHSN,,METAR,METAR CYZX 290200Z 22007KT 2 1/4SM -SHSN OVC010 00/M00 A2966 RMK SC8 DENSITY ALT -1312FT VIS VRB 1 1/2-3 /S01/ SLP046,44.985,-64.912,28,Greenwood,OVC,"[{'cover': 'OVC', 'base': 1000}]",IFR,,,1004.6,,,CA,Canada
5010,CZBF,2025-11-29 02:08:10.286000+00:00,1764381600,2025-11-29T02:00:00.000Z,-1.0,-4.0,230,5.0,9,1000.8,2,,,METAR,METAR CZBF 290200Z AUTO 23005KT 9SM BKN096 M01/M04 A2955 RMK SLP011,47.628,-65.746,60,Bathurst Arpt,BKN,"[{'cover': 'BKN', 'base': 9600}]",VFR,,,1001.1,,,CA,Canada
2875,CZMD,2025-11-29 02:07:39.553000+00:00,1764381600,2025-11-29T02:00:00.000Z,-11.0,-13.0,240,6.0,9,1024.8,2,,,METAR,METAR CZMD 290200Z AUTO 24006KT 9SM OVC060 M11/M13 A3026 RMK SLP276,53.439,-91.766,276,Muskrat Dam Arpt,OVC,"[{'cover': 'OVC', 'base': 6000}]",VFR,,,1027.6,,,CA,Canada
4751,CZPC,2025-11-29 02:08:28.938000+00:00,1764381600,2025-11-29T02:00:00.000Z,-13.0,-16.0,170,7.0,9,1029.9,2,-SN,,METAR,METAR CZPC 290200Z AUTO 17007KT 9SM -SN OVC031 M13/M16 A3041 RMK SLP384,49.522,-114.005,1187,Pincher Creek Arpt,OVC,"[{'cover': 'OVC', 'base': 3100}]",VFR,,,1038.4,,,CA,Canada
4966,CZSJ,2025-11-29 02:07:39.603000+00:00,1764381600,2025-11-29T02:00:00.000Z,-12.0,-14.0,260,3.0,9,1025.8,2,,,METAR,METAR CZSJ 290200Z AUTO 26003KT 220V280 9SM OVC048 M12/M14 A3029 RMK SLP287,53.063,-93.344,286,Sandy Lake Arpt,OVC,"[{'cover': 'OVC', 'base': 4800}]",VFR,,,1028.7,,,CA,Canada
5054,CZUM,2025-11-29 02:08:28.972000+00:00,1764381600,2025-11-29T02:00:00.000Z,-10.0,-11.0,250,3.0,9,994.0,2,-SN,,METAR,METAR CZUM 290200Z AUTO 25003KT 220V300 9SM -SN BKN039 OVC086 M10/M11 A2935 RMK SLP974,53.562,-64.107,431,Churchill Falls Arpt,OVC,"[{'cover': 'BKN', 'base': 3900}, {'cover': 'OVC', 'base': 8600}]",VFR,,,997.4,,,CA,Canada
348,DAAE,2025-11-29 02:07:34.665000+00:00,1764381600,2025-11-29T02:00:00.000Z,8.0,5.0,230,13.0,6+,1021.0,0,,,METAR,METAR DAAE 290200Z 23013KT CAVOK 08/05 Q1021,36.712,5.07,1,Béjaïa Arpt,CAVOK,[],VFR,,,,,,DZ,Algeria
28,DAAG,2025-11-29 02:07:55.790000+00:00,1764381600,2025-11-29T02:00:00.000Z,3.0,2.0,130,2.0,6+,1021.0,0,,,METAR,METAR DAAG 290200Z 13002KT 9999 FEW016 03/02 Q1021,36.691,3.215,18,Algiers Intl,FEW,"[{'cover': 'FEW', 'base': 1600}]",VFR,,,,,,DZ,Algeria
917,DAAJ,2025-11-29 02:07:34.688000+00:00,1764381600,2025-11-29T02:00:00.000Z,9.0,-4.0,360,4.0,6+,1019.0,0,,,METAR,METAR DAAJ 290200Z 36004KT CAVOK 09/M04 Q1019,24.286,9.464,962,Djanet/Tiska Arpt,CAVOK,[],VFR,,,,,,DZ,Algeria
3641,DAAS,2025-11-29 02:07:43.672000+00:00,1764381600,2025-11-29T02:00:00.000Z,-1.0,-1.0,330,3.0,6+,1020.0,0,,,METAR,METAR DAAS 290200Z 33003KT 9999 FEW026 M01/M01 Q1020,36.18,5.33,1012,Sétif/Arnat Arpt,FEW,"[{'cover': 'FEW', 'base': 2600}]",VFR,,,,,,DZ,Algeria
4293,DAAT,2025-11-29 02:07:55.816000+00:00,1764381600,2025-11-29T02:00:00.000Z,12.0,-3.0,VRB,2.0,6+,1020.0,0,,,METAR,METAR DAAT 290200Z VRB02KT CAVOK 12/M03 Q1020,22.824,5.452,1372,Tamanrasset/Aguenar-Hadj Bei Arpt,CAVOK,[],VFR,,,,,,DZ,Algeria
1527,DAAV,2025-11-29 02:07:34.713000+00:00,1764381600,2025-11-29T02:00:00.000Z,12.0,6.0,140,3.0,6+,1020.0,0,,,METAR,METAR DAAV 290200Z 14003KT 110V170 9999 FEW020 BKN033 12/06 Q1020,36.795,5.877,11,Jijel/Achouat Arpt,BKN,"[{'cover': 'FEW', 'base': 2000}, {'cover': 'BKN', 'base': 3300}]",VFR,,,,,,DZ,Algeria
2880,DAAY,2025-11-29 02:07:41.083000+00:00,1764381600,2025-11-29T02:00:00.000Z,1.0,-13.0,200,6.0,6+,1023.0,0,,,METAR,METAR DAAY 290200Z 20006KT CAVOK 01/M13 Q1023,33.532,-0.248,1116,Mecheria/Bouamama Arpt,CAVOK,[],VFR,,,,,,DZ,Algeria
16,DABB,2025-11-29 02:07:34.740000+00:00,1764381600,2025-11-29T02:00:00.000Z,10.0,8.0,270,10.0,6+,1019.0,0,,,METAR,METAR DABB 290200Z 27010KT 9999 FEW020 SCT033 10/08 Q1019,36.822,7.809,3,Annaba/Bitat Arpt,SCT,"[{'cover': 'FEW', 'base': 2000}, {'cover': 'SCT', 'base': 3300}]",VFR,,,,,,DZ,Algeria
894,DABC,2025-11-29 02:07:34.769000+00:00,1764381600,2025-11-29T02:00:00.000Z,5.0,3.0,290,7.0,6+,1021.0,0,,,METAR,METAR DABC 290200Z 29007KT 9999 FEW020 BKN026 05/03 Q1021,36.278,6.629,686,Constantine/Boudiaf Arpt,BKN,"[{'cover': 'FEW', 'base': 2000}, {'cover': 'BKN', 'base': 2600}]",MVFR,,,,,,DZ,Algeria
4283,DABS,2025-11-29 02:07:43.694000+00:00,1764381600,2025-11-29T02:00:00.000Z,6.0,2.0,290,9.0,4.97,1019.0,0,,,METAR,METAR DABS 290200Z 29009KT 8000 FEW020 BKN030 06/02 Q1019,35.432,8.121,806,Tebassa/Tebessi Arpt,BKN,"[{'cover': 'FEW', 'base': 2000}, {'cover': 'BKN', 'base': 3000}]",MVFR,,,,,,DZ,Algeria
349,DABT,2025-11-29 02:07:34.795000+00:00,1764381600,2025-11-29T02:00:00.000Z,5.0,1.0,220,3.0,6+,1021.0,0,,,METAR,METAR DABT 290200Z 22003KT 9999 SCT023 05/01 Q1021,35.752,6.309,813,Batna/Boulaid Arpt,SCT,"[{'cover': 'SCT', 'base': 2300}]",VFR,,,,,,DZ,Algeria
4287,DAOB,2025-11-29 02:07:43.718000+00:00,1764381600,2025-11-29T02:00:00.000Z,0.0,-6.0,220,4.0,6+,1021.0,0,,,METAR,METAR DAOB 290200Z 22004KT CAVOK M00/M06 Q1021,35.345,1.476,976,Tiaret/Bou Arpt,CAVOK,[],VFR,,,,,,DZ,Algeria
4251,DAOF,2025-11-29 02:07:41.108000+00:00,1764381600,2025-11-29T02:00:00.000Z,13.0,-6.0,110,6.0,6+,1020.0,0,,,METAR,METAR DAOF 290200Z 11006KT CAVOK 13/M06 Q1020,27.7,-8.167,441,Tindouf Arpt,CAVOK,[],VFR,,,,,,DZ,Algeria
596,DAOI,2025-11-29 02:07:43.740000+00:00,1764381600,2025-11-29T02:00:00.000Z,7.0,0.0,60,8.0,6+,1021.0,0,,,METAR,METAR DAOI 290200Z 06008KT CAVOK 07/M00 Q1021,36.213,1.332,141,Chlef/Belkaid Arpt,CAVOK,[],VFR,,,,,,DZ,Algeria
4268,DAOL,2025-11-29 02:07:41.129000+00:00,1764381600,2025-11-29T02:00:00.000Z,3.0,-1.0,80,4.0,6+,1020.0,0,,,METAR,METAR DAOL 290200Z 08004KT CAVOK 03/M01 Q1020,35.542,-0.532,103,Oran/Benbella Arpt,CAVOK,[],VFR,,,,,,DZ,Algeria
4294,DAON,2025-11-29 02:07:55.844000+00:00,1764381600,2025-11-29T02:00:00.000Z,4.0,-1.0,90,4.0,6+,1020.0,0,,,METAR,METAR DAON 290200Z 09004KT CAVOK 04/M01 Q1020,35.013,-1.457,245,Tlemcen/Zenata Arpt,CAVOK,[],VFR,,,,,,DZ,Algeria
3091,DAOO,2025-11-29 02:07:55.876000+00:00,1764381600,2025-11-29T02:00:00.000Z,5.0,2.0,150,3.0,6+,1020.0,0,,,METAR,METAR DAOO 290200Z 15003KT CAVOK 05/02 Q1020,35.623,-0.624,87,Oran/Es-Sénia Arpt,CAVOK,[],VFR,,,,,,DZ,Algeria
595,DAOR,2025-11-29 02:07:41.148000+00:00,1764381600,2025-11-29T02:00:00.000Z,9.0,-6.0,210,3.0,6+,1022.0,0,,,METAR,METAR DAOR 290200Z 21003KT CAVOK 09/M06 Q1022,31.65,-2.261,809,Bécha/Ali Lolfi Arpt,CAVOK,[],VFR,,,,,,DZ,Algeria
2882,DAOV,2025-11-29 02:07:41.168000+00:00,1764381600,2025-11-29T02:00:00.000Z,2.0,-4.0,250,3.0,6+,1020.0,0,,,METAR,METAR DAOV 290200Z 25003KT CAVOK 02/M04 Q1020,35.208,0.147,506,Mascara/Ghriss Arpt,CAVOK,[],VFR,,,,,,DZ,Algeria
1138,DAOY,2025-11-29 02:07:43.496000+00:00,1764381600,2025-11-29T02:00:00.000Z,-1.0,-19.0,40,2.0,6+,1020.0,0,,,METAR,METAR DAOY 290200Z 04002KT CAVOK M01/M19 Q1020,33.721,1.091,1340,El Bayadh Arpt,CAVOK,[],VFR,,,,,,DZ,Algeria
350,DATM,2025-11-29 02:07:43.517000+00:00,1764381600,2025-11-29T02:00:00.000Z,19.0,-12.0,20,9.0,6+,1014.0,0,,,METAR,METAR DATM 290200Z 02009KT 9999 FEW046 SCT100 19/M12 Q1014,21.375,0.924,398,Bordj Mokhtar Arpt,SCT,"[{'cover': 'FEW', 'base': 4600}, {'cover': 'SCT', 'base': 10000}]",VFR,,,,,,DZ,Algeria
352,DAUA,2025-11-29 02:07:43.759000+00:00,1764381600,2025-11-29T02:00:00.000Z,7.0,-7.0,30,11.0,6+,1021.0,0,,,METAR,METAR DAUA 290200Z 03011KT CAVOK 07/M07 Q1021,27.839,-0.186,278,Adrar/Belkebir Arpt,CAVOK,[],VFR,,,,,,DZ,Algeria
597,DAUB,2025-11-29 02:07:43.782000+00:00,1764381600,2025-11-29T02:00:00.000Z,10.0,0.0,320,11.0,6+,1020.0,0,,,METAR,METAR DAUB 290200Z 32011KT CAVOK 10/M00 Q1020,34.793,5.738,75,Biskra Arpt,CAVOK,[],VFR,,,,,,DZ,Algeria
1139,DAUE,2025-11-29 02:07:43.538000+00:00,1764381600,2025-11-29T02:00:00.000Z,0.0,-8.0,350,4.0,6+,1023.0,0,,,METAR,METAR DAUE 290200Z 35004KT CAVOK M00/M08 Q1023,30.571,2.86,396,El Golea Intl,CAVOK,[],VFR,,,,,,DZ,Algeria
1488,DAUG,2025-11-29 02:07:43.805000+00:00,1764381600,2025-11-29T02:00:00.000Z,6.0,-6.0,320,4.0,6+,1022.0,0,,,METAR,METAR DAUG 290200Z 32004KT CAVOK 06/M06 Q1022,32.384,3.794,444,Ghardaïa/Noumérat Arpt,CAVOK,[],VFR,,,,,,DZ,Algeria
1782,DAUH,2025-11-29 02:07:34.821000+00:00,1764381600,2025-11-29T02:00:00.000Z,3.0,-5.0,240,4.0,6+,1022.0,0,,,METAR,METAR DAUH 290200Z 24004KT CAVOK 03/M05 Q1022,31.673,6.14,141,Hassi-Messaoud/Belkacem Arpt,CAVOK,[],VFR,,,,,,DZ,Algeria
1801,DAUI,2025-11-29 02:07:43.558000+00:00,1764381600,2025-11-29T02:00:00.000Z,9.0,-6.0,30,7.0,6+,1020.0,0,,,METAR,METAR DAUI 290200Z 03007KT CAVOK 09/M06 Q1020,27.251,2.512,271,In Salah Arpt,CAVOK,[],VFR,,,,,,DZ,Algeria
4273,DAUK,2025-11-29 02:07:43.576000+00:00,1764381600,2025-11-29T02:00:00.000Z,5.0,-3.0,190,4.0,6+,1021.0,0,,,METAR,METAR DAUK 290200Z 19004KT CAVOK 05/M03 Q1021,33.068,6.089,83,Touggourt/Madhi Arpt,CAVOK,[],VFR,,,,,,DZ,Algeria
2549,DAUL,2025-11-29 02:07:43.594000+00:00,1764381600,2025-11-29T02:00:00.000Z,2.0,-10.0,0,0.0,6+,1021.0,0,,,METAR,METAR DAUL 290200Z 00000KT CAVOK 02/M10 Q1021,33.764,2.928,755,Laghouat/L'Mekrareg Arpt,CAVOK,[],VFR,,,,,,DZ,Algeria
1140,DAUO,2025-11-29 02:07:43.615000+00:00,1764381600,2025-11-29T02:00:00.000Z,5.0,-1.0,230,5.0,6+,1020.0,0,,,METAR,METAR DAUO 290200Z 23005KT CAVOK 05/M01 Q1020,33.513,6.782,55,El Oued/Guemar Arpt,CAVOK,[],VFR,,,,,,DZ,Algeria
4277,DAUT,2025-11-29 02:07:43.633000+00:00,1764381600,2025-11-29T02:00:00.000Z,6.0,-6.0,90,8.0,6+,1022.0,0,,,METAR,METAR DAUT 290200Z 09008KT CAVOK 06/M06 Q1022,29.237,0.276,307,Timimoun Arpt,CAVOK,[],VFR,,,,,,DZ,Algeria
3079,DAUU,2025-11-29 02:07:43.651000+00:00,1764381600,2025-11-29T02:00:00.000Z,4.0,-6.0,350,4.0,6+,1022.0,0,,,METAR,METAR DAUU 290200Z 35004KT 310V020 CAVOK 04/M06 Q1022,31.917,5.413,147,Ouargla Arpt,CAVOK,[],VFR,,,,,,DZ,Algeria
1783,DAUZ,2025-11-29 02:07:34.849000+00:00,1764381600,2025-11-29T02:00:00.000Z,3.0,-10.0,50,3.0,6+,1022.0,0,,,METAR,METAR DAUZ 290200Z 05003KT CAVOK 03/M10 Q1022,28.052,9.643,567,In Aménas Arpt,CAVOK,[],VFR,,,,,,DZ,Algeria
242,DIAP,2025-11-29 01:40:18.119000+00:00,1764379800,2025-11-29T01:30:00.000Z,25.0,25.0,320,3.0,6+,1010.0,0,TS,,METAR,METAR DIAP 290130Z 32003KT 280V010 9999 TS FEW008 BKN011 FEW020CB BKN025 25/25 Q1010 TEMPO 4000 TSRA,5.261,-3.926,4,Abidjan/Boigny Intl,BKN,"[{'cover': 'FEW', 'base': 800}, {'cover': 'BKN', 'base': 1100}, {'cover': 'FEW', 'base': 2000}, {'cover': 'BKN', 'base': 2500}]",MVFR,,,,,,CI,Côte d'Ivoire
4240,DTKA,2025-11-29 02:06:02.569000+00:00,1764381600,2025-11-29T02:00:00.000Z,13.0,9.0,310,15.0,6+,1017.0,0,,,METAR,METAR DTKA 290200Z 31015KT 9999 SCT020 SCT030 13/09 Q1017,36.98,8.877,70,Tabarka Intl,SCT,"[{'cover': 'SCT', 'base': 2000}, {'cover': 'SCT', 'base': 3000}]",VFR,,,,,,TN,Tunisia
2566,DTMB,2025-11-29 02:06:52.526000+00:00,1764381600,2025-11-29T02:00:00.000Z,11.0,7.0,270,13.0,4.97,1017.0,0,,,METAR,METAR DTMB 290200Z 27013KT 8000 FEW026 11/07 Q1017,35.758,10.755,1,Monastir/Bourguiba Intl,FEW,"[{'cover': 'FEW', 'base': 2600}]",MVFR,,,,,,TN,Tunisia
2847,DTNH,2025-11-29 02:06:52.571000+00:00,1764381600,2025-11-29T02:00:00.000Z,10.0,6.0,250,9.0,6+,1017.0,16,,,METAR,METAR DTNH 290200Z 25009KT 9999 SCT026 SCT040 10/06 Q1017 NOSIG,36.074,10.436,1,Enfidha/Mammamet Arpt,SCT,"[{'cover': 'SCT', 'base': 2600}, {'cover': 'SCT', 'base': 4000}]",VFR,,,,,,TN,Tunisia
4479,DTTA,2025-11-29 02:06:52.615000+00:00,1764381600,2025-11-29T02:00:00.000Z,10.0,10.0,230,5.0,6+,1016.0,0,,,METAR,METAR DTTA 290200Z 23005KT 9999 SCT023 10/10 Q1016,36.851,10.227,4,Tunis/Carthage Intl,SCT,"[{'cover': 'SCT', 'base': 2300}]",VFR,,,,,,TN,Tunisia
1534,DTTG,2025-11-29 02:06:02.638000+00:00,1764381600,2025-11-29T02:00:00.000Z,9.0,1.0,230,9.0,4.97,1019.0,0,,,METAR,METAR DTTG 290200Z 23009KT 8000 BKN030 09/01 Q1019,33.733,9.918,120,Gabes/Matmata Intl,BKN,"[{'cover': 'BKN', 'base': 3000}]",MVFR,,,,,,TN,Tunisia
898,DTTJ,2025-11-29 02:06:52.652000+00:00,1764381600,2025-11-29T02:00:00.000Z,15.0,4.0,310,18.0,6+,1018.0,0,,,METAR,METAR DTTJ 290200Z 31018KT 9999 SCT020 15/04 Q1018,33.875,10.775,3,Djerba/Zarzis Intl,SCT,"[{'cover': 'SCT', 'base': 2000}]",VFR,,,,,,TN,Tunisia
1171,DTTR,2025-11-29 02:08:24.081000+00:00,1764381600,2025-11-29T02:00:00.000Z,,,,,,,2,,,METAR,METAR DTTR 290200Z AUTO /////KT NCD Q////,31.703,9.257,253,El Borma Arpt,CLR,[],,,,,,,TN,Tunisia
3878,DTTX,2025-11-29 02:06:02.690000+00:00,1764381600,2025-11-29T02:00:00.000Z,13.0,5.0,290,9.0,4.97,1017.0,0,,,METAR,METAR DTTX 290200Z 29009KT 8000 FEW020 13/05 Q1017,34.718,10.691,17,Sfax/Thyna Arpt,FEW,"[{'cover': 'FEW', 'base': 2000}]",MVFR,,,,,,TN,Tunisia
4239,DTTZ,2025-11-29 02:06:02.751000+00:00,1764381600,2025-11-29T02:00:00.000Z,8.0,0.0,230,6.0,6+,1020.0,0,,,METAR,METAR DTTZ 290200Z 23006KT 140V260 9999 FEW033 08/00 Q1020,33.94,8.111,87,Tozeur/Nefta Arpt,FEW,"[{'cover': 'FEW', 'base': 3300}]",VFR,,,,,,TN,Tunisia
186,EBAW,2025-11-29 01:56:58.597000+00:00,1764381000,2025-11-29T02:00:00.000Z,8.0,7.0,210,7.0,4.97,1012.0,2,,,METAR,METAR EBAW 290150Z AUTO 21007KT 8000 // OVC004/// 08/07 Q1012,51.189,4.46,7,Antwerp Intl,OVC,"[{'cover': 'OVC', 'base': 400}]",LIFR,,,,,,BE,Belgium
445,EBBR,2025-11-29 01:58:29.364000+00:00,1764381000,2025-11-29T02:00:00.000Z,8.0,7.0,190,9.0,6+,1012.0,0,,,METAR,METAR EBBR 290150Z 19009KT 9999 SCT009 SCT038 08/07 Q1012 TEMPO BKN009,50.896,4.526,49,Brussels Intl,SCT,"[{'cover': 'SCT', 'base': 900}, {'cover': 'SCT', 'base': 3800}]",VFR,,,,,,BE,Belgium
1026,EBCI,2025-11-29 01:56:58.642000+00:00,1764381000,2025-11-29T02:00:00.000Z,8.0,7.0,200,8.0,4.35,1013.0,0,,,METAR,METAR EBCI 290150Z 20008KT 7000 FEW004 BKN005 BKN006 08/07 Q1013 TEMPO BKN004,50.459,4.454,176,Charleroi Arpt,BKN,"[{'cover': 'FEW', 'base': 400}, {'cover': 'BKN', 'base': 500}, {'cover': 'BKN', 'base': 600}]",IFR,,,,,,BE,Belgium
2398,EBLG,2025-11-29 01:55:50.040000+00:00,1764381000,2025-11-29T02:00:00.000Z,7.0,6.0,190,9.0,6+,1013.0,16,,,METAR,METAR EBLG 290150Z 19009KT 9999 FEW005 BKN008 07/06 Q1013 NOSIG,50.637,5.443,187,Bierset/Liège Arpt,BKN,"[{'cover': 'FEW', 'base': 500}, {'cover': 'BKN', 'base': 800}]",IFR,,,,,,BE,Belgium
3200,EBOS,2025-11-29 01:55:50.244000+00:00,1764381000,2025-11-29T02:00:00.000Z,9.0,8.0,190,10.0,6+,1010.0,16,,,METAR,METAR EBOS 290150Z 19010KT 9999 FEW006 SCT030 09/08 Q1010 NOSIG,51.199,2.862,5,Oostende-Bruges Intl,SCT,"[{'cover': 'FEW', 'base': 600}, {'cover': 'SCT', 'base': 3000}]",VFR,,,,,,BE,Belgium
185,EDAC,2025-11-29 02:06:48.180000+00:00,1764381000,2025-11-29T02:00:00.000Z,4.0,3.0,190,7.0,3.73,1014.0,2,,,METAR,METAR EDAC 290150Z AUTO 19007KT 6000 // OVC019/// 04/03 Q1014,50.982,12.506,193,Altenburg Arpt,OVC,"[{'cover': 'OVC', 'base': 1900}]",MVFR,,,,,,DE,Germany
1948,EDAH,2025-11-29 02:06:48.710000+00:00,1764381000,2025-11-29T02:00:00.000Z,4.0,4.0,180,6.0,0.34,1011.0,2,,,METAR,METAR EDAH 290150Z AUTO 18006KT 0550 R28/0650N // VV/// 04/04 Q1011,53.879,14.152,22,Heringsdorf Arpt,OVX,[],LIFR,,,,,,DE,Germany
1029,EDBC,2025-11-29 01:55:56.118000+00:00,1764381000,2025-11-29T02:00:00.000Z,6.0,5.0,250,7.0,6+,1012.0,2,,,METAR,METAR EDBC 290150Z AUTO 25007KT 9999 FEW016 FEW///TCU 06/05 Q1012 RESHRA,51.856,11.42,178,Magdeburg/Cochstedt Arpt,FEW,"[{'cover': 'FEW', 'base': 1600}]",VFR,,,,,,DE,Germany
446,EDDB,2025-11-29 01:54:12.862000+00:00,1764381000,2025-11-29T02:00:00.000Z,5.0,5.0,190,5.0,2.8,1012.0,2,-DZ BR,,METAR,METAR EDDB 290150Z AUTO 19005KT 4500 -DZ BR OVC004 05/05 Q1012 TEMPO 2900 RADZ BKN005,52.3807,13.5306,48,Berlin/Brandenburg Intl,OVC,"[{'cover': 'OVC', 'base': 400}]",LIFR,,,,,,DE,Germany
1028,EDDC,2025-11-29 01:53:19.218000+00:00,1764381000,2025-11-29T02:00:00.000Z,3.0,1.0,180,4.0,6+,1013.0,2,,,METAR,METAR EDDC 290150Z AUTO 18004KT 160V230 9999 BKN018 03/01 Q1013,51.128,13.7543,227,Dresden Arpt,BKN,"[{'cover': 'BKN', 'base': 1800}]",MVFR,,,,,,DE,Germany
1315,EDDE,2025-11-29 01:53:19.251000+00:00,1764381000,2025-11-29T02:00:00.000Z,5.0,3.0,230,10.0,6+,1013.0,2,,,METAR,METAR EDDE 290150Z AUTO 23010KT 9999 BKN016 BKN033 OVC047 05/03 Q1013,50.983,10.961,314,Erfurt Arpt,OVC,"[{'cover': 'BKN', 'base': 1600}, {'cover': 'BKN', 'base': 3300}, {'cover': 'OVC', 'base': 4700}]",MVFR,,,,,,DE,Germany
1312,EDDF,2025-11-29 01:53:19.446000+00:00,1764381000,2025-11-29T02:00:00.000Z,6.0,6.0,200,5.0,2.98,1015.0,18,-DZ BR,,METAR,METAR EDDF 290150Z AUTO 20005KT 4800 -DZ BR OVC002 06/06 Q1015 NOSIG,50.045,8.598,113,Frankfurt/Main Arpt,OVC,"[{'cover': 'OVC', 'base': 200}]",LIFR,,,,,,DE,Germany
1309,EDDG,2025-11-29 01:53:19.285000+00:00,1764381000,2025-11-29T02:00:00.000Z,9.0,8.0,200,6.0,6+,1012.0,18,,,METAR,METAR EDDG 290150Z AUTO 20006KT 160V220 9999 BKN013 OVC017 09/08 Q1012 NOSIG,52.135,7.697,46,Münster/Osnabrück Arpt,OVC,"[{'cover': 'BKN', 'base': 1300}, {'cover': 'OVC', 'base': 1700}]",MVFR,,,,,,DE,Germany
1642,EDDH,2025-11-29 01:53:19.495000+00:00,1764381000,2025-11-29T02:00:00.000Z,9.0,7.0,210,10.0,6+,1010.0,18,,,METAR,METAR EDDH 290150Z AUTO 21010KT 9999 OVC021 09/07 Q1010 NOSIG,53.633,9.988,8,Hamburg Arpt,OVC,"[{'cover': 'OVC', 'base': 2100}]",MVFR,,,,,,DE,Germany
740,EDDK,2025-11-29 01:53:19.529000+00:00,1764381000,2025-11-29T02:00:00.000Z,7.0,5.0,130,6.0,6+,1013.0,18,,,METAR,METAR EDDK 290150Z AUTO 13006KT 9999 FEW021 07/05 Q1013 NOSIG,50.865,7.157,92,Koln-Bonn Arpt,FEW,"[{'cover': 'FEW', 'base': 2100}]",VFR,,,,,,DE,Germany
1326,EDDL,2025-11-29 01:53:19.568000+00:00,1764381000,2025-11-29T02:00:00.000Z,7.0,6.0,150,7.0,6+,1013.0,18,,,METAR,METAR EDDL 290150Z AUTO 15007KT 9999 BKN016 BKN023 BKN038 07/06 Q1013 NOSIG,51.296,6.769,37,Düsseldorf Intl,BKN,"[{'cover': 'BKN', 'base': 1600}, {'cover': 'BKN', 'base': 2300}, {'cover': 'BKN', 'base': 3800}]",MVFR,,,,,,DE,Germany
2962,EDDM,2025-11-29 01:53:19.614000+00:00,1764381000,2025-11-29T02:00:00.000Z,1.0,-1.0,180,5.0,6+,1017.0,18,-RA,,METAR,METAR EDDM 290150Z AUTO 18005KT 9999 -RA BKN024 BKN047 01/M01 Q1017 NOSIG,48.348,11.813,445,Munich Intl,BKN,"[{'cover': 'BKN', 'base': 2400}, {'cover': 'BKN', 'base': 4700}]",MVFR,,,,,,DE,Germany
3190,EDDN,2025-11-29 01:53:19.661000+00:00,1764381000,2025-11-29T02:00:00.000Z,3.0,2.0,130,6.0,5.59,1016.0,2,-RA,,METAR,METAR EDDN 290150Z AUTO 13006KT 9000 -RA OVC011 03/02 Q1016 RESHRA,49.503,11.055,312,Nurnberg Arpt,OVC,"[{'cover': 'OVC', 'base': 1100}]",MVFR,,,,,,DE,Germany
2405,EDDP,2025-11-29 01:56:41.081000+00:00,1764381000,2025-11-29T02:00:00.000Z,5.0,4.0,210,7.0,4.97,1013.0,2,-SHRA,,METAR,METAR EDDP 290150Z AUTO 21007KT 8000 -SHRA BKN018 FEW///TCU 05/04 Q1013 RESHRA TEMPO 4000 RA BKN010,51.435,12.24,129,Leipzig/Halle Arpt,BKN,"[{'cover': 'BKN', 'base': 1800}]",MVFR,,,,,,DE,Germany
3753,EDDR,2025-11-29 01:53:19.361000+00:00,1764381000,2025-11-29T02:00:00.000Z,6.0,5.0,200,3.0,6+,1015.0,2,-DZ,,METAR,METAR EDDR 290150Z AUTO 20003KT 150V250 9999 -DZ OVC003 06/05 Q1015,49.213,7.108,317,Saarbrücken Arpt,OVC,"[{'cover': 'OVC', 'base': 300}]",LIFR,,,,,,DE,Germany
4063,EDDS,2025-11-29 02:06:48.753000+00:00,1764381000,2025-11-29T02:00:00.000Z,5.0,4.0,150,3.0,4.97,1015.0,2,-SHRA,,METAR,METAR EDDS 290150Z AUTO 15003KT 8000 -SHRA FEW005 OVC024 FEW///TCU 05/04 Q1015 RESHRA,48.69,9.222,374,Stuttgart Arpt,OVC,"[{'cover': 'FEW', 'base': 500}, {'cover': 'OVC', 'base': 2400}]",MVFR,,,,,,DE,Germany
1655,EDDV,2025-11-29 01:53:19.742000+00:00,1764381000,2025-11-29T02:00:00.000Z,7.0,6.0,220,4.0,6+,1012.0,2,,,METAR,METAR EDDV 290150Z AUTO 22004KT 9999 SCT017 07/06 Q1012,52.466,9.68,53,Hannover Arpt,SCT,"[{'cover': 'SCT', 'base': 1700}]",VFR,,,,,,DE,Germany
455,EDDW,2025-11-29 01:53:19.405000+00:00,1764381000,2025-11-29T02:00:00.000Z,9.0,7.0,210,7.0,6+,1010.0,2,,,METAR,METAR EDDW 290150Z AUTO 21007KT 9999 BKN017 OVC021 09/07 Q1010,53.047,8.787,5,Bremen Arpt,OVC,"[{'cover': 'BKN', 'base': 1700}, {'cover': 'OVC', 'base': 2100}]",MVFR,,,,,,DE,Germany
1950,EDFH,2025-11-29 02:06:48.227000+00:00,1764381000,2025-11-29T02:00:00.000Z,6.0,6.0,240,4.0,0.93,1014.0,0,BR,,METAR,METAR EDFH 290150Z 24004KT 200V270 1500 R21/1300U BR OVC001 06/06 Q1014,49.946,7.265,494,Frankfurt/Hahn Arpt,OVC,"[{'cover': 'OVC', 'base': 100}]",LIFR,,,,,,DE,Germany
2712,EDFM,2025-11-29 01:56:58.482000+00:00,1764381000,2025-11-29T02:00:00.000Z,7.0,6.0,140,3.0,2.86,1016.0,2,,,METAR,METAR EDFM 290150Z AUTO 14003KT 100V180 4600 // BKN005/// OVC013/// 07/06 Q1016,49.474,8.515,94,Mannheim City Arpt,OVC,"[{'cover': 'BKN', 'base': 500}, {'cover': 'OVC', 'base': 1300}]",IFR,,,,,,DE,Germany
4061,EDGS,2025-11-29 02:06:48.264000+00:00,1764381000,2025-11-29T02:00:00.000Z,5.0,5.0,220,4.0,0.19,1013.0,2,,,METAR,METAR EDGS 290150Z AUTO 22004KT 190V250 0300 R13/0350N // VV/// 05/05 Q1013,50.708,8.083,595,Siegerland Arpt,OVX,[],LIFR,,,,,,DE,Germany
4852,EDHI,2025-11-29 01:58:29.448000+00:00,1764381000,2025-11-29T02:00:00.000Z,9.0,7.0,220,10.0,6+,1010.0,2,,,METAR,METAR EDHI 290150Z AUTO 22010KT 9999 // SCT015/// OVC020/// 09/07 Q1010,53.536,9.837,5,Hamburg/FinkenwerderR Arpt,OVC,"[{'cover': 'SCT', 'base': 1500}, {'cover': 'OVC', 'base': 2000}]",MVFR,,,,,,DE,Germany
2183,EDHK,2025-11-29 01:58:29.473000+00:00,1764381000,2025-11-29T02:00:00.000Z,9.0,7.0,240,8.0,6+,1008.0,2,,,METAR,METAR EDHK 290150Z AUTO 24008KT 200V270 9999 // BKN012/// OVC022/// 09/07 Q1008,54.376,10.143,24,Kiel/Holtenau Arpt,OVC,"[{'cover': 'BKN', 'base': 1200}, {'cover': 'OVC', 'base': 2200}]",MVFR,,,,,,DE,Germany
2399,EDHL,2025-11-29 01:58:29.499000+00:00,1764381000,2025-11-29T02:00:00.000Z,8.0,7.0,210,7.0,6+,1009.0,2,,,METAR,METAR EDHL 290150Z AUTO 21007KT 9999 // FEW012/// SCT014/// BKN034/// 08/07 Q1009,53.805,10.719,13,Lübeck Arpt,BKN,"[{'cover': 'FEW', 'base': 1200}, {'cover': 'SCT', 'base': 1400}, {'cover': 'BKN', 'base': 3400}]",VFR,,,,,,DE,Germany
1335,EDJA,2025-11-29 01:56:58.571000+00:00,1764381000,2025-11-29T02:00:00.000Z,2.0,-2.0,220,6.0,6+,1016.0,2,,,METAR,METAR EDJA 290150Z AUTO 22006KT 9999 // FEW042/// BKN100/// OVC120/// 02/M02 Q1016,47.989,10.239,625,Memmingerberg Arpt,OVC,"[{'cover': 'FEW', 'base': 4200}, {'cover': 'BKN', 'base': 10000}, {'cover': 'OVC', 'base': 12000}]",VFR,,,,,,DE,Germany
2714,EDLN,2025-11-29 01:57:01.483000+00:00,1764381000,2025-11-29T02:00:00.000Z,5.0,5.0,140,3.0,2.73,1013.0,2,,,METAR,METAR EDLN 290150Z AUTO 14003KT 4400 // FEW022/// OVC025/// 05/05 Q1013,51.23,6.504,38,Monchengladbach Arpt,OVC,"[{'cover': 'FEW', 'base': 2200}, {'cover': 'OVC', 'base': 2500}]",IFR,,,,,,DE,Germany
3478,EDLP,2025-11-29 01:55:56.828000+00:00,1764381000,2025-11-29T02:00:00.000Z,7.0,5.0,200,7.0,6+,1012.0,0,,,METAR,METAR EDLP 290150Z 20007KT 9999 BKN026 07/05 Q1012,51.614,8.616,211,Paderborn Arpt,BKN,"[{'cover': 'BKN', 'base': 2600}]",MVFR,,,,,,DE,Germany
3201,EDLV,2025-11-29 02:06:48.296000+00:00,1764381000,2025-11-29T02:00:00.000Z,9.0,8.0,200,7.0,5.59,1012.0,2,,,METAR,METAR EDLV 290150Z AUTO 20007KT 9000 // BKN007/// OVC019/// 09/08 Q1012,51.602,6.142,27,Weeze Arpt,OVC,"[{'cover': 'BKN', 'base': 700}, {'cover': 'OVC', 'base': 1900}]",IFR,,,,,,DE,Germany
1322,EDLW,2025-11-29 01:58:29.523000+00:00,1764381000,2025-11-29T02:00:00.000Z,8.0,7.0,200,7.0,6+,1012.0,2,,,METAR,METAR EDLW 290150Z AUTO 20007KT 9999 // SCT012/// OVC014/// 08/07 Q1012,51.518,7.612,122,Dortmund Arpt,OVC,"[{'cover': 'SCT', 'base': 1200}, {'cover': 'OVC', 'base': 1400}]",MVFR,,,,,,DE,Germany
187,EDMA,2025-11-29 02:06:48.797000+00:00,1764381000,2025-11-29T02:00:00.000Z,2.0,0.0,160,4.0,6+,1016.0,2,,,METAR,METAR EDMA 290150Z AUTO 16004KT 9999 // BKN049/// OVC067/// 02/M00 Q1016,48.425,10.932,462,Augsberg Arpt,OVC,"[{'cover': 'BKN', 'base': 4900}, {'cover': 'OVC', 'base': 6700}]",VFR,,,,,,DE,Germany
3206,EDMO,2025-11-29 01:58:29.548000+00:00,1764381000,2025-11-29T02:00:00.000Z,1.0,-1.0,160,5.0,6+,1016.0,2,-SHRA,,METAR,METAR EDMO 290150Z AUTO 16005KT 9999 -SHRA BKN032 BKN036 OVC043 FEW///TCU 01/M01 Q1016 REFZRA,48.081,11.283,587,Oberpfaffenhofe Arpt,OVC,"[{'cover': 'BKN', 'base': 3200}, {'cover': 'BKN', 'base': 3600}, {'cover': 'OVC', 'base': 4300}]",VFR,,,,,,DE,Germany
1325,EDNY,2025-11-29 01:56:58.369000+00:00,1764381000,2025-11-29T02:00:00.000Z,2.0,1.0,VRB,2.0,6+,1017.0,2,,,METAR,METAR EDNY 290150Z AUTO VRB02KT 9999 // FEW033/// BKN042/// OVC051/// 02/01 Q1017,47.671,9.511,411,Friedrichshafen Arpt,OVC,"[{'cover': 'FEW', 'base': 3300}, {'cover': 'BKN', 'base': 4200}, {'cover': 'OVC', 'base': 5100}]",VFR,,,,,,DE,Germany
1938,EDQM,2025-11-29 01:58:29.580000+00:00,1764381000,2025-11-29T02:00:00.000Z,2.0,2.0,200,9.0,3.11,1013.0,2,,,METAR,METAR EDQM 290150Z AUTO 20009KT 170V230 5000 // VV/// 02/02 Q1013,50.289,11.86,578,Hof/Plauen Arpt,OVX,[],MVFR,,,,,,DE,Germany
1320,EDSB,2025-11-29 02:06:47.440000+00:00,1764381000,2025-11-29T02:00:00.000Z,8.0,7.0,210,8.0,4.35,1016.0,2,,,METAR,METAR EDSB 290150Z AUTO 21008KT 7000 // FEW006/// BKN014/// OVC019/// 08/07 Q1016,48.779,8.081,122,Baden Arpt,OVC,"[{'cover': 'FEW', 'base': 600}, {'cover': 'BKN', 'base': 1400}, {'cover': 'OVC', 'base': 1900}]",MVFR,,,,,,DE,Germany
2400,EDTL,2025-11-29 02:06:47.494000+00:00,1764381000,2025-11-29T02:00:00.000Z,7.0,7.0,200,8.0,6+,1016.0,2,,,METAR,METAR EDTL 290150Z AUTO 20008KT 9999 // ///029/// 07/07 Q1016,48.369,7.828,152,Lahr/Black Forest Arpt,,,,,,,,,DE,Germany
746,EDVE,2025-11-29 01:56:00.229000+00:00,1764381000,2025-11-29T02:00:00.000Z,7.0,5.0,210,5.0,6+,1012.0,2,,,METAR,METAR EDVE 290150Z AUTO 21005KT 9999 OVC026 07/05 Q1012,52.319,10.558,83,Braunschweig Arpt,OVC,"[{'cover': 'OVC', 'base': 2600}]",MVFR,,,,,,DE,Germany
2406,EDVK,2025-11-29 01:56:58.394000+00:00,1764381000,2025-11-29T02:00:00.000Z,5.0,5.0,220,6.0,6+,1013.0,2,,,METAR,METAR EDVK 290150Z AUTO 22006KT 9999 // BKN023/// 05/05 Q1013,51.421,9.388,262,Kassel/Calden Arpt,BKN,"[{'cover': 'BKN', 'base': 2300}]",MVFR,,,,,,DE,Germany
1318,EDWE,2025-11-29 01:55:59.249000+00:00,1764381000,2025-11-29T02:00:00.000Z,9.0,8.0,220,7.0,6+,1009.0,2,,,METAR,METAR EDWE 290150Z AUTO 22007KT 190V250 9999 BKN016 BKN021 BKN031 09/08 Q1009 RERA,53.388,7.229,0,Emden Arpt,BKN,"[{'cover': 'BKN', 'base': 1600}, {'cover': 'BKN', 'base': 2100}, {'cover': 'BKN', 'base': 3100}]",MVFR,,,,,,DE,Germany
1634,EDXW,2025-11-29 01:58:29.677000+00:00,1764381000,2025-11-29T02:00:00.000Z,9.0,6.0,240,13.0,6+,1006.0,2,,,METAR,METAR EDXW 290150Z AUTO 24013KT 9999 // FEW027/// 09/06 Q1006,54.913,8.341,8,Westerland/Sylt Arpt,FEW,"[{'cover': 'FEW', 'base': 2700}]",VFR,,,,,,DE,Germany
2182,EEKA,2025-11-29 02:06:47.531000+00:00,1764381000,2025-11-29T02:00:00.000Z,8.0,8.0,200,7.0,3.73,1006.0,2,RA,,METAR,METAR EEKA 290150Z AUTO 20007KT 160V240 6000 RA OVC004/// 08/08 Q1006 REDZ,58.991,22.831,6,Kärdla Arpt,OVC,"[{'cover': 'OVC', 'base': 400}]",LIFR,,,,,,EE,Estonia
4594,EEKE,2025-11-29 01:51:28.634000+00:00,1764381000,2025-11-29T02:00:00.000Z,5.0,5.0,190,14.0,6+,1009.0,2,,,METAR,METAR EEKE 290150Z AUTO 19014KT 9999 OVC003/// 05/05 Q1009,58.23,22.509,4,Kuressaare Arpt,OVC,"[{'cover': 'OVC', 'base': 300}]",LIFR,,,,,,EE,Estonia
1334,EEPU,2025-11-29 01:51:28.724000+00:00,1764381000,2025-11-29T02:00:00.000Z,3.0,3.0,190,15.0,3.11,1010.0,2,DZ,,METAR,METAR EEPU 290150Z AUTO 19015KT 5000 DZ OVC002/// 03/03 Q1010 RERA,58.419,24.473,13,Pärnu Arpt,OVC,"[{'cover': 'OVC', 'base': 200}]",LIFR,,,,,,EE,Estonia
4347,EETN,2025-11-29 01:51:01.688000+00:00,1764381000,2025-11-29T02:00:00.000Z,5.0,4.0,200,15.0,5.59,1008.0,0,-DZ,,METAR,METAR EETN 290150Z 20015KT 9000 -DZ OVC004 05/04 Q1008,59.413,24.801,41,Tallin Arpt,OVC,"[{'cover': 'OVC', 'base': 400}]",LIFR,,,,,,EE,Estonia
4345,EETU,2025-11-29 01:51:28.682000+00:00,1764381000,2025-11-29T02:00:00.000Z,1.0,1.0,190,9.0,6+,1012.0,2,,,METAR,METAR EETU 290150Z AUTO 19009KT 9999 OVC006/// 01/01 Q1012,58.307,26.691,67,Tartu Arpt,OVC,"[{'cover': 'OVC', 'base': 600}]",IFR,,,,,,EE,Estonia
1324,EFET,2025-11-29 01:53:12.460000+00:00,1764381000,2025-11-29T02:00:00.000Z,-8.0,-9.0,80,3.0,6+,982.0,2,,,METAR,METAR EFET 290150Z AUTO 08003KT 9999 OVC003 M08/M09 Q0982,68.363,23.424,300,Enontekio Arpt,OVC,"[{'cover': 'OVC', 'base': 300}]",LIFR,,,,,,FI,Finland
2179,EFHA,2025-11-29 01:53:12.184000+00:00,1764381000,2025-11-29T02:00:00.000Z,6.0,4.0,210,12.0,6+,1001.0,2,,,METAR,METAR EFHA 290150Z AUTO 21012KT 180V240 9999 BKN010 06/04 Q1001,61.855,24.805,144,Halli Arpt,BKN,"[{'cover': 'BKN', 'base': 1000}]",MVFR,,,,,,FI,Finland
1941,EFHK,2025-11-29 01:56:57.631000+00:00,1764381000,2025-11-29T02:00:00.000Z,7.0,7.0,180,13.0,5.59,1005.0,0,-DZ,,METAR,METAR EFHK 290150Z 18013KT 9000 4000SE -DZ BKN002 OVC007 07/07 Q1005 TEMPO 4000,60.327,24.957,56,Helsinki/Vantaa Arpt,OVC,"[{'cover': 'BKN', 'base': 200}, {'cover': 'OVC', 'base': 700}]",LIFR,,,,,,FI,Finland
2181,EFIV,2025-11-29 01:51:29.097000+00:00,1764381000,2025-11-29T02:00:00.000Z,-2.0,-4.0,240,11.0,6+,983.0,2,,,METAR,METAR EFIV 290150Z AUTO 24011KT 9999 BKN010 M02/M04 Q0983,68.607,27.405,145,Ivalo Arpt,BKN,"[{'cover': 'BKN', 'base': 1000}]",MVFR,,,,,,FI,Finland
2160,EFJO,2025-11-29 01:53:12.262000+00:00,1764381000,2025-11-29T02:00:00.000Z,5.0,3.0,190,7.0,6+,1002.0,2,,,METAR,METAR EFJO 290150Z AUTO 19007KT 9999 OVC022 05/03 Q1002,62.66,29.611,118,Joensuu Arpt,OVC,"[{'cover': 'OVC', 'base': 2200}]",MVFR,,,,,,FI,Finland
2180,EFJY,2025-11-29 01:53:12.113000+00:00,1764381000,2025-11-29T02:00:00.000Z,6.0,3.0,200,7.0,6+,1000.0,2,,,METAR,METAR EFJY 290150Z AUTO 20007KT 9999 BKN020 06/03 Q1000,62.404,25.675,139,Jyväskylä Arpt,BKN,"[{'cover': 'BKN', 'base': 2000}]",MVFR,,,,,,FI,Finland
2177,EFKE,2025-11-29 01:53:12.497000+00:00,1764381000,2025-11-29T02:00:00.000Z,3.0,2.0,220,10.0,6+,989.0,2,,,METAR,METAR EFKE 290150Z AUTO 22010KT 9999 FEW009 03/02 Q0989,65.784,24.579,15,Kemi/Tornio Arpt,FEW,"[{'cover': 'FEW', 'base': 900}]",VFR,,,,,,FI,Finland
2176,EFKI,2025-11-29 01:53:12.542000+00:00,1764381000,2025-11-29T02:00:00.000Z,5.0,3.0,210,12.0,6+,995.0,2,,,METAR,METAR EFKI 290150Z AUTO 21012KT 9999 FEW030 05/03 Q0995,64.283,27.673,132,Kajaani Arpt,FEW,"[{'cover': 'FEW', 'base': 3000}]",VFR,,,,,,FI,Finland
2417,EFKK,2025-11-29 01:53:12.209000+00:00,1764381000,2025-11-29T02:00:00.000Z,5.0,4.0,200,16.0,6+,993.0,2,,,METAR,METAR EFKK 290150Z AUTO 20016KT CAVOK 05/04 Q0993,63.721,23.143,25,Kruunupyy Arpt,CAVOK,[],VFR,,,,,,FI,Finland
2175,EFKS,2025-11-29 01:53:12.580000+00:00,1764381000,2025-11-29T02:00:00.000Z,3.0,2.0,230,12.0,5.59,989.0,2,-DZ,,METAR,METAR EFKS 290150Z AUTO 23012KT 9000 -DZ OVC007 03/02 Q0989,65.992,29.236,270,Kuusamo Arpt,OVC,"[{'cover': 'OVC', 'base': 700}]",IFR,,,,,,FI,Finland
2418,EFKT,2025-11-29 01:53:12.631000+00:00,1764381000,2025-11-29T02:00:00.000Z,0.0,0.0,210,9.0,6+,984.0,2,,,METAR,METAR EFKT 290150Z AUTO 21009KT 9999 OVC004 00/M00 Q0984,67.701,24.847,190,Kittilä Arpt,OVC,"[{'cover': 'OVC', 'base': 400}]",LIFR,,,,,,FI,Finland
2416,EFKU,2025-11-29 01:53:12.152000+00:00,1764381000,2025-11-29T02:00:00.000Z,6.0,4.0,190,10.0,6+,999.0,2,,,METAR,METAR EFKU 290150Z AUTO 19010KT 9999 SCT019 OVC042 06/04 Q0999,63.008,27.799,92,Kuopio Arpt,OVC,"[{'cover': 'SCT', 'base': 1900}, {'cover': 'OVC', 'base': 4200}]",VFR,,,,,,FI,Finland
2700,EFLP,2025-11-29 01:53:12.298000+00:00,1764381000,2025-11-29T02:00:00.000Z,6.0,5.0,210,10.0,6+,1005.0,2,,,METAR,METAR EFLP 290150Z AUTO 21010KT 9999 OVC006 06/05 Q1005,61.044,28.151,102,Lappeenranta Arpt,OVC,"[{'cover': 'OVC', 'base': 600}]",IFR,,,,,,FI,Finland
2702,EFMA,2025-11-29 01:51:29.054000+00:00,1764381000,2025-11-29T02:00:00.000Z,7.0,6.0,200,18.0,6+,1001.0,2,,,METAR,METAR EFMA 290150Z AUTO 20018KT CAVOK 07/06 Q1001,60.125,19.903,6,Mariehamn Arpt,CAVOK,[],VFR,,,,,,FI,Finland
2698,EFMI,2025-11-29 01:53:12.329000+00:00,1764381000,2025-11-29T02:00:00.000Z,7.0,4.0,220,11.0,6+,1003.0,2,,,METAR,METAR EFMI 290150Z AUTO 22011KT 190V260 9999 BKN014 07/04 Q1003,61.687,27.201,99,Mikkeli Arpt,BKN,"[{'cover': 'BKN', 'base': 1400}]",MVFR,,,,,,FI,Finland
3185,EFOU,2025-11-29 01:51:28.967000+00:00,1764381000,2025-11-29T02:00:00.000Z,6.0,3.0,230,10.0,6+,992.0,2,,,METAR,METAR EFOU 290150Z AUTO 23010KT 200V260 9999 BKN017 06/03 Q0992,64.93,25.355,15,Oulu Arpt,BKN,"[{'cover': 'BKN', 'base': 1700}]",MVFR,,,,,,FI,Finland
3472,EFPO,2025-11-29 01:53:12.237000+00:00,1764381000,2025-11-29T02:00:00.000Z,7.0,3.0,200,8.0,6+,1000.0,2,,,METAR,METAR EFPO 290150Z AUTO 20008KT 160V230 CAVOK 07/03 Q1000,61.462,21.8,10,Pori Arpt,CAVOK,[],VFR,,,,,,FI,Finland
3764,EFRO,2025-11-29 01:56:57.728000+00:00,1764381000,2025-11-29T02:00:00.000Z,1.0,1.0,210,14.0,0.5,987.0,2,FG,,METAR,METAR EFRO 290150Z AUTO 21014KT 0800 0750 R21/1700N FG VV002 01/01 Q0987,66.562,25.829,201,Rovaniemi Arpt,OVX,"[{'cover': 'OVX', 'base': 200}]",LIFR,2.0,,,,,FI,Finland
4059,EFSA,2025-11-29 01:53:12.371000+00:00,1764381000,2025-11-29T02:00:00.000Z,7.0,4.0,220,13.0,6+,1003.0,2,,,METAR,METAR EFSA 290150Z AUTO 22013KT 9999 OVC021 07/04 Q1003,61.943,28.945,90,Savonlinna Arpt,OVC,"[{'cover': 'OVC', 'base': 2100}]",MVFR,,,,,,FI,Finland
4058,EFSI,2025-11-29 01:53:12.396000+00:00,1764381000,2025-11-29T02:00:00.000Z,7.0,4.0,200,12.0,6+,997.0,2,,,METAR,METAR EFSI 290150Z AUTO 20012KT 170V230 9999 BKN021 07/04 Q0997,62.693,22.83,90,Seinajoki/Ilmajoki Arpt,BKN,"[{'cover': 'BKN', 'base': 2100}]",MVFR,,,,,,FI,Finland
4344,EFTP,2025-11-29 01:51:28.826000+00:00,1764381000,2025-11-29T02:00:00.000Z,6.0,5.0,210,11.0,6+,1002.0,2,,,METAR,METAR EFTP 290150Z AUTO 21011KT 170V230 9999 BKN009 06/05 Q1002,61.419,23.616,111,Tampere/Pirkkala Arpt,BKN,"[{'cover': 'BKN', 'base': 900}]",IFR,,,,,,FI,Finland
4342,EFTU,2025-11-29 01:51:28.881000+00:00,1764381000,2025-11-29T02:00:00.000Z,8.0,6.0,220,11.0,6+,1003.0,2,,,METAR,METAR EFTU 290150Z AUTO 22011KT 9999 OVC011 08/06 Q1003,60.514,22.263,47,Turku Arpt,OVC,"[{'cover': 'OVC', 'base': 1100}]",MVFR,,,,,,FI,Finland
4603,EFUT,2025-11-29 01:53:12.432000+00:00,1764381000,2025-11-29T02:00:00.000Z,7.0,6.0,210,11.0,6+,1005.0,2,,,METAR,METAR EFUT 290150Z AUTO 21011KT 9999 BKN007 07/06 Q1005,60.896,26.938,104,Utti Arpt,BKN,"[{'cover': 'BKN', 'base': 700}]",IFR,,,,,,FI,Finland
4598,EFVA,2025-11-29 01:51:28.920000+00:00,1764381000,2025-11-29T02:00:00.000Z,7.0,4.0,210,17.0,6+,995.0,2,,,METAR,METAR EFVA 290150Z AUTO 21017KT 9999 SCT019 07/04 Q0995,63.051,21.762,4,Vaasa Arpt,SCT,"[{'cover': 'SCT', 'base': 1900}]",VFR,,,,,,FI,Finland
449,EGAA,2025-11-29 01:54:18.671000+00:00,1764381000,2025-11-29T02:00:00.000Z,5.0,5.0,240,8.0,6+,998.0,2,,,METAR,METAR EGAA 290150Z AUTO 24008KT 9999 BKN007 BKN024 05/05 Q0998,54.654,-6.225,65,Belfast Intl,BKN,"[{'cover': 'BKN', 'base': 700}, {'cover': 'BKN', 'base': 2400}]",IFR,,,,,,GB,United Kingdom
443,EGAC,2025-11-29 01:54:18.715000+00:00,1764381000,2025-11-29T02:00:00.000Z,6.0,4.0,250,8.0,6+,998.0,2,,,METAR,METAR EGAC 290150Z AUTO 25008KT 220V280 9999 FEW014 BKN023 06/04 Q0998,54.614,-5.873,2,Belfast/Harbour Arpt,BKN,"[{'cover': 'FEW', 'base': 1400}, {'cover': 'BKN', 'base': 2300}]",MVFR,,,,,,GB,United Kingdom
453,EGBB,2025-11-29 01:54:19.742000+00:00,1764381000,2025-11-29T02:00:00.000Z,10.0,8.0,180,9.0,6+,1002.0,2,,,METAR,METAR EGBB 290150Z AUTO 18009KT 9999 BKN015/// 10/08 Q1002,52.46,-1.758,91,Birmingham Intl,BKN,"[{'cover': 'BKN', 'base': 1500}]",MVFR,,,,,,GB,United Kingdom
2715,EGCC,2025-11-29 01:57:08.172000+00:00,1764381000,2025-11-29T02:00:00.000Z,6.0,5.0,VRB,2.0,2.67,1002.0,2,RA,,METAR,METAR EGCC 290150Z AUTO VRB02KT 4300 RA SCT013 BKN032 OVC040 06/05 Q1002 REDZ TEMPO 7000 -RA,53.354,-2.275,78,Manchester Intl,OVC,"[{'cover': 'SCT', 'base': 1300}, {'cover': 'BKN', 'base': 3200}, {'cover': 'OVC', 'base': 4000}]",IFR,,,,,,GB,United Kingdom
4849,EGDY,2025-11-29 02:03:18.965000+00:00,1764381000,2025-11-29T02:00:00.000Z,12.0,10.0,200,15.0,6+,1004.0,2,,,METAR,METAR EGDY 290150Z AUTO 20015KT 9999 SCT016/// SCT069/// 12/10 Q1004,51.006,-2.643,21,Yeovilton Arpt),SCT,"[{'cover': 'SCT', 'base': 1600}, {'cover': 'SCT', 'base': 6900}]",VFR,,,,,,GB,United Kingdom
1020,EGFF,2025-11-29 01:54:20.468000+00:00,1764381000,2025-11-29T02:00:00.000Z,11.0,9.0,200,9.0,6+,1003.0,2,,,METAR,METAR EGFF 290150Z AUTO 20009KT 9999 BKN023 OVC039 11/09 Q1003,51.397,-3.343,65,Cardiff Intl,OVC,"[{'cover': 'BKN', 'base': 2300}, {'cover': 'OVC', 'base': 3900}]",MVFR,,,,,,GB,United Kingdom
439,EGGD,2025-11-29 01:54:20.555000+00:00,1764381000,2025-11-29T02:00:00.000Z,10.0,9.0,210,13.0,6+,1003.0,2,,,METAR,METAR EGGD 290150Z AUTO 21013KT 9999 BKN009 OVC046 10/09 Q1003,51.383,-2.719,182,Bristol Intl,OVC,"[{'cover': 'BKN', 'base': 900}, {'cover': 'OVC', 'base': 4600}]",IFR,,,,,,GB,United Kingdom
2697,EGGP,2025-11-29 01:54:20.071000+00:00,1764381000,2025-11-29T02:00:00.000Z,6.0,4.0,120,3.0,6+,1002.0,2,,,METAR,METAR EGGP 290150Z AUTO 12003KT 070V150 9999 NCD 06/04 Q1002,53.334,-2.85,23,Liverpool/Lennon Arpt,CLR,[],VFR,,,,,,GB,United Kingdom
2695,EGGW,2025-11-29 01:54:18.905000+00:00,1764381000,2025-11-29T02:00:00.000Z,9.0,8.0,200,7.0,6+,1005.0,2,,,METAR,METAR EGGW 290150Z AUTO 20007KT 9999 OVC014 09/08 Q1005,51.875,-0.368,159,Luton Arpt,OVC,"[{'cover': 'OVC', 'base': 1400}]",MVFR,,,,,,GB,United Kingdom
4038,EGHI,2025-11-29 01:57:08.220000+00:00,1764381000,2025-11-29T02:00:00.000Z,11.0,9.0,210,13.0,6+,1006.0,2,,,METAR,METAR EGHI 290150Z AUTO 21013KT 9999 FEW015/// SCT046/// //////CB 11/09 Q1006,50.944,-1.358,13,Southampton Intl,SCT,"[{'cover': 'FEW', 'base': 1500}, {'cover': 'SCT', 'base': 4600}]",VFR,,,,,,GB,United Kingdom
3199,EGHQ,2025-11-29 01:54:21.509000+00:00,1764381000,2025-11-29T02:00:00.000Z,11.0,10.0,210,18.0,6+,1002.0,2,RA,,METAR,METAR EGHQ 290150Z AUTO 21018KT 9999 RA BKN012/// 11/10 Q1002,50.438,-4.998,101,Newquay/Cornwall Arpt,BKN,"[{'cover': 'BKN', 'base': 1200}]",MVFR,,,,,,GB,United Kingdom
1652,EGJB,2025-11-29 01:54:20.704000+00:00,1764381000,2025-11-29T02:00:00.000Z,12.0,9.0,220,18.0,6+,1009.0,0,-RA,,METAR,METAR EGJB 290150Z 22018KT 9999 -RA FEW008 SCT012 12/09 Q1009,49.433,-2.598,102,Guernsey Arpt,SCT,"[{'cover': 'FEW', 'base': 800}, {'cover': 'SCT', 'base': 1200}]",VFR,,,,,,GG,Guernsey
2161,EGJJ,2025-11-29 01:54:20.787000+00:00,1764381000,2025-11-29T02:00:00.000Z,12.0,10.0,210,12.0,6+,1010.0,2,,,METAR,METAR EGJJ 290150Z AUTO 21012G23KT 180V240 9999 FEW012/// 12/10 Q1010,49.21,-2.194,84,Jersey Arpt,FEW,"[{'cover': 'FEW', 'base': 1200}]",VFR,,23.0,,,,JE,Jersey
465,EGKB,2025-11-29 01:54:18.947000+00:00,1764381000,2025-11-29T02:00:00.000Z,10.0,9.0,200,14.0,6+,1007.0,2,,,METAR,METAR EGKB 290150Z AUTO 20014G24KT 170V230 9999 BKN010/// 10/09 Q1007,51.33,0.033,183,London/Biggin Hill Arpt,BKN,"[{'cover': 'BKN', 'base': 1000}]",MVFR,,24.0,,,,GB,United Kingdom
2393,EGKK,2025-11-29 01:54:19.832000+00:00,1764381000,2025-11-29T02:00:00.000Z,11.0,10.0,210,9.0,6+,1007.0,0,,,METAR,METAR EGKK 290150Z 21009KT 170V240 9999 BKN013 11/10 Q1007,51.148,-0.19,58,London/Gatwick Arpt,BKN,"[{'cover': 'BKN', 'base': 1300}]",MVFR,,,,,,GB,United Kingdom
2392,EGLC,2025-11-29 01:54:18.994000+00:00,1764381000,2025-11-29T02:00:00.000Z,12.0,9.0,200,9.0,6+,1007.0,2,,,METAR,METAR EGLC 290150Z AUTO 20009KT 170V240 9999 BKN016 12/09 Q1007,51.505,0.055,10,London City Arpt,BKN,"[{'cover': 'BKN', 'base': 1600}]",MVFR,,,,,,GB,United Kingdom
1313,EGLF,2025-11-29 01:54:21.635000+00:00,1764381000,2025-11-29T02:00:00.000Z,11.0,9.0,210,11.0,6+,1006.0,2,,,METAR,METAR EGLF 290150Z AUTO 21011KT 9999 SCT016/// 11/09 Q1006,51.28,-0.773,65,Farnborough Arpt,SCT,"[{'cover': 'SCT', 'base': 1600}]",VFR,,,,,,GB,United Kingdom
2409,EGLL,2025-11-29 01:57:08.285000+00:00,1764381000,2025-11-29T02:00:00.000Z,11.0,8.0,200,9.0,6+,1006.0,2,,,METAR,METAR EGLL 290150Z AUTO 20009KT 9999 BKN018 BKN023 11/08 Q1006 TEMPO BKN013,51.477,-0.461,26,London/Heathrow Intl,BKN,"[{'cover': 'BKN', 'base': 1800}, {'cover': 'BKN', 'base': 2300}]",MVFR,,,,,,GB,United Kingdom
2696,EGMD,2025-11-29 01:54:19.043000+00:00,1764381000,2025-11-29T02:00:00.000Z,12.0,10.0,220,17.0,6+,1009.0,2,,,METAR,METAR EGMD 290150Z AUTO 22017KT 9999 SCT013/// BKN018/// BKN024/// 12/10 Q1009,50.956,0.939,4,Lydd Arpt,BKN,"[{'cover': 'SCT', 'base': 1300}, {'cover': 'BKN', 'base': 1800}, {'cover': 'BKN', 'base': 2400}]",MVFR,,,,,,GB,United Kingdom
1931,EGNJ,2025-11-29 01:54:20.111000+00:00,1764381000,2025-11-29T02:00:00.000Z,7.0,6.0,210,5.0,6+,1003.0,2,-RA,,METAR,METAR EGNJ 290150Z AUTO 21005KT 9999 -RA OVC035/// 07/06 Q1003,53.58,-0.341,23,Humberside Intl,OVC,"[{'cover': 'OVC', 'base': 3500}]",VFR,,,,,,GB,United Kingdom
1937,EGNS,2025-11-29 01:55:49.196000+00:00,1764381000,2025-11-29T02:00:00.000Z,9.0,4.0,260,16.0,6+,999.0,0,,,METAR,METAR EGNS 290150Z 26016KT 9999 SCT022 09/04 Q0999,54.085,-4.632,18,Isle Of Man Arpt,SCT,"[{'cover': 'SCT', 'base': 2200}]",VFR,,,,,,IM,Isle of Man
2973,EGNT,2025-11-29 01:54:20.155000+00:00,1764381000,2025-11-29T02:00:00.000Z,6.0,3.0,230,6.0,6+,999.0,2,,,METAR,METAR EGNT 290150Z AUTO 23006KT 200V270 9999 NCD 06/03 Q0999,55.037,-1.702,77,Newcastle Intl,CLR,[],VFR,,,,,,GB,United Kingdom
2959,EGNV,2025-11-29 01:54:20.254000+00:00,1764381000,2025-11-29T02:00:00.000Z,6.0,2.0,200,10.0,6+,1001.0,2,,,METAR,METAR EGNV 290150Z AUTO 20010KT 9999 NCD 06/02 Q1001,54.511,-1.418,36,Teesside Intl,CLR,[],VFR,,,,,,GB,United Kingdom
1332,EGNX,2025-11-29 01:54:20.341000+00:00,1764381000,2025-11-29T02:00:00.000Z,8.0,8.0,180,8.0,3.11,1002.0,0,-DZ,,METAR,METAR EGNX 290150Z 18008KT 150V230 5000 -DZ BKN009 BKN018 08/08 Q1002,52.833,-1.333,91,Nottingham/E Midlands Arpt,BKN,"[{'cover': 'BKN', 'base': 900}, {'cover': 'BKN', 'base': 1800}]",IFR,,,,,,GB,United Kingdom
4588,EGOV,2025-11-29 02:03:19.126000+00:00,1764381000,2025-11-29T02:00:00.000Z,9.0,4.0,250,8.0,6+,1000.0,2,,,METAR,METAR EGOV 290150Z AUTO 25008KT 9999 OVC058/// 09/04 Q1000,53.252,-4.536,11,Valley,OVC,"[{'cover': 'OVC', 'base': 5800}]",VFR,,,,,,GB,United Kingdom
2391,EGPA,2025-11-29 01:54:18.772000+00:00,1764381000,2025-11-29T02:00:00.000Z,4.0,0.0,290,10.0,6+,995.0,2,,,METAR,METAR EGPA 290150Z AUTO 29010KT 9999 SCT047/// 04/M00 Q0995,58.958,-2.905,15,Kirkwall Arpt,SCT,"[{'cover': 'SCT', 'base': 4700}]",VFR,,,,,,GB,United Kingdom
2694,EGPB,2025-11-29 01:54:18.816000+00:00,1764381000,2025-11-29T02:00:00.000Z,5.0,1.0,330,17.0,6+,993.0,2,,,METAR,METAR EGPB 290150Z AUTO 33017KT 9999 SCT029/// 05/01 Q0993,59.88,-1.296,2,Sumburgh Arpt,SCT,"[{'cover': 'SCT', 'base': 2900}]",VFR,,,,,,GB,United Kingdom
4851,EGPC,2025-11-29 01:54:19.552000+00:00,1764381000,2025-11-29T02:00:00.000Z,4.0,1.0,300,11.0,6+,996.0,2,,,METAR,METAR EGPC 290150Z AUTO 30011KT 9999 BKN042/// OVC049/// 04/01 Q0996,58.459,-3.093,38,Wick Arpt,OVC,"[{'cover': 'BKN', 'base': 4200}, {'cover': 'OVC', 'base': 4900}]",VFR,,,,,,GB,United Kingdom
174,EGPD,2025-11-29 01:54:18.860000+00:00,1764381000,2025-11-29T02:00:00.000Z,5.0,2.0,290,9.0,6+,997.0,19,,,METAR,METAR EGPD 290150Z COR AUTO 29009KT 9999 NCD 05/02 Q0997 NOSIG,57.205,-2.205,65,Aberdeen Arpt,CLR,[],VFR,,,,,,GB,United Kingdom
1932,EGPE,2025-11-29 01:54:19.595000+00:00,1764381000,2025-11-29T02:00:00.000Z,5.0,3.0,270,2.0,6+,998.0,2,,,METAR,METAR EGPE 290150Z AUTO 27002KT 9999 BKN025/// OVC035/// 05/03 Q0998,57.538,-4.053,7,Inverness Arpt,OVC,"[{'cover': 'BKN', 'base': 2500}, {'cover': 'OVC', 'base': 3500}]",MVFR,,,,,,GB,United Kingdom
1640,EGPF,2025-11-29 01:57:08.431000+00:00,1764381000,2025-11-29T02:00:00.000Z,6.0,5.0,270,3.0,6+,997.0,2,,,METAR,METAR EGPF 290150Z AUTO 27003KT 9999 BKN032/// //////CB 06/05 Q0997,55.867,-4.433,8,Glasgow Arpt,BKN,"[{'cover': 'BKN', 'base': 3200}]",VFR,,,,,,GB,United Kingdom
1331,EGPH,2025-11-29 01:54:19.960000+00:00,1764381000,2025-11-29T02:00:00.000Z,7.0,5.0,230,16.0,6+,997.0,0,-RA,,METAR,METAR EGPH 290150Z 23016KT 9999 -RA FEW038 07/05 Q0997,55.952,-3.36,29,Edinburgh Arpt,FEW,"[{'cover': 'FEW', 'base': 3800}]",VFR,,,,,,GB,United Kingdom
1930,EGPI,2025-11-29 01:54:21.386000+00:00,1764381000,2025-11-29T02:00:00.000Z,5.0,5.0,50,4.0,6+,998.0,2,-RA -DZ,,METAR,METAR EGPI 290150Z AUTO 05004KT 9999 -RADZ OVC031/// 05/05 Q0998,55.681,-6.25,17,Islay Arpt,OVC,"[{'cover': 'OVC', 'base': 3100}]",VFR,,,,,,GB,United Kingdom
3471,EGPK,2025-11-29 01:54:20.004000+00:00,1764381000,2025-11-29T02:00:00.000Z,7.0,6.0,180,9.0,3.73,997.0,0,-RA,,METAR,METAR EGPK 290150Z 18009KT 6000 -RA BKN010 BKN020 07/06 Q0997,55.509,-4.587,14,Prestwick Intl,BKN,"[{'cover': 'BKN', 'base': 1000}, {'cover': 'BKN', 'base': 2000}]",MVFR,,,,,,GB,United Kingdom
450,EGPL,2025-11-29 01:54:19.651000+00:00,1764381000,2025-11-29T02:00:00.000Z,3.0,2.0,10,10.0,6+,1000.0,2,,,METAR,METAR EGPL 290150Z AUTO 01010KT 9999 SCT021/// 03/02 Q1000,57.475,-7.364,3,Benbecula Isl Arpt,SCT,"[{'cover': 'SCT', 'base': 2100}]",VFR,,,,,,GB,United Kingdom
4356,EGPO,2025-11-29 01:54:19.694000+00:00,1764381000,2025-11-29T02:00:00.000Z,4.0,0.0,350,10.0,6+,999.0,2,,,METAR,METAR EGPO 290150Z AUTO 35010KT 9999 SCT046/// 04/00 Q0999,58.215,-6.329,10,Stornoway Arpt,SCT,"[{'cover': 'SCT', 'base': 4600}]",VFR,,,,,,GB,United Kingdom
171,EGQL,2025-11-29 02:01:20.812000+00:00,1764381000,2025-11-29T02:00:00.000Z,6.0,6.0,350,5.0,3.11,997.0,0,+RA,,METAR,METAR EGQL 290150Z 35005KT 5000 +RA FEW003 SCT010 06/06 Q0997 RMK GRN,56.377,-2.862,11,Leuchars,SCT,"[{'cover': 'FEW', 'base': 300}, {'cover': 'SCT', 'base': 1000}]",MVFR,,,,,,GB,United Kingdom
2396,EGQS,2025-11-29 02:01:20.832000+00:00,1764381000,2025-11-29T02:00:00.000Z,6.0,3.0,320,10.0,6+,997.0,0,,,METAR,METAR EGQS 290150Z 32010KT 9999 FEW016 BKN035 06/03 Q0997 RMK BLU,57.711,-3.324,6,Lossiemouth,BKN,"[{'cover': 'FEW', 'base': 1600}, {'cover': 'BKN', 'base': 3500}]",VFR,,,,,,GB,United Kingdom
3195,EGSH,2025-11-29 01:54:19.100000+00:00,1764381000,2025-11-29T02:00:00.000Z,8.0,6.0,170,5.0,6+,1006.0,2,,,METAR,METAR EGSH 290150Z AUTO 17005KT 150V210 9999 NCD 08/06 Q1006,52.676,1.283,21,Norwich Intl,CLR,[],VFR,,,,,,GB,United Kingdom
4053,EGSS,2025-11-29 01:54:20.040000+00:00,1764381000,2025-11-29T02:00:00.000Z,10.0,9.0,190,11.0,6+,1006.0,2,,,METAR,METAR EGSS 290150Z AUTO 19011KT 9999 OVC013 10/09 Q1006,51.881,0.223,101,London/Stansted Arpt,OVC,"[{'cover': 'OVC', 'base': 1300}]",MVFR,,,,,,GB,United Kingdom
458,EGUB,2025-11-29 02:03:19.253000+00:00,1764381000,2025-11-29T02:00:00.000Z,11.0,9.0,190,13.0,6+,1005.0,2,,,METAR,METAR EGUB 290150Z AUTO 19013KT 9999 OVC013/// 11/09 Q1005,51.62,-1.099,56,Benson,OVC,"[{'cover': 'OVC', 'base': 1300}]",MVFR,,,,,,GB,United Kingdom
2349,EGUL,2025-11-29 02:06:48.839000+00:00,1764381300,2025-11-29T02:00:00.000Z,9.6,6.9,170,10.0,6+,,14,,,METAR,METAR EGUL 290155Z AUTO 17010KT 9999 FEW033 SCT040 OVC085 10/07 M RMK AO2 SLPNO T00960069 $,52.409,0.561,8,Lakenheath,OVC,"[{'cover': 'FEW', 'base': 3300}, {'cover': 'SCT', 'base': 4000}, {'cover': 'OVC', 'base': 8500}]",VFR,,,,,,GB,United Kingdom
2642,EGUN,2025-11-29 02:06:48.873000+00:00,1764381300,2025-11-29T02:00:00.000Z,9.8,7.0,190,9.0,6+,1005.2,14,,,METAR,METAR EGUN 290155Z AUTO 19009KT 9999 FEW034 10/07 A2968 RMK AO2 SLP054 T00980070 CHINO RWY10 $,52.362,0.486,10,Mildenhall,FEW,"[{'cover': 'FEW', 'base': 3400}]",VFR,,,1005.4,,,GB,United Kingdom
1241,EGVA,2025-11-29 02:06:48.901000+00:00,1764381300,2025-11-29T02:00:00.000Z,10.6,8.2,220,12.0,6+,1003.5,14,,,METAR,METAR EGVA 290155Z AUTO 22012KT 9999 SCT018 SCT023 BKN047 OVC055 11/08 A2963 RMK AO2 LTG DSNT S SLP037 T01060082 $,51.682,-1.79,84,Fairford,OVC,"[{'cover': 'SCT', 'base': 1800}, {'cover': 'SCT', 'base': 2300}, {'cover': 'BKN', 'base': 4700}, {'cover': 'OVC', 'base': 5500}]",VFR,,,1003.7,,,GB,United Kingdom
751,EGVN,2025-11-29 02:06:47.658000+00:00,1764381000,2025-11-29T02:00:00.000Z,11.0,9.0,200,10.0,6+,1004.0,0,,,METAR,METAR EGVN 290150Z 20010KT 9999 SCT014 BKN050 11/09 Q1004 TEMPO SCT016,51.758,-1.578,83,Brize Norton,BKN,"[{'cover': 'SCT', 'base': 1400}, {'cover': 'BKN', 'base': 5000}]",VFR,,,,,,GB,United Kingdom
3184,EGVO,2025-11-29 02:03:19.321000+00:00,1764381000,2025-11-29T02:00:00.000Z,11.0,9.0,190,13.0,6+,1006.0,2,-DZ,,METAR,METAR EGVO 290150Z AUTO 19013KT 9999 -DZ OVC011/// 11/09 Q1006,51.239,-0.945,118,Odiham,OVC,"[{'cover': 'OVC', 'base': 1100}]",MVFR,,,,,,GB,United Kingdom
2971,EGWU,2025-11-29 02:01:41.847000+00:00,1764381000,2025-11-29T02:00:00.000Z,11.0,9.0,200,9.0,6+,1006.0,2,,,METAR,METAR EGWU 290150Z AUTO 20009KT 9999 BKN015/// BKN096/// 11/09 Q1006,51.549,-0.417,33,Northolt,BKN,"[{'cover': 'BKN', 'base': 1500}, {'cover': 'BKN', 'base': 9600}]",MVFR,,,,,,GB,United Kingdom
3747,EGXC,2025-11-29 02:06:47.722000+00:00,1764381000,2025-11-29T02:00:00.000Z,8.0,7.0,180,6.0,6+,1003.0,0,-RA,,METAR,METAR EGXC 290150Z 18006KT 9999 -RA OVC018 08/07 Q1003 RMK WHT,53.094,-0.173,9,Coningsby,OVC,"[{'cover': 'OVC', 'base': 1800}]",MVFR,,,,,,GB,United Kingdom
4854,EGXW,2025-11-29 02:03:19.520000+00:00,1764381000,2025-11-29T02:00:00.000Z,7.0,7.0,190,8.0,0.87,1003.0,2,RA,,METAR,METAR EGXW 290150Z AUTO 19008KT 1400 RA OVC009/// 07/07 Q1003,53.175,-0.523,70,Waddington Arpt,OVC,"[{'cover': 'OVC', 'base': 900}]",LIFR,,,,,,GB,United Kingdom
2411,EGYM,2025-11-29 02:06:47.804000+00:00,1764381000,2025-11-29T02:00:00.000Z,9.0,7.0,170,10.0,6+,1005.0,2,,,METAR,METAR EGYM 290150Z AUTO 17010KT 9999 // FEW029/// BKN036/// OVC059/// 09/07 Q1005,52.648,0.567,25,Marham Arpt,OVC,"[{'cover': 'FEW', 'base': 2900}, {'cover': 'BKN', 'base': 3600}, {'cover': 'OVC', 'base': 5900}]",VFR,,,,,,GB,United Kingdom
2967,EGYP,2025-11-29 01:59:54.919000+00:00,1764381000,2025-11-29T02:00:00.000Z,7.0,5.0,220,12.0,3.73,1006.0,0,RA,,METAR,METAR EGYP 290150Z 22012KT 6000 RA FEW008 BKN022 07/05 Q1006,-51.82,-58.448,70,Mount Pleasant Arpt,BKN,"[{'cover': 'FEW', 'base': 800}, {'cover': 'BKN', 'base': 2200}]",MVFR,,,,,,FK,Falkland Islands (Malvinas)
108,EHAM,2025-11-29 02:01:36.690000+00:00,1764381300,2025-11-29T02:00:00.000Z,8.0,7.0,200,11.0,6+,1010.0,0,,,METAR,METAR EHAM 290155Z 20011KT 9999 FEW005 08/07 Q1010 BECMG BKN006,52.315,4.79,-2,Amsterdam/Schiphol Arpt,FEW,"[{'cover': 'FEW', 'base': 500}]",VFR,,,,,,NL,Netherlands
2906,EHBK,2025-11-29 01:58:24.704000+00:00,1764381300,2025-11-29T02:00:00.000Z,7.0,7.0,200,11.0,6+,1013.0,2,,,METAR,METAR EHBK 290155Z AUTO 20011KT 9999 OVC014/// 07/07 Q1013,50.905,5.762,112,Maastricht/Aachen Arpt,OVC,"[{'cover': 'OVC', 'base': 1400}]",MVFR,,,,,,NL,Netherlands
1226,EHEH,2025-11-29 02:01:21.478000+00:00,1764381300,2025-11-29T02:00:00.000Z,8.0,8.0,200,8.0,4.97,1012.0,2,BR,,METAR,METAR EHEH 290155Z AUTO 20008KT 180V250 8000 BR OVC004 08/08 Q1012 YLO,51.45,5.377,20,Eindhoven Arpt,OVC,"[{'cover': 'OVC', 'base': 400}]",LIFR,,,,,,NL,Netherlands
1585,EHGG,2025-11-29 01:58:24.737000+00:00,1764381300,2025-11-29T02:00:00.000Z,8.0,7.0,210,8.0,6+,1009.0,2,,,METAR,METAR EHGG 290155Z AUTO 21008KT 180V240 9999 FEW009 SCT011 08/07 Q1009,53.12,6.579,2,Groningen Arpt,SCT,"[{'cover': 'FEW', 'base': 900}, {'cover': 'SCT', 'base': 1100}]",VFR,,,,,,NL,Netherlands
1569,EHGR,2025-11-29 02:01:22.630000+00:00,1764381300,2025-11-29T02:00:00.000Z,8.0,8.0,200,7.0,4.35,1011.0,2,BR,,METAR,METAR EHGR 290155Z AUTO 20007KT 170V250 7000 BR BKN005 OVC006 08/08 Q1011 YLO,51.565,4.935,12,Gilze-Rijen,OVC,"[{'cover': 'BKN', 'base': 500}, {'cover': 'OVC', 'base': 600}]",IFR,,,,,,NL,Netherlands
952,EHKD,2025-11-29 02:01:21.528000+00:00,1764381300,2025-11-29T02:00:00.000Z,9.0,6.0,240,9.0,6+,1008.0,2,,,METAR,METAR EHKD 290155Z AUTO 24009KT 9999 OVC130 09/06 Q1008 BLU,52.927,4.781,1,Den Helder Arpt,OVC,"[{'cover': 'OVC', 'base': 13000}]",VFR,,,,,,NL,Netherlands
2348,EHLE,2025-11-29 01:58:24.799000+00:00,1764381300,2025-11-29T02:00:00.000Z,8.0,7.0,200,9.0,4.97,1010.0,2,,,METAR,METAR EHLE 290155Z AUTO 20009KT 8000 NCD 08/07 Q1010,52.456,5.522,-3,Lelystad Arpt,CLR,[],MVFR,,,,,,NL,Netherlands
2632,EHLW,2025-11-29 02:01:22.691000+00:00,1764381300,2025-11-29T02:00:00.000Z,7.0,7.0,210,10.0,3.73,1009.0,2,BR,,METAR,METAR EHLW 290155Z AUTO 21010KT 6000 BR SCT024 BKN028 BKN035 07/07 Q1009 WHT,53.223,5.752,1,Leeuwarden Arpt,BKN,"[{'cover': 'SCT', 'base': 2400}, {'cover': 'BKN', 'base': 2800}, {'cover': 'BKN', 'base': 3500}]",MVFR,,,,,,NL,Netherlands
3698,EHRD,2025-11-29 01:58:24.771000+00:00,1764381300,2025-11-29T02:00:00.000Z,9.0,8.0,190,8.0,4.97,1010.0,18,,,METAR,METAR EHRD 290155Z AUTO 19008KT 160V220 8000 OVC006/// 09/08 Q1010 NOSIG,51.954,4.444,-4,Rotterdam/The Hague Arpt,OVC,"[{'cover': 'OVC', 'base': 600}]",IFR,,,,,,NL,Netherlands
4551,EHVK,2025-11-29 02:01:22.741000+00:00,1764381300,2025-11-29T02:00:00.000Z,9.0,7.0,210,9.0,4.97,1012.0,2,BR,,METAR,METAR EHVK 290155Z AUTO 21009KT 180V250 8000 BR BKN005 OVC006 09/07 Q1012 YLO,51.658,5.707,20,Volkel Arpt,OVC,"[{'cover': 'BKN', 'base': 500}, {'cover': 'OVC', 'base': 600}]",IFR,,,,,,NL,Netherlands
4832,EHWO,2025-11-29 02:01:22.879000+00:00,1764381300,2025-11-29T02:00:00.000Z,9.0,8.0,210,6.0,6+,1011.0,2,,,METAR,METAR EHWO 290155Z AUTO 21006KT 180V250 9999 BKN019 BKN022 OVC027 09/08 Q1011 WHT,51.448,4.342,15,Woensdrecht,OVC,"[{'cover': 'BKN', 'base': 1900}, {'cover': 'BKN', 'base': 2200}, {'cover': 'OVC', 'base': 2700}]",MVFR,,,,,,NL,Netherlands
3069,EICK,2025-11-29 02:03:36.841000+00:00,1764381600,2025-11-29T02:00:00.000Z,4.0,3.0,290,6.0,6+,1001.0,16,,,METAR,METAR EICK 290200Z 29006KT 9999 FEW017 04/03 Q1001 NOSIG,51.848,-8.479,158,Cork Arpt,FEW,"[{'cover': 'FEW', 'base': 1700}]",VFR,,,,,,IE,Ireland
1162,EIDW,2025-11-29 02:03:36.787000+00:00,1764381600,2025-11-29T02:00:00.000Z,4.0,2.0,240,7.0,6+,1000.0,16,,,METAR,METAR EIDW 290200Z 24007KT 200V290 9999 FEW017 04/02 Q1000 NOSIG,53.422,-6.298,75,Dublin Arpt,FEW,"[{'cover': 'FEW', 'base': 1700}]",VFR,,,,,,IE,Ireland
3884,EINN,2025-11-29 02:03:36.813000+00:00,1764381600,2025-11-29T02:00:00.000Z,5.0,3.0,190,5.0,6+,1001.0,16,,,METAR,METAR EINN 290200Z 19005KT 9999 FEW020 05/03 Q1001 NOSIG,52.702,-8.925,20,Shannon Arpt,FEW,"[{'cover': 'FEW', 'base': 2000}]",VFR,,,,,,IE,Ireland
175,EKAH,2025-11-29 01:53:11.990000+00:00,1764381000,2025-11-29T02:00:00.000Z,8.0,5.0,230,5.0,6+,1004.0,2,,,METAR,METAR EKAH 290150Z AUTO 23005KT 180V270 9999 FEW028/// 08/05 Q1004,56.3,10.619,25,Tirstrup Arpt,FEW,"[{'cover': 'FEW', 'base': 2800}]",VFR,,,,,,DK,Denmark
460,EKBI,2025-11-29 01:53:12.039000+00:00,1764381000,2025-11-29T02:00:00.000Z,7.0,5.0,220,8.0,6+,1004.0,2,,,METAR,METAR EKBI 290150Z AUTO 22008KT 9999 NCD 07/05 Q1004,55.74,9.152,67,Billund Arpt,CLR,[],VFR,,,,,,DK,Denmark
1025,EKCH,2025-11-29 01:56:58.221000+00:00,1764381000,2025-11-29T02:00:00.000Z,8.0,6.0,200,13.0,6+,1007.0,2,,,METAR,METAR EKCH 290150Z AUTO 20013KT 9999 BKN018/// OVC048/// 08/06 Q1007 TEMPO BKN012,55.618,12.656,4,Kobenhavn Intl,OVC,"[{'cover': 'BKN', 'base': 1800}, {'cover': 'OVC', 'base': 4800}]",MVFR,,,,,,DK,Denmark
1319,EKEB,2025-11-29 01:53:11.893000+00:00,1764381000,2025-11-29T02:00:00.000Z,8.0,5.0,220,12.0,6+,1005.0,2,,,METAR,METAR EKEB 290150Z AUTO 22012KT 9999 NCD 08/05 Q1005,55.528,8.563,29,Esbjerg Arpt,CLR,[],VFR,,,,,,DK,Denmark
2415,EKKA,2025-11-29 01:52:11.466000+00:00,1764381000,2025-11-29T02:00:00.000Z,7.0,5.0,200,11.0,6+,1002.0,2,,,METAR,METAR EKKA 290150Z AUTO 20011KT 9999 BKN031/// 07/05 Q1002,56.293,9.114,50,Karup Arpt,BKN,"[{'cover': 'BKN', 'base': 3100}]",VFR,,,,,,DK,Denmark
3189,EKOD,2025-11-29 01:53:17.863000+00:00,1764381000,2025-11-29T02:00:00.000Z,8.0,7.0,220,13.0,6+,1006.0,2,,,METAR,METAR EKOD 290150Z AUTO 22013KT 9999 NCD 08/07 Q1006,55.475,10.331,13,Odense Arpt,CLR,[],VFR,,,,,,DK,Denmark
3757,EKRK,2025-11-29 01:53:12.083000+00:00,1764381000,2025-11-29T02:00:00.000Z,8.0,6.0,200,11.0,6+,1006.0,2,,,METAR,METAR EKRK 290150Z AUTO 20011KT 9999 BKN010/// OVC044/// 08/06 Q1006,55.587,12.136,40,Koebenhavn/Roskilde Arpt,OVC,"[{'cover': 'BKN', 'base': 1000}, {'cover': 'OVC', 'base': 4400}]",MVFR,,,,,,DK,Denmark
3758,EKRN,2025-11-29 01:53:11.863000+00:00,1764381000,2025-11-29T02:00:00.000Z,7.0,7.0,220,12.0,5.59,1009.0,2,,,METAR,METAR EKRN 290150Z AUTO 22012KT 190V250 9000 FEW005/// OVC021/// 07/07 Q1009,55.068,14.749,14,Ronne/Bornholm Arpt,OVC,"[{'cover': 'FEW', 'base': 500}, {'cover': 'OVC', 'base': 2100}]",MVFR,,,,,,DK,Denmark
4057,EKSB,2025-11-29 01:53:17.794000+00:00,1764381000,2025-11-29T02:00:00.000Z,9.0,7.0,210,9.0,6+,1006.0,2,,,METAR,METAR EKSB 290150Z AUTO 21009KT 170V240 9999 FEW012/// BKN033/// 09/07 Q1006,54.962,9.787,23,Sønderborg Arpt,BKN,"[{'cover': 'FEW', 'base': 1200}, {'cover': 'BKN', 'base': 3300}]",VFR,,,,,,DK,Denmark
4046,EKSP,2025-11-29 01:52:11.408000+00:00,1764381000,2025-11-29T02:00:00.000Z,7.0,5.0,230,9.0,6+,1006.0,0,,,METAR,METAR EKSP 290150Z 23009KT 9999 FEW011 07/05 Q1006,55.225,9.263,40,Vojens Arpt,FEW,"[{'cover': 'FEW', 'base': 1100}]",VFR,,,,,,DK,Denmark
1330,EKVG,2025-11-29 01:56:58.310000+00:00,1764381000,2025-11-29T02:00:00.000Z,1.0,-6.0,330,23.0,6+,998.0,2,-FZRA,,METAR,METAR EKVG 290150Z AUTO 33023G35KT 9999 -FZRA OVC043/// 01/M06 Q0998 RMK OVC035/// WIND SKEID 32020G38KT 290V010,62.065,-7.282,89,Sørvágur/Vágar Arpt,OVC,"[{'cover': 'OVC', 'base': 4300}]",VFR,,35.0,,,,FO,Faroe Islands
4044,EKVJ,2025-11-29 01:56:58.344000+00:00,1764381000,2025-11-29T02:00:00.000Z,8.0,5.0,210,9.0,6+,1003.0,2,,,METAR,METAR EKVJ 290150Z AUTO 21009KT 9999 ///////// 08/05 Q1003,55.991,8.354,5,Stauning Arpt,,,,,,,,,DK,Denmark
176,EKYT,2025-11-29 01:53:11.826000+00:00,1764381000,2025-11-29T02:00:00.000Z,7.0,5.0,210,16.0,6+,1000.0,2,,,METAR,METAR EKYT 290150Z AUTO 21016KT 9999 FEW037/// 07/05 Q1000,57.093,9.879,2,Aalborg Arpt,FEW,"[{'cover': 'FEW', 'base': 3700}]",VFR,,,,,,DK,Denmark
2713,ELLX,2025-11-29 01:56:58.672000+00:00,1764381000,2025-11-29T02:00:00.000Z,6.0,6.0,170,5.0,0.25,1014.0,18,FG,,METAR,METAR ELLX 290150Z AUTO 17005KT 0400 0150// R24/0500N FG VV001 06/06 Q1014 NOSIG,49.626,6.204,374,Luxembourg/Findel Arpt,OVX,"[{'cover': 'OVX', 'base': 100}]",LIFR,1.0,,,,,LU,Luxembourg
178,ENAL,2025-11-29 01:51:29.140000+00:00,1764381000,2025-11-29T02:00:00.000Z,6.0,5.0,200,18.0,5.59,980.0,2,RA,,METAR,METAR ENAL 290150Z AUTO 20018G28KT 170V230 9000 RA BKN003/// BKN006/// 06/05 Q0980,62.562,6.115,21,Vigra/Alesund Arpt,BKN,"[{'cover': 'BKN', 'base': 300}, {'cover': 'BKN', 'base': 600}]",LIFR,,28.0,,,,NO,Norway
181,ENAN,2025-11-29 01:51:22.529000+00:00,1764381000,2025-11-29T02:00:00.000Z,2.0,0.0,90,13.0,6+,978.0,2,-SN,,METAR,METAR ENAN 290150Z AUTO 09013KT 9999 -SN VV015 02/00 Q0978,69.307,16.131,13,Andøya Arpt,OVX,"[{'cover': 'OVX', 'base': 1500}]",MVFR,15.0,,,,,NO,Norway
189,ENAT,2025-11-29 01:57:07.649000+00:00,1764381000,2025-11-29T02:00:00.000Z,-7.0,-8.0,VRB,2.0,6+,983.0,0,,,METAR,METAR ENAT 290150Z VRB02KT CAVOK M07/M08 Q0983 RMK WIND 700FT 14010KT,69.978,23.358,3,Alta Arpt,CAVOK,[],VFR,,,,,,NO,Norway
1333,ENBL,2025-11-29 01:56:01.470000+00:00,1764381000,2025-11-29T02:00:00.000Z,4.0,3.0,210,6.0,3.11,983.0,2,-RA,,METAR,METAR ENBL 290150Z AUTO 21006KT 150V280 5000 -RA FEW003/// BKN005/// OVC008/// 04/03 Q0983 RERA,61.391,5.76,313,Bringeland Arpt,OVC,"[{'cover': 'FEW', 'base': 300}, {'cover': 'BKN', 'base': 500}, {'cover': 'OVC', 'base': 800}]",IFR,,,,,,NO,Norway
461,ENBN,2025-11-29 01:57:07.684000+00:00,1764381000,2025-11-29T02:00:00.000Z,9.0,-1.0,170,24.0,6+,977.0,2,SQ,,METAR,METAR ENBN 290150Z AUTO 17024G36KT 140V200 9999 // SQ NCD 09/M01 Q0977,65.458,12.216,3,Bronnoysund/Bronnoy Arpt,CLR,[],VFR,,36.0,,,,NO,Norway
441,ENBO,2025-11-29 01:51:22.588000+00:00,1764381000,2025-11-29T02:00:00.000Z,9.0,0.0,130,11.0,6+,977.0,0,,,METAR,METAR ENBO 290150Z 13011KT 9999 NSC 09/00 Q0977,67.267,14.359,13,Bodø Arpt,CLR,[],VFR,,,,,,NO,Norway
463,ENBR,2025-11-29 01:56:57.810000+00:00,1764381000,2025-11-29T02:00:00.000Z,7.0,5.0,240,11.0,5.59,987.0,2,RA RA,,METAR,METAR ENBR 290150Z AUTO 24011KT 9000 RA FEW004/// SCT014/// BKN045/// 07/05 Q0987 REDZRA RMK WIND 1200FT 28024G39KT,60.29,5.222,49,Bergen/Flesland Arpt,BKN,"[{'cover': 'FEW', 'base': 400}, {'cover': 'SCT', 'base': 1400}, {'cover': 'BKN', 'base': 4500}]",VFR,,,,,,NO,Norway
456,ENBS,2025-11-29 02:06:47.840000+00:00,1764381000,2025-11-29T02:00:00.000Z,-3.0,-6.0,210,9.0,,980.0,2,,,METAR,METAR ENBS 290150Z AUTO 21009KT 180V240 //// // BKN014/// BKN026/// M03/M06 Q0980,70.601,29.698,144,Båtsfjord Arpt,BKN,"[{'cover': 'BKN', 'base': 1400}, {'cover': 'BKN', 'base': 2600}]",,,,,,,NO,Norway
745,ENBV,2025-11-29 01:55:57.984000+00:00,1764381000,2025-11-29T02:00:00.000Z,0.0,-2.0,240,15.0,6+,981.0,2,,,METAR,METAR ENBV 290150Z AUTO 24015KT 9999 OVC014/// M00/M02 Q0981,70.871,29.032,13,Berlevåg Arpt,OVC,"[{'cover': 'OVC', 'base': 1400}]",MVFR,,,,,,NO,Norway
2414,ENCN,2025-11-29 01:51:29.183000+00:00,1764381000,2025-11-29T02:00:00.000Z,8.0,6.0,230,17.0,6+,993.0,2,-RA RA,,METAR,METAR ENCN 290150Z AUTO 23017G29KT 9999 -RA SCT016/// BKN023/// BKN030/// 08/06 Q0993 REDZRA,58.2,8.077,17,Kristiansand Arpt,BKN,"[{'cover': 'SCT', 'base': 1600}, {'cover': 'BKN', 'base': 2300}, {'cover': 'BKN', 'base': 3000}]",MVFR,,29.0,,,,NO,Norway
459,ENDU,2025-11-29 01:57:07.737000+00:00,1764381000,2025-11-29T02:00:00.000Z,-3.0,-3.0,0,0.0,6+,979.0,0,,,METAR,METAR ENDU 290150Z 00000KT 9999 FEW040 BKN050 M03/M03 Q0979 RESN RMK WIND 1374FT 10005KT WIND 2165FT 11009KT,69.058,18.544,65,Bardufoss Arpt,BKN,"[{'cover': 'FEW', 'base': 4000}, {'cover': 'BKN', 'base': 5000}]",VFR,,,,0.5,,NO,Norway
1310,ENEV,2025-11-29 01:57:07.765000+00:00,1764381000,2025-11-29T02:00:00.000Z,1.0,1.0,210,5.0,6+,978.0,0,-RA,,METAR,METAR ENEV 290150Z 21005KT 170V240 9999 -RA FEW012 SCT027 BKN036 01/01 Q0978 RMK WIND 1400FT 16013KT,68.491,16.683,26,Evenes Arpt,BKN,"[{'cover': 'FEW', 'base': 1200}, {'cover': 'SCT', 'base': 2700}, {'cover': 'BKN', 'base': 3600}]",VFR,,,,,,NO,Norway
1632,ENFL,2025-11-29 01:56:01.812000+00:00,1764381000,2025-11-29T02:00:00.000Z,7.0,5.0,280,18.0,6+,983.0,2,-RA,,METAR,METAR ENFL 290150Z AUTO 28018KT 9999 -RA FEW014/// SCT020/// OVC032/// 07/05 Q0983,61.582,5.02,1,Florø Arpt,OVC,"[{'cover': 'FEW', 'base': 1400}, {'cover': 'SCT', 'base': 2000}, {'cover': 'OVC', 'base': 3200}]",VFR,,,,,,NO,Norway
3186,ENGM,2025-11-29 01:51:22.745000+00:00,1764381000,2025-11-29T02:00:00.000Z,5.0,4.0,190,21.0,6+,989.0,0,,,METAR,METAR ENGM 290150Z 19021KT 9999 BKN009 05/04 Q0989,60.201,11.08,204,Oslo/Gardermoen Arpt,BKN,"[{'cover': 'BKN', 'base': 900}]",IFR,,,,,,NO,Norway
1635,ENHD,2025-11-29 01:51:29.222000+00:00,1764381000,2025-11-29T02:00:00.000Z,9.0,6.0,250,21.0,4.97,990.0,2,RA,,METAR,METAR ENHD 290150Z AUTO 25021KT 8000 RA SCT021/// SCT039/// 09/06 Q0990 REUP,59.341,5.22,22,Haugesund Arpt,SCT,"[{'cover': 'SCT', 'base': 2100}, {'cover': 'SCT', 'base': 3900}]",MVFR,,,,,,NO,Norway
1944,ENHF,2025-11-29 01:57:07.815000+00:00,1764381000,2025-11-29T02:00:00.000Z,1.0,0.0,0,0.0,6+,981.0,2,,,METAR,METAR ENHF 290150Z AUTO 00000KT 9999 BKN005/// OVC006/// 01/00 Q0981 RMK WIND 1253FT 20007KT,70.681,23.677,79,Hammerfest Arpt,OVC,"[{'cover': 'BKN', 'base': 500}, {'cover': 'OVC', 'base': 600}]",IFR,,,,,0.7,NO,Norway
1641,ENHK,2025-11-29 01:56:00.635000+00:00,1764381000,2025-11-29T02:00:00.000Z,1.0,0.0,80,3.0,6+,981.0,2,-RA,,METAR,METAR ENHK 290150Z AUTO 08003KT 9999 -RA FEW005/// OVC008/// 01/00 Q0981,70.487,22.14,6,Hasvik Arpt,OVC,"[{'cover': 'FEW', 'base': 500}, {'cover': 'OVC', 'base': 800}]",IFR,,,,,,NO,Norway
1939,ENHV,2025-11-29 01:56:00.791000+00:00,1764381000,2025-11-29T02:00:00.000Z,1.0,0.0,200,11.0,6+,981.0,2,,,METAR,METAR ENHV 290150Z AUTO 20011KT 9999 NCD 01/M00 Q0981,71.009,25.982,13,Honningsvag/Valan Arpt,CLR,[],VFR,,,,,,NO,Norway
2402,ENKB,2025-11-29 01:57:07.844000+00:00,1764381000,2025-11-29T02:00:00.000Z,10.0,-1.0,220,12.0,6+,978.0,2,,,METAR,METAR ENKB 290150Z AUTO 22012KT 150V240 9999 OVC060/// 10/M01 Q0978 RMK WIND 745FT 21024G41KT,63.109,7.816,62,Kristiansund Arpt,OVC,"[{'cover': 'OVC', 'base': 6000}]",VFR,,,,,-2.4,NO,Norway
2172,ENKR,2025-11-29 01:56:57.868000+00:00,1764381000,2025-11-29T02:00:00.000Z,-3.0,-5.0,280,9.0,6+,982.0,0,,,METAR,METAR ENKR 290150Z 28009KT 250V320 9999 SCT009 BKN042 M03/M05 Q0982 RMK WIND 731FT 26023KT,69.725,29.898,86,Kirkenes/Høybuktmoen Arpt,BKN,"[{'cover': 'SCT', 'base': 900}, {'cover': 'BKN', 'base': 4200}]",VFR,,,,,,NO,Norway
2401,ENLK,2025-11-29 01:56:00.928000+00:00,1764381000,2025-11-29T02:00:00.000Z,7.0,3.0,200,12.0,6+,975.0,2,,,METAR,METAR ENLK 290150Z AUTO 20012KT 9999 SCT038/// OVC068/// 07/03 Q0975,68.155,13.615,26,Leknes Arpt,OVC,"[{'cover': 'SCT', 'base': 3800}, {'cover': 'OVC', 'base': 6800}]",VFR,,,,,,NO,Norway
2708,ENMH,2025-11-29 01:56:01.047000+00:00,1764381000,2025-11-29T02:00:00.000Z,0.0,0.0,250,11.0,6+,980.0,2,,,METAR,METAR ENMH 290150Z AUTO 25011KT 9999 FEW021/// 00/M00 Q0980,71.029,27.829,10,Mehamn Arpt,FEW,"[{'cover': 'FEW', 'base': 2100}]",VFR,,,,,,NO,Norway
2966,ENML,2025-11-29 01:57:07.358000+00:00,1764381000,2025-11-29T02:00:00.000Z,9.0,3.0,250,15.0,6+,979.0,2,-RA,,METAR,METAR ENML 290150Z AUTO 25015KT 9999 -RA BKN051/// 09/03 Q0979 RMK WIND 1587FT 21023G37KT,62.744,7.262,3,Molde/Aro Arpt,BKN,"[{'cover': 'BKN', 'base': 5100}]",VFR,,,,,-2.3,NO,Norway
2710,ENMS,2025-11-29 01:57:07.380000+00:00,1764381000,2025-11-29T02:00:00.000Z,6.0,0.0,190,13.0,6+,979.0,2,,,METAR,METAR ENMS 290150Z AUTO 19013KT 150V220 9999 FEW048/// 06/M00 Q0979 RMK WIND 412FT /////KT,65.784,13.218,44,Mosjøen Arpt,FEW,"[{'cover': 'FEW', 'base': 4800}]",VFR,,,,,,NO,Norway
2403,ENNA,2025-11-29 01:57:07.408000+00:00,1764381000,2025-11-29T02:00:00.000Z,-5.0,-7.0,180,11.0,6+,983.0,2,,,METAR,METAR ENNA 290150Z AUTO 18011KT 9999 SCT023/// M05/M07 Q0983 RMK WIND 1800FT 26009KT,70.059,24.971,12,Banak Arpt,SCT,"[{'cover': 'SCT', 'base': 2300}]",VFR,,,,,,NO,Norway
3202,ENNM,2025-11-29 01:56:01.183000+00:00,1764381000,2025-11-29T02:00:00.000Z,9.0,-2.0,190,12.0,6+,979.0,2,,,METAR,METAR ENNM 290150Z AUTO 19012KT 130V210 9999 OVC088/// 09/M02 Q0979,64.471,11.57,2,Namsos Arpt,OVC,"[{'cover': 'OVC', 'base': 8800}]",VFR,,,,,,NO,Norway
3187,ENOL,2025-11-29 01:51:22.793000+00:00,1764381000,2025-11-29T02:00:00.000Z,8.0,0.0,140,17.0,6+,977.0,0,,,METAR,METAR ENOL 290150Z 14017KT CAVOK 08/M00 Q0977,63.703,9.609,9,Ørland Arpt,CAVOK,[],VFR,,,,,,NO,Norway
1943,ENOV,2025-11-29 01:57:07.469000+00:00,1764381000,2025-11-29T02:00:00.000Z,6.0,2.0,VRB,4.0,6+,981.0,2,-RA,,METAR,METAR ENOV 290150Z AUTO VRB04KT 9999 -RA OVC032/// 06/02 Q0981 RMK WIND RWY 24 08003KT WIND 2090FT 21021KT,62.18,6.078,72,Ørsta-Volda Arpt,OVC,"[{'cover': 'OVC', 'base': 3200}]",VFR,,,,,-2.1,NO,Norway
2968,ENRA,2025-11-29 01:55:58.305000+00:00,1764381000,2025-11-29T02:00:00.000Z,1.0,1.0,VRB,3.0,6+,980.0,2,,,METAR,METAR ENRA 290150Z AUTO VRB03KT 9999 FEW046/// BKN060/// OVC071/// 01/01 Q0980,66.364,14.302,66,Moirana Arpt,OVC,"[{'cover': 'FEW', 'base': 4600}, {'cover': 'BKN', 'base': 6000}, {'cover': 'OVC', 'base': 7100}]",VFR,,,,,,NO,Norway
3755,ENRM,2025-11-29 01:56:03.568000+00:00,1764381000,2025-11-29T02:00:00.000Z,9.0,0.0,170,18.0,6+,978.0,2,,,METAR,METAR ENRM 290150Z AUTO 17018KT 9999 BKN076/// 09/00 Q0978,64.835,11.141,4,Rørvik Arpt,BKN,"[{'cover': 'BKN', 'base': 7600}]",VFR,,,,,,NO,Norway
3765,ENRO,2025-11-29 01:51:29.266000+00:00,1764381000,2025-11-29T02:00:00.000Z,3.0,-1.0,VRB,3.0,6+,984.0,2,,,METAR,METAR ENRO 290150Z AUTO VRB03KT 9999 BKN022/// OVC039/// 03/M01 Q0984,62.578,11.342,624,Røros Arpt,OVC,"[{'cover': 'BKN', 'base': 2200}, {'cover': 'OVC', 'base': 3900}]",MVFR,,,,,,NO,Norway
3756,ENRS,2025-11-29 01:56:03.705000+00:00,1764381000,2025-11-29T02:00:00.000Z,9.0,4.0,210,23.0,6+,974.0,2,,,METAR,METAR ENRS 290150Z AUTO 21023KT 9999 FEW048/// OVC062/// 09/04 Q0974,67.527,12.104,4,Røst Arpt,OVC,"[{'cover': 'FEW', 'base': 4800}, {'cover': 'OVC', 'base': 6200}]",VFR,,,,,,NO,Norway
3763,ENRY,2025-11-29 01:51:29.309000+00:00,1764381000,2025-11-29T02:00:00.000Z,8.0,4.0,210,15.0,6+,992.0,2,,,METAR,METAR ENRY 290150Z AUTO 21015KT 9999 NCD 08/04 Q0992,59.381,10.783,45,Moss/Rygge Arpt,CLR,[],VFR,,,,,,NO,Norway
2711,ENSB,2025-11-29 01:56:57.936000+00:00,1764381000,2025-11-29T02:00:00.000Z,-1.0,-8.0,360,15.0,6+,980.0,0,,,METAR,METAR ENSB 290150Z 36015KT 9999 FEW020 BKN030 M01/M08 Q0980 RMK WIND 1400FT 03014KT,78.246,15.466,30,Longyearbyen/Svalbard Arpt,BKN,"[{'cover': 'FEW', 'base': 2000}, {'cover': 'BKN', 'base': 3000}]",MVFR,,,,,,NO,Norway
4036,ENSD,2025-11-29 01:57:07.507000+00:00,1764381000,2025-11-29T02:00:00.000Z,6.0,3.0,110,5.0,6+,982.0,2,-RA,,METAR,METAR ENSD 290150Z AUTO 11005KT 060V160 9999 -RA FEW025/// SCT035/// OVC046/// 06/03 Q0982 RMK WIND RWY 26 10003KT WIND 1140FT 12002KT,61.829,6.104,61,Sandane Arpt,OVC,"[{'cover': 'FEW', 'base': 2500}, {'cover': 'SCT', 'base': 3500}, {'cover': 'OVC', 'base': 4600}]",VFR,,,,0.3,,NO,Norway
4035,ENSG,2025-11-29 01:57:07.533000+00:00,1764381000,2025-11-29T02:00:00.000Z,3.0,2.0,240,8.0,6+,984.0,2,RA,,METAR,METAR ENSG 290150Z AUTO 24008KT 9999 RA BKN011/// BKN023/// OVC028/// 03/02 Q0984 RMK WIND 3806FT 22019KT,61.158,7.141,493,Sogndal/Haukasen Arpt,OVC,"[{'cover': 'BKN', 'base': 1100}, {'cover': 'BKN', 'base': 2300}, {'cover': 'OVC', 'base': 2800}]",MVFR,,,,,,NO,Norway
4062,ENSH,2025-11-29 01:57:07.561000+00:00,1764381000,2025-11-29T02:00:00.000Z,8.0,3.0,200,16.0,6+,976.0,2,RA,,METAR,METAR ENSH 290150Z AUTO 20016KT 9999 SCT053/// 08/03 Q0976 REDZRA RMK WIND 0150FT 23013KT,68.245,14.669,9,Svolvaer/Helle Arpt,SCT,"[{'cover': 'SCT', 'base': 5300}]",VFR,,,,,,NO,Norway
4054,ENSK,2025-11-29 01:56:03.858000+00:00,1764381000,2025-11-29T02:00:00.000Z,5.0,3.0,150,17.0,6+,975.0,2,-RA,,METAR,METAR ENSK 290150Z AUTO 15017KT 9999 -RA SCT025/// BKN035/// 05/03 Q0975,68.58,15.029,3,Storkmarknes Arpt,BKN,"[{'cover': 'SCT', 'base': 2500}, {'cover': 'BKN', 'base': 3500}]",VFR,,,,,,NO,Norway
4052,ENSR,2025-11-29 01:57:07.590000+00:00,1764381000,2025-11-29T02:00:00.000Z,-1.0,-5.0,150,5.0,6+,981.0,2,,,METAR,METAR ENSR 290150Z AUTO 15005KT 110V190 9999 NCD M01/M05 Q0981 RMK WIND RWY 32 15007KT WIND 1119FT 14013KT,69.789,20.955,5,Sørkjosen Arpt,CLR,[],VFR,,,,,,NO,Norway
4600,ENSS,2025-11-29 02:06:47.963000+00:00,1764381000,2025-11-29T02:00:00.000Z,-1.0,-3.0,260,7.0,6+,980.0,2,,,METAR,METAR ENSS 290150Z AUTO 26007KT 9999 BKN029/// BKN080/// M01/M03 Q0980 RMK WIND 0500FT 25005KT,70.355,31.044,13,Vardoe Arpt,BKN,"[{'cover': 'BKN', 'base': 2900}, {'cover': 'BKN', 'base': 8000}]",MVFR,,,,,,NO,Norway
4051,ENST,2025-11-29 01:57:07.617000+00:00,1764381000,2025-11-29T02:00:00.000Z,10.0,-2.0,180,17.0,6+,977.0,2,,,METAR,METAR ENST 290150Z AUTO 18017G31KT 130V220 9999 SCT062/// 10/M02 Q0977 RMK WIND 0300FT 16023G43KT,65.961,12.472,17,Sandnessjøen Arpt,SCT,"[{'cover': 'SCT', 'base': 6200}]",VFR,,31.0,,,,NO,Norway
4438,ENTC,2025-11-29 01:26:24.043000+00:00,1764379200,2025-11-29T01:20:00.000Z,0.0,-1.0,80,3.0,6+,980.0,2,-SN,,METAR,METAR ENTC 290120Z AUTO 08003KT 020V100 9999 -SN OVC033/// 00/M01 Q0980 RMK WIND 2600FT 12010KT,69.675,18.916,9,Tromsø Arpt,OVC,"[{'cover': 'OVC', 'base': 3300}]",VFR,,,,,,NO,Norway
4343,ENTO,2025-11-29 01:51:29.397000+00:00,1764381000,2025-11-29T02:00:00.000Z,7.0,4.0,210,16.0,6+,992.0,2,,,METAR,METAR ENTO 290150Z AUTO 21016KT 9999 FEW032/// 07/04 Q0992,59.184,10.255,84,Torp Arpt,FEW,"[{'cover': 'FEW', 'base': 3200}]",VFR,,,,,,NO,Norway
4346,ENVA,2025-11-29 01:56:57.994000+00:00,1764381000,2025-11-29T02:00:00.000Z,8.0,-1.0,150,15.0,6+,981.0,2,,,METAR,METAR ENVA 290150Z AUTO 15015G27KT 9999 NCD 08/M01 Q0981 RMK WIND 670FT 17020G33KT,63.46,10.931,12,Trondheim Arpt,CLR,[],VFR,,27.0,,,,NO,Norway
4601,ENVD,2025-11-29 01:56:04.116000+00:00,1764381000,2025-11-29T02:00:00.000Z,-2.0,-4.0,290,14.0,6+,981.0,2,,,METAR,METAR ENVD 290150Z AUTO 29014KT 9999 BKN039/// M02/M04 Q0981,70.065,29.835,39,Vadsø Arpt,BKN,"[{'cover': 'BKN', 'base': 3900}]",VFR,,,,,,NO,Norway
4037,ENZV,2025-11-29 01:56:58.090000+00:00,1764381000,2025-11-29T02:00:00.000Z,8.0,6.0,230,12.0,6+,991.0,0,RA,,METAR,METAR ENZV 290150Z 23012KT 9999 FEW020 08/06 Q0991 RERA REDZ REDZRA,58.884,5.637,7,Stavanger/Sola Arpt,FEW,"[{'cover': 'FEW', 'base': 2000}]",VFR,,,,,,NO,Norway
599,EPBY,2025-11-29 02:02:27.551000+00:00,1764381600,2025-11-29T02:00:00.000Z,-3.0,-4.0,170,7.0,1.62,1015.0,0,BR,,METAR,METAR EPBY 290200Z 17007KT 2600 BR OVC004 M03/M04 Q1015,53.0962,17.9949,66,Bydgoszcz Arpt,OVC,"[{'cover': 'OVC', 'base': 400}]",LIFR,,,,,,PL,Poland
1497,EPGD,2025-11-29 02:02:29.129000+00:00,1764381600,2025-11-29T02:00:00.000Z,0.0,-1.0,190,8.0,4.35,1012.0,0,,,METAR,METAR EPGD 290200Z 19008KT 7000 NSC 00/M01 Q1012,54.379,18.466,136,Gdańsk/Wałęsa Arpt,CLR,[],MVFR,,,,,,PL,Poland
2263,EPKK,2025-11-29 02:02:29.169000+00:00,1764381600,2025-11-29T02:00:00.000Z,-1.0,-2.0,150,3.0,4.35,1016.0,0,,,METAR,METAR EPKK 290200Z 15003KT 130V190 7000 OVC005 M01/M02 Q1016,50.078,19.797,237,Kraków/Paul II Arpt,OVC,"[{'cover': 'OVC', 'base': 500}]",IFR,,,,,,PL,Poland
2262,EPKT,2025-11-29 02:02:27.591000+00:00,1764381600,2025-11-29T02:00:00.000Z,-2.0,-2.0,180,8.0,2.92,1016.0,0,BR,,METAR,METAR EPKT 290200Z 18008KT 4700 BR OVC003 M02/M02 Q1016,50.478,19.085,296,Katowice/Pyrzowice Arpt,OVC,"[{'cover': 'OVC', 'base': 300}]",LIFR,,,,,,PL,Poland
2579,EPLB,2025-11-29 02:02:27.633000+00:00,1764381600,2025-11-29T02:00:00.000Z,2.0,1.0,120,5.0,6+,1017.0,0,,,METAR,METAR EPLB 290200Z 12005KT 9999 OVC013 02/01 Q1017,51.239,22.714,206,Lublin Arpt,OVC,"[{'cover': 'OVC', 'base': 1300}]",MVFR,,,,,,PL,Poland
2264,EPLL,2025-11-29 02:02:29.220000+00:00,1764381600,2025-11-29T02:00:00.000Z,-2.0,-2.0,140,5.0,2.49,1016.0,0,BR,,METAR,METAR EPLL 290200Z 14005KT 100V200 4000 BR OVC002 M02/M02 Q1016,51.724,19.401,176,Łódź Arpt,OVC,"[{'cover': 'OVC', 'base': 200}]",LIFR,,,,,,PL,Poland
4761,EPMO,2025-11-29 02:02:27.677000+00:00,1764381600,2025-11-29T02:00:00.000Z,0.0,-1.0,160,6.0,6+,1017.0,0,,,METAR,METAR EPMO 290200Z 16006KT 130V190 9999 OVC006 M00/M01 Q1017,52.452,20.642,102,Modlin Arpt,OVC,"[{'cover': 'OVC', 'base': 600}]",IFR,,,,,,PL,Poland
3313,EPPO,2025-11-29 02:02:29.264000+00:00,1764381600,2025-11-29T02:00:00.000Z,-2.0,-3.0,150,9.0,2.17,1015.0,0,BR,,METAR,METAR EPPO 290200Z 15009KT 3500 BR FEW005 M02/M03 Q1015,52.417,16.835,87,Poznań/Ławica Arpt,FEW,"[{'cover': 'FEW', 'base': 500}]",IFR,,,,,,PL,Poland
3643,EPRA,2025-11-29 02:02:27.725000+00:00,1764381600,2025-11-29T02:00:00.000Z,1.0,0.0,180,4.0,6+,1017.0,0,,,METAR,METAR EPRA 290200Z 18004KT 150V220 9999 OVC007 01/M00 Q1017,51.39,21.211,182,Radom Arpt,OVC,"[{'cover': 'OVC', 'base': 700}]",IFR,,,,,,PL,Poland
3645,EPRZ,2025-11-29 02:02:29.308000+00:00,1764381600,2025-11-29T02:00:00.000Z,1.0,0.0,140,3.0,6+,1017.0,0,,,METAR,METAR EPRZ 290200Z 14003KT 9999 OVC007 01/M00 Q1017,50.112,22.025,206,Rzeszów/Jasionka Arpt,OVC,"[{'cover': 'OVC', 'base': 700}]",IFR,,,,,,PL,Poland
4261,EPSC,2025-11-29 02:02:27.765000+00:00,1764381600,2025-11-29T02:00:00.000Z,4.0,4.0,160,7.0,2.24,1012.0,0,-RA -DZ BR,,METAR,METAR EPSC 290200Z 16007KT 3600 -RADZ BR OVC002 04/04 Q1012,53.585,14.902,47,Szczecin/Golenow Arpt,OVC,"[{'cover': 'OVC', 'base': 200}]",LIFR,,,,,,PL,Poland
4386,EPSY,2025-11-29 01:32:11.131000+00:00,1764379800,2025-11-29T01:30:00.000Z,-2.0,-2.0,170,8.0,3.11,1017.0,0,BR,,METAR,METAR EPSY 290130Z 17008KT 5000 BR OVC004 M02/M02 Q1017,53.482,20.938,136,Szczytno Intl,OVC,"[{'cover': 'OVC', 'base': 400}]",LIFR,,,,,,PL,Poland
4764,EPWA,2025-11-29 02:02:29.349000+00:00,1764381600,2025-11-29T02:00:00.000Z,1.0,-1.0,160,7.0,6+,1017.0,16,,,METAR,METAR EPWA 290200Z 16007KT 9999 OVC008 01/M01 Q1017 NOSIG,52.163,20.961,107,Warsaw/Chopin Arpt,OVC,"[{'cover': 'OVC', 'base': 800}]",IFR,,,,,,PL,Poland
4762,EPWR,2025-11-29 02:02:27.796000+00:00,1764381600,2025-11-29T02:00:00.000Z,-3.0,-3.0,120,10.0,0.22,1015.0,0,-SG FZFG,,METAR,METAR EPWR 290200Z 12010KT 0350 R29/1300N -SG FZFG OVC001 M03/M03 Q1015,51.1032,16.8998,118,Wrocław/Strachowice Arpt,OVC,"[{'cover': 'OVC', 'base': 100}]",LIFR,,,,,,PL,Poland
3766,ESDF,2025-11-29 01:54:21.820000+00:00,1764381000,2025-11-29T02:00:00.000Z,7.0,7.0,210,8.0,6+,1006.0,2,,,METAR,METAR ESDF 290150Z AUTO 21008KT 9999 BKN006/// 07/07 Q1006,56.266,15.267,52,Ronneby Arpt,BKN,"[{'cover': 'BKN', 'base': 600}]",IFR,,,,,,SE,Sweden
1648,ESGG,2025-11-29 01:54:12.991000+00:00,1764381000,2025-11-29T02:00:00.000Z,7.0,5.0,220,19.0,6+,1000.0,0,,,METAR,METAR ESGG 290150Z 22019KT 9999 FEW011 SCT025 07/05 Q1000,57.667,12.285,152,Göteborg/Landvetter Arpt,SCT,"[{'cover': 'FEW', 'base': 1100}, {'cover': 'SCT', 'base': 2500}]",VFR,,,,,,SE,Sweden
2165,ESGJ,2025-11-29 01:54:13.051000+00:00,1764381000,2025-11-29T02:00:00.000Z,7.0,4.0,200,14.0,6+,1000.0,2,,,METAR,METAR ESGJ 290150Z AUTO 20014KT 9999 SCT013/// BKN018/// OVC036/// 07/04 Q1000,57.752,14.069,224,Jönköping Arpt,OVC,"[{'cover': 'SCT', 'base': 1300}, {'cover': 'BKN', 'base': 1800}, {'cover': 'OVC', 'base': 3600}]",MVFR,,,,,,SE,Sweden
1637,ESGP,2025-11-29 01:54:13.094000+00:00,1764381000,2025-11-29T02:00:00.000Z,7.0,4.0,200,16.0,6+,1000.0,2,,,METAR,METAR ESGP 290150Z AUTO 20016KT 9999 FEW130/// 07/04 Q1000,57.781,11.869,15,Goteborg/City Arpt,FEW,"[{'cover': 'FEW', 'base': 13000}]",VFR,,,,,,SE,Sweden
4357,ESGT,2025-11-29 02:06:48.012000+00:00,1764381000,2025-11-29T02:00:00.000Z,,,210,18.0,6+,998.0,2,,,METAR,METAR ESGT 290150Z AUTO 21018KT 9999 SCT017/// BKN022/// OVC034/// ///// Q0998,58.314,12.347,40,Trollhattan Arpt,OVC,"[{'cover': 'SCT', 'base': 1700}, {'cover': 'BKN', 'base': 2200}, {'cover': 'OVC', 'base': 3400}]",MVFR,,,,,,SE,Sweden
2972,ESKM,2025-11-29 01:55:44.825000+00:00,1764381000,2025-11-29T02:00:00.000Z,6.0,4.0,160,7.0,6+,993.0,2,,,METAR,METAR ESKM 290150Z AUTO 16007KT 130V210 9999 BKN019/// OVC046/// 06/04 Q0993,60.96,14.507,184,Mora-Siljan Arpt,OVC,"[{'cover': 'BKN', 'base': 1900}, {'cover': 'OVC', 'base': 4600}]",MVFR,,,,,,SE,Sweden
3196,ESKN,2025-11-29 01:54:19.141000+00:00,1764381000,2025-11-29T02:00:00.000Z,7.0,5.0,180,11.0,6+,1002.0,0,,,METAR,METAR ESKN 290150Z 18011KT 9999 FEW013 BKN038 07/05 Q1002,58.786,16.918,41,Stockholm/Skavsta Arpt,BKN,"[{'cover': 'FEW', 'base': 1300}, {'cover': 'BKN', 'base': 3800}]",VFR,,,,,,SE,Sweden
3752,ESKS,2025-11-29 01:54:19.517000+00:00,1764381000,2025-11-29T02:00:00.000Z,4.0,3.0,150,15.0,6+,988.0,2,-RA,,METAR,METAR ESKS 290150Z AUTO 15015KT 9999 -RA BKN008/// OVC024/// 04/03 Q0988,61.165,12.834,503,Salen/Scandanavian Mtns Arpt,OVC,"[{'cover': 'BKN', 'base': 800}, {'cover': 'OVC', 'base': 2400}]",IFR,,,,,,SE,Sweden
2164,ESMK,2025-11-29 01:54:13.198000+00:00,1764381000,2025-11-29T02:00:00.000Z,7.0,7.0,210,8.0,6+,1007.0,2,,,METAR,METAR ESMK 290150Z AUTO 21008KT 180V240 9999 BKN013/// OVC051/// 07/07 Q1007,55.922,14.085,20,Kristianstad Arpt,OVC,"[{'cover': 'BKN', 'base': 1300}, {'cover': 'OVC', 'base': 5100}]",MVFR,,,,,,SE,Sweden
2162,ESMQ,2025-11-29 02:06:48.060000+00:00,1764381000,2025-11-29T02:00:00.000Z,7.0,7.0,200,7.0,4.97,1006.0,2,-DZ,,METAR,METAR ESMQ 290150Z AUTO 20007KT 8000 -DZ FEW005/// SCT006/// BKN009/// 07/07 Q1006 REDZ,56.685,16.284,3,Kalmar Arpt,BKN,"[{'cover': 'FEW', 'base': 500}, {'cover': 'SCT', 'base': 600}, {'cover': 'BKN', 'base': 900}]",IFR,,,,,,SE,Sweden
2961,ESMS,2025-11-29 01:54:13.280000+00:00,1764381000,2025-11-29T02:00:00.000Z,7.0,6.0,210,11.0,4.97,1007.0,0,,,METAR,METAR ESMS 290150Z 21011KT 8000 FEW008 SCT014 07/06 Q1007,55.539,13.373,68,Malmo/Sturup Arpt,SCT,"[{'cover': 'FEW', 'base': 800}, {'cover': 'SCT', 'base': 1400}]",MVFR,,,,,,SE,Sweden
1636,ESMT,2025-11-29 01:54:13.325000+00:00,1764381000,2025-11-29T02:00:00.000Z,8.0,6.0,200,18.0,6+,1004.0,2,,,METAR,METAR ESMT 290150Z AUTO 20018KT 9999 BKN016/// OVC024/// 08/06 Q1004,56.691,12.82,24,Halmstad Arpt,OVC,"[{'cover': 'BKN', 'base': 1600}, {'cover': 'OVC', 'base': 2400}]",MVFR,,,,,,SE,Sweden
4587,ESMX,2025-11-29 01:57:08.062000+00:00,1764381000,2025-11-29T02:00:00.000Z,6.0,6.0,190,12.0,6+,1004.0,2,,,METAR,METAR ESMX 290150Z AUTO 19012KT 9999 // OVC006/// 06/06 Q1004,56.927,14.73,176,Växjö Arpt,OVC,"[{'cover': 'OVC', 'base': 600}]",IFR,,,,,,SE,Sweden
1323,ESND,2025-11-29 01:55:46.105000+00:00,1764381000,2025-11-29T02:00:00.000Z,6.0,3.0,170,6.0,6+,989.0,2,,,METAR,METAR ESND 290150Z AUTO 17006KT 130V230 9999 OVC024/// 06/03 Q0989,62.047,14.416,352,Sveg Arpt,OVC,"[{'cover': 'OVC', 'base': 2400}]",MVFR,,,,,,SE,Sweden
1639,ESNG,2025-11-29 02:06:48.095000+00:00,1764381000,2025-11-29T02:00:00.000Z,,,90,5.0,6+,982.0,2,,,METAR,METAR ESNG 290150Z AUTO 09005KT 9999 NCD ///// Q0982,67.133,20.81,300,Gällivare Arpt,CLR,[],VFR,,,,,,SE,Sweden
2389,ESNK,2025-11-29 01:54:18.355000+00:00,1764381000,2025-11-29T02:00:00.000Z,2.0,1.0,180,6.0,6+,990.0,2,,,METAR,METAR ESNK 290150Z AUTO 18006KT 9999 NCD 02/01 Q0990,63.047,17.766,4,Kramfors/Solleftea Arpt,CLR,[],VFR,,,,,,SE,Sweden
2706,ESNL,2025-11-29 01:55:45.063000+00:00,1764381000,2025-11-29T02:00:00.000Z,0.0,-1.0,130,9.0,6+,987.0,2,,,METAR,METAR ESNL 290150Z AUTO 13009KT 9999 NCD 00/M01 Q0987,64.552,18.711,220,Lycksele Arpt,CLR,[],VFR,,,,,,SE,Sweden
4045,ESNN,2025-11-29 01:54:18.388000+00:00,1764381000,2025-11-29T02:00:00.000Z,2.0,1.0,170,9.0,6+,992.0,2,,,METAR,METAR ESNN 290150Z AUTO 17009KT 9999 NCD 02/01 Q0992,62.532,17.436,4,Sundsvall-Timra Arpt,CLR,[],VFR,,,,,,SE,Sweden
3181,ESNO,2025-11-29 01:54:18.426000+00:00,1764381000,2025-11-29T02:00:00.000Z,4.0,2.0,190,10.0,6+,990.0,2,,,METAR,METAR ESNO 290150Z AUTO 19010KT 9999 NCD 04/02 Q0990,63.412,18.98,100,Örnsköldsvik Arpt,CLR,[],VFR,,,,,,SE,Sweden
2390,ESNQ,2025-11-29 01:54:18.468000+00:00,1764381000,2025-11-29T02:00:00.000Z,-3.0,-3.0,200,12.0,6+,980.0,2,,,METAR,METAR ESNQ 290150Z AUTO 20012KT 9999 NCD M03/M03 Q0980,67.823,20.34,447,Kiruna Arpt,CLR,[],VFR,,,,,,SE,Sweden
4055,ESNS,2025-11-29 01:54:18.497000+00:00,1764381000,2025-11-29T02:00:00.000Z,2.0,1.0,190,8.0,6+,989.0,2,,,METAR,METAR ESNS 290150Z AUTO 19008KT 9999 NCD 02/01 Q0989,64.625,21.077,41,Skellefteå Arpt,CLR,[],VFR,,,,,,SE,Sweden
4613,ESNU,2025-11-29 01:54:18.532000+00:00,1764381000,2025-11-29T02:00:00.000Z,5.0,3.0,190,10.0,6+,991.0,2,,,METAR,METAR ESNU 290150Z AUTO 19010KT 9999 NCD 05/03 Q0991,63.789,20.285,8,Umeå Arpt,CLR,[],VFR,,,,,,SE,Sweden
4592,ESNV,2025-11-29 01:55:45.253000+00:00,1764381000,2025-11-29T02:00:00.000Z,0.0,-1.0,170,8.0,6+,985.0,2,,,METAR,METAR ESNV 290150Z AUTO 17008KT 120V200 9999 NCD 00/M01 Q0985,64.579,16.839,348,Vilhelmina Arpt,CLR,[],VFR,,,,,,SE,Sweden
182,ESNX,2025-11-29 01:55:45.483000+00:00,1764381000,2025-11-29T02:00:00.000Z,-1.0,-1.0,110,4.0,6+,985.0,2,,,METAR,METAR ESNX 290150Z AUTO 11004KT 080V160 9999 NCD M01/M01 Q0985,65.592,19.283,380,Arvidsjaur Arpt,CLR,[],VFR,,,,,,SE,Sweden
3194,ESNZ,2025-11-29 01:54:18.575000+00:00,1764381000,2025-11-29T02:00:00.000Z,5.0,-1.0,170,6.0,6+,986.0,2,,,METAR,METAR ESNZ 290150Z AUTO 17006KT 120V210 9999 BKN037/// BKN170/// 05/M01 Q0986,63.199,14.489,360,Åre Östersund Arpt,BKN,"[{'cover': 'BKN', 'base': 3700}, {'cover': 'BKN', 'base': 17000}]",VFR,,,,,,SE,Sweden
3197,ESOE,2025-11-29 01:54:19.188000+00:00,1764381000,2025-11-29T02:00:00.000Z,7.0,5.0,190,14.0,6+,998.0,2,,,METAR,METAR ESOE 290150Z AUTO 19014KT 9999 OVC040/// 07/05 Q0998,59.229,15.046,57,Örebro Arpt,OVC,"[{'cover': 'OVC', 'base': 4000}]",VFR,,,,,,SE,Sweden
1933,ESOH,2025-11-29 01:54:19.484000+00:00,1764381000,2025-11-29T02:00:00.000Z,7.0,5.0,170,16.0,4.35,994.0,2,-RA,,METAR,METAR ESOH 290150Z AUTO 17016KT 7000 -RA FEW011/// OVC019/// 07/05 Q0994,60.02,13.579,145,Hagfors Arpt,OVC,"[{'cover': 'FEW', 'base': 1100}, {'cover': 'OVC', 'base': 1900}]",MVFR,,,,,,SE,Sweden
2408,ESOK,2025-11-29 01:57:08.124000+00:00,1764381000,2025-11-29T02:00:00.000Z,7.0,5.0,190,21.0,6+,995.0,2,-RA,,METAR,METAR ESOK 290150Z AUTO 19021KT 9999 R03/P2000N R21///// -RA FEW013/// BKN016/// OVC022/// 07/05 Q0995 REDZ,59.442,13.342,101,Karlstad Arpt,OVC,"[{'cover': 'FEW', 'base': 1300}, {'cover': 'BKN', 'base': 1600}, {'cover': 'OVC', 'base': 2200}]",MVFR,,,,,,SE,Sweden
4612,ESOW,2025-11-29 01:54:19.265000+00:00,1764381000,2025-11-29T02:00:00.000Z,4.0,3.0,170,11.0,6+,1000.0,2,,,METAR,METAR ESOW 290150Z AUTO 17011KT 9999 FEW038/// 04/03 Q1000,59.595,16.638,7,Stockholm/Västerås Arpt,FEW,"[{'cover': 'FEW', 'base': 3800}]",VFR,,,,,,SE,Sweden
2395,ESPA,2025-11-29 01:54:22.096000+00:00,1764381000,2025-11-29T02:00:00.000Z,1.0,0.0,200,10.0,6+,988.0,2,,,METAR,METAR ESPA 290150Z AUTO 20010KT 9999 NCD 01/00 Q0988,65.541,22.126,12,Luleå Arpt,CLR,[],VFR,,,,,,SE,Sweden
172,ESSA,2025-11-29 01:54:19.304000+00:00,1764381000,2025-11-29T02:00:00.000Z,5.0,4.0,170,12.0,6+,1000.0,16,,,METAR,METAR ESSA 290150Z 17012KT 9999 BKN036 05/04 Q1000 NOSIG,59.664,17.92,36,Stockholm/Arlanda Arpt,BKN,"[{'cover': 'BKN', 'base': 3600}]",VFR,,,,,,SE,Sweden
454,ESSB,2025-11-29 01:54:19.340000+00:00,1764381000,2025-11-29T02:00:00.000Z,7.0,5.0,180,9.0,6+,1001.0,2,,,METAR,METAR ESSB 290150Z AUTO 18009KT 140V210 9999 BKN037/// 07/05 Q1001,59.356,17.933,14,Stockholm/Bromma Arpt,BKN,"[{'cover': 'BKN', 'base': 3700}]",VFR,,,,,,SE,Sweden
457,ESSD,2025-11-29 01:54:19.374000+00:00,1764381000,2025-11-29T02:00:00.000Z,7.0,3.0,200,11.0,6+,995.0,2,,,METAR,METAR ESSD 290150Z AUTO 20011KT 9999 OVC027/// 07/03 Q0995,60.422,15.515,151,Borlange/Dala Arpt,OVC,"[{'cover': 'OVC', 'base': 2700}]",MVFR,,,,,,SE,Sweden
2699,ESSL,2025-11-29 01:54:22.244000+00:00,1764381000,2025-11-29T02:00:00.000Z,7.0,4.0,180,8.0,6+,1001.0,2,,,METAR,METAR ESSL 290150Z AUTO 18008KT 9999 BKN045/// 07/04 Q1001,58.406,15.681,51,Linköping City Arpt,BKN,"[{'cover': 'BKN', 'base': 4500}]",VFR,,,,,,SE,Sweden
3198,ESSP,2025-11-29 01:54:19.410000+00:00,1764381000,2025-11-29T02:00:00.000Z,6.0,4.0,160,9.0,6+,1001.0,2,,,METAR,METAR ESSP 290150Z AUTO 16009KT 9999 BKN045/// 06/04 Q1001,58.584,16.255,3,Norrköping Arpt,BKN,"[{'cover': 'BKN', 'base': 4500}]",VFR,,,,,,SE,Sweden
4595,ESST,2025-11-29 01:55:45.693000+00:00,1764381000,2025-11-29T02:00:00.000Z,7.0,4.0,170,14.0,6+,992.0,2,,,METAR,METAR ESST 290150Z AUTO 17014KT 9999 SCT020/// BKN028/// BKN088/// 07/04 Q0992,60.158,12.992,110,Torsby Arpt,BKN,"[{'cover': 'SCT', 'base': 2000}, {'cover': 'BKN', 'base': 2800}, {'cover': 'BKN', 'base': 8800}]",MVFR,,,,,,SE,Sweden
4610,ESSV,2025-11-29 01:54:19.449000+00:00,1764381000,2025-11-29T02:00:00.000Z,7.0,7.0,220,15.0,1.68,1006.0,2,DZ,,METAR,METAR ESSV 290150Z AUTO 22015KT 2700 DZ FEW009/// SCT015/// BKN019/// 07/07 Q1006,57.662,18.348,38,Visby Arpt,BKN,"[{'cover': 'FEW', 'base': 900}, {'cover': 'SCT', 'base': 1500}, {'cover': 'BKN', 'base': 1900}]",IFR,,,,,,SE,Sweden
173,ESTA,2025-11-29 01:54:13.422000+00:00,1764381000,2025-11-29T02:00:00.000Z,8.0,6.0,170,11.0,6+,1005.0,2,,,METAR,METAR ESTA 290150Z AUTO 17011KT 9999 FEW013/// BKN017/// OVC023/// 08/06 Q1005,56.294,12.848,19,Angelholm Arpt,OVC,"[{'cover': 'FEW', 'base': 1300}, {'cover': 'BKN', 'base': 1700}, {'cover': 'OVC', 'base': 2300}]",MVFR,,,,,,SE,Sweden
3480,ESUP,2025-11-29 01:55:45.909000+00:00,1764381000,2025-11-29T02:00:00.000Z,0.0,0.0,190,8.0,6+,984.0,2,,,METAR,METAR ESUP 290150Z AUTO 19008KT 9999 OVC004/// 00/00 Q0984,67.246,23.069,164,Pajala Arpt,OVC,"[{'cover': 'OVC', 'base': 400}]",LIFR,,,,,,SE,Sweden
1934,ESUT,2025-11-29 01:54:18.626000+00:00,1764381000,2025-11-29T02:00:00.000Z,2.0,-2.0,140,6.0,6+,981.0,2,,,METAR,METAR ESUT 290150Z AUTO 14006KT 110V170 9999 BKN078/// 02/M02 Q0981,65.806,15.083,457,Hamavan Arpt,BKN,"[{'cover': 'BKN', 'base': 7800}]",VFR,,,,,,SE,Sweden
3958,ETAD,2025-11-29 02:06:48.956000+00:00,1764381300,2025-11-29T02:00:00.000Z,6.5,6.1,220,4.0,0.5,1013.3,14,FG,,METAR,METAR ETAD 290155Z AUTO 22004KT 0800 R22/0500 FG VV001 07/06 A2992 RMK AO2 SLP130 T00650061 $,49.979,6.698,365,Spangdahlem,OVX,"[{'cover': 'OVX', 'base': 100}]",LIFR,1.0,,1013.0,,,DE,Germany
3697,ETAR,2025-11-29 02:06:49.018000+00:00,1764381300,2025-11-29T02:00:00.000Z,7.0,5.8,0,0.0,6+,1014.6,44,,,METAR,METAR ETAR 290155Z 00000KT 9999 OVC008 07/06 A2996 RMK AO2A SLP153 T00700058 TSNO $,49.437,7.6,231,Ramstein,OVC,"[{'cover': 'OVC', 'base': 800}]",IFR,,,1015.3,,,DE,Germany
5137,ETHC,2025-11-29 01:32:11.602000+00:00,1764379200,2025-11-29T01:20:00.000Z,7.0,7.0,180,4.0,6+,1011.0,2,,,METAR,METAR ETHC 290120Z AUTO 18004KT 9999 // ////// 07/07 Q1011 ///,52.591,10.022,35,Celle Arpt,,,,,,,,,DE,Germany
1734,ETHF,2025-11-29 01:26:34.054000+00:00,1764379200,2025-11-29T01:20:00.000Z,6.0,4.0,220,3.0,4.35,1014.0,0,,,METAR,METAR ETHF 290120Z 22003KT 7000 BKN005 BKN015 06/04 Q1014 YLO,51.114,9.286,171,Fritzlar Arpt,BKN,"[{'cover': 'BKN', 'base': 500}, {'cover': 'BKN', 'base': 1500}]",IFR,,,,,,DE,Germany
1430,ETMN,2025-11-29 01:29:16.087000+00:00,1764379200,2025-11-29T01:20:00.000Z,8.0,7.0,220,11.0,,1008.0,2,,,METAR,METAR ETMN 290120Z AUTO 22011KT //// // ////// 08/07 Q1008 ///,53.765,8.658,23,Nordholz Arpt),,,,,,,,,DE,Germany
1484,ETNG,2025-11-29 02:08:25.972000+00:00,1764381900,2025-11-29T02:05:00.000Z,8.0,6.0,210,6.0,6+,1013.0,2,,,SPECI,SPECI ETNG 290205Z AUTO 21006KT 180V240 9999 // BKN014/// BKN034/// BKN290/// 08/06 Q1013,50.964,6.032,76,Geilenkirchen,BKN,"[{'cover': 'BKN', 'base': 1400}, {'cover': 'BKN', 'base': 3400}, {'cover': 'BKN', 'base': 29000}]",MVFR,,,,,,DE,Germany
3841,ETNL,2025-11-29 01:26:34.276000+00:00,1764379200,2025-11-29T01:20:00.000Z,7.0,6.0,240,5.0,6+,1010.0,0,,,METAR,METAR ETNL 290120Z 24005KT 9999 SCT010 BKN034 07/06 Q1010 BLU,53.916,12.279,40,Laage Arpt,BKN,"[{'cover': 'SCT', 'base': 1000}, {'cover': 'BKN', 'base': 3400}]",VFR,,,,,,DE,Germany
4899,ETNS,2025-11-29 01:32:11.620000+00:00,1764379200,2025-11-29T01:20:00.000Z,9.0,7.0,230,15.0,,1007.0,2,,,METAR,METAR ETNS 290120Z AUTO 23015KT //// // ////// 09/07 Q1007 ///,54.457,9.52,22,Schleswig),,,,,,,,,DE,Germany
4826,ETOU,2025-11-29 02:06:46.937000+00:00,1764381300,2025-11-29T02:00:00.000Z,6.1,5.2,0,0.0,1.62,1015.0,6,BR,0.005,METAR,METAR ETOU 290155Z AUTO 00000KT 2600 BR OVC004 06/05 A2997 RMK AO2 RAB0057E06 CIG 003 RWY07 SLP155 P0000 T00610052,50.048,8.329,141,Wiesbaden,OVC,"[{'cover': 'OVC', 'base': 400}]",LIFR,,,1015.5,,,DE,Germany
2024,ETSI,2025-11-29 01:32:11.644000+00:00,1764379200,2025-11-29T01:20:00.000Z,2.0,0.0,180,5.0,6+,1016.0,2,,,METAR,METAR ETSI 290120Z AUTO 18005KT 9999 // ////// 02/M00 Q1016 ///,48.716,11.534,366,Ingolstadt-Manching Arpt,,,,,,,,,DE,Germany
2703,EVLA,2025-11-29 01:51:10.476000+00:00,1764381000,2025-11-29T02:00:00.000Z,2.0,2.0,170,9.0,2.17,1011.0,2,-RA BR,,METAR,METAR EVLA 290150Z AUTO 17009KT 140V200 3500 -RA BR OVC003/// 02/02 Q1011,56.517,21.097,5,Liepāja Intl,OVC,"[{'cover': 'OVC', 'base': 300}]",LIFR,,,,,,LV,Latvia
3748,EVRA,2025-11-29 01:50:20.119000+00:00,1764381000,2025-11-29T02:00:00.000Z,1.0,0.0,180,13.0,4.97,1013.0,16,-RA,,METAR,METAR EVRA 290150Z 18013KT 8000 -RA SCT005 BKN007 OVC015 01/M00 Q1013 NOSIG,56.924,23.968,7,Riga Intl,OVC,"[{'cover': 'SCT', 'base': 500}, {'cover': 'BKN', 'base': 700}, {'cover': 'OVC', 'base': 1500}]",IFR,,,,,,LV,Latvia
4589,EVVA,2025-11-29 01:51:10.413000+00:00,1764381000,2025-11-29T02:00:00.000Z,3.0,3.0,170,10.0,4.35,1010.0,2,,,METAR,METAR EVVA 290150Z AUTO 17010KT 7000 OVC004 03/03 Q1010,57.361,21.545,1,Ventpils Arpt,OVC,"[{'cover': 'OVC', 'base': 400}]",LIFR,,,,,,LV,Latvia
2413,EYKA,2025-11-29 01:50:19.963000+00:00,1764381000,2025-11-29T02:00:00.000Z,-1.0,-3.0,180,8.0,6+,1017.0,0,,,METAR,METAR EYKA 290150Z 18008KT 130V220 9999 OVC009 M01/M03 Q1017,54.962,24.069,68,Kaunas Arpt,OVC,"[{'cover': 'OVC', 'base': 900}]",IFR,,,,,,LT,Lithuania
3481,EYPA,2025-11-29 01:50:20.039000+00:00,1764381000,2025-11-29T02:00:00.000Z,1.0,0.0,170,12.0,4.97,1013.0,0,,,METAR,METAR EYPA 290150Z 17012KT 8000 OVC010 01/M00 Q1013,55.973,21.092,15,Palanga Intl,OVC,"[{'cover': 'OVC', 'base': 1000}]",MVFR,,,,,,LT,Lithuania
4042,EYSA,2025-11-29 01:59:28.888000+00:00,1764381000,2025-11-29T02:00:00.000Z,0.0,-2.0,180,12.0,5.59,1014.0,2,BR,,METAR,METAR EYSA 290150Z AUTO 18012KT 9000 BR FEW013 OVC041 M00/M02 Q1014,55.894,23.395,135,Šiauliai Intl,OVC,"[{'cover': 'FEW', 'base': 1300}, {'cover': 'OVC', 'base': 4100}]",VFR,,,,,,LT,Lithuania
4590,EYVI,2025-11-29 01:56:58.132000+00:00,1764381000,2025-11-29T02:00:00.000Z,-2.0,-3.0,180,12.0,3.73,1018.0,0,,,METAR,METAR EYVI 290150Z 18012KT 6000 OVC003 M02/M03 Q1018 TEMPO 3000 BR OVC002,54.634,25.286,180,Vilnius Intl,OVC,"[{'cover': 'OVC', 'base': 300}]",LIFR,,,,,,LT,Lithuania
344,FABL,2025-11-29 02:08:33.254000+00:00,1764381600,2025-11-29T02:00:00.000Z,9.0,9.0,VRB,1.0,6+,1015.0,2,,,METAR,METAR FABL 290200Z AUTO VRB01KT 9999 // ///////// 09/09 Q1015,-29.093,26.302,1348,Bloemfontein Intl,,,,,,,,,ZA,South Africa
922,FACT,2025-11-29 02:06:04.146000+00:00,1764381600,2025-11-29T02:00:00.000Z,18.0,17.0,180,12.0,6+,1014.0,16,-RA,,METAR,METAR FACT 290200Z 18012KT 9999 -RA SCT019 OVC027 18/17 Q1014 NOSIG,-33.965,18.602,48,Capetown Intl,OVC,"[{'cover': 'SCT', 'base': 1900}, {'cover': 'OVC', 'base': 2700}]",MVFR,,,,,,ZA,South Africa
1532,FAGG,2025-11-29 02:06:04.250000+00:00,1764381600,2025-11-29T02:00:00.000Z,18.0,15.0,300,11.0,6+,1012.0,2,,,METAR,METAR FAGG 290200Z AUTO 30011KT 9999 FEW022/// BKN026/// 18/15 Q1012,-34.006,22.379,196,George Arpt,BKN,"[{'cover': 'FEW', 'base': 2200}, {'cover': 'BKN', 'base': 2600}]",MVFR,,,,,,ZA,South Africa
2076,FAKM,2025-11-29 02:06:04.341000+00:00,1764381600,2025-11-29T02:00:00.000Z,11.0,10.0,10,4.0,,1014.0,2,,,METAR,METAR FAKM 290200Z AUTO 01004KT //// // ////// 11/10 Q1014,-28.803,24.765,1203,Kimberley Arpt,,,,,,,,,ZA,South Africa
2866,FAKN,2025-11-29 02:08:33.274000+00:00,1764381600,2025-11-29T02:00:00.000Z,19.0,18.0,0,0.0,,1015.0,2,,,METAR,METAR FAKN 290200Z AUTO 00000KT //// // ////// 19/18 Q1015,-25.383,31.106,864,Kruger Mpumalang Intl,,,,,,,,,ZA,South Africa
1163,FALE,2025-11-29 02:06:04.480000+00:00,1764381600,2025-11-29T02:00:00.000Z,22.0,18.0,30,5.0,6+,1007.0,16,,,METAR,METAR FALE 290200Z 03005KT CAVOK 22/18 Q1007 NOSIG,-29.602,31.13,109,Durban/King Shaka Intl,CAVOK,[],VFR,,,,,,ZA,South Africa
2075,FAOR,2025-11-29 02:08:33.304000+00:00,1764381600,2025-11-29T02:00:00.000Z,14.0,13.0,VRB,5.0,3.73,1019.0,0,-TSRA,,METAR,METAR FAOR 290200Z VRB05KT 6000 -TSRA BKN005 FEW030CB 14/13 Q1019 TEMPO 5000,-26.139,28.246,1684,Johannesburg/Tambo Intl,FEW,"[{'cover': 'BKN', 'base': 500}, {'cover': 'FEW', 'base': 3000}]",IFR,,,,,,ZA,South Africa
3300,FAPE,2025-11-29 02:06:02.833000+00:00,1764381600,2025-11-29T02:00:00.000Z,19.0,17.0,250,25.0,6+,1008.0,16,,,METAR,METAR FAPE 290200Z 25025G35KT 9999 BKN018 19/17 Q1008 NOSIG,-33.985,25.617,58,Port Elizabeth Arpt,BKN,"[{'cover': 'BKN', 'base': 1800}]",MVFR,,35.0,,,,ZA,South Africa
3308,FAPP,2025-11-29 02:08:33.322000+00:00,1764381600,2025-11-29T02:00:00.000Z,13.0,13.0,200,1.0,,1018.0,2,,,METAR,METAR FAPP 290200Z AUTO 20001KT //// // ////// 13/13 Q1018,-23.845,29.459,1238,Polokwane Arpt,,,,,,,,,ZA,South Africa
4501,FAUP,2025-11-29 02:06:02.902000+00:00,1764381600,2025-11-29T02:00:00.000Z,17.0,7.0,200,7.0,6+,1014.0,16,,,METAR,METAR FAUP 290200Z 20007KT CAVOK 17/07 Q1014 NOSIG,-28.399,21.26,845,Upington Arpt,CAVOK,[],VFR,,,,,,ZA,South Africa
2861,FBMN,2025-11-29 02:06:02.978000+00:00,1764381600,2025-11-29T02:00:00.000Z,20.0,19.0,VRB,2.0,6+,1013.0,0,,,METAR,METAR FBMN 290200Z VRB02KT CAVOK 20/19 Q1013,-19.973,23.431,946,Maun Arpt,CAVOK,[],VFR,,,,,,BW,Botswana
1533,FBSK,2025-11-29 02:06:03.074000+00:00,1764381600,2025-11-29T02:00:00.000Z,16.0,15.0,60,4.0,6+,1014.0,16,,,METAR,METAR FBSK 290200Z 06004KT 9999 FEW035CB BKN070 16/15 Q1014 NOSIG,-24.555,25.918,1007,Gaborone/Khama Intl,BKN,"[{'cover': 'FEW', 'base': 3500}, {'cover': 'BKN', 'base': 7000}]",VFR,,,,,,BW,Botswana
3915,FGSL,2025-11-29 02:04:40.339000+00:00,1764381600,2025-11-29T02:00:00.000Z,25.0,25.0,VRB,2.0,6+,1009.0,16,,,METAR,METAR FGSL 290200Z VRB02KT 9999 SCT010 25/25 Q1009 NOSIG,3.756,8.71,23,Malabo/Santa Isabel Arpt,SCT,"[{'cover': 'SCT', 'base': 1000}]",VFR,,,,,,GQ,Equatorial Guinea
179,FHAW,2025-11-29 02:06:38.329000+00:00,1764381000,2025-11-29T02:00:00.000Z,24.0,17.0,140,10.0,6+,1012.0,0,,,METAR,METAR FHAW 290150Z 14010KT 9999 FEW024 OVC032 24/17 Q1012 RMK BLU,-7.97,-14.394,79,Ascension Arpt,OVC,"[{'cover': 'FEW', 'base': 2400}, {'cover': 'OVC', 'base': 3200}]",VFR,,,,,,SH,"Saint Helena, Ascension and Tristan da Cunha"
2871,FIMP,2025-11-29 02:01:20.901000+00:00,1764381600,2025-11-29T02:00:00.000Z,22.0,20.0,320,3.0,6+,1013.0,0,,,METAR,METAR FIMP 290200Z 32003KT 9999 FEW018 22/20 Q1013,-20.434,57.684,57,Mauritius Intl,FEW,"[{'cover': 'FEW', 'base': 1800}]",VFR,,,,,,MU,Mauritius
3623,FIMR,2025-11-29 02:01:24.086000+00:00,1764381600,2025-11-29T02:00:00.000Z,25.0,22.0,360,2.0,6+,1013.0,0,,,METAR,METAR FIMR 290200Z 36002KT 9999 FEW018 25/22 Q1013,-19.755,63.36,31,Rodrigues Arpt,FEW,"[{'cover': 'FEW', 'base': 1800}]",VFR,,,,,,MU,Mauritius
3125,FJDG,2025-11-29 02:06:48.320000+00:00,1764381300,2025-11-29T02:00:00.000Z,27.2,22.8,250,4.0,6+,1011.6,0,,,METAR,METAR FJDG 290155Z 25004KT 9999 SKC 27/23 A2987 RMK SLP112 T02720228,-7.313,72.411,3,Diego Garcia Arpt,SKC,[],VFR,,,1011.2,,,IO,British Indian Ocean Territory
1170,FMCZ,2025-11-29 02:01:27.645000+00:00,1764381600,2025-11-29T02:00:00.000Z,26.0,24.0,250,2.0,6+,1010.0,18,,,METAR,METAR FMCZ 290200Z AUTO 25002KT CAVOK 26/24 Q1010 NOSIG,-12.805,45.281,7,Dzaoudzi/Pamandzi Intl,CAVOK,[],VFR,,,,,,YT,Mayotte
3606,FMEE,2025-11-29 02:06:05.216000+00:00,1764381600,2025-11-29T02:00:00.000Z,23.0,21.0,200,5.0,6+,1012.0,18,,,METAR,METAR FMEE 290200Z AUTO 20005KT 9999 SCT043 BKN120 23/21 Q1012 NOSIG,-20.887,55.51,20,Reunion/St Denis/Garros Arpt,BKN,"[{'cover': 'SCT', 'base': 4300}, {'cover': 'BKN', 'base': 12000}]",VFR,,,,,,RE,Réunion
4956,FMEP,2025-11-29 02:06:05.289000+00:00,1764381600,2025-11-29T02:00:00.000Z,24.0,18.0,30,5.0,6+,1013.0,2,,,METAR,METAR FMEP 290200Z AUTO 03005KT CAVOK 24/18 Q1013,-21.32,55.425,21,Reunion/Pierrefonds Arpt,CAVOK,[],VFR,,,,,,RE,Réunion
4215,FMMI,2025-11-29 02:01:21.010000+00:00,1764381600,2025-11-29T02:00:00.000Z,17.0,17.0,VRB,1.0,6+,1017.0,16,,,METAR,METAR FMMI 290200Z VRB01KT 9999 FEW010 SCT020 17/17 Q1017 NOSIG,-18.797,47.479,1269,Antananarivo/Ivato Intl,SCT,"[{'cover': 'FEW', 'base': 1000}, {'cover': 'SCT', 'base': 2000}]",VFR,,,,,,MG,Madagascar
317,FQBR,2025-11-29 01:59:28.680000+00:00,1764381600,2025-11-29T02:00:00.000Z,23.0,22.0,90,5.0,6+,1011.0,0,,,METAR,METAR FQBR 290200Z 09005KT 9999 SCT019 23/22 Q1011,-19.796,34.908,14,Beira Intl,SCT,"[{'cover': 'SCT', 'base': 1900}]",VFR,,,,,,MZ,Mozambique
55,FQNP,2025-11-29 02:06:03.651000+00:00,1764381600,2025-11-29T02:00:00.000Z,23.0,22.0,80,3.0,6+,1013.0,0,,,METAR,METAR FQNP 290200Z 08003KT 9999 FEW020 23/22 Q1013,-15.106,39.282,434,Nampula Arpt,FEW,"[{'cover': 'FEW', 'base': 2000}]",VFR,,,,,,MZ,Mozambique
4491,FQQL,2025-11-29 02:06:47.015000+00:00,1764381600,2025-11-29T02:00:00.000Z,25.0,23.0,,,6+,1012.0,0,,,METAR,METAR FQQL 290200Z /////KT 9999 FEW020 25/23 Q1012,-17.858,36.869,5,Quelimane Arpt,FEW,"[{'cover': 'FEW', 'base': 2000}]",VFR,,,,,,MZ,Mozambique
3922,FSIA,2025-11-29 02:01:25.348000+00:00,1764381600,2025-11-29T02:00:00.000Z,26.0,23.0,VRB,2.0,6+,1011.0,16,,,METAR,METAR FSIA 290200Z VRB02KT 9999 SCT022 26/23 Q1011 NOSIG,-4.674,55.522,3,Seychelles Intl,SCT,"[{'cover': 'SCT', 'base': 2200}]",VFR,,,,,,SC,Seychelles
2559,FYLZ,2025-11-29 02:08:33.657000+00:00,1764381600,2025-11-29T02:00:00.000Z,18.0,13.0,,,,1013.0,2,,,METAR,METAR FYLZ 290200Z AUTO /////KT //// // ////// 18/13 Q1013,-26.687,15.243,129,Luderitz Arpt,,,,,,,,,NA,
3076,FYOA,2025-11-29 02:08:33.754000+00:00,1764381600,2025-11-29T02:00:00.000Z,22.0,14.0,330,4.0,,1013.0,2,,,METAR,METAR FYOA 290200Z AUTO 33004KT //// // ////// 22/14 Q1013,-17.878,15.953,1099,Ondangwa Arpt,,,,,,,,,NA,
3075,FYOG,2025-11-29 02:08:33.730000+00:00,1764381600,2025-11-29T02:00:00.000Z,18.0,18.0,140,9.0,6+,1014.0,2,,,METAR,METAR FYOG 290200Z AUTO 14009KT 9999 BKN006/// BKN038/// OVC058/// 18/18 Q1014,-28.585,16.447,6,Oranjemund Arpt,OVC,"[{'cover': 'BKN', 'base': 600}, {'cover': 'BKN', 'base': 3800}, {'cover': 'OVC', 'base': 5800}]",IFR,,,,,,NA,
4790,FYWH,2025-11-29 02:08:33.694000+00:00,1764381600,2025-11-29T02:00:00.000Z,17.0,-1.0,290,7.0,6+,1020.0,16,,,METAR,METAR FYWH 290200Z 29007KT CAVOK 17/M01 Q1020 NOSIG,-22.481,17.47,1699,Windhoek/Kufako Intl,CAVOK,[],VFR,,,,,,NA,
505,GABS,2025-11-29 01:39:19.876000+00:00,1764379800,2025-11-29T01:30:00.000Z,22.0,12.0,20,3.0,3.73,1012.0,16,,,METAR,METAR GABS 290130Z 02003KT 6000 NSC 22/12 Q1012 NOSIG,12.534,-7.95,375,Bamako/Senou Intl,CLR,[],MVFR,,,,,,ML,Mali
1508,GCFV,2025-11-29 02:04:17.915000+00:00,1764381600,2025-11-29T02:00:00.000Z,20.0,16.0,30,13.0,6+,1019.0,2,,,METAR,METAR GCFV 290200Z AUTO 03013KT 9999 OVC019 20/16 Q1019,28.445,-13.863,11,Fuerteventura Arpt,OVC,"[{'cover': 'OVC', 'base': 1900}]",MVFR,,,,,,ES,Spain
1529,GCGM,2025-11-29 02:04:17.503000+00:00,1764381600,2025-11-29T02:00:00.000Z,19.0,11.0,VRB,5.0,6+,1019.0,2,,,METAR,METAR GCGM 290200Z AUTO VRB05KT CAVOK 19/11 Q1019 RMK R09/VRB06KT ARP/03009KT 340V110,28.032,-17.211,217,Alajero/La Gomera Arpt,CAVOK,[],VFR,,,,,,ES,Spain
4517,GCHI,2025-11-29 02:04:17.529000+00:00,1764381600,2025-11-29T02:00:00.000Z,21.0,15.0,30,14.0,6+,1020.0,2,,,METAR,METAR GCHI 290200Z AUTO 03014KT 330V060 9999 BKN027 21/15 Q1020,27.819,-17.889,21,Valverde/Hierro Arpt,BKN,"[{'cover': 'BKN', 'base': 2700}]",MVFR,,,,,,ES,Spain
3900,GCLA,2025-11-29 02:04:17.958000+00:00,1764381600,2025-11-29T02:00:00.000Z,20.0,14.0,360,9.0,6+,1021.0,2,,,METAR,METAR GCLA 290200Z AUTO 36009KT 320V030 9999 FEW030 BKN045 20/14 Q1021,28.633,-17.755,20,La Palma Arpt,BKN,"[{'cover': 'FEW', 'base': 3000}, {'cover': 'BKN', 'base': 4500}]",VFR,,,,,,ES,Spain
2547,GCLP,2025-11-29 02:04:18+00:00,1764381600,2025-11-29T02:00:00.000Z,19.0,14.0,350,14.0,6+,1019.0,16,,,METAR,METAR GCLP 290200Z 35014KT 9999 FEW030 19/14 Q1019 NOSIG,27.923,-15.389,16,Grand Canaria Arpt,FEW,"[{'cover': 'FEW', 'base': 3000}]",VFR,,,,,,ES,Spain
15,GCRR,2025-11-29 02:04:18.033000+00:00,1764381600,2025-11-29T02:00:00.000Z,18.0,14.0,40,11.0,6+,1019.0,2,,,METAR,METAR GCRR 290200Z AUTO 04011KT CAVOK 18/14 Q1019,28.952,-13.6,9,Arrecife/Lanzarote Arpt,CAVOK,[],VFR,,,,,,ES,Spain
4221,GCTS,2025-11-29 02:04:18.068000+00:00,1764381600,2025-11-29T02:00:00.000Z,19.0,11.0,70,8.0,6+,1019.0,16,,,METAR,METAR GCTS 290200Z 07008KT 9999 FEW030 19/11 Q1019 NOSIG,28.047,-16.561,59,Tenerife/South Arpt,FEW,"[{'cover': 'FEW', 'base': 3000}]",VFR,,,,,,ES,Spain
4220,GCXO,2025-11-29 02:04:18.105000+00:00,1764381600,2025-11-29T02:00:00.000Z,14.0,13.0,290,8.0,6+,1021.0,2,,,METAR,METAR GCXO 290200Z AUTO 29008KT 9999 FEW012 14/13 Q1021,28.483,-16.342,623,Tenerife/North Arpt,FEW,"[{'cover': 'FEW', 'base': 1200}]",VFR,,,,,,ES,Spain
2869,GEML,2025-11-29 02:04:18.507000+00:00,1764381600,2025-11-29T02:00:00.000Z,8.0,3.0,310,3.0,6+,1020.0,2,,,METAR,METAR GEML 290200Z AUTO 31003KT 280V350 CAVOK 08/03 Q1020,35.278,-2.956,48,Melilla Arpt,CAVOK,[],VFR,,,,,,ES,Spain
3659,GLRB,2025-11-29 01:59:56.269000+00:00,1764381600,2025-11-29T02:00:00.000Z,25.0,24.0,110,5.0,6+,1009.0,16,,,METAR,METAR GLRB 290200Z 11005KT 9999 BKN012 25/24 Q1009 NOSIG,6.234,-10.362,12,Monrovia/Roberts Intl,BKN,"[{'cover': 'BKN', 'base': 1200}]",MVFR,,,,,,LR,Liberia
34,GMAD,2025-11-29 02:02:30.998000+00:00,1764381600,2025-11-29T02:00:00.000Z,11.0,10.0,80,6.0,6+,1019.0,16,,,METAR,METAR GMAD 290200Z 08006KT CAVOK 11/10 Q1019 NOSIG,30.325,-9.413,66,Agadir/Al Massira Arpt,CAVOK,[],VFR,,,,,,MA,Morocco
4481,GMFB,2025-11-29 02:03:12.645000+00:00,1764381600,2025-11-29T02:00:00.000Z,7.0,1.0,310,6.0,6+,1021.0,18,,,METAR,METAR GMFB 290200Z AUTO 31006KT 9999 NSC 07/01 Q1021 NOSIG,32.514,-1.978,1106,Bouarfa Intl,CLR,[],VFR,,,,,,MA,Morocco
1143,GMFF,2025-11-29 02:02:31.036000+00:00,1764381600,2025-11-29T02:00:00.000Z,5.0,5.0,190,5.0,6+,1020.0,16,,,METAR,METAR GMFF 290200Z 19005KT CAVOK 05/05 Q1020 NOSIG,33.929,-4.976,575,Fes/Saïss Arpt,CAVOK,[],VFR,,,,,,MA,Morocco
1141,GMFK,2025-11-29 02:02:27.324000+00:00,1764381600,2025-11-29T02:00:00.000Z,5.0,-5.0,VRB,1.0,6+,1023.0,16,,,METAR,METAR GMFK 290200Z VRB01KT CAVOK 05/M05 Q1023 NOSIG,31.946,-4.399,1033,Errachidia/Cherif Arpt,CAVOK,[],VFR,,,,,,MA,Morocco
2567,GMFM,2025-11-29 02:02:30.925000+00:00,1764381600,2025-11-29T02:00:00.000Z,5.0,2.0,180,6.0,6+,1020.0,16,,,METAR,METAR GMFM 290200Z 18006KT CAVOK 05/02 Q1020 NOSIG,33.875,-5.52,569,Meknes/Bassatine Arpt,CAVOK,[],VFR,,,,,,MA,Morocco
3057,GMFO,2025-11-29 02:02:31.076000+00:00,1764381600,2025-11-29T02:00:00.000Z,4.0,-5.0,210,2.0,6+,1020.0,16,,,METAR,METAR GMFO 290200Z 21002KT CAVOK 04/M05 Q1020 NOSIG,34.787,-1.924,452,Oujda/Angads Arpt,CAVOK,[],VFR,,,,,,MA,Morocco
1496,GMMB,2025-11-29 02:06:51.489000+00:00,1764381600,2025-11-29T02:00:00.000Z,10.0,10.0,100,8.0,6+,1019.0,18,,,METAR,METAR GMMB 290200Z AUTO 10008KT 9999 NSC 10/10 Q1019 NOSIG,33.655,-7.221,191,Ben Slimane Arpt,CLR,[],VFR,,,,,,MA,Morocco
3651,GMME,2025-11-29 02:02:31.122000+00:00,1764381600,2025-11-29T02:00:00.000Z,7.0,7.0,140,3.0,3.11,1019.0,16,,,METAR,METAR GMME 290200Z 14003KT 5000 NSC 07/07 Q1019 NOSIG,34.051,-6.752,84,Rabat-Salé Arpt,CLR,[],MVFR,,,,,,MA,Morocco
1135,GMMI,2025-11-29 02:02:27.353000+00:00,1764381600,2025-11-29T02:00:00.000Z,10.0,9.0,70,5.0,3.73,1019.0,18,,,METAR,METAR GMMI 290200Z AUTO 07005KT 6000 NSC 10/09 Q1019 NOSIG,31.406,-9.687,102,Essaouira/Mogador Arpt,CLR,[],MVFR,,,,,,MA,Morocco
1142,GMML,2025-11-29 02:02:30.961000+00:00,1764381600,2025-11-29T02:00:00.000Z,16.0,16.0,40,9.0,4.35,1017.0,16,,,METAR,METAR GMML 290200Z 04009KT 7000 FEW008 16/16 Q1017 NOSIG,27.141,-13.23,63,Laâyoune/Hassan Arpt,FEW,"[{'cover': 'FEW', 'base': 800}]",MVFR,,,,,,EH,Western Sahara
606,GMMN,2025-11-29 02:02:31.172000+00:00,1764381600,2025-11-29T02:00:00.000Z,7.0,6.0,210,4.0,3.11,1020.0,16,,,METAR,METAR GMMN 290200Z 21004KT 5000 FEW004 07/06 Q1020 NOSIG,33.367,-7.59,196,Casablanca Intl,FEW,"[{'cover': 'FEW', 'base': 400}]",MVFR,,,,,,MA,Morocco
2884,GMMW,2025-11-29 02:02:27.386000+00:00,1764381600,2025-11-29T02:00:00.000Z,5.0,0.0,VRB,2.0,4.97,1019.0,16,,,METAR,METAR GMMW 290200Z VRB02KT 8000 NSC 05/00 Q1019 NOSIG,34.993,-3.025,174,Nador/Aroui Intl,CLR,[],MVFR,,,,,,MA,Morocco
3652,GMMX,2025-11-29 02:02:31.214000+00:00,1764381600,2025-11-29T02:00:00.000Z,12.0,2.0,VRB,1.0,6+,1019.0,16,,,METAR,METAR GMMX 290200Z VRB01KT CAVOK 12/02 Q1019 NOSIG,31.607,-8.036,465,Marrakesh/Menara Intl,CAVOK,[],VFR,,,,,,MA,Morocco
3309,GMMZ,2025-11-29 02:02:27.419000+00:00,1764381600,2025-11-29T02:00:00.000Z,8.0,-4.0,VRB,1.0,6+,1022.0,16,,,METAR,METAR GMMZ 290200Z VRB01KT CAVOK 08/M04 Q1022 NOSIG,30.939,-6.909,1139,Ouarzazate Arpt,CAVOK,[],VFR,,,,,,MA,Morocco
26,GMTA,2025-11-29 02:02:27.451000+00:00,1764381600,2025-11-29T02:00:00.000Z,9.0,6.0,170,4.0,6+,1020.0,16,,,METAR,METAR GMTA 290200Z 17004KT CAVOK 09/06 Q1020 NOSIG,35.177,-3.84,14,Al Hoceima/Idrissi Arpt,CAVOK,[],VFR,,,,,,MA,Morocco
4461,GMTN,2025-11-29 02:02:27.483000+00:00,1764381600,2025-11-29T02:00:00.000Z,9.0,7.0,220,6.0,6+,1019.0,16,,,METAR,METAR GMTN 290200Z 22006KT CAVOK 09/07 Q1019 NOSIG,35.594,-5.32,10,Tetouan/Sania Ramel Arpt,CAVOK,[],VFR,,,,,,MA,Morocco
4248,GMTT,2025-11-29 02:03:18.826000+00:00,1764381600,2025-11-29T02:00:00.000Z,10.0,9.0,80,5.0,6+,1019.0,16,,,METAR,METAR GMTT 290200Z 08005KT CAVOK 10/09 Q1019 NOSIG,35.727,-5.917,19,Tangier/Batouta Arpt,CAVOK,[],VFR,,,,,,MA,Morocco
1398,GOBD,2025-11-29 01:39:19.801000+00:00,1764379800,2025-11-29T01:30:00.000Z,22.0,19.0,360,10.0,6+,1012.0,16,,,METAR,METAR GOBD 290130Z 36010KT CAVOK 22/19 Q1012 NOSIG,14.671,-17.067,90,Dakar/Diagne Intl,CAVOK,[],VFR,,,,,,SN,Senegal
3258,GQNO,2025-11-29 01:39:32.228000+00:00,1764379800,2025-11-29T01:30:00.000Z,20.0,14.0,360,9.0,4.97,1013.0,16,,,METAR,METAR GQNO 290130Z 36009KT 8000 NSC 20/14 Q1013 NOSIG,18.31,-15.97,1,Nouakchott/Oumtounsy Arpt,CLR,[],MVFR,,,,,,MR,Mauritania
2874,GQPP,2025-11-29 02:01:23.560000+00:00,1764381600,2025-11-29T02:00:00.000Z,19.0,15.0,10,13.0,4.35,1016.0,16,,,METAR,METAR GQPP 290200Z 01013KT 7000 NSC 19/15 Q1016 NOSIG,20.929,-17.031,5,Nouadhibou Arpt,CLR,[],MVFR,,,,,,MR,Mauritania
3896,GVAC,2025-11-29 01:56:07.409000+00:00,1764381600,2025-11-29T02:00:00.000Z,23.0,17.0,40,13.0,6+,1015.0,16,,,METAR,METAR GVAC 290200Z 04013KT 9999 SCT013 BKN200 23/17 Q1015 NOSIG,16.742,-22.949,54,Sal/Amílcar Cabral,BKN,"[{'cover': 'SCT', 'base': 1300}, {'cover': 'BKN', 'base': 20000}]",VFR,,,,,,CV,Cape Verde
3626,GVNP,2025-11-29 02:01:23.531000+00:00,1764381600,2025-11-29T02:00:00.000Z,23.0,19.0,40,12.0,6+,1014.0,16,,,METAR,METAR GVNP 290200Z 04012KT 9999 FEW017 BKN200 23/19 Q1014 NOSIG,14.947,-23.484,70,Praia Intl,BKN,"[{'cover': 'FEW', 'base': 1700}, {'cover': 'BKN', 'base': 20000}]",VFR,,,,,,CV,Cape Verde
4468,GVSV,2025-11-29 02:01:43.471000+00:00,1764381600,2025-11-29T02:00:00.000Z,24.0,18.0,50,22.0,6+,1015.0,16,,,METAR,METAR GVSV 290200Z 05022KT 9999 FEW022 BKN200 24/18 Q1015 NOSIG,16.833,-25.055,16,São Pedro Arpt,BKN,"[{'cover': 'FEW', 'base': 2200}, {'cover': 'BKN', 'base': 20000}]",VFR,,,,,,CV,Cape Verde
36,HAAB,2025-11-29 02:06:24.564000+00:00,1764381600,2025-11-29T02:00:00.000Z,9.0,4.0,90,4.0,6+,1026.0,0,,,METAR,METAR HAAB 290200Z 09004KT 9999 FEW026 09/04 Q1026 NO SIG,8.978,38.799,2319,Addis Ababa/Bole Intl,FEW,"[{'cover': 'FEW', 'base': 2600}]",VFR,,,,,,ET,Ethiopia
65,HEAT,2025-11-29 02:01:29.983000+00:00,1764381600,2025-11-29T02:00:00.000Z,13.0,3.0,0,0.0,6+,1018.0,16,,,METAR,METAR HEAT 290200Z 00000KT CAVOK 13/03 Q1018 NOSIG,27.049,31.014,229,Assiut Arpt,CAVOK,[],VFR,,,,,,EG,Egypt
64,HEBL,2025-11-29 02:01:30.013000+00:00,1764381600,2025-11-29T02:00:00.000Z,20.0,6.0,360,4.0,6+,1014.0,16,,,METAR,METAR HEBL 290200Z 36004KT CAVOK 20/06 Q1014 NOSIG,22.376,31.612,184,Abu Simbel Arpt,CAVOK,[],VFR,,,,,,EG,Egypt
658,HECA,2025-11-29 01:58:32.782000+00:00,1764381600,2025-11-29T02:00:00.000Z,16.0,9.0,0,0.0,6+,1015.0,0,,,METAR,METAR HECA 290200Z 00000KT CAVOK 16/09 Q1015,30.133,31.405,142,Cairo Intl,CAVOK,[],VFR,,,,,,EG,Egypt
1781,HEGN,2025-11-29 02:01:29.906000+00:00,1764381600,2025-11-29T02:00:00.000Z,19.0,8.0,280,6.0,6+,1015.0,16,,,METAR,METAR HEGN 290200Z 28006KT CAVOK 19/08 Q1015 NOSIG,27.179,33.801,14,Hurguada Arpt,CAVOK,[],VFR,,,,,,EG,Egypt
2580,HELX,2025-11-29 02:01:29.862000+00:00,1764381600,2025-11-29T02:00:00.000Z,14.0,4.0,300,3.0,6+,1014.0,16,,,METAR,METAR HELX 290200Z 30003KT CAVOK 14/04 Q1014 NOSIG,25.671,32.706,86,Luxor Intl,CAVOK,[],VFR,,,,,,EG,Egypt
3616,HEMA,2025-11-29 02:01:30.076000+00:00,1764381600,2025-11-29T02:00:00.000Z,20.0,18.0,300,7.0,6+,1015.0,16,,,METAR,METAR HEMA 290200Z 30007KT CAVOK 20/18 Q1015 NOSIG,25.557,34.584,77,Marsa Alam Intl,CAVOK,[],VFR,,,,,,EG,Egypt
3356,HEPS,2025-11-29 02:01:29.931000+00:00,1764381600,2025-11-29T02:00:00.000Z,18.0,17.0,280,4.0,6+,1016.0,16,,,METAR,METAR HEPS 290200Z 28004KT CAVOK 18/17 Q1016 NOSIG,31.279,32.238,2,Port Said Arpt,CAVOK,[],VFR,,,,,,EG,Egypt
3906,HESH,2025-11-29 02:01:29.954000+00:00,1764381600,2025-11-29T02:00:00.000Z,20.0,11.0,320,6.0,6+,1015.0,16,,,METAR,METAR HESH 290200Z 32006KT CAVOK 20/11 Q1015 NOSIG,27.977,34.395,50,Sharm El Sheikh Intl,CAVOK,[],VFR,,,,,,EG,Egypt
66,HESN,2025-11-29 02:01:29.885000+00:00,1764381600,2025-11-29T02:00:00.000Z,19.0,6.0,340,5.0,6+,1014.0,16,,,METAR,METAR HESN 290200Z 34005KT CAVOK 19/06 Q1014 NOSIG,23.964,32.82,197,Aswan Intl,CAVOK,[],VFR,,,,,,EG,Egypt
3924,HESW,2025-11-29 01:58:32.803000+00:00,1764381600,2025-11-29T02:00:00.000Z,12.0,6.0,110,9.0,6+,1014.0,0,,,METAR,METAR HESW 290200Z 11009KT CAVOK 12/06 Q1014,29.346,25.507,101,Siwa Oasis Arpt,CAVOK,[],VFR,,,,,,EG,Egypt
3905,HESX,2025-11-29 02:01:30.044000+00:00,1764381600,2025-11-29T02:00:00.000Z,14.0,10.0,0,0.0,6+,1016.0,16,,,METAR,METAR HESX 290200Z 00000KT CAVOK 14/10 Q1016 NOSIG,30.108,30.896,168,Cairo/Sphinx Intl,CAVOK,[],VFR,,,,,,EG,Egypt
3001,HKJK,2025-11-29 01:47:29.648000+00:00,1764379800,2025-11-29T01:30:00.000Z,17.0,15.0,30,6.0,6+,1020.0,16,,,METAR,METAR HKJK 290130Z 03006KT 9999 BKN018 17/15 Q1020 NOSIG,-1.319,36.928,1615,Nairobi/Kenyatta Intl,BKN,"[{'cover': 'BKN', 'base': 1800}]",MVFR,,,,,,KE,Kenya
2754,HKMO,2025-11-29 01:47:29.688000+00:00,1764379800,2025-11-29T01:30:00.000Z,25.0,23.0,VRB,2.0,6+,1010.0,16,,,METAR,METAR HKMO 290130Z VRB02KT 9999 SCT019 25/23 Q1010 NOSIG,-4.015,39.606,55,Mombasa/Moi Intl,SCT,"[{'cover': 'SCT', 'base': 1900}]",VFR,,,,,,KE,Kenya
2101,HRYR,2025-11-29 02:03:40.068000+00:00,1764381600,2025-11-29T02:00:00.000Z,18.0,14.0,340,3.0,6+,1018.0,16,,,METAR,METAR HRYR 290200Z 34003KT 9999 SCT023 18/14 Q1018 NOSIG,-1.969,30.14,1493,Kigali Intl,SCT,"[{'cover': 'SCT', 'base': 2300}]",VFR,,,,,,RW,Rwanda
1397,HUEN,2025-11-29 01:33:33.619000+00:00,1764379800,2025-11-29T01:30:00.000Z,21.0,18.0,10,5.0,6+,1014.0,16,,,METAR,METAR HUEN 290130Z 01005KT 9999 FEW022 FEW024CB 21/18 Q1014 NOSIG,0.036,32.437,1147,Entebbe Intl,FEW,"[{'cover': 'FEW', 'base': 2200}, {'cover': 'FEW', 'base': 2400}]",VFR,,,,,,UG,Uganda
131,KAAF,2025-11-29 01:57:24.457000+00:00,1764381180,2025-11-29T02:00:00.000Z,6.7,-3.9,30,7.0,10+,1027.9,14,,,METAR,METAR KAAF 290153Z AUTO 03007KT 10SM CLR 07/M04 A3035 RMK AO1 SLP277 T00671039 $,29.7268,-85.0248,5,Apalachicola Muni,CLR,[],VFR,,,1027.7,,,US,United States
167,KABE,2025-11-29 01:57:23.048000+00:00,1764381060,2025-11-29T02:00:00.000Z,-0.6,-7.8,260,11.0,10+,1021.4,12,,,METAR,METAR KABE 290151Z 26011KT 10SM CLR M01/M08 A3016 RMK AO2 SLP218 T10061078 $,40.658,-75.4347,117,Allentown/Lehigh Valley Intl,CLR,[],VFR,,,1021.8,,,US,United States
159,KABI,2025-11-29 01:57:32.274000+00:00,1764381120,2025-11-29T02:00:00.000Z,13.3,11.7,160,15.0,7,1017.7,12,,,METAR,METAR KABI 290152Z 16015KT 7SM BKN009 BKN013 OVC030 13/12 A3005 RMK AO2 PK WND 18031/0109 CIG 008V011 SLP166 T01330117 $,32.4106,-99.6821,543,Abilene Rgnl,OVC,"[{'cover': 'BKN', 'base': 900}, {'cover': 'BKN', 'base': 1300}, {'cover': 'OVC', 'base': 3000}]",IFR,,,1016.6,,,US,United States
160,KABQ,2025-11-29 01:57:32.293000+00:00,1764381120,2025-11-29T02:00:00.000Z,11.1,-0.6,0,0.0,10+,1015.7,12,,,METAR,METAR KABQ 290152Z 00000KT 10SM CLR 11/M01 A2999 RMK AO2 SLP136 T01111006 $,35.0419,-106.6154,1620,Albuquerque Intl,CLR,[],VFR,,,1013.6,,,US,United States
156,KABR,2025-11-29 01:58:50.960000+00:00,1764381180,2025-11-29T02:00:00.000Z,-7.2,-8.9,60,12.0,1.5,1022.8,6,-SN BR,0.01,METAR,METAR KABR 290153Z AUTO 06012KT 1 1/2SM -SN BR BKN025 OVC044 M07/M09 A3020 RMK AO2 SLP253 P0001 T10721089,45.4436,-98.4138,397,Aberdeen Rgnl,OVC,"[{'cover': 'BKN', 'base': 2500}, {'cover': 'OVC', 'base': 4400}]",IFR,,,1025.3,,,US,United States
151,KABY,2025-11-29 01:57:38.038000+00:00,1764381180,2025-11-29T02:00:00.000Z,3.9,-4.4,360,3.0,10+,1029.5,6,,,METAR,METAR KABY 290153Z AUTO 36003KT 10SM CLR 04/M04 A3040 RMK AO2 SLP294 T00391044,31.5364,-84.1958,60,Albany/SW Georgia Rgnl,CLR,[],VFR,,,1029.4,,,US,United States
97,KACB,2025-11-29 02:00:53.841000+00:00,1764381300,2025-11-29T02:00:00.000Z,-0.6,-8.9,0,0.0,10+,1025.8,6,-SN,,METAR,METAR KACB 290155Z AUTO 00000KT 10SM -SN BKN036 OVC044 M01/M09 A3029 RMK AO2 T10061089,44.9867,-85.2022,189,Bellaire/Antrim Cnty,OVC,"[{'cover': 'BKN', 'base': 3600}, {'cover': 'OVC', 'base': 4400}]",VFR,,,,,,US,United States
130,KACK,2025-11-29 01:58:51.367000+00:00,1764381180,2025-11-29T02:00:00.000Z,4.4,-6.7,280,25.0,10+,1014.3,14,,,METAR,METAR KACK 290153Z AUTO 28025G35KT 10SM FEW055 SCT070 04/M07 A2995 RMK AO2 PK WND 28035/0151 SLP143 T00441067 $,41.2541,-70.0589,12,Nantucket Mem Arpt,SCT,"[{'cover': 'FEW', 'base': 5500}, {'cover': 'SCT', 'base': 7000}]",VFR,,35.0,1014.3,,,US,United States
138,KACV,2025-11-29 01:58:51.223000+00:00,1764381180,2025-11-29T02:00:00.000Z,11.7,9.4,0,0.0,6,1019.4,14,BR,,METAR,METAR KACV 290153Z AUTO 00000KT 6SM BR OVC021 12/09 A3010 RMK AO2 SLP198 T01170094 $,40.9784,-124.1048,63,Arcata Arpt,OVC,"[{'cover': 'OVC', 'base': 2100}]",MVFR,,,1019.8,,,US,United States
126,KACY,2025-11-29 01:59:09.770000+00:00,1764381240,2025-11-29T02:00:00.000Z,2.2,-8.3,270,11.0,10+,1023.5,12,,,METAR,METAR KACY 290154Z 27011KT 10SM CLR 02/M08 A3022 RMK AO2 SLP233 T00221083 $,39.452,-74.567,18,Atlantic City Intl,CLR,[],VFR,,,1023.3,,,US,United States
144,KADG,2025-11-29 01:58:51.539000+00:00,1764381180,2025-11-29T02:00:00.000Z,-1.1,-9.4,300,9.0,10+,1028.2,6,,,METAR,METAR KADG 290153Z AUTO 30009KT 10SM OVC039 M01/M09 A3036 RMK AO2 SLP293 T10111094,41.8678,-84.0794,244,Adrian/Lenawee Cnty,OVC,"[{'cover': 'OVC', 'base': 3900}]",VFR,,,1029.3,,,US,United States
104,KADH,2025-11-29 02:01:10.128000+00:00,1764381300,2025-11-29T02:00:00.000Z,9.0,8.0,160,12.0,3,1020.1,6,VCTS BR,0.05,METAR,METAR KADH 290155Z AUTO 16012G18KT 3SM VCTS BR SCT036 BKN046 OVC060 09/08 A3012 RMK AO2 LTG DSNT SE-SW P0005,34.8021,-96.6701,301,Ada Muni,OVC,"[{'cover': 'SCT', 'base': 3600}, {'cover': 'BKN', 'base': 4600}, {'cover': 'OVC', 'base': 6000}]",MVFR,,18.0,,,,US,United States
191,KADS,2025-11-29 01:48:35.666000+00:00,1764380820,2025-11-29T02:00:00.000Z,13.0,4.0,160,15.0,5,1021.1,0,VCTS RA HZ,,METAR,METAR KADS 290147Z 16015G20KT 5SM VCTS RA HZ SCT046 BKN065 OVC075 13/04 A3015,32.9634,-96.8354,198,Dallas/Addison Arpt,OVC,"[{'cover': 'SCT', 'base': 4600}, {'cover': 'BKN', 'base': 6500}, {'cover': 'OVC', 'base': 7500}]",MVFR,,20.0,,,,US,United States
96,KADW,2025-11-29 02:08:10.910000+00:00,1764381300,2025-11-29T02:00:00.000Z,1.6,-9.9,290,9.0,10+,1026.2,14,,,METAR,METAR KADW 290155Z AUTO 29009KT 10SM CLR 02/M10 A3030 RMK AO2 SLP270 T00161099 $,38.8215,-76.8654,87,Andrews AFB,CLR,[],VFR,,,1027.0,,,US,United States
91,KAEL,2025-11-29 02:00:49.158000+00:00,1764381300,2025-11-29T02:00:00.000Z,-3.7,-8.8,70,4.0,8,1025.1,6,,,METAR,METAR KAEL 290155Z AUTO 07004KT 8SM SCT016 BKN026 OVC055 M04/M09 A3027 RMK AO2 CIG 024V030 T10371088,43.6823,-93.3722,382,Albert Lea Muni,OVC,"[{'cover': 'SCT', 'base': 1600}, {'cover': 'BKN', 'base': 2600}, {'cover': 'OVC', 'base': 5500}]",MVFR,,,,,,US,United States
139,KAEX,2025-11-29 01:57:38.128000+00:00,1764381180,2025-11-29T02:00:00.000Z,11.1,-1.1,100,8.0,10+,1026.5,12,,,METAR,METAR KAEX 290153Z 10008KT 10SM CLR 11/M01 A3031 RMK AO2 SLP268 T01111011 $,31.3346,-92.5585,25,Alexandria Intl,CLR,[],VFR,,,1026.8,,,US,United States
109,KAFF,2025-11-29 02:02:08.556000+00:00,1764381300,2025-11-29T02:00:00.000Z,6.7,-12.0,360,7.0,10+,1008.2,14,,,METAR,METAR KAFF 290155Z AUTO 36007KT 10SM FEW140 07/M12 A2977 RMK AO2 SLP054 T00671120 $,38.971,-104.816,2003,Air Force Academy Arfld,FEW,"[{'cover': 'FEW', 'base': 14000}]",VFR,,,1005.4,,,US,United States
4816,KAFJ,2025-11-29 02:00:59.471000+00:00,1764381360,2025-11-29T02:00:00.000Z,-2.2,-6.1,270,5.0,10+,1028.5,78,,,METAR,METAR KAFJ 290156Z AUTO 27005KT 10SM OVC060 M02/M06 A3037 RMK AO2 SLP297 T10221061 FZRANO $,40.1362,-80.2851,360,Washington Cnty Arpt,OVC,"[{'cover': 'OVC', 'base': 6000}]",VFR,,,1029.7,,,US,United States
162,KAFN,2025-11-29 01:57:41.184000+00:00,1764381120,2025-11-29T02:00:00.000Z,-1.1,-6.1,210,6.0,10+,1011.3,6,,,METAR,METAR KAFN 290152Z AUTO 21006KT 10SM SCT048 BKN055 M01/M06 A2986 RMK AO2 SLP127 T10111061,42.8067,-72.0013,308,Jaffrey Muni,BKN,"[{'cover': 'SCT', 'base': 4800}, {'cover': 'BKN', 'base': 5500}]",VFR,,,1012.7,,,US,United States
94,KAFO,2025-11-29 02:02:23.336000+00:00,1764381300,2025-11-29T02:00:00.000Z,0.0,0.0,0,0.0,5,1014.6,6,-SN,,METAR,METAR KAFO 290155Z AUTO 00000KT 5SM -SN BKN012 OVC021 00/00 A2996 RMK AO2,42.7139,-110.9443,1881,Afton Muni,OVC,"[{'cover': 'BKN', 'base': 1200}, {'cover': 'OVC', 'base': 2100}]",MVFR,,,,,,US,United States
157,KAFW,2025-11-29 01:58:52.316000+00:00,1764381180,2025-11-29T02:00:00.000Z,11.7,5.0,160,16.0,10+,1020.1,12,-RA,0.02,METAR,METAR KAFW 290153Z 16016G23KT 10SM -RA FEW040 BKN060 OVC070 12/05 A3012 RMK AO2 SLP201 OCNL LTGIC DSNT S CB DSNT S MOV E P0002 T01170050 $,32.99,-97.32,208,Fort Worth/Alliance Arpt,OVC,"[{'cover': 'FEW', 'base': 4000}, {'cover': 'BKN', 'base': 6000}, {'cover': 'OVC', 'base': 7000}]",VFR,,23.0,1020.1,,,US,United States
158,KAGC,2025-11-29 01:58:57.165000+00:00,1764381180,2025-11-29T02:00:00.000Z,-2.2,-7.2,270,9.0,10+,1026.2,4,,,METAR,METAR KAGC 290153Z 27009G16KT 10SM OVC060 M02/M07 A3030 RMK AO2 SLP283 T10221072,40.3551,-79.9215,380,Pittsburgh/Allegheny Cnty,OVC,"[{'cover': 'OVC', 'base': 6000}]",VFR,,16.0,1028.3,,,US,United States
115,KAGO,2025-11-29 01:58:54.726000+00:00,1764381300,2025-11-29T02:00:00.000Z,7.0,2.0,0,0.0,10+,1025.5,6,,,METAR,METAR KAGO 290155Z AUTO 00000KT 10SM CLR 07/02 A3028 RMK A01,33.2266,-93.2154,91,Magnolia Muni,CLR,[],VFR,,,,,,US,United States
142,KAGS,2025-11-29 01:57:38.200000+00:00,1764381180,2025-11-29T02:00:00.000Z,1.1,-5.6,0,0.0,10+,1028.2,4,,,METAR,METAR KAGS 290153Z 00000KT 10SM CLR 01/M06 A3036 RMK AO2 SLP283 T00111056,33.3652,-81.9635,40,Augusta Rgnl,CLR,[],VFR,,,1028.3,,,US,United States
165,KAHN,2025-11-29 01:54:10.609000+00:00,1764381060,2025-11-29T02:00:00.000Z,2.8,-7.2,0,0.0,10+,1027.9,6,,,METAR,METAR KAHN 290151Z AUTO 00000KT 10SM CLR 03/M07 A3035 RMK AO2 SLP285 T00281072,33.9477,-83.3274,241,Athens/Epps Arpt,CLR,[],VFR,,,1028.5,,,US,United States
14,KAIA,2025-11-29 02:04:06.538000+00:00,1764381600,2025-11-29T02:00:00.000Z,-2.8,-3.9,120,6.0,10+,1009.9,6,,,SPECI,SPECI KAIA 290200Z AUTO 12006KT 10SM SCT008 M03/M04 A2982 RMK AO2 T10281039,42.0573,-102.8017,1198,Alliance Muni,SCT,"[{'cover': 'SCT', 'base': 800}]",VFR,,,,,,US,United States
103,KAID,2025-11-29 01:46:07.503000+00:00,1764381300,2025-11-29T02:00:00.000Z,-5.8,-9.8,0,0.0,10+,1029.2,6,,,METAR,METAR KAID 290155Z AUTO 00000KT 10SM CLR M06/M10 A3039 RMK AO2 T10581098,40.1061,-85.6098,277,Anderson Muni,CLR,[],VFR,,,,,,US,United States
95,KAIK,2025-11-29 02:00:44.770000+00:00,1764381300,2025-11-29T02:00:00.000Z,-0.9,-5.1,0,0.0,10+,1028.9,6,,,METAR,METAR KAIK 290155Z AUTO 00000KT 10SM CLR M01/M05 A3038 RMK AO2 T10091051,33.651,-81.6821,155,Aiken Muni,CLR,[],VFR,,,,,,US,United States
112,KAIO,2025-11-29 02:02:19.876000+00:00,1764381300,2025-11-29T02:00:00.000Z,-3.0,-7.0,80,9.0,10+,1021.4,6,,,METAR,METAR KAIO 290155Z AUTO 08009G15KT 10SM OVC035 M03/M07 A3016 RMK AO2,41.4059,-95.0465,349,Atlantic Muni,OVC,"[{'cover': 'OVC', 'base': 3500}]",VFR,,15.0,,,,US,United States
155,KAKO,2025-11-29 01:58:51.244000+00:00,1764381180,2025-11-29T02:00:00.000Z,-0.6,-1.1,110,10.0,10+,1008.5,6,,,METAR,METAR KAKO 290153Z AUTO 11010KT 10SM SCT075 OVC090 M01/M01 A2978 RMK AO2 SLP113 T10061011,40.1743,-103.2146,1431,Akron/Plains Rgnl,OVC,"[{'cover': 'SCT', 'base': 7500}, {'cover': 'OVC', 'base': 9000}]",VFR,,,1011.3,,,US,United States
122,KAKR,2025-11-29 01:59:00.117000+00:00,1764381240,2025-11-29T02:00:00.000Z,-1.7,-6.7,270,9.0,10+,1026.8,6,,,METAR,METAR KAKR 290154Z AUTO 27009KT 10SM OVC043 M02/M07 A3032 RMK AO2 SLP280 T10171067,41.0373,-81.4634,319,Akron/Fulton Intl,OVC,"[{'cover': 'OVC', 'base': 4300}]",VFR,,,1028.0,,,US,United States
166,KALB,2025-11-29 01:58:36.396000+00:00,1764381060,2025-11-29T02:00:00.000Z,-0.6,-2.2,270,8.0,10+,1015.7,4,-SN,0.01,METAR,METAR KALB 290151Z 27008KT 10SM -SN SCT022 BKN030 OVC043 M01/M02 A2999 RMK AO2 SLP159 PCPN VRY LGT P0001 T10061022,42.7473,-73.7991,82,Albany Intl,OVC,"[{'cover': 'SCT', 'base': 2200}, {'cover': 'BKN', 'base': 3000}, {'cover': 'OVC', 'base': 4300}]",MVFR,,,1015.9,,,US,United States
136,KALI,2025-11-29 01:58:51.259000+00:00,1764381180,2025-11-29T02:00:00.000Z,21.1,16.7,150,12.0,10+,1020.1,14,,,METAR,METAR KALI 290153Z AUTO 15012KT 10SM OVC055 21/17 A3012 RMK AO2 SLP199 T02110167 $,27.7413,-98.0251,52,Alice Intl,OVC,"[{'cover': 'OVC', 'base': 5500}]",VFR,,,1019.9,,,US,United States
102,KALM,2025-11-29 01:59:07.763000+00:00,1764381300,2025-11-29T02:00:00.000Z,12.0,2.0,150,7.0,10+,1016.3,6,,,METAR,METAR KALM 290155Z AUTO 15007KT 10SM CLR 12/02 A3001 RMK AO2,32.8351,-105.9941,1267,Alamogordo/White Sands Rgnl,CLR,[],VFR,,,,,,US,United States
194,KALN,2025-11-29 01:46:03.892000+00:00,1764380700,2025-11-29T02:00:00.000Z,1.0,-6.0,120,8.0,10+,1028.2,0,,,METAR,METAR KALN 290145Z 12008KT 10SM OVC100 01/M06 A3036,38.8897,-90.0316,159,Alton/St Louis Rgnl,OVC,"[{'cover': 'OVC', 'base': 10000}]",VFR,,,,,,US,United States
0,KALO,2025-11-29 02:08:26.925000+00:00,1764381840,2025-11-29T02:04:00.000Z,-3.3,-7.2,160,12.0,2.5,1026.5,6,-SN,0.005,SPECI,SPECI KALO 290204Z AUTO 16012KT 2 1/2SM -SN OVC026 M03/M07 A3031 RMK AO2 SNB0158 P0000 T10331072,42.5544,-92.4013,264,Waterloo Rgnl,OVC,"[{'cover': 'OVC', 'base': 2600}]",IFR,,,,,,US,United States
161,KALS,2025-11-29 01:57:32.031000+00:00,1764381120,2025-11-29T02:00:00.000Z,2.2,-5.6,200,11.0,10+,1013.0,6,,,METAR,METAR KALS 290152Z AUTO 20011KT 10SM CLR 02/M06 A2991 RMK AO2 SLP141 T00221056,37.4393,-105.8618,2299,Alamosa/Bergman Fld,CLR,[],VFR,,,1014.1,,,US,United States
127,KALW,2025-11-29 01:58:52.331000+00:00,1764381180,2025-11-29T02:00:00.000Z,5.6,2.8,140,3.0,10+,1027.5,4,,,METAR,METAR KALW 290153Z 14003KT 10SM OVC044 06/03 A3034 RMK AO2 SLP281 T00560028,46.0946,-118.2857,355,Walla Walla Rgnl,OVC,"[{'cover': 'OVC', 'base': 4400}]",VFR,,,1028.1,,,US,United States
105,KALX,2025-11-29 02:01:10.300000+00:00,1764381300,2025-11-29T02:00:00.000Z,1.6,-1.5,0,0.0,10+,1029.2,6,,,METAR,METAR KALX 290155Z AUTO 00000KT 10SM CLR 02/M01 A3039 RMK AO2 T00161015,32.916,-85.964,198,Alexander City/Russell Fld,CLR,[],VFR,,,,,,US,United States
150,KAMA,2025-11-29 01:58:52.347000+00:00,1764381180,2025-11-29T02:00:00.000Z,10.6,8.3,180,18.0,10+,1011.9,4,,,METAR,METAR KAMA 290153Z 18018KT 10SM CLR 11/08 A2988 RMK AO2 PK WND 17026/0136 SLP102 T01060083,35.2203,-101.7173,1102,Amarillo Intl Arpt,CLR,[],VFR,,,1010.2,,,US,United States
99,KAMN,2025-11-29 02:01:01.544000+00:00,1764381300,2025-11-29T02:00:00.000Z,-2.0,-8.0,290,6.0,10+,1027.2,6,,,METAR,METAR KAMN 290155Z AUTO 29006KT 10SM OVC034 M02/M08 A3033 RMK AO2,43.3209,-84.6871,228,Alma/Gratiot Communi,OVC,"[{'cover': 'OVC', 'base': 3400}]",VFR,,,,,,US,United States
132,KAMW,2025-11-29 01:58:51.400000+00:00,1764381180,2025-11-29T02:00:00.000Z,-4.4,-5.6,80,10.0,1,1024.8,6,-SN BR,0.03,METAR,METAR KAMW 290153Z AUTO 08010KT 1SM -SN BR VV012 M04/M06 A3026 RMK AO2 SLP258 P0003 T10441056,41.9905,-93.6185,282,Ames Muni,OVX,"[{'cover': 'OVX', 'base': 1200}]",IFR,12.0,,1025.8,,,US,United States
145,KANB,2025-11-29 01:57:38.373000+00:00,1764381180,2025-11-29T02:00:00.000Z,1.1,-2.2,140,3.0,10+,1029.5,6,,,METAR,METAR KANB 290153Z AUTO 14003KT 10SM CLR 01/M02 A3040 RMK AO2 SLP307 T00111022,33.5904,-85.8479,187,Anniston Metro,CLR,[],VFR,,,1030.7,,,US,United States
84,KAND,2025-11-29 02:00:44.787000+00:00,1764381360,2025-11-29T02:00:00.000Z,3.3,-8.3,0,0.0,10+,1027.5,6,,,METAR,METAR KAND 290156Z AUTO 00000KT 10SM CLR 03/M08 A3034 RMK AO2 SLP276 T00331083,34.498,-82.7092,233,Anderson Rgnl,CLR,[],VFR,,,1027.6,,,US,United States
3973,KANK,2025-11-29 02:02:23.920000+00:00,1764381300,2025-11-29T02:00:00.000Z,7.5,-8.8,270,15.0,10+,1011.3,14,,,METAR,METAR KANK 290155Z AUTO 27015G24KT 10SM CLR 07/M09 A2986 RMK AO2 T00751088 $,38.538,-106.049,2293,Salida/Alexander Fld,CLR,[],VFR,,24.0,,,,US,United States
92,KANW,2025-11-29 02:02:24.758000+00:00,1764381300,2025-11-29T02:00:00.000Z,-3.8,-7.3,130,11.0,10+,1015.0,6,,,METAR,METAR KANW 290155Z AUTO 13011KT 10SM OVC012 M04/M07 A2997 RMK AO2 T10381073,42.5748,-99.9984,788,Ainsworth Muni,OVC,"[{'cover': 'OVC', 'base': 1200}]",MVFR,,,,,,US,United States
110,KANY,2025-11-29 02:02:09.910000+00:00,1764381300,2025-11-29T02:00:00.000Z,10.0,2.0,160,12.0,10+,1014.3,6,,,METAR,METAR KANY 290155Z AUTO 16012G18KT 10SM OVC040 10/02 A2995 RMK AO2,37.154,-98.078,408,Anthony Muni,OVC,"[{'cover': 'OVC', 'base': 4000}]",VFR,,18.0,,,,US,United States
140,KAOH,2025-11-29 01:58:57.195000+00:00,1764381180,2025-11-29T02:00:00.000Z,-1.7,-7.8,250,6.0,10+,1028.9,6,,,METAR,METAR KAOH 290153Z AUTO 25006KT 10SM OVC041 M02/M08 A3038 RMK AO2 SLP301 T10171078,40.7081,-84.0214,294,Lima/Allen Cnty,OVC,"[{'cover': 'OVC', 'base': 4100}]",VFR,,,1030.1,,,US,United States
141,KAOO,2025-11-29 01:58:57.223000+00:00,1764381180,2025-11-29T02:00:00.000Z,-2.2,-8.3,280,12.0,10+,1024.1,6,,0.005,METAR,METAR KAOO 290153Z AUTO 28012G18KT 10SM FEW032 OVC060 M02/M08 A3024 RMK AO2 SNE0057B13E22 SLP259 P0000 T10221083,40.2999,-78.3168,450,Altoona/Blair Cnty,OVC,"[{'cover': 'FEW', 'base': 3200}, {'cover': 'OVC', 'base': 6000}]",VFR,,18.0,1025.9,,,US,United States
133,KAPA,2025-11-29 01:58:52.365000+00:00,1764381180,2025-11-29T02:00:00.000Z,6.7,-5.0,0,0.0,10+,1008.2,4,,,METAR,METAR KAPA 290153Z 00000KT 10SM FEW100 SCT140 SCT220 07/M05 A2977 RMK AO2 SLP086 T00671050,39.5599,-104.8484,1791,Denver/Centennial Arpt,SCT,"[{'cover': 'FEW', 'base': 10000}, {'cover': 'SCT', 'base': 14000}, {'cover': 'SCT', 'base': 22000}]",VFR,,,1008.6,,,US,United States
125,KAPC,2025-11-29 01:59:07.804000+00:00,1764381240,2025-11-29T02:00:00.000Z,7.8,6.1,90,11.0,10+,1019.0,4,,,METAR,METAR KAPC 290154Z 09011KT 10SM OVC008 08/06 A3009 RMK AO2 SLP180 T00780061,38.2075,-122.2804,5,Napa Cnty Arpt,OVC,"[{'cover': 'OVC', 'base': 800}]",IFR,,,1018.0,,,US,United States
128,KAPF,2025-11-29 01:57:38.459000+00:00,1764381180,2025-11-29T02:00:00.000Z,16.1,7.8,30,8.0,10+,1022.4,12,,,METAR,METAR KAPF 290153Z 03008KT 10SM CLR 16/08 A3019 RMK AO2 SLP221 T01610078 $,26.155,-81.7751,2,Naples Muni,CLR,[],VFR,,,1022.1,,,US,United States
119,KAPN,2025-11-29 01:58:37.022000+00:00,1764381240,2025-11-29T02:00:00.000Z,-5.0,-6.7,250,6.0,10+,1024.1,6,,,METAR,METAR KAPN 290154Z AUTO 25006KT 10SM CLR M05/M07 A3024 RMK AO2 SLP251 T10501067,45.0716,-83.5645,208,Alpena Cnty Rgnl,CLR,[],VFR,,,1025.1,,,US,United States
146,KARA,2025-11-29 01:57:38.476000+00:00,1764381180,2025-11-29T02:00:00.000Z,10.0,0.6,90,5.0,10+,1027.2,12,,,METAR,METAR KARA 290153Z 09005KT 10SM CLR 10/01 A3033 RMK AO2 SLP270 T01000006 $,30.0292,-91.8845,5,New Iberia/Acadiana Rgnl,CLR,[],VFR,,,1027.0,,,US,United States
129,KARB,2025-11-29 01:58:50.981000+00:00,1764381180,2025-11-29T02:00:00.000Z,-1.7,-10.6,290,10.0,10+,1027.5,6,,,METAR,METAR KARB 290153Z AUTO 29010KT 10SM OVC039 M02/M11 A3034 RMK AO2 SLP286 T10171106,42.2239,-83.7398,251,Ann Arbor Muni,OVC,"[{'cover': 'OVC', 'base': 3900}]",VFR,,,1028.6,,,US,United States
86,KARG,2025-11-29 01:59:22.763000+00:00,1764381360,2025-11-29T02:00:00.000Z,4.4,0.6,100,7.0,8,1027.5,14,,,METAR,METAR KARG 290156Z AUTO 10007KT 8SM CLR 04/01 A3034 RMK AO2 SLP278 T00440006 $,36.1256,-90.9216,82,Walnut Ridge Rgnl,CLR,[],VFR,,,1027.8,,,US,United States
164,KARR,2025-11-29 01:57:41.231000+00:00,1764381120,2025-11-29T02:00:00.000Z,-7.2,-8.9,0,0.0,8,1028.2,4,,,METAR,METAR KARR 290152Z 00000KT 8SM CLR M07/M09 A3036 RMK AO2 SLP294 T10721089,41.7713,-88.4815,213,Aurora Muni,CLR,[],VFR,,,1029.4,,,US,United States
90,KART,2025-11-29 02:01:01.573000+00:00,1764381360,2025-11-29T02:00:00.000Z,-1.7,-6.7,290,15.0,10+,1017.0,14,,,METAR,METAR KART 290156Z AUTO 29015G26KT 10SM SCT031 SCT090 M02/M07 A3003 RMK AO2 PK WND 29026/0148 SLP175 T10171067 $,43.9888,-76.0261,100,Watertown Intl,SCT,"[{'cover': 'SCT', 'base': 3100}, {'cover': 'SCT', 'base': 9000}]",VFR,,26.0,1017.5,,,US,United States
100,KARV,2025-11-29 02:01:01.628000+00:00,1764381300,2025-11-29T02:00:00.000Z,-8.0,-11.5,300,3.0,10+,1025.8,6,,,METAR,METAR KARV 290155Z AUTO 30003KT 10SM OVC025 M08/M11 A3029 RMK AO2 T10801115,45.9264,-89.7307,494,Woodruff/Lakeland Arpt,OVC,"[{'cover': 'OVC', 'base': 2500}]",MVFR,,,,,,US,United States
152,KASE,2025-11-29 01:58:51.276000+00:00,1764381180,2025-11-29T02:00:00.000Z,3.3,-5.6,0,0.0,10+,1013.0,4,,,METAR,METAR KASE 290153Z 00000KT 10SM FEW070 BKN090 OVC110 03/M06 A2991 RMK AO2 SLP101 T00331056,39.2299,-106.8705,2384,Aspen/Pitkin Cnty,OVC,"[{'cover': 'FEW', 'base': 7000}, {'cover': 'BKN', 'base': 9000}, {'cover': 'OVC', 'base': 11000}]",VFR,,,1010.1,,,US,United States
4066,KASG,2025-11-29 02:06:56.463000+00:00,1764380880,2025-11-29T02:00:00.000Z,10.0,2.0,150,12.0,10+,1021.4,0,,,METAR,METAR KASG 290148Z 15012G19KT 10SM BKN060 OVC075 10/02 A3016,36.1802,-94.1176,410,Springdale Muni,OVC,"[{'cover': 'BKN', 'base': 6000}, {'cover': 'OVC', 'base': 7500}]",VFR,,19.0,,,,US,United States
87,KASH,2025-11-29 01:59:47.601000+00:00,1764381360,2025-11-29T02:00:00.000Z,1.0,-5.0,240,4.0,10+,1012.3,0,,,METAR,METAR KASH 290156Z 24004KT 10SM SCT060 01/M05 A2989,42.7798,-71.5141,56,Nashua/Boire Fld,SCT,"[{'cover': 'SCT', 'base': 6000}]",VFR,,,,,,US,United States
113,KASL,2025-11-29 01:58:54.884000+00:00,1764381300,2025-11-29T02:00:00.000Z,11.0,1.5,150,4.0,7,1024.8,14,,,METAR,METAR KASL 290155Z AUTO 15004KT 7SM FEW090 11/02 A3026 RMK AO2 T01100015 $,32.5207,-94.3066,104,Marshall/Harrison Cnty,FEW,"[{'cover': 'FEW', 'base': 9000}]",VFR,,,,,,US,United States
106,KASN,2025-11-29 02:01:10.486000+00:00,1764381300,2025-11-29T02:00:00.000Z,2.0,-2.0,0,0.0,10+,1029.2,6,,,METAR,METAR KASN 290155Z AUTO 00000KT 10SM CLR 02/M02 A3039 RMK AO2,33.569,-86.0519,159,Talladega Muni,CLR,[],VFR,,,,,,US,United States
143,KASX,2025-11-29 01:58:50.998000+00:00,1764381180,2025-11-29T02:00:00.000Z,-7.2,-10.0,220,5.0,10+,1028.2,14,,,METAR,METAR KASX 290153Z AUTO 22005KT 10SM OVC033 M07/M10 A3036 RMK AO2 SLP296 T10721100 $,46.5468,-90.9184,249,Ashland/Kennedy Mem Arpt,OVC,"[{'cover': 'OVC', 'base': 3300}]",VFR,,,1029.6,,,US,United States
163,KATL,2025-11-29 01:57:41.254000+00:00,1764381120,2025-11-29T02:00:00.000Z,5.6,-7.8,360,6.0,10+,1028.5,12,,,METAR,METAR KATL 290152Z 36006KT 10SM SCT250 06/M08 A3037 RMK AO2 SLP292 T00561078 $,33.6297,-84.4422,309,Atlanta/Hartsfield-Jackson Intl,SCT,"[{'cover': 'SCT', 'base': 25000}]",VFR,,,1029.2,,,US,United States
114,KATS,2025-11-29 01:58:54.926000+00:00,1764381300,2025-11-29T02:00:00.000Z,13.0,3.0,170,6.0,10+,1014.3,6,,,METAR,METAR KATS 290155Z AUTO 17006KT 10SM CLR 13/03 A2995 RMK AO2,32.8524,-104.4644,1073,Artesia Muni,CLR,[],VFR,,,,,,US,United States
195,KATW,2025-11-29 01:47:45.926000+00:00,1764380700,2025-11-29T02:00:00.000Z,-3.0,-9.0,260,5.0,10+,1028.2,0,,,METAR,METAR KATW 290145Z 26005KT 10SM OVC033 M03/M09 A3036,44.2519,-88.526,266,Appleton/Outagamie Cnty,OVC,"[{'cover': 'OVC', 'base': 3300}]",VFR,,,,,,US,United States
134,KATY,2025-11-29 01:58:57.749000+00:00,1764381180,2025-11-29T02:00:00.000Z,-7.2,-9.4,90,9.0,5,1021.4,6,-SN BR,,METAR,METAR KATY 290153Z AUTO 09009KT 5SM -SN BR OVC065 M07/M09 A3016 RMK AO2 SLP246 T10721094 PNO,44.9045,-97.1496,531,Watertown Rgnl,OVC,"[{'cover': 'OVC', 'base': 6500}]",MVFR,,,1024.6,,,US,United States
135,KAUG,2025-11-29 01:58:57.241000+00:00,1764381180,2025-11-29T02:00:00.000Z,-0.6,-7.8,260,6.0,10+,1008.5,206,,,METAR,METAR KAUG 290153Z AUTO 26006KT 10SM FEW050 M01/M08 A2978 RMK AO2 SLP089 T10061078 PWINO FZRANO $,44.3161,-69.797,107,Augusta/State Arpt,FEW,"[{'cover': 'FEW', 'base': 5000}]",VFR,,,1008.9,,,US,United States
98,KAUM,2025-11-29 02:00:49.187000+00:00,1764381300,2025-11-29T02:00:00.000Z,-3.0,-7.0,100,6.0,10+,1025.5,6,,,METAR,METAR KAUM 290155Z AUTO 10006KT 10SM SCT060 BKN070 OVC080 M03/M07 A3028 RMK AO2,43.6688,-92.9321,376,Austin Muni,OVC,"[{'cover': 'SCT', 'base': 6000}, {'cover': 'BKN', 'base': 7000}, {'cover': 'OVC', 'base': 8000}]",VFR,,,,,,US,United States
107,KAUN,2025-11-29 02:02:16.668000+00:00,1764381300,2025-11-29T02:00:00.000Z,5.0,5.0,0,0.0,0.25,1018.4,6,FG,,METAR,METAR KAUN 290155Z AUTO 00000KT M1/4SM FG OVC002 05/05 A3007 RMK A01,38.9553,-121.0865,453,Auburn Muni,OVC,"[{'cover': 'OVC', 'base': 200}]",LIFR,,,,,,US,United States
81,KAUO,2025-11-29 01:59:17.316000+00:00,1764381360,2025-11-29T02:00:00.000Z,2.8,-4.4,50,4.0,10+,1029.2,14,,,METAR,METAR KAUO 290156Z AUTO 05004KT 10SM CLR 03/M04 A3039 RMK AO2 SLP291 T00281044 $,32.617,-85.4342,231,Auburn Univ Arpt,CLR,[],VFR,,,1029.1,,,US,United States
153,KAUS,2025-11-29 01:58:50.770000+00:00,1764381180,2025-11-29T02:00:00.000Z,17.8,11.1,150,17.0,10+,1021.1,4,-RA,0.005,METAR,METAR KAUS 290153Z 15017G29KT 10SM -RA OVC032 18/11 A3015 RMK AO2 PK WND 14029/0148 RAB16 SLP208 P0000 T01780111,30.2098,-97.6806,148,Austin/Bergstrom Intl,OVC,"[{'cover': 'OVC', 'base': 3200}]",VFR,,29.0,1020.8,,,US,United States
118,KAUW,2025-11-29 01:58:56.124000+00:00,1764381240,2025-11-29T02:00:00.000Z,-6.1,-11.1,230,3.0,10+,1027.2,6,,,METAR,METAR KAUW 290154Z AUTO 23003KT 10SM OVC027 M06/M11 A3033 RMK AO2 SLP297 T10611111,44.9265,-89.6248,367,Wausau Downtown,OVC,"[{'cover': 'OVC', 'base': 2700}]",MVFR,,,1029.7,,,US,United States
123,KAVL,2025-11-29 01:59:00.138000+00:00,1764381240,2025-11-29T02:00:00.000Z,-0.6,-10.6,VRB,3.0,10+,1027.5,4,,,METAR,METAR KAVL 290154Z VRB03KT 10SM CLR M01/M11 A3034 RMK AO2 SLP290 T10061106,35.4318,-82.5379,646,Asheville Muni,CLR,[],VFR,,,1029.0,,,US,United States
120,KAVP,2025-11-29 01:59:09.344000+00:00,1764381240,2025-11-29T02:00:00.000Z,0.0,-8.9,260,11.0,10+,1019.4,6,,,METAR,METAR KAVP 290154Z AUTO 26011G22KT 10SM SCT047 OVC055 00/M09 A3010 RMK AO2 PK WND 28028/0116 SLP202 T00001089,41.3335,-75.7227,290,Wilkes-Barre Scranton Intl,OVC,"[{'cover': 'SCT', 'base': 4700}, {'cover': 'OVC', 'base': 5500}]",VFR,,22.0,1020.2,,,US,United States
117,KAVQ,2025-11-29 02:02:19.981000+00:00,1764381300,2025-11-29T02:00:00.000Z,16.0,8.0,0,0.0,10+,1015.7,6,,,METAR,METAR KAVQ 290155Z AUTO 00000KT 10SM CLR 16/08 A2999 RMK AO2,32.4112,-111.216,618,Tucson/Marana Rgnl,CLR,[],VFR,,,,,,US,United States
147,KAWM,2025-11-29 01:57:18.692000+00:00,1764381180,2025-11-29T02:00:00.000Z,5.0,0.0,0,0.0,10+,1027.9,14,,,METAR,METAR KAWM 290153Z AUTO 00000KT 10SM CLR 05/00 A3035 RMK AO2 SLP279 T00500000 $,35.1401,-90.2359,64,West Memphis Muni,CLR,[],VFR,,,1027.9,,,US,United States
93,KAXA,2025-11-29 02:02:24.846000+00:00,1764381300,2025-11-29T02:00:00.000Z,-5.0,-5.0,120,6.0,2,1024.1,6,BR,,METAR,METAR KAXA 290155Z AUTO 12006KT 2SM BR FEW025 SCT038 BKN050 M05/M05 A3024 RMK A01,43.0796,-94.2724,371,Algona Muni,BKN,"[{'cover': 'FEW', 'base': 2500}, {'cover': 'SCT', 'base': 3800}, {'cover': 'BKN', 'base': 5000}]",IFR,,,,,,US,United States
154,KAXN,2025-11-29 01:58:51.013000+00:00,1764381180,2025-11-29T02:00:00.000Z,-8.3,-11.1,70,6.0,10+,1025.1,6,,,METAR,METAR KAXN 290153Z AUTO 07006KT 10SM OVC026 M08/M11 A3027 RMK AO2 SLP280 T10831111,45.868,-95.394,433,Alexandria/Chandler Fld,OVC,"[{'cover': 'OVC', 'base': 2600}]",MVFR,,,1028.0,,,US,United States
360,KAXS,2025-11-29 02:06:37.029000+00:00,1764381360,2025-11-29T02:00:00.000Z,12.0,4.0,150,14.0,10+,1015.0,6,,,METAR,METAR KAXS 290156Z AUTO 15014G20KT 10SM OVC029 12/04 A2997 RMK AO2 LTG DSNT SE,34.6963,-99.3402,433,Altus/Quartz Mtn Rgnl,OVC,"[{'cover': 'OVC', 'base': 2900}]",MVFR,,20.0,,,,US,United States
388,KAXV,2025-11-29 02:00:59.499000+00:00,1764381300,2025-11-29T02:00:00.000Z,-5.0,-10.0,250,4.0,10+,1029.2,6,,,METAR,METAR KAXV 290155Z AUTO 25004KT 10SM SCT045 M05/M10 A3039 RMK AO2,40.4959,-84.2929,278,Wapakoneta/Armstrong Arpt,SCT,"[{'cover': 'SCT', 'base': 4500}]",VFR,,,,,,US,United States
373,KAXX,2025-11-29 02:00:44.895000+00:00,1764381300,2025-11-29T02:00:00.000Z,4.1,-5.1,270,18.0,10+,1015.3,6,,,METAR,METAR KAXX 290155Z AUTO 27018G24KT 10SM CLR 04/M05 A2998 RMK AO2 T00411051,36.422,-105.29,2543,Angel Fire Arpt,CLR,[],VFR,,24.0,,,,US,United States
376,KAYS,2025-11-29 02:01:10.720000+00:00,1764381300,2025-11-29T02:00:00.000Z,2.5,-3.5,0,0.0,10+,1028.5,6,,,METAR,METAR KAYS 290155Z AUTO 00000KT 10SM CLR 03/M03 A3037 RMK AO2 T00251035,31.2466,-82.4014,42,Waycross/Ware Cnty,CLR,[],VFR,,,,,,US,United States
402,KAZO,2025-11-29 01:58:51.034000+00:00,1764381180,2025-11-29T02:00:00.000Z,-2.2,-7.8,260,6.0,10+,1027.9,6,,,METAR,METAR KAZO 290153Z AUTO 26006KT 10SM OVC036 M02/M08 A3035 RMK AO2 SLP292 T10221078,42.2283,-85.546,264,Kalamazoo Intl,OVC,"[{'cover': 'OVC', 'base': 3600}]",VFR,,,1029.2,,,US,United States
395,KBAB,2025-11-29 01:58:58.795000+00:00,1764381300,2025-11-29T02:00:00.000Z,7.6,5.6,290,4.0,10+,1019.7,14,,,METAR,METAR KBAB 290155Z AUTO 29004KT 10SM OVC008 08/06 A3011 RMK AO2 SLP200 T00760056 $,39.145,-121.436,31,Beale AFB,OVC,"[{'cover': 'OVC', 'base': 800}]",IFR,,,1020.0,,,US,United States
392,KBAD,2025-11-29 01:59:02.369000+00:00,1764381300,2025-11-29T02:00:00.000Z,10.7,1.5,110,5.0,10+,1025.5,14,,,METAR,METAR KBAD 290155Z AUTO 11005KT 10SM BKN100 11/02 A3028 RMK AO2 SLP259 T01070015 $,32.488,-93.658,49,Barksdale AFB,BKN,"[{'cover': 'BKN', 'base': 10000}]",VFR,,,1025.9,,,US,United States
413,KBAF,2025-11-29 01:58:57.767000+00:00,1764381180,2025-11-29T02:00:00.000Z,2.2,-7.2,270,12.0,10+,1014.6,4,,,METAR,METAR KBAF 290153Z 27012G26KT 10SM SCT055 02/M07 A2996 RMK AO2 PK WND 24028/0131 SLP151 T00221072,42.16,-72.7124,80,Westfield/Barnes Muni,SCT,"[{'cover': 'SCT', 'base': 5500}]",VFR,,26.0,1015.1,,,US,United States
755,KBAK,2025-11-29 01:46:27.420000+00:00,1764380700,2025-11-29T02:00:00.000Z,-5.0,-8.0,0,0.0,10+,1030.2,0,,,METAR,METAR KBAK 290145Z 00000KT 10SM CLR M05/M08 A3042,39.2664,-85.8926,199,Columbus Muni,CLR,[],VFR,,,,,,US,United States
367,KBAM,2025-11-29 02:01:05.537000+00:00,1764381300,2025-11-29T02:00:00.000Z,6.0,-6.0,350,6.0,10+,1020.7,6,,,METAR,METAR KBAM 290155Z AUTO 35006KT 10SM CLR 06/M06 A3014 RMK AO1,40.6048,-116.8719,1381,Battle Mountain Arpt,CLR,[],VFR,,,,,,US,United States
380,KBBB,2025-11-29 02:00:47.666000+00:00,1764381300,2025-11-29T02:00:00.000Z,-6.0,-8.0,90,4.0,10+,1025.1,6,,,METAR,METAR KBBB 290155Z AUTO 09004KT 10SM FEW007 BKN018 OVC075 M06/M08 A3027 RMK AO2,45.331,-95.6469,315,Benson Muni,OVC,"[{'cover': 'FEW', 'base': 700}, {'cover': 'BKN', 'base': 1800}, {'cover': 'OVC', 'base': 7500}]",MVFR,,,,,,US,United States
393,KBBD,2025-11-29 02:02:16.734000+00:00,1764381300,2025-11-29T02:00:00.000Z,14.0,12.0,160,14.0,10+,1018.0,6,,,METAR,METAR KBBD 290155Z AUTO 16014KT 10SM OVC017 14/12 A3006 RMK AO2,31.1766,-99.3229,554,Brady/Curtis Fld,OVC,"[{'cover': 'OVC', 'base': 1700}]",MVFR,,,,,,US,United States
469,KBBG,2025-11-29 01:46:27.467000+00:00,1764380700,2025-11-29T02:00:00.000Z,8.0,-3.0,150,11.0,10+,1023.1,0,,,METAR,METAR KBBG 290145Z 15011KT 10SM CLR 08/M03 A3021,36.5259,-93.1969,403,Branson Arpt,CLR,[],VFR,,,,,,US,United States
694,KBBP,2025-11-29 02:01:01.735000+00:00,1764381300,2025-11-29T02:00:00.000Z,-2.0,-6.0,0,0.0,10+,1029.2,6,,,METAR,METAR KBBP 290155Z AUTO 00000KT 10SM CLR M02/M06 A3039 RMK AO2,34.6228,-79.7354,44,Bennettsville/Marlboro Jetport,CLR,[],VFR,,,,,,US,United States
404,KBBW,2025-11-29 01:58:57.270000+00:00,1764381180,2025-11-29T02:00:00.000Z,-4.4,-5.6,90,9.0,4,1014.0,6,BR,,METAR,METAR KBBW 290153Z AUTO 09009KT 4SM BR OVC005 M04/M06 A2994 RMK AO2 CIG 004V009 SLP169 I1001 T10441056,41.4365,-99.6385,771,Broken Bow Muni,OVC,"[{'cover': 'OVC', 'base': 500}]",IFR,,,1016.9,,,US,United States
385,KBCB,2025-11-29 01:57:37.464000+00:00,1764381300,2025-11-29T02:00:00.000Z,-2.6,-9.6,290,4.0,10+,1028.5,6,,,METAR,METAR KBCB 290155Z AUTO 29004KT 10SM BKN040 M03/M10 A3037 RMK AO2 T10261096,37.208,-80.4127,642,Blacksburg/VA Tech Montgomery Exec,BKN,"[{'cover': 'BKN', 'base': 4000}]",VFR,,,,,,US,United States
414,KBCE,2025-11-29 01:58:51.298000+00:00,1764381180,2025-11-29T02:00:00.000Z,5.0,-8.3,280,10.0,,1017.4,14,,,METAR,METAR KBCE 290153Z AUTO 28010KT CLR 05/M08 A3004 RMK AO2 SLP145 T00501083 $,37.7013,-112.149,2311,Bryce Canyon Arpt,CLR,[],,,,1014.5,,,US,United States
406,KBCT,2025-11-29 01:53:27.433000+00:00,1764381180,2025-11-29T02:00:00.000Z,19.0,13.0,330,5.0,10+,1021.4,0,,,METAR,METAR KBCT 290153Z 33005KT 10SM SCT042 BKN060 19/13 A3016,26.379,-80.106,3,Boca Raton Arpt,BKN,"[{'cover': 'SCT', 'base': 4200}, {'cover': 'BKN', 'base': 6000}]",VFR,,,,,,US,United States
409,KBDE,2025-11-29 01:58:51.419000+00:00,1764381180,2025-11-29T02:00:00.000Z,-8.9,-12.2,110,5.0,10+,1027.5,6,,,METAR,METAR KBDE 290153Z AUTO 11005KT 10SM OVC020 M09/M12 A3034 RMK AO2 SLP299 T10891122,48.7261,-94.6122,330,Baudette Intl,OVC,"[{'cover': 'OVC', 'base': 2000}]",MVFR,,,1029.9,,,US,United States
370,KBDG,2025-11-29 01:59:07.845000+00:00,1764381300,2025-11-29T02:00:00.000Z,1.2,-0.1,10,3.0,10+,1014.6,6,,,METAR,METAR KBDG 290155Z AUTO 01003KT 10SM CLR 01/M00 A2996 RMK AO2 T00121001,37.587,-109.481,1778,Blanding Muni,CLR,[],VFR,,,,,,US,United States
437,KBDL,2025-11-29 01:57:31.810000+00:00,1764381060,2025-11-29T02:00:00.000Z,1.7,-6.7,250,12.0,10+,1015.0,12,,,METAR,METAR KBDL 290151Z 25012KT 10SM FEW055 BKN065 BKN075 02/M07 A2997 RMK AO2 SLP152 T00171067 $,41.9374,-72.682,52,Hartford/Bradley Intl,BKN,"[{'cover': 'FEW', 'base': 5500}, {'cover': 'BKN', 'base': 6500}, {'cover': 'BKN', 'base': 7500}]",VFR,,,1015.2,,,US,United States
428,KBDR,2025-11-29 01:57:37.005000+00:00,1764381120,2025-11-29T02:00:00.000Z,3.9,-9.4,270,14.0,10+,1017.4,4,,,METAR,METAR KBDR 290152Z 27014G24KT 10SM CLR 04/M09 A3004 RMK AO2 PK WND 27027/0121 SLP173 T00391094,41.1642,-73.1266,5,Bridgeport/Sikorsky Mem,CLR,[],VFR,,24.0,1017.3,,,US,United States
4825,KBDU,2025-11-29 02:00:53.499000+00:00,1764381300,2025-11-29T02:00:00.000Z,8.0,-3.0,10,7.0,10+,1007.5,6,,,METAR,METAR KBDU 290155Z AUTO 01007KT 10SM CLR 08/M03 A2975 RMK AO2,40.0377,-105.2274,1614,Boulder Muni,CLR,[],VFR,,,,,,US,United States
390,KBEC,2025-11-29 02:02:17.820000+00:00,1764381300,2025-11-29T02:00:00.000Z,9.3,-0.5,160,10.0,10+,1015.7,6,,,METAR,METAR KBEC 290155Z AUTO 16010KT 10SM OVC046 09/00 A2999 RMK AO2 T00931005,37.694,-97.215,421,Wichita/Beech Factory Arpt,OVC,"[{'cover': 'OVC', 'base': 4600}]",VFR,,,,,,US,United States
435,KBED,2025-11-29 02:01:01.774000+00:00,1764381060,2025-11-29T02:00:00.000Z,1.1,-4.4,240,13.0,9,1013.0,12,-SN,0.005,METAR,METAR KBED 290151Z 24013G18KT 9SM -SN FEW042 BKN070 OVC085 01/M04 A2991 RMK AO2 UPB23E26SNB26 SLP143 P0000 T00111044 $,42.4681,-71.2946,39,Bedford/Hanscom Fld,OVC,"[{'cover': 'FEW', 'base': 4200}, {'cover': 'BKN', 'base': 7000}, {'cover': 'OVC', 'base': 8500}]",VFR,,18.0,1014.3,,,US,United States
405,KBEH,2025-11-29 01:58:57.296000+00:00,1764381180,2025-11-29T02:00:00.000Z,-0.6,-8.3,280,5.0,10+,1028.2,6,,,METAR,METAR KBEH 290153Z AUTO 28005KT 10SM OVC037 M01/M08 A3036 RMK AO2 SLP290 T10061083,42.129,-86.4152,196,Benton Harbor/SW Michigan Rgnl,OVC,"[{'cover': 'OVC', 'base': 3700}]",VFR,,,1029.0,,,US,United States
299,KBFD,2025-11-29 02:04:11.133000+00:00,1764381660,2025-11-29T02:01:00.000Z,-5.0,-6.7,270,11.0,1.75,1020.7,6,-SN BR,0.005,SPECI,SPECI KBFD 290201Z AUTO 27011G17KT 1 3/4SM -SN BR BKN012 BKN018 OVC055 M05/M07 A3014 RMK AO2 P0000 T10501067,41.7984,-78.6354,642,Bradford Rgnl,OVC,"[{'cover': 'BKN', 'base': 1200}, {'cover': 'BKN', 'base': 1800}, {'cover': 'OVC', 'base': 5500}]",IFR,,17.0,,,,US,United States
399,KBFF,2025-11-29 01:58:36.434000+00:00,1764381180,2025-11-29T02:00:00.000Z,-0.6,-2.8,70,5.0,10+,1009.6,6,,,METAR,METAR KBFF 290153Z AUTO 07005KT 10SM CLR M01/M03 A2981 RMK AO2 SLP123 T10061028,41.8747,-103.6011,1204,Scottsbluff/Western Nebraska Rgnl,CLR,[],VFR,,,1012.3,,,US,United States
418,KBFI,2025-11-29 01:58:50.793000+00:00,1764381180,2025-11-29T02:00:00.000Z,9.4,6.1,0,0.0,10+,1025.5,12,,,METAR,METAR KBFI 290153Z 00000KT 10SM SCT021 09/06 A3028 RMK AO2 SLP254 T00940061 $,47.5455,-122.3148,7,Seattle/Boeing Fld,SCT,"[{'cover': 'SCT', 'base': 2100}]",VFR,,,1025.4,,,US,United States
397,KBFL,2025-11-29 01:59:06.922000+00:00,1764381240,2025-11-29T02:00:00.000Z,8.9,6.7,0,0.0,5,1019.7,4,BR,,METAR,METAR KBFL 290154Z 00000KT 5SM BR OVC010 09/07 A3011 RMK AO2 SLP195 T00890067,35.4342,-119.0552,146,Bakersfield/Meadows Arpt,OVC,"[{'cover': 'OVC', 'base': 1000}]",MVFR,,,1019.5,,,US,United States
415,KBFM,2025-11-29 01:57:19.011000+00:00,1764381180,2025-11-29T02:00:00.000Z,10.6,0.0,20,8.0,10+,1029.5,4,,,METAR,METAR KBFM 290153Z 02008KT 10SM CLR 11/00 A3040 RMK AO2 SLP292 T01060000,30.6147,-88.063,7,Mobile/Downtown Arpt,CLR,[],VFR,,,1029.2,,,US,United States
374,KBFR,2025-11-29 02:06:30.589000+00:00,1764381300,2025-11-29T02:00:00.000Z,-3.0,-9.0,120,1.0,10+,1029.9,6,,,METAR,METAR KBFR 290155Z AUTO 12001KT 10SM CLR M03/M09 A3041 RMK AO2,38.8383,-86.446,223,Bedford/Grissom Arpt,CLR,[],VFR,,,,,,US,United States
438,KBGD,2025-11-29 01:57:36.032000+00:00,1764381060,2025-11-29T02:00:00.000Z,10.0,7.8,170,17.0,10+,1010.6,6,,,METAR,METAR KBGD 290151Z AUTO 17017G25KT 10SM CLR 10/08 A2984 RMK AO2 PK WND 18028/0054 SLP099 T01000078,35.695,-101.3955,928,Borger/Hutchinson Cnty,CLR,[],VFR,,25.0,1009.9,,,US,United States
391,KBGE,2025-11-29 02:01:01.828000+00:00,1764381300,2025-11-29T02:00:00.000Z,5.4,-4.7,350,4.0,,1028.9,134,,,METAR,METAR KBGE 290155Z AUTO 35004KT CLR 05/M05 A3038 RMK AO2 PWINO T00541047,30.9709,-84.6344,40,Bainbridge/Decatur Cnty,CLR,[],,,,,,,US,United States
298,KBGM,2025-11-29 02:06:39.957000+00:00,1764381780,2025-11-29T02:03:00.000Z,-2.8,-6.1,280,12.0,10+,1016.7,206,,,SPECI,SPECI KBGM 290203Z AUTO 28012KT 10SM OVC030 M03/M06 A3002 RMK AO2 T10281061 PWINO FZRANO $,42.2068,-75.9799,485,Binghamton Arpt,OVC,"[{'cover': 'OVC', 'base': 3000}]",MVFR,,,,,,US,United States
416,KBGR,2025-11-29 01:58:51.088000+00:00,1764381180,2025-11-29T02:00:00.000Z,-1.7,-8.3,VRB,4.0,10+,1007.2,4,,,METAR,METAR KBGR 290153Z VRB04KT 10SM CLR M02/M08 A2974 RMK AO2 SLP074 T10171083,44.7979,-68.8195,45,Bangor Intl Arpt,CLR,[],VFR,,,1007.4,,,US,United States
417,KBHM,2025-11-29 01:57:19.095000+00:00,1764381180,2025-11-29T02:00:00.000Z,2.8,-2.8,0,0.0,10+,1030.2,4,,,METAR,METAR KBHM 290153Z 00000KT 10SM FEW250 03/M03 A3042 RMK AO2 SLP303 T00281028,33.5655,-86.7449,191,Birmingham Intl,FEW,"[{'cover': 'FEW', 'base': 25000}]",VFR,,,1030.3,,,US,United States
382,KBIE,2025-11-29 02:02:22.010000+00:00,1764381300,2025-11-29T02:00:00.000Z,0.0,-3.4,90,5.0,10+,1018.4,6,,,METAR,METAR KBIE 290155Z AUTO 09005KT 10SM OVC042 00/M03 A3007 RMK AO2 T00001034,40.3005,-96.7517,398,Beatrice Muni,OVC,"[{'cover': 'OVC', 'base': 4200}]",VFR,,,,,,US,United States
371,KBIF,2025-11-29 02:03:35.414000+00:00,1764381300,2025-11-29T02:00:00.000Z,17.8,2.8,230,4.0,10+,1016.0,12,,,METAR,METAR KBIF 290155Z 23004KT 10SM FEW200 18/03 A3000 RMK AO2A SLPNO WND DATA ESTMD T01780028 $,31.861,-106.369,1201,Biggs,FEW,"[{'cover': 'FEW', 'base': 20000}]",VFR,,,,,,US,United States
361,KBIH,2025-11-29 02:01:05.759000+00:00,1764381360,2025-11-29T02:00:00.000Z,5.6,-0.6,0,0.0,10+,1016.7,6,,,METAR,METAR KBIH 290156Z AUTO 00000KT 10SM CLR 06/M01 A3002 RMK AO2 SLP169 T00561006,37.3711,-118.3589,1252,Bishop Rgnl,CLR,[],VFR,,,1016.9,,,US,United States
534,KBIL,2025-11-29 01:28:04.176000+00:00,1764379440,2025-11-29T01:24:00.000Z,-8.3,-10.0,320,14.0,0.5,1021.1,4,-SN BR,0.01,SPECI,SPECI KBIL 290124Z 32014KT 1/2SM R10L/5500VP6000FT -SN BR VV008 M08/M10 A3015 RMK AO2 SFC VIS 3/4 P0001 T10831100,45.8072,-108.5462,1089,Billings/Logan Intl,OVX,"[{'cover': 'OVX', 'base': 800}]",LIFR,8.0,,,,,US,United States
433,KBIS,2025-11-29 01:57:41.277000+00:00,1764381120,2025-11-29T02:00:00.000Z,-8.3,-10.0,90,15.0,1.75,1023.1,4,-SN BR,0.02,METAR,METAR KBIS 290152Z 09015KT 1 3/4SM -SN BR OVC018 M08/M10 A3021 RMK AO2 SLP263 P0002 T10831100,46.7823,-100.7575,506,Bismarck Arpt,OVC,"[{'cover': 'OVC', 'base': 1800}]",IFR,,,1026.3,,,US,United States
389,KBIX,2025-11-29 01:59:22.951000+00:00,1764381300,2025-11-29T02:00:00.000Z,9.2,-1.2,40,8.0,10+,1027.5,6,,,METAR,METAR KBIX 290155Z AUTO 04008KT 10SM CLR 09/M01 A3034 RMK AO2 SLP277 T00921012,30.415,-88.922,4,Biloxi/Keesler AFB,CLR,[],VFR,,,1027.7,,,US,United States
468,KBJC,2025-11-29 01:46:27.535000+00:00,1764380700,2025-11-29T02:00:00.000Z,8.0,-7.0,VRB,3.0,10+,1007.9,0,,,METAR,METAR KBJC 290145Z VRB03KT 10SM BKN110 08/M07 A2976,39.9008,-105.1042,1694,Rocky Mtn Metro,BKN,"[{'cover': 'BKN', 'base': 11000}]",VFR,,,,,,US,United States
366,KBJI,2025-11-29 02:01:01.946000+00:00,1764381300,2025-11-29T02:00:00.000Z,-8.4,-11.8,40,4.0,10+,1026.5,6,,,METAR,METAR KBJI 290155Z AUTO 04004KT 10SM OVC020 M08/M12 A3031 RMK AO2 T10841118,47.5076,-94.9279,422,Bemidji Municip,OVC,"[{'cover': 'OVC', 'base': 2000}]",MVFR,,,,,,US,United States
359,KBJJ,2025-11-29 02:00:53.927000+00:00,1764381360,2025-11-29T02:00:00.000Z,-1.7,-6.1,270,11.0,10+,1027.5,6,,,METAR,METAR KBJJ 290156Z AUTO 27011KT 10SM OVC049 M02/M06 A3034 RMK AO2 SLP289 T10171061,40.8732,-81.8886,338,Wooster/Wayne Cnty,OVC,"[{'cover': 'OVC', 'base': 4900}]",VFR,,,1028.9,,,US,United States
387,KBKD,2025-11-29 02:01:02.009000+00:00,1764381300,2025-11-29T02:00:00.000Z,14.2,9.5,160,9.0,,1018.0,6,,,METAR,METAR KBKD 290155Z AUTO 16009KT BKN035 OVC046 14/10 A3006 RMK AO2 T01420095,32.7206,-98.8931,383,Breckenridge/Stephens Cnty,OVC,"[{'cover': 'BKN', 'base': 3500}, {'cover': 'OVC', 'base': 4600}]",,,,,,,US,United States
339,KBKE,2025-11-29 02:04:06.558000+00:00,1764381600,2025-11-29T02:00:00.000Z,1.7,-2.8,300,7.0,10+,1024.5,6,,,SPECI,SPECI KBKE 290200Z AUTO 30007G18KT 10SM CLR 02/M03 A3025 RMK AO2 WSHFT 0140 T00171028,44.843,-117.8099,1025,Baker Muni,CLR,[],VFR,,18.0,,,,US,United States
403,KBKL,2025-11-29 01:58:51.437000+00:00,1764381180,2025-11-29T02:00:00.000Z,1.1,-6.7,290,18.0,10+,1026.8,4,,,METAR,METAR KBKL 290153Z 29018KT 10SM BKN045 OVC055 01/M07 A3032 RMK AO2 PK WND 29029/0113 SLP274 T00111067,41.5173,-81.6832,177,Cleveland/Burke Lakefront Arpt,OVC,"[{'cover': 'BKN', 'base': 4500}, {'cover': 'OVC', 'base': 5500}]",VFR,,,1027.4,,,US,United States
378,KBKT,2025-11-29 02:00:48.223000+00:00,1764381300,2025-11-29T02:00:00.000Z,-0.6,-10.5,300,4.0,10+,1028.2,6,,,METAR,METAR KBKT 290155Z AUTO 30004KT 10SM CLR M01/M10 A3036 RMK AO2 SLP289 T10061105,37.082,-77.953,134,Blackstone/Perkinson,CLR,[],VFR,,,1028.9,,,US,United States
436,KBKW,2025-11-29 01:57:31.854000+00:00,1764381060,2025-11-29T02:00:00.000Z,-5.6,-11.1,290,5.0,10+,1027.2,6,,,METAR,METAR KBKW 290151Z AUTO 29005KT 10SM CLR M06/M11 A3033 RMK AO2 SLP314 T10561111,37.7836,-81.1228,762,Beckley/Raleigh Cnty,CLR,[],VFR,,,1031.4,,,US,United States
364,KBKX,2025-11-29 02:00:48.392000+00:00,1764381360,2025-11-29T02:00:00.000Z,-5.6,-7.8,120,13.0,9,1021.8,70,-SN,0.005,METAR,METAR KBKX 290156Z AUTO 12013KT 9SM -SN OVC060 M06/M08 A3017 RMK AO2 SLP258 P0000 T10561078 FZRANO,44.3075,-96.8183,494,Brookings Rgnl,OVC,"[{'cover': 'OVC', 'base': 6000}]",VFR,,,1025.8,,,US,United States
432,KBLF,2025-11-29 01:57:41.302000+00:00,1764381120,2025-11-29T02:00:00.000Z,-6.1,-11.7,280,6.0,10+,1026.8,6,,,METAR,METAR KBLF 290152Z AUTO 28006KT 10SM CLR M06/M12 A3032 RMK AO2 SLP299 T10611117,37.2978,-81.2036,871,Bluefield/Mercer Cnty,CLR,[],VFR,,,1029.9,,,US,United States
430,KBLH,2025-11-29 01:57:41.323000+00:00,1764381120,2025-11-29T02:00:00.000Z,18.3,10.6,0,0.0,10+,1013.3,14,,,METAR,METAR KBLH 290152Z AUTO 00000KT 10SM CLR 18/11 A2992 RMK AO2 SLP130 T01830106 $,33.6188,-114.7145,119,Blythe Arpt,CLR,[],VFR,,,1013.0,,,US,United States
401,KBLI,2025-11-29 01:58:50.817000+00:00,1764381180,2025-11-29T02:00:00.000Z,6.7,-2.8,30,5.0,10+,1026.2,12,,,METAR,METAR KBLI 290153Z 03005KT 10SM CLR 07/M03 A3030 RMK AO2 SLP267 T00671028 $,48.7991,-122.5407,46,Bellingham Intl,CLR,[],VFR,,,1026.7,,,US,United States
358,KBLM,2025-11-29 02:00:59.520000+00:00,1764381360,2025-11-29T02:00:00.000Z,1.7,-7.8,250,10.0,10+,1021.8,70,,,METAR,METAR KBLM 290156Z AUTO 25010G19KT 10SM CLR 02/M08 A3017 RMK AO2 SLP218 T00171078 FZRANO,40.1822,-74.1207,45,Farmingdale/Monmouth Exec,CLR,[],VFR,,19.0,1021.8,,,US,United States
431,KBLU,2025-11-29 01:57:32.359000+00:00,1764381120,2025-11-29T02:00:00.000Z,7.2,0.0,VRB,3.0,10+,1020.7,14,,,METAR,METAR KBLU 290152Z AUTO VRB03KT 10SM CLR 07/00 A3014 RMK AO2 SLP177 T00720000 $,39.2762,-120.7093,1605,Blue Canyon/Nyack Arpt,CLR,[],VFR,,,1017.7,,,US,United States
372,KBLV,2025-11-29 01:58:58.820000+00:00,1764381300,2025-11-29T02:00:00.000Z,1.6,-4.7,150,6.0,10+,1027.9,14,,,METAR,METAR KBLV 290155Z AUTO 15006KT 10SM CLR 02/M05 A3035 RMK AO2 SLP286 T00161047 $,38.54,-89.845,134,Belleville/Scott AFB,CLR,[],VFR,,,1028.6,,,US,United States
383,KBMC,2025-11-29 02:02:20.012000+00:00,1764381300,2025-11-29T02:00:00.000Z,7.0,-1.0,320,6.0,10+,1016.7,6,,,METAR,METAR KBMC 290155Z AUTO 32006KT 10SM OVC065 07/M01 A3002 RMK AO2,41.5463,-112.06,1289,Brigham City Arpt,OVC,"[{'cover': 'OVC', 'base': 6500}]",VFR,,,,,,US,United States
420,KBMG,2025-11-29 01:58:51.455000+00:00,1764381180,2025-11-29T02:00:00.000Z,-6.1,-9.4,0,0.0,10+,1029.5,4,,,METAR,METAR KBMG 290153Z 00000KT 10SM CLR M06/M09 A3040 RMK AO2 SLP305 T10611094,39.1431,-86.6168,254,Bloomington/Monroe Cnty,CLR,[],VFR,,,1030.5,,,US,United States
362,KBMI,2025-11-29 02:00:49.204000+00:00,1764381360,2025-11-29T02:00:00.000Z,-4.4,-9.4,140,5.0,10+,1028.5,4,,,METAR,METAR KBMI 290156Z 14005KT 10SM SCT110 M04/M09 A3037 RMK AO2 SLP297 T10441094,40.4777,-88.9144,262,Bloomington Rgnl,SCT,"[{'cover': 'SCT', 'base': 11000}]",VFR,,,1029.7,,,US,United States
429,KBML,2025-11-29 01:57:41.344000+00:00,1764381120,2025-11-29T02:00:00.000Z,-3.3,-8.9,300,7.0,9,1007.9,6,-SN,0.005,METAR,METAR KBML 290152Z AUTO 30007KT 250V350 9SM -SN FEW030 OVC037 M03/M09 A2976 RMK AO2 SNB08E17B41 SLP092 P0000 T10331089,44.576,-71.1782,344,Berlin Muni,OVC,"[{'cover': 'FEW', 'base': 3000}, {'cover': 'OVC', 'base': 3700}]",VFR,,,1009.2,,,US,United States
365,KBMT,2025-11-29 02:02:23.375000+00:00,1764381300,2025-11-29T02:00:00.000Z,12.5,0.7,0,0.0,10+,1025.8,6,,,METAR,METAR KBMT 290155Z AUTO 00000KT 10SM BKN100 OVC120 13/01 A3029 RMK AO2 T01250007,30.0686,-94.2155,8,Beaumont Muni,OVC,"[{'cover': 'BKN', 'base': 10000}, {'cover': 'OVC', 'base': 12000}]",VFR,,,,,,US,United States
423,KBNA,2025-11-29 01:57:37.880000+00:00,1764381180,2025-11-29T02:00:00.000Z,2.2,-7.2,70,3.0,10+,1030.2,12,,,METAR,METAR KBNA 290153Z 07003KT 10SM BKN250 02/M07 A3042 RMK AO2 SLP304 T00221072 $,36.1105,-86.6881,168,Nashville Intl,BKN,"[{'cover': 'BKN', 'base': 25000}]",VFR,,,1030.4,,,US,United States
386,KBNL,2025-11-29 02:01:10.899000+00:00,1764381300,2025-11-29T02:00:00.000Z,3.0,-6.0,0,0.0,10+,1028.9,6,,,METAR,METAR KBNL 290155Z AUTO 00000KT 10SM CLR 03/M06 A3038 RMK AO2,33.2601,-81.387,76,Barnwell Cnty,CLR,[],VFR,,,,,,US,United States
400,KBNO,2025-11-29 01:58:44.357000+00:00,1764381180,2025-11-29T02:00:00.000Z,1.1,-1.7,330,3.0,10+,1022.4,6,,,METAR,METAR KBNO 290153Z AUTO 33003KT 10SM CLR 01/M02 A3019 RMK AO2 SLP239 T00111017,43.5949,-118.9579,1263,Burns Muni,CLR,[],VFR,,,1023.9,,,US,United States
394,KBNW,2025-11-29 02:02:24.901000+00:00,1764381300,2025-11-29T02:00:00.000Z,-4.0,-4.0,80,12.0,1,1023.5,6,-SN,,METAR,METAR KBNW 290155Z AUTO 08012G17KT 1SM -SN OVC003 M04/M04 A3022 RMK AO2,42.0486,-93.8486,350,Boone Muni,OVC,"[{'cover': 'OVC', 'base': 300}]",LIFR,,17.0,,,,US,United States
424,KBOI,2025-11-29 01:58:35.348000+00:00,1764381180,2025-11-29T02:00:00.000Z,5.0,2.2,300,8.0,10+,1021.4,6,,,METAR,METAR KBOI 290153Z AUTO 30008KT 10SM CLR 05/02 A3016 RMK AO2 SLP228 T00500022,43.567,-116.2406,860,Boise Arpt,CLR,[],VFR,,,1022.8,,,US,United States
398,KBOS,2025-11-29 01:58:56.178000+00:00,1764381240,2025-11-29T02:00:00.000Z,2.2,-4.4,260,15.0,10+,1013.3,4,,,METAR,METAR KBOS 290154Z 26015G27KT 10SM FEW055 SCT250 02/M04 A2992 RMK AO2 PK WND 28032/0059 SLP131 T00221044,42.3606,-71.0097,4,Boston/Logan Intl,SCT,"[{'cover': 'FEW', 'base': 5500}, {'cover': 'SCT', 'base': 25000}]",VFR,,27.0,1013.1,,,US,United States
305,KBOW,2025-11-29 02:06:32.701000+00:00,1764381600,2025-11-29T02:00:00.000Z,13.0,6.0,20,8.0,10+,1025.1,134,,,METAR,METAR KBOW 290200Z AUTO 02008KT 10SM CLR 13/06 A3027 RMK AO2 PWINO,27.9472,-81.7811,38,Bartow Muni,CLR,[],VFR,,,,,,US,United States
1562,KBPG,2025-11-29 02:02:19.205000+00:00,1764381300,2025-11-29T02:00:00.000Z,13.0,10.6,180,19.0,10+,1016.3,6,,,METAR,METAR KBPG 290155Z AUTO 18019G28KT 10SM OVC010 13/11 A3001 RMK AO2 T01300106,32.2097,-101.5247,782,Big Springs/McMahon,OVC,"[{'cover': 'OVC', 'base': 1000}]",MVFR,,28.0,,,,US,United States
427,KBPI,2025-11-29 01:58:35.595000+00:00,1764381180,2025-11-29T02:00:00.000Z,-4.4,-6.1,290,3.0,10+,1013.3,6,,,METAR,METAR KBPI 290153Z AUTO 29003KT 10SM CLR M04/M06 A2992 RMK AO2 SLP154 T10441061,42.578,-110.1098,2120,Big Piney Arpt,CLR,[],VFR,,,1015.4,,,US,United States
4847,KBPK,2025-11-29 01:57:38.548000+00:00,1764381180,2025-11-29T02:00:00.000Z,6.7,-4.4,150,7.0,10+,1024.8,142,,,METAR,METAR KBPK 290153Z AUTO 15007KT 10SM OVC100 07/M04 A3026 RMK AO2 SLP252 T00671044 PWINO $,36.3706,-92.4719,279,Mountain Home/Baxter Cnty,OVC,"[{'cover': 'OVC', 'base': 10000}]",VFR,,,1025.2,,,US,United States
412,KBPT,2025-11-29 01:58:35.612000+00:00,1764381180,2025-11-29T02:00:00.000Z,13.3,2.2,110,7.0,10+,1025.8,4,,,METAR,METAR KBPT 290153Z 11007KT 10SM OVC110 13/02 A3029 RMK AO2 SLP257 T01330022,29.9521,-94.0262,6,Beaumont/SE Texas Rgnl,OVC,"[{'cover': 'OVC', 'base': 11000}]",VFR,,,1025.7,,,US,United States
396,KBQK,2025-11-29 02:01:13.155000+00:00,1764381300,2025-11-29T02:00:00.000Z,0.2,-1.5,0,0.0,10+,1028.5,6,,,METAR,METAR KBQK 290155Z AUTO 00000KT 10SM CLR 00/M01 A3037 RMK AO2 T00021015,31.2567,-81.4754,7,Brunswick/Golden Isles Arpt,CLR,[],VFR,,,,,,US,United States
410,KBRD,2025-11-29 01:58:57.531000+00:00,1764381180,2025-11-29T02:00:00.000Z,-8.3,-12.2,0,0.0,10+,1026.2,6,,,METAR,METAR KBRD 290153Z AUTO 00000KT 10SM OVC024 M08/M12 A3030 RMK AO2 SLP285 T10831122,46.4021,-94.1273,372,Brainerd/Lakes Rgnl,OVC,"[{'cover': 'OVC', 'base': 2400}]",MVFR,,,1028.5,,,US,United States
425,KBRL,2025-11-29 01:58:35.020000+00:00,1764381180,2025-11-29T02:00:00.000Z,-1.1,-8.9,120,6.0,10+,1027.2,6,,,METAR,METAR KBRL 290153Z AUTO 12006KT 10SM SCT047 BKN065 OVC080 M01/M09 A3033 RMK AO2 SLP280 T10111089,40.7729,-91.1255,208,Burlington/SE Iowa Rgnl,OVC,"[{'cover': 'SCT', 'base': 4700}, {'cover': 'BKN', 'base': 6500}, {'cover': 'OVC', 'base': 8000}]",VFR,,,1028.0,,,US,United States
426,KBRO,2025-11-29 01:58:49.217000+00:00,1764381180,2025-11-29T02:00:00.000Z,22.2,18.3,140,7.0,10+,1020.4,4,-RA,0.005,METAR,METAR KBRO 290153Z 14007KT 10SM -RA SCT033 OVC044 22/18 A3013 RMK AO2 RAE0057B23 SLP203 P0000 T02220183,25.9146,-97.4231,6,Brownsville Intl,OVC,"[{'cover': 'SCT', 'base': 3300}, {'cover': 'OVC', 'base': 4400}]",VFR,,,1020.3,,,US,United States
384,KBRY,2025-11-29 01:58:46.761000+00:00,1764381300,2025-11-29T02:00:00.000Z,-2.5,-4.4,0,0.0,10+,1030.2,14,,,METAR,METAR KBRY 290155Z AUTO 00000KT 10SM CLR M03/M04 A3042 RMK AO2 T10251044 $,37.8079,-85.5011,192,Bardstown/Samuel Fld,CLR,[],VFR,,,,,,US,United States
725,KBTL,2025-11-29 01:58:48.693000+00:00,1764381180,2025-11-29T02:00:00.000Z,-2.2,-8.3,290,7.0,10+,1027.9,12,,,METAR,METAR KBTL 290153Z 29007KT 10SM OVC035 M02/M08 A3035 RMK AO2 SLP289 T10221083 $,42.3119,-85.2415,282,Battle Creek/Kellogg Fld Arpt,OVC,"[{'cover': 'OVC', 'base': 3500}]",VFR,,,1028.9,,,US,United States
728,KBTM,2025-11-29 01:58:52.506000+00:00,1764381180,2025-11-29T02:00:00.000Z,-10.0,-15.6,350,9.0,10+,1023.1,6,,0.005,METAR,METAR KBTM 290153Z AUTO 35009KT 10SM OVC055 M10/M16 A3021 RMK AO2 UPB08E14 SLP282 P0000 T11001156,45.9644,-112.5015,1680,Butte/Mooney Arpt,OVC,"[{'cover': 'OVC', 'base': 5500}]",VFR,,,1028.2,,,US,United States
4540,KBTN,2025-11-29 02:06:32.827000+00:00,1764381300,2025-11-29T02:00:00.000Z,-8.0,-9.0,60,13.0,5,1023.8,6,BR UP,,METAR,METAR KBTN 290155Z AUTO 06013KT 5SM UP BR BKN009 OVC036 M08/M09 A3023 RMK AO2,45.8186,-97.7457,400,Britton Muni,OVC,"[{'cover': 'BKN', 'base': 900}, {'cover': 'OVC', 'base': 3600}]",IFR,,,,,,US,United States
706,KBTR,2025-11-29 01:57:24.516000+00:00,1764381180,2025-11-29T02:00:00.000Z,8.9,-0.6,50,5.0,10+,1028.2,4,,,METAR,METAR KBTR 290153Z 05005KT 10SM CLR 09/M01 A3036 RMK AO2 SLP280 T00891006,30.5378,-91.1468,20,Baton Rouge/Ryan Fld,CLR,[],VFR,,,1028.0,,,US,United States
698,KBTV,2025-11-29 01:58:36.645000+00:00,1764381240,2025-11-29T02:00:00.000Z,-1.1,-8.3,260,9.0,10+,1013.0,4,,0.005,METAR,METAR KBTV 290154Z 26009KT 10SM BKN037 OVC050 M01/M08 A2991 RMK AO2 PK WND 27026/0057 SNE25 SLP130 P0000 T10111083,44.4682,-73.1499,101,Burlington Intl,OVC,"[{'cover': 'BKN', 'base': 3700}, {'cover': 'OVC', 'base': 5000}]",VFR,,,1013.0,,,US,United States
699,KBUF,2025-11-29 01:59:00.156000+00:00,1764381240,2025-11-29T02:00:00.000Z,-1.7,-5.0,260,13.0,10+,1022.1,12,,,METAR,METAR KBUF 290154Z 26013G21KT 10SM FEW014 FEW030 FEW250 M02/M05 A3018 RMK AO2 SLP228 T10171050 $,42.94,-78.7361,217,Buffalo-Niagara Intl,FEW,"[{'cover': 'FEW', 'base': 1400}, {'cover': 'FEW', 'base': 3000}, {'cover': 'FEW', 'base': 25000}]",VFR,,21.0,1022.8,,,US,United States
711,KBUR,2025-11-29 01:58:52.821000+00:00,1764381180,2025-11-29T02:00:00.000Z,17.8,8.3,VRB,3.0,10+,1015.7,4,,,METAR,METAR KBUR 290153Z VRB03KT 10SM CLR 18/08 A2999 RMK AO2 SLP148 T01780083,34.1996,-118.3654,221,Burbank/Bob Hope Arpt,CLR,[],VFR,,,1014.8,,,US,United States
381,KBVI,2025-11-29 02:00:47.692000+00:00,1764381300,2025-11-29T02:00:00.000Z,-0.3,-5.7,290,8.0,10+,1026.2,6,,,METAR,METAR KBVI 290155Z AUTO 29008KT 260V330 10SM SCT038 OVC050 00/M06 A3030 RMK AO2 T10031057,40.7735,-80.3825,387,Beaver Falls Arpt,OVC,"[{'cover': 'SCT', 'base': 3800}, {'cover': 'OVC', 'base': 5000}]",VFR,,,,,,US,United States
2902,KBVS,2025-11-29 02:02:16.773000+00:00,1764381300,2025-11-29T02:00:00.000Z,7.0,7.0,0,0.0,10+,1026.2,6,,,METAR,METAR KBVS 290155Z AUTO 00000KT 10SM CLR 07/07 A3030 RMK A01,48.4696,-122.4189,31,Burlington/Skagit Rgnl,CLR,[],VFR,,,,,,US,United States
662,KBVX,2025-11-29 01:59:23.105000+00:00,1764381360,2025-11-29T02:00:00.000Z,6.1,-2.8,120,6.0,10+,1026.8,6,,,METAR,METAR KBVX 290156Z AUTO 12006KT 10SM CLR 06/M03 A3032 RMK AO2 SLP270 T00611028,35.7259,-91.6518,137,Batesville Rgnl,CLR,[],VFR,,,1027.0,,,US,United States
709,KBVY,2025-11-29 01:58:57.556000+00:00,1764381180,2025-11-29T02:00:00.000Z,1.1,-5.0,250,11.0,10+,1012.3,6,,,METAR,METAR KBVY 290153Z AUTO 25011KT 10SM CLR 01/M05 A2989 RMK AO2 SLP118 T00111050,42.5841,-70.9153,28,Beverly Muni,CLR,[],VFR,,,1011.8,,,US,United States
679,KBWD,2025-11-29 02:00:48.800000+00:00,1764381300,2025-11-29T02:00:00.000Z,14.4,10.8,160,11.0,10+,1018.4,6,,,METAR,METAR KBWD 290155Z AUTO 16011KT 10SM BKN022 OVC028 14/11 A3007 RMK AO2 T01440108,31.7898,-98.9522,420,Brownwood Muni,OVC,"[{'cover': 'BKN', 'base': 2200}, {'cover': 'OVC', 'base': 2800}]",MVFR,,,,,,US,United States
722,KBWG,2025-11-29 01:57:38.704000+00:00,1764381180,2025-11-29T02:00:00.000Z,-0.6,-7.8,0,0.0,10+,1030.6,6,,,METAR,METAR KBWG 290153Z AUTO 00000KT 10SM CLR M01/M08 A3043 RMK AO2 SLP309 T10061078,36.9647,-86.4238,159,Bowling Green/Warren Cnty,CLR,[],VFR,,,1030.9,,,US,United States
701,KBWI,2025-11-29 01:58:56.217000+00:00,1764381240,2025-11-29T02:00:00.000Z,0.0,-8.9,260,9.0,10+,1025.8,4,,,METAR,METAR KBWI 290154Z 26009KT 10SM FEW070 00/M09 A3029 RMK AO2 SLP259 T00001089,39.1733,-76.684,42,Baltimore-Washington Intl,FEW,"[{'cover': 'FEW', 'base': 7000}]",VFR,,,1025.9,,,US,United States
4823,KBWP,2025-11-29 01:58:46.810000+00:00,1764381300,2025-11-29T02:00:00.000Z,-8.0,-8.0,50,6.0,10+,1025.8,6,,,METAR,METAR KBWP 290155Z AUTO 05006KT 10SM OVC075 M08/M08 A3029 RMK AO2,46.2444,-96.6046,294,Breckenridge-Wahpeton/Stern Arpt,OVC,"[{'cover': 'OVC', 'base': 7500}]",VFR,,,,,,US,United States
675,KBWW,2025-11-29 02:00:53.954000+00:00,1764381300,2025-11-29T02:00:00.000Z,-9.0,-9.0,110,9.0,1.25,1017.0,6,-SN,,METAR,METAR KBWW 290155Z AUTO 11009KT 1 1/4SM -SN OVC004 M09/M09 A3003 RMK AO2,46.1656,-103.2964,911,Bowman Rgnl,OVC,"[{'cover': 'OVC', 'base': 400}]",LIFR,,,,,,US,United States
696,KBXA,2025-11-29 02:01:02.135000+00:00,1764381300,2025-11-29T02:00:00.000Z,5.2,3.0,0,0.0,10+,1028.5,6,,,METAR,METAR KBXA 290155Z AUTO 00000KT 10SM CLR 05/03 A3037 RMK AO2 T00520030,30.8104,-89.8628,35,Bogalusa/Carr Arfld,CLR,[],VFR,,,,,,US,United States
676,KBXK,2025-11-29 01:59:07.915000+00:00,1764381300,2025-11-29T02:00:00.000Z,17.0,9.0,0,0.0,10+,1015.0,6,,,METAR,METAR KBXK 290155Z AUTO 00000KT 10SM CLR 17/09 A2997 RMK AO2,33.4178,-112.6884,303,Buckeye Muni,CLR,[],VFR,,,,,,US,United States
592,KBYG,2025-11-29 02:08:27+00:00,1764381900,2025-11-29T02:05:00.000Z,-9.4,-11.7,340,30.0,2,1013.6,6,-SN BR,0.005,SPECI,SPECI KBYG 290205Z AUTO 34030G41KT 2SM -SN BR OVC031 M09/M12 A2993 RMK AO2 PK WND 34041/0205 P0000 T10941117,44.3812,-106.7195,1503,Buffalo/Johnson Cnty,OVC,"[{'cover': 'OVC', 'base': 3100}]",IFR,,41.0,,,,US,United States
705,KBYI,2025-11-29 01:58:57.971000+00:00,1764381180,2025-11-29T02:00:00.000Z,3.9,0.0,270,15.0,10+,1017.4,6,,0.005,METAR,METAR KBYI 290153Z AUTO 27015G32KT 10SM CLR 04/00 A3004 RMK AO2 PK WND 25035/0121 RAB30E40 SLP174 P0000 T00390000,42.5453,-113.7686,1263,Burley Muni,CLR,[],VFR,,32.0,1017.4,,,US,United States
684,KBYS,2025-11-29 01:58:52.260000+00:00,1764381300,2025-11-29T02:00:00.000Z,12.1,6.8,300,4.0,10+,1015.0,14,,,METAR,METAR KBYS 290155Z AUTO 30004KT 10SM CLR 12/07 A2997 RMK AO2 SLP147 T01210068 $,35.271,-116.634,717,Bicycle Lake,CLR,[],VFR,,,1014.7,,,US,United States
369,KBYY,2025-11-29 01:58:46.881000+00:00,1764381300,2025-11-29T02:00:00.000Z,18.7,12.8,110,10.0,10+,1022.1,14,,,METAR,METAR KBYY 290155Z AUTO 11010KT 10SM OVC075 19/13 A3018 RMK AO2 T01870128 $,28.9717,-95.8584,12,Bay City Muni,OVC,"[{'cover': 'OVC', 'base': 7500}]",VFR,,,,,,US,United States
663,KBZN,2025-11-29 02:01:05.558000+00:00,1764381360,2025-11-29T02:00:00.000Z,-9.4,-13.3,330,9.0,6,1024.8,4,-SN,0.005,METAR,METAR KBZN 290156Z 33009KT 6SM -SN OVC028 M09/M13 A3026 RMK AO2 SLP299 P0000 T10941133,45.7876,-111.1615,1349,Bozeman/Gallatin Fld,OVC,"[{'cover': 'OVC', 'base': 2800}]",MVFR,,,1029.9,,,US,United States
688,KCAD,2025-11-29 02:00:49.228000+00:00,1764381300,2025-11-29T02:00:00.000Z,-5.0,-8.0,260,3.0,10+,1025.5,6,-SN,,METAR,METAR KCAD 290155Z AUTO 26003KT 10SM -SN OVC030 M05/M08 A3028 RMK AO2,44.2785,-85.4207,397,Cadillac/Wexford Cnty,OVC,"[{'cover': 'OVC', 'base': 3000}]",MVFR,,,,,,US,United States
661,KCAE,2025-11-29 02:00:58.192000+00:00,1764381360,2025-11-29T02:00:00.000Z,0.6,-5.6,250,3.0,10+,1028.9,12,,,METAR,METAR KCAE 290156Z 25003KT 10SM CLR 01/M06 A3038 RMK AO2 SLP290 T00061056 $,33.9422,-81.118,69,Columbia Metro,CLR,[],VFR,,,1029.0,,,US,United States
715,KCAG,2025-11-29 01:58:52.525000+00:00,1764381180,2025-11-29T02:00:00.000Z,2.2,-0.6,270,5.0,9,1013.3,6,-SN,0.005,METAR,METAR KCAG 290153Z AUTO 27005KT 9SM -SN SCT038 OVC065 02/M01 A2992 RMK AO2 RAB18E39SNB19 SLP152 P0000 T00221006,40.493,-107.524,1888,Craig-Moffat Arpt,OVC,"[{'cover': 'SCT', 'base': 3800}, {'cover': 'OVC', 'base': 6500}]",VFR,,,1015.2,,,US,United States
736,KCAK,2025-11-29 01:57:23.088000+00:00,1764381060,2025-11-29T02:00:00.000Z,-2.2,-6.7,270,6.0,9,1026.8,12,-SN,0.005,METAR,METAR KCAK 290151Z 27006KT 9SM -SN OVC044 M02/M07 A3032 RMK AO2 SNB11 SLP283 P0000 T10221067 $,40.9181,-81.4434,369,Akron/Canton Rgnl,OVC,"[{'cover': 'OVC', 'base': 4400}]",VFR,,,1028.3,,,US,United States
680,KCAO,2025-11-29 02:00:58.780000+00:00,1764381300,2025-11-29T02:00:00.000Z,7.8,1.7,230,12.0,10+,1008.9,6,,,METAR,METAR KCAO 290155Z AUTO 23012KT 10SM CLR 08/02 A2979 RMK AO2 SLP075 T00780017,36.4483,-103.1537,1517,Clayton Muni,CLR,[],VFR,,,1007.5,,,US,United States
703,KCAR,2025-11-29 01:59:09.372000+00:00,1764381240,2025-11-29T02:00:00.000Z,-3.3,-7.2,240,8.0,10+,1001.8,6,,,METAR,METAR KCAR 290154Z AUTO 24008KT 10SM OVC027 M03/M07 A2958 RMK AO2 SLP027 T10331072,46.8705,-68.0172,189,Caribou Muni,OVC,"[{'cover': 'OVC', 'base': 2700}]",MVFR,,,1002.7,,,US,United States
674,KCBE,2025-11-29 02:06:47.126000+00:00,1764381300,2025-11-29T02:00:00.000Z,0.0,-8.3,260,8.0,10+,1028.2,6,,,METAR,METAR KCBE 290155Z AUTO 26008KT 10SM SCT046 BKN065 OVC070 00/M08 A3036 RMK AO2 T10001083,39.6182,-78.7598,226,Cumberland Arpt,OVC,"[{'cover': 'SCT', 'base': 4600}, {'cover': 'BKN', 'base': 6500}, {'cover': 'OVC', 'base': 7000}]",VFR,,,,,,US,United States
697,KCBF,2025-11-29 02:02:21.300000+00:00,1764381300,2025-11-29T02:00:00.000Z,-3.0,-7.0,110,12.0,10+,1020.4,6,,,METAR,METAR KCBF 290155Z AUTO 11012KT 10SM SCT044 BKN050 OVC055 M03/M07 A3013 RMK AO2,41.2611,-95.7604,379,Council Bluffs Muni,OVC,"[{'cover': 'SCT', 'base': 4400}, {'cover': 'BKN', 'base': 5000}, {'cover': 'OVC', 'base': 5500}]",VFR,,,,,,US,United States
685,KCBK,2025-11-29 02:01:17.976000+00:00,1764381300,2025-11-29T02:00:00.000Z,3.4,1.5,90,14.0,10+,1009.9,6,,,METAR,METAR KCBK 290155Z AUTO 09014KT 10SM SCT015 OVC028 03/01 A2982 RMK AO2 T00340015,39.4301,-101.0512,970,Colby/Shaltz Fld,OVC,"[{'cover': 'SCT', 'base': 1500}, {'cover': 'OVC', 'base': 2800}]",MVFR,,,,,,US,United States
692,KCBM,2025-11-29 01:58:55.607000+00:00,1764381300,2025-11-29T02:00:00.000Z,4.0,-1.0,0,0.0,10+,1027.9,14,,,METAR,METAR KCBM 290155Z AUTO 00000KT 10SM CLR 04/M01 A3035 RMK AO2 SLP282 T00401010 $,33.6519,-88.4567,59,Columbus AFB,CLR,[],VFR,,,1028.2,,,US,United States
721,KCCR,2025-11-29 01:58:49.283000+00:00,1764381180,2025-11-29T02:00:00.000Z,7.8,6.1,40,5.0,5,1019.4,4,BR,,METAR,METAR KCCR 290153Z 04005KT 5SM BR OVC008 08/06 A3010 RMK AO2 SLP179 T00780061,37.9916,-122.0527,6,Concord/Buchanan Fld,OVC,"[{'cover': 'OVC', 'base': 800}]",IFR,,,1017.9,,,US,United States
686,KCCY,2025-11-29 02:02:18.587000+00:00,1764381300,2025-11-29T02:00:00.000Z,-3.0,-8.0,0,0.0,10+,1025.8,6,,,METAR,METAR KCCY 290155Z AUTO 00000KT 10SM SCT038 BKN048 OVC055 M03/M08 A3029 RMK AO2,43.073,-92.6132,340,Charles City/NE Iowa Rgnl,OVC,"[{'cover': 'SCT', 'base': 3800}, {'cover': 'BKN', 'base': 4800}, {'cover': 'OVC', 'base': 5500}]",VFR,,,,,,US,United States
710,KCDC,2025-11-29 01:58:35.630000+00:00,1764381180,2025-11-29T02:00:00.000Z,6.7,-3.3,VRB,5.0,10+,1017.0,6,,,METAR,METAR KCDC 290153Z AUTO VRB05KT 10SM CLR 07/M03 A3003 RMK AO2 SLP150 T00671033,37.7067,-113.097,1703,Cedar City Muni,CLR,[],VFR,,,1015.0,,,US,United States
682,KCDH,2025-11-29 01:58:46.907000+00:00,1764381300,2025-11-29T02:00:00.000Z,8.0,1.0,130,5.0,10+,1026.5,6,,,METAR,METAR KCDH 290155Z AUTO 13005KT 10SM CLR 08/01 A3031 RMK AO2,33.619,-92.765,38,Camden/Harrell Fld,CLR,[],VFR,,,,,,US,United States
687,KCDN,2025-11-29 02:01:18.075000+00:00,1764381300,2025-11-29T02:00:00.000Z,-1.0,-6.0,0,0.0,10+,1029.2,6,,,METAR,METAR KCDN 290155Z AUTO 00000KT 10SM CLR M01/M06 A3039 RMK AO2,34.2815,-80.5636,90,Camden/Woodward Fld,CLR,[],VFR,,,,,,US,United States
716,KCDR,2025-11-29 01:58:36.471000+00:00,1764381180,2025-11-29T02:00:00.000Z,-2.2,-3.9,360,5.0,10+,1011.6,6,,,METAR,METAR KCDR 290153Z AUTO 36005KT 10SM BKN110 M02/M04 A2987 RMK AO2 SLP153 T10221039,42.8374,-103.0981,1002,Chadron Muni,BKN,"[{'cover': 'BKN', 'base': 11000}]",VFR,,,1015.3,,,US,United States
708,KCDS,2025-11-29 01:58:35.652000+00:00,1764381180,2025-11-29T02:00:00.000Z,12.8,7.8,180,16.0,10+,1014.0,6,,,METAR,METAR KCDS 290153Z AUTO 18016G30KT 10SM OVC020 13/08 A2994 RMK AO2 PK WND 19031/0101 SLP134 T01280078,34.4275,-100.2839,595,Childress Muni,OVC,"[{'cover': 'OVC', 'base': 2000}]",MVFR,,30.0,1013.4,,,US,United States
717,KCDW,2025-11-29 01:58:48.711000+00:00,1764381180,2025-11-29T02:00:00.000Z,2.2,-8.9,290,9.0,10+,1019.7,4,,,METAR,METAR KCDW 290153Z 29009G16KT 10SM CLR 02/M09 A3011 RMK AO2 SLP204 T00221089,40.8764,-74.2828,52,Caldwell/Essex Cnty,CLR,[],VFR,,16.0,1020.4,,,US,United States
666,KCEC,2025-11-29 02:01:05.782000+00:00,1764381360,2025-11-29T02:00:00.000Z,10.0,8.9,0,0.0,7,1020.1,6,,,METAR,METAR KCEC 290156Z AUTO 00000KT 7SM CLR 10/09 A3012 RMK AO2 SLP199 T01000089,41.7836,-124.238,17,Crescent City/McNama,CLR,[],VFR,,,1019.9,,,US,United States
670,KCEF,2025-11-29 02:02:08.636000+00:00,1764381300,2025-11-29T02:00:00.000Z,2.5,-7.1,290,16.0,10+,1013.3,4,,,METAR,METAR KCEF 290155Z 29016G26KT 10SM SCT080 03/M07 A2992 RMK AO2A PK WND 31028/42 SLP138 T00251071,42.201,-72.525,72,Chicopee/Westover AFB,SCT,"[{'cover': 'SCT', 'base': 8000}]",VFR,,26.0,1013.8,,,US,United States
702,KCEU,2025-11-29 01:58:46.923000+00:00,1764381240,2025-11-29T02:00:00.000Z,4.4,-10.0,360,3.0,10+,1027.5,6,,,METAR,METAR KCEU 290154Z AUTO 36003KT 10SM CLR 04/M10 A3034 RMK AO2 SLP280 T00441100,34.6722,-82.8814,270,Clemson/Oconee Cnty,CLR,[],VFR,,,1028.0,,,US,United States
719,KCEW,2025-11-29 01:57:33.031000+00:00,1764381180,2025-11-29T02:00:00.000Z,2.8,-1.7,360,3.0,10+,1029.5,14,,,METAR,METAR KCEW 290153Z AUTO 36003KT 10SM CLR 03/M02 A3040 RMK AO2 SLP294 T00281017 $,30.7771,-86.5194,47,Crestview/Sikes Arpt,CLR,[],VFR,,,1029.4,,,US,United States
672,KCEY,2025-11-29 02:06:32.938000+00:00,1764381300,2025-11-29T02:00:00.000Z,0.0,-6.0,90,5.0,10+,1029.2,6,,,METAR,METAR KCEY 290155Z AUTO 09005KT 10SM CLR 00/M06 A3039 RMK AO2,36.664,-88.372,172,Murray/Oakley Fld,CLR,[],VFR,,,,,,US,United States
714,KCEZ,2025-11-29 01:58:57.986000+00:00,1764381180,2025-11-29T02:00:00.000Z,1.7,-2.2,60,5.0,9,1015.3,6,-SN,0.005,METAR,METAR KCEZ 290153Z AUTO 06005KT 9SM -SN CLR 02/M02 A2998 RMK AO2 SNB08 SLP155 P0000 T00171022,37.3071,-108.6265,1801,Cortez/Montezuma Cnt,CLR,[],VFR,,,1015.5,,,US,United States
4560,KCFS,2025-11-29 02:01:02.274000+00:00,1764381300,2025-11-29T02:00:00.000Z,-2.0,-10.0,270,9.0,10+,1026.2,6,,,METAR,METAR KCFS 290155Z AUTO 27009KT 10SM OVC049 M02/M10 A3030 RMK AO2,43.4624,-83.4428,214,Tuscola Area Arpt,OVC,"[{'cover': 'OVC', 'base': 4900}]",VFR,,,,,,US,United States
733,KCFV,2025-11-29 01:57:41.456000+00:00,1764381120,2025-11-29T02:00:00.000Z,10.6,1.1,150,12.0,10+,1018.4,6,,0.005,METAR,METAR KCFV 290152Z AUTO 15012KT 10SM OVC055 11/01 A3007 RMK AO2 RAB34E46 SLP186 P0000 T01060011,37.0912,-95.5726,228,Coffeyville Muni,OVC,"[{'cover': 'OVC', 'base': 5500}]",VFR,,,1018.6,,,US,United States
690,KCGE,2025-11-29 02:02:25.023000+00:00,1764381300,2025-11-29T02:00:00.000Z,2.0,-8.0,270,9.0,10+,1026.5,6,,,METAR,METAR KCGE 290155Z AUTO 27009G15KT 260V320 10SM CLR 02/M08 A3031 RMK A01,38.5371,-76.0309,5,Cambridge/Dorchester Rgnl,CLR,[],VFR,,15.0,,,,US,United States
756,KCGF,2025-11-29 01:46:27.595000+00:00,1764380700,2025-11-29T02:00:00.000Z,0.0,-8.0,280,14.0,10+,1026.2,0,,,METAR,METAR KCGF 290145Z 28014G19KT 10SM BKN040 OVC046 00/M08 A3030,41.566,-81.4827,265,Cleveland/Cuyahoga Cnty,OVC,"[{'cover': 'BKN', 'base': 4000}, {'cover': 'OVC', 'base': 4600}]",VFR,,19.0,,,,US,United States
729,KCGI,2025-11-29 01:57:33.127000+00:00,1764381180,2025-11-29T02:00:00.000Z,2.2,-4.4,100,4.0,10+,1028.9,4,,,METAR,METAR KCGI 290153Z 10004KT 10SM CLR 02/M04 A3038 RMK AO2 SLP289 T00221044,37.2254,-89.5785,103,Cape Girardeau Rgnl,CLR,[],VFR,,,1028.9,,,US,United States
693,KCGS,2025-11-29 02:02:15.921000+00:00,1764381300,2025-11-29T02:00:00.000Z,1.4,-9.2,270,8.0,10+,1027.2,6,,,METAR,METAR KCGS 290155Z AUTO 27008KT 10SM SCT065 01/M09 A3033 RMK AO2 T00141092,38.9806,-76.9251,15,College Park Arpt,SCT,"[{'cover': 'SCT', 'base': 6500}]",VFR,,,,,,US,United States
665,KCGZ,2025-11-29 02:00:46.509000+00:00,1764381360,2025-11-29T02:00:00.000Z,17.2,10.0,310,4.0,10+,1015.7,14,,,METAR,METAR KCGZ 290156Z AUTO 31004KT 10SM CLR 17/10 A2999 RMK AO2 SLP153 T01720100 PNO $,32.9531,-111.7725,444,Casa Granda Muni,CLR,[],VFR,,,1015.3,,,US,United States
718,KCHA,2025-11-29 01:57:24.549000+00:00,1764381180,2025-11-29T02:00:00.000Z,3.3,-8.3,0,0.0,10+,1029.5,4,,,METAR,METAR KCHA 290153Z 00000KT 10SM BKN250 03/M08 A3040 RMK AO2 SLP298 T00331083,35.0336,-85.2004,203,Chattanooga Metro,BKN,"[{'cover': 'BKN', 'base': 25000}]",VFR,,,1029.8,,,US,United States
689,KCHK,2025-11-29 02:02:17.961000+00:00,1764381300,2025-11-29T02:00:00.000Z,10.3,3.4,160,18.0,10+,1016.3,6,,,METAR,METAR KCHK 290155Z AUTO 16018KT 10SM OVC036 10/03 A3001 RMK AO2 LTG DSNT SE T01030034,35.0927,-97.9709,346,Chickasha Muni,OVC,"[{'cover': 'OVC', 'base': 3600}]",VFR,,,,,,US,United States
727,KCHO,2025-11-29 01:57:33.148000+00:00,1764381180,2025-11-29T02:00:00.000Z,0.0,-11.7,VRB,3.0,10+,1027.9,4,,,METAR,METAR KCHO 290153Z VRB03KT 10SM OVC060 00/M12 A3035 RMK AO2 SLP281 T00001117,38.1374,-78.4551,193,Charlottesville/Albemarle Arpt,OVC,"[{'cover': 'OVC', 'base': 6000}]",VFR,,,1028.1,,,US,United States
668,KCHS,2025-11-29 02:02:12.870000+00:00,1764381360,2025-11-29T02:00:00.000Z,2.2,-3.9,330,5.0,10+,1029.5,4,,,METAR,METAR KCHS 290156Z 33005KT 10SM SCT250 02/M04 A3040 RMK AO2 SLP293 T00221039,32.8995,-80.0407,12,Charleston Intl,SCT,"[{'cover': 'SCT', 'base': 25000}]",VFR,,,1029.3,,,US,United States
732,KCID,2025-11-29 01:57:32.560000+00:00,1764381120,2025-11-29T02:00:00.000Z,-3.9,-6.1,170,5.0,1.5,1026.8,12,-SN BR,0.005,METAR,METAR KCID 290152Z 17005KT 1 1/2SM -SN BR OVC028 M04/M06 A3032 RMK AO2 SNB10 SLP283 P0000 T10391061 $,41.8829,-91.7246,257,Cedar Rapids/E Iowa Arpt,OVC,"[{'cover': 'OVC', 'base': 2800}]",IFR,,,1028.3,,,US,United States
691,KCIN,2025-11-29 02:02:25.081000+00:00,1764381300,2025-11-29T02:00:00.000Z,-5.0,-5.0,120,12.0,2.5,1023.8,6,-SN,,METAR,METAR KCIN 290155Z AUTO 12012G18KT 2 1/2SM -SN FEW015 SCT034 BKN039 M05/M05 A3023 RMK AO2,42.0444,-94.7888,365,Carroll/Neu Arpt,BKN,"[{'cover': 'FEW', 'base': 1500}, {'cover': 'SCT', 'base': 3400}, {'cover': 'BKN', 'base': 3900}]",IFR,,18.0,,,,US,United States
673,KCIR,2025-11-29 02:02:12.453000+00:00,1764381300,2025-11-29T02:00:00.000Z,2.5,-2.8,0,0.0,10+,1029.2,6,,,METAR,METAR KCIR 290155Z AUTO 00000KT 10SM CLR 03/M03 A3039 RMK AO2 T00251028,37.0639,-89.2232,96,Cairo Rgnl,CLR,[],VFR,,,,,,US,United States
667,KCIU,2025-11-29 02:00:59.537000+00:00,1764381360,2025-11-29T02:00:00.000Z,-5.6,-6.7,0,0.0,1,1023.8,70,-SN BR,0.01,METAR,METAR KCIU 290156Z AUTO 00000KT 1SM -SN BR FEW005 BKN013 OVC035 M06/M07 A3023 RMK AO2 SLP249 P0001 T10561067 FZRANO,46.2531,-84.4773,242,Chippewa Cnty Intl,OVC,"[{'cover': 'FEW', 'base': 500}, {'cover': 'BKN', 'base': 1300}, {'cover': 'OVC', 'base': 3500}]",IFR,,,1024.9,,,US,United States
713,KCKB,2025-11-29 01:58:48.988000+00:00,1764381180,2025-11-29T02:00:00.000Z,-1.1,-8.9,270,7.0,10+,1028.2,4,,,METAR,METAR KCKB 290153Z 27007KT 10SM OVC060 M01/M09 A3036 RMK AO2 SLP290 T10111089,39.3022,-80.2239,368,Clarksburg/NC West Virginia Arpt,OVC,"[{'cover': 'OVC', 'base': 6000}]",VFR,,,1029.0,,,US,United States
1565,KCKC,2025-11-29 01:59:07.345000+00:00,1764381300,2025-11-29T02:00:00.000Z,-16.0,-17.0,360,6.0,10+,1024.5,6,,,METAR,METAR KCKC 290155Z AUTO 36006KT 10SM CLR M16/M17 A3025 RMK AO2,47.8366,-90.3864,544,Grand Marais Muni,CLR,[],VFR,,,,,,US,United States
678,KCKM,2025-11-29 01:58:46.969000+00:00,1764381300,2025-11-29T02:00:00.000Z,,,90,7.0,10+,1028.2,6,,,METAR,METAR KCKM 290155Z AUTO 09007KT 10SM A3036 RMK A01,34.2945,-90.5146,52,Clarksdale/Fletcher Fld,,,,,,,,,US,United States
695,KCKN,2025-11-29 01:58:56.328000+00:00,1764381300,2025-11-29T02:00:00.000Z,-7.0,-11.0,0,0.0,10+,1027.9,6,,,METAR,METAR KCKN 290155Z AUTO 00000KT 10SM OVC027 M07/M11 A3035 RMK AO2,47.8404,-96.6201,272,Crookston Muni,OVC,"[{'cover': 'OVC', 'base': 2700}]",MVFR,,,,,,US,United States
731,KCKV,2025-11-29 01:57:41.487000+00:00,1764381120,2025-11-29T02:00:00.000Z,0.0,-6.7,0,0.0,10+,1029.9,6,,,METAR,METAR KCKV 290152Z AUTO 00000KT 10SM CLR 00/M07 A3041 RMK AO2 SLP303 T00001067,36.6169,-87.4117,166,Clarksville/Outlaw Fld,CLR,[],VFR,,,1030.3,,,US,United States
735,KCLE,2025-11-29 01:57:35.596000+00:00,1764381060,2025-11-29T02:00:00.000Z,-1.1,-6.1,250,10.0,9,1026.5,12,-SN,0.005,METAR,METAR KCLE 290151Z 25010KT 9SM -SN BKN030 OVC042 M01/M06 A3031 RMK AO2 SLP291 P0000 T10111061 $,41.4057,-81.8519,237,Cleveland/Hopkins Intl,OVC,"[{'cover': 'BKN', 'base': 3000}, {'cover': 'OVC', 'base': 4200}]",MVFR,,,1029.1,,,US,United States
683,KCLI,2025-11-29 02:02:12.120000+00:00,1764381300,2025-11-29T02:00:00.000Z,-4.4,-11.3,330,4.0,10+,1028.9,6,,,METAR,METAR KCLI 290155Z AUTO 33004KT 10SM OVC032 M04/M11 A3038 RMK AO2 T10441113,44.6152,-88.7313,248,Clintonville Muni,OVC,"[{'cover': 'OVC', 'base': 3200}]",VFR,,,,,,US,United States
669,KCLK,2025-11-29 01:52:04.288000+00:00,1764381300,2025-11-29T02:00:00.000Z,11.0,2.0,170,12.0,10+,1015.3,6,,,METAR,METAR KCLK 290155Z AUTO 17012KT 10SM OVC034 11/02 A2998 RMK AO2,35.5381,-98.9336,489,Clinton Rgnl,OVC,"[{'cover': 'OVC', 'base': 3400}]",VFR,,,,,,US,United States
730,KCLL,2025-11-29 01:58:44.419000+00:00,1764381180,2025-11-29T02:00:00.000Z,15.6,8.3,130,14.0,10+,1022.8,4,,,METAR,METAR KCLL 290153Z 13014G22KT 10SM BKN075 OVC110 16/08 A3020 RMK AO2 SLP224 T01560083,30.5912,-96.3631,96,College Station/Easterwood Arpt,OVC,"[{'cover': 'BKN', 'base': 7500}, {'cover': 'OVC', 'base': 11000}]",VFR,,22.0,1022.4,,,US,United States
726,KCLM,2025-11-29 01:58:58.003000+00:00,1764381180,2025-11-29T02:00:00.000Z,2.2,1.7,200,4.0,3,1026.2,6,BR,,METAR,METAR KCLM 290153Z AUTO 20004KT 3SM BR CLR 02/02 A3030 RMK AO2 SLP264 T00220017,48.1219,-123.5066,81,Port Angeles Intl,CLR,[],MVFR,,,1026.4,,,US,United States
671,KCLS,2025-11-29 01:57:27.448000+00:00,1764381300,2025-11-29T02:00:00.000Z,7.0,7.0,0,0.0,10+,1024.8,6,,,METAR,METAR KCLS 290155Z AUTO 00000KT 10SM SCT032 07/07 A3026 RMK AO2,46.6775,-122.9857,52,Chehalis-Centralia Arpt,SCT,"[{'cover': 'SCT', 'base': 3200}]",VFR,,,,,,US,United States
734,KCLT,2025-11-29 01:57:37.076000+00:00,1764381120,2025-11-29T02:00:00.000Z,1.7,-10.0,350,6.0,10+,1028.9,4,,,METAR,METAR KCLT 290152Z 35006KT 10SM FEW250 02/M10 A3038 RMK AO2 SLP307 T00171100,35.2225,-80.9543,223,Charlotte/Douglas Intl,FEW,"[{'cover': 'FEW', 'base': 25000}]",VFR,,,1030.7,,,US,United States
677,KCLW,2025-11-29 01:58:47.029000+00:00,1764381300,2025-11-29T02:00:00.000Z,12.0,0.0,40,8.0,10+,1025.5,6,,,METAR,METAR KCLW 290155Z AUTO 04008KT 10SM CLR 12/00 A3028 RMK AO2,27.9741,-82.7563,21,Clearwater Air Park,CLR,[],VFR,,,,,,US,United States
737,KCMH,2025-11-29 01:57:35.648000+00:00,1764381060,2025-11-29T02:00:00.000Z,-0.6,-8.9,280,9.0,10+,1029.2,4,,,METAR,METAR KCMH 290151Z 28009KT 10SM OVC049 M01/M09 A3039 RMK AO2 SLP302 T10061089,39.9907,-82.877,257,Columbus/Glenn Intl,OVC,"[{'cover': 'OVC', 'base': 4900}]",VFR,,,1030.2,,,US,United States
724,KCMI,2025-11-29 01:58:49.006000+00:00,1764381180,2025-11-29T02:00:00.000Z,-6.1,-8.9,150,3.0,10+,1029.2,4,,,METAR,METAR KCMI 290153Z 15003KT 10SM CLR M06/M09 A3039 RMK AO2 SLP302 T10611089,40.0324,-88.2755,227,Champaign/Willard Arpt,CLR,[],VFR,,,1030.2,,,US,United States
1011,KCMX,2025-11-29 01:58:48.727000+00:00,1764381180,2025-11-29T02:00:00.000Z,-5.0,-11.7,330,6.0,10+,1025.8,14,,,METAR,METAR KCMX 290153Z AUTO 33006KT 10SM OVC037 M05/M12 A3029 RMK AO2 SLP275 T10501117 PNO $,47.1705,-88.4854,326,Houghton Cnty Mem,OVC,"[{'cover': 'OVC', 'base': 3700}]",VFR,,,1027.5,,,US,United States
958,KCMY,2025-11-29 01:56:59.362000+00:00,1764381300,2025-11-29T02:00:00.000Z,-5.6,-8.4,0,0.0,10+,1027.2,14,,,METAR,METAR KCMY 290155Z AUTO 00000KT 10SM CLR M06/M08 A3033 RMK AO2 SLP288 T10561084 $,43.9581,-90.7398,253,Sparta/Ft McCoy Arpt,CLR,[],VFR,,,1028.8,,,US,United States
953,KCNK,2025-11-29 01:59:23.361000+00:00,1764381300,2025-11-29T02:00:00.000Z,3.9,-1.7,120,9.0,10+,1014.6,14,,,METAR,METAR KCNK 290155Z AUTO 12009KT 10SM OVC036 04/M02 A2996 RMK AO2 SLP157 T00391017 $,39.5513,-97.6508,445,Concordia/Blosser Muni,OVC,"[{'cover': 'OVC', 'base': 3600}]",VFR,,,1015.7,,,US,United States
978,KCNM,2025-11-29 01:58:52.843000+00:00,1764381180,2025-11-29T02:00:00.000Z,14.4,6.1,140,4.0,10+,1014.6,6,,,METAR,METAR KCNM 290153Z AUTO 14004KT 10SM CLR 14/06 A2996 RMK AO2 SLP120 T01440061,32.3336,-104.2584,993,Carlsbad/Cavern City Air Term,CLR,[],VFR,,,1012.0,,,US,United States
988,KCNO,2025-11-29 01:58:52.867000+00:00,1764381180,2025-11-29T02:00:00.000Z,13.9,7.8,350,3.0,10+,1015.7,12,,,METAR,METAR KCNO 290153Z 35003KT 10SM CLR 14/08 A2999 RMK AO2 SLP157 T01390078 $,33.9756,-117.6249,191,Chino Arpt,CLR,[],VFR,,,1015.7,,,US,United States
1014,KCNU,2025-11-29 01:57:23.357000+00:00,1764381120,2025-11-29T02:00:00.000Z,6.7,3.3,120,7.0,10+,1018.4,6,-RA,0.005,METAR,METAR KCNU 290152Z AUTO 12007KT 10SM -RA OVC050 07/03 A3007 RMK AO2 RAB0056 SLP187 P0000 T00670033,37.6705,-95.4846,301,Chanute/Johnson Arpt,OVC,"[{'cover': 'OVC', 'base': 5000}]",VFR,,,1018.7,,,US,United States
947,KCNW,2025-11-29 01:47:08.201000+00:00,1764381300,2025-11-29T02:00:00.000Z,15.0,4.0,130,9.0,10+,1021.1,0,,,METAR,METAR KCNW 290155Z 13009G15KT 10SM BKN044 OVC060 15/04 A3015,31.637,-97.071,139,Waco/Texas State Tech Arpt,OVC,"[{'cover': 'BKN', 'base': 4400}, {'cover': 'OVC', 'base': 6000}]",VFR,,15.0,,,,US,United States
976,KCNY,2025-11-29 01:58:44.886000+00:00,1764381180,2025-11-29T02:00:00.000Z,4.4,0.0,260,3.0,10+,1013.3,6,,,METAR,METAR KCNY 290153Z AUTO 26003KT 10SM CLR 04/00 A2992 RMK AO2 SLP139 T00440000,38.7501,-109.7627,1392,Moab/Canyonland Fld,CLR,[],VFR,,,1013.9,,,US,United States
937,KCOD,2025-11-29 02:01:00.502000+00:00,1764381360,2025-11-29T02:00:00.000Z,-8.9,-11.1,10,15.0,0.75,1017.4,78,-SN BR,0.005,METAR,METAR KCOD 290156Z AUTO 01015KT 3/4SM -SN BR BKN009 OVC013 M09/M11 A3004 RMK AO2 CIG 006V012 SLP219 P0000 T10891111 FZRANO $,44.52,-109.0268,1550,Cody/Yellowstone Rgnl,OVC,"[{'cover': 'BKN', 'base': 900}, {'cover': 'OVC', 'base': 1300}]",LIFR,,,1021.9,,,US,United States
936,KCOE,2025-11-29 02:00:46.544000+00:00,1764381360,2025-11-29T02:00:00.000Z,0.6,-2.8,30,7.0,10+,1026.8,70,,,METAR,METAR KCOE 290156Z AUTO 03007KT 10SM CLR 01/M03 A3032 RMK AO2 SLP307 T00061028 FZRANO,47.7719,-116.8332,693,Coeur DAlene Arpt,CLR,[],VFR,,,1030.7,,,US,United States
968,KCOF,2025-11-29 01:58:44.234000+00:00,1764381300,2025-11-29T02:00:00.000Z,16.8,10.6,350,11.0,10+,1022.4,14,,,METAR,METAR KCOF 290155Z AUTO 35011KT 10SM CLR 17/11 A3019 RMK AO2 SLP228 T01680106 $,28.242,-80.608,1,Cocoa Beach/Patrick,CLR,[],VFR,,,1022.8,,,US,United States
943,KCOM,2025-11-29 02:02:25.593000+00:00,1764381300,2025-11-29T02:00:00.000Z,13.6,10.5,160,9.0,10+,1018.7,134,,,METAR,METAR KCOM 290155Z AUTO 16009KT 10SM OVC022 14/11 A3008 RMK AO2 T01360105 PWINO,31.8415,-99.4058,516,Coleman Muni,OVC,"[{'cover': 'OVC', 'base': 2200}]",MVFR,,,,,,US,United States
1019,KCON,2025-11-29 01:57:23.128000+00:00,1764381060,2025-11-29T02:00:00.000Z,0.6,-5.6,260,11.0,,1011.3,14,,,METAR,METAR KCON 290151Z AUTO 26011G22KT OVC065 01/M06 A2986 RMK AO2 SLP115 T00061056 $,43.2049,-71.5026,102,Concord Muni,OVC,"[{'cover': 'OVC', 'base': 6500}]",,,22.0,1011.5,,,US,United States
973,KCOS,2025-11-29 01:58:36.990000+00:00,1764381240,2025-11-29T02:00:00.000Z,11.1,-10.0,280,13.0,10+,1008.9,4,,,METAR,METAR KCOS 290154Z 28013KT 10SM FEW120 11/M10 A2979 RMK AO2 SLP070 T01111100,38.8095,-104.6887,1886,Colorado Spring Arpt,FEW,"[{'cover': 'FEW', 'base': 12000}]",VFR,,,1007.0,,,US,United States
1010,KCOT,2025-11-29 01:58:53.288000+00:00,1764381180,2025-11-29T02:00:00.000Z,18.9,16.1,120,10.0,10+,1019.4,14,,,METAR,METAR KCOT 290153Z AUTO 12010KT 10SM BKN050 OVC075 19/16 A3010 RMK AO2 SLP186 T01890161 $,28.4585,-99.2228,144,Cotulla/LaSalle Cnty,OVC,"[{'cover': 'BKN', 'base': 5000}, {'cover': 'OVC', 'base': 7500}]",VFR,,,1018.6,,,US,United States
972,KCOU,2025-11-29 01:58:35.914000+00:00,1764381240,2025-11-29T02:00:00.000Z,1.1,-7.2,110,10.0,10+,1024.5,12,,,METAR,METAR KCOU 290154Z 11010KT 10SM OVC085 01/M07 A3025 RMK AO2 SLP252 T00111072 $,38.8171,-92.2148,272,Columbia Rgnl,OVC,"[{'cover': 'OVC', 'base': 8500}]",VFR,,,1025.2,,,US,United States
975,KCPR,2025-11-29 01:58:53.314000+00:00,1764381180,2025-11-29T02:00:00.000Z,-0.6,-3.9,10,15.0,10+,1010.6,4,,,METAR,METAR KCPR 290153Z 01015KT 10SM BKN027 OVC038 M01/M04 A2984 RMK AO2 SLP111 T10061039,42.8978,-106.4736,1623,Casper/Natrona Cnty,OVC,"[{'cover': 'BKN', 'base': 2700}, {'cover': 'OVC', 'base': 3800}]",MVFR,,,1011.1,,,US,United States
977,KCPS,2025-11-29 01:57:27.484000+00:00,1764381180,2025-11-29T02:00:00.000Z,1.7,-6.1,130,6.0,10+,1027.9,12,,,METAR,METAR KCPS 290153Z 13006KT 10SM FEW120 02/M06 A3035 RMK AO2 SLP283 T00171061 $,38.57,-90.156,125,St Louis/Downtown Arpt,FEW,"[{'cover': 'FEW', 'base': 12000}]",VFR,,,1028.3,,,US,United States
1568,KCQW,2025-11-29 02:01:02.407000+00:00,1764381300,2025-11-29T02:00:00.000Z,-1.0,-8.0,250,4.0,10+,1029.2,6,,,METAR,METAR KCQW 290155Z AUTO 25004KT 10SM CLR M01/M08 A3039 RMK AO2,34.7128,-79.9622,67,Cheraw Muni,CLR,[],VFR,,,,,,US,United States
999,KCRE,2025-11-29 01:57:33.420000+00:00,1764381180,2025-11-29T02:00:00.000Z,2.8,-5.6,340,4.0,10+,1028.9,6,,,METAR,METAR KCRE 290153Z AUTO 34004KT 10SM CLR 03/M06 A3038 RMK AO1 SLP289 T00281056,33.8162,-78.7204,9,North Myrtle Beach/Grand Strand Arpt,CLR,[],VFR,,,1028.9,,,US,United States
1001,KCRG,2025-11-29 01:57:33.445000+00:00,1764381180,2025-11-29T02:00:00.000Z,4.4,1.1,0,0.0,10+,1027.9,4,,,METAR,METAR KCRG 290153Z 00000KT 10SM CLR 04/01 A3035 RMK AO2 SLP275 T00440011,30.3371,-81.5128,12,Jacksonville/Executive at Craig Arpt,CLR,[],VFR,,,1027.5,,,US,United States
1017,KCRP,2025-11-29 01:57:22.758000+00:00,1764381060,2025-11-29T02:00:00.000Z,21.7,15.6,140,19.0,10+,1020.1,12,,,METAR,METAR KCRP 290151Z 14019KT 10SM OVC040 22/16 A3012 RMK AO2 PK WND 13026/0134 SLP199 T02170156 $,27.7734,-97.513,11,Corpus Christi Intl,OVC,"[{'cover': 'OVC', 'base': 4000}]",VFR,,,1019.9,,,US,United States
707,KCRQ,2025-11-29 01:58:44.403000+00:00,1764381180,2025-11-29T02:00:00.000Z,15.6,14.4,180,3.0,8,1015.7,6,,,METAR,METAR KCRQ 290153Z AUTO 18003KT 8SM CLR 16/14 A2999 RMK AO2 SLP156 T01560144,33.1299,-117.2765,96,Carlsbad/Palomar Arpt,CLR,[],VFR,,,1015.6,,,US,United States
989,KCRS,2025-11-29 01:58:52.544000+00:00,1764381180,2025-11-29T02:00:00.000Z,14.4,4.4,140,15.0,6,1022.4,6,VCTS +RA,0.02,METAR,METAR KCRS 290153Z AUTO 14015G23KT 6SM VCTS +RA BKN070 OVC090 14/04 A3019 RMK AO2 LTG DSNT W RAB39 SLP221 P0002 T01440044,32.0316,-96.3994,136,Corsicana Muni,OVC,"[{'cover': 'BKN', 'base': 7000}, {'cover': 'OVC', 'base': 9000}]",VFR,,23.0,1022.1,,,US,United States
971,KCRW,2025-11-29 01:58:36.678000+00:00,1764381240,2025-11-29T02:00:00.000Z,-2.2,-8.9,0,0.0,10+,1030.2,4,,,METAR,METAR KCRW 290154Z 00000KT 10SM FEW055 M02/M09 A3042 RMK AO2 SLP309 T10221089,38.3795,-81.5911,278,Charleston/Yeager Arpt,FEW,"[{'cover': 'FEW', 'base': 5500}]",VFR,,,1030.9,,,US,United States
957,KCRX,2025-11-29 02:06:32.988000+00:00,1764381300,2025-11-29T02:00:00.000Z,2.0,-1.0,0,0.0,10+,1029.2,6,,,METAR,METAR KCRX 290155Z AUTO 00000KT 10SM CLR 02/M01 A3039 RMK AO2,34.9209,-88.6071,128,Corinth/Turner Fld,CLR,[],VFR,,,,,,US,United States
1018,KCSG,2025-11-29 01:54:10.955000+00:00,1764381060,2025-11-29T02:00:00.000Z,3.9,-5.6,0,0.0,10+,1029.5,6,,,METAR,METAR KCSG 290151Z AUTO 00000KT 10SM CLR 04/M06 A3040 RMK AO2 SLP294 T00391056,32.5163,-84.9422,120,Columbus Arpt,CLR,[],VFR,,,1029.4,,,US,United States
960,KCSQ,2025-11-29 02:02:20.617000+00:00,1764381300,2025-11-29T02:00:00.000Z,-3.0,-8.0,110,15.0,8,1021.8,6,UP,,METAR,METAR KCSQ 290155Z AUTO 11015G21KT 8SM -UP FEW025 BKN039 OVC055 M03/M08 A3017 RMK AO2,41.0189,-94.361,394,Creston Muni,OVC,"[{'cover': 'FEW', 'base': 2500}, {'cover': 'BKN', 'base': 3900}, {'cover': 'OVC', 'base': 5500}]",VFR,,21.0,,,,US,United States
1008,KCSV,2025-11-29 01:57:33.493000+00:00,1764381180,2025-11-29T02:00:00.000Z,-1.7,-8.9,50,3.0,10+,1028.5,6,,,METAR,METAR KCSV 290153Z AUTO 05003KT 10SM CLR M02/M09 A3037 RMK AO2 SLP301 T10171089,35.951,-85.0814,569,Crossville/Whitson Fld,CLR,[],VFR,,,1030.1,,,US,United States
930,KCTB,2025-11-29 02:01:05.583000+00:00,1764381360,2025-11-29T02:00:00.000Z,-12.8,-15.6,330,16.0,10+,1028.5,6,,,METAR,METAR KCTB 290156Z AUTO 33016KT 10SM BKN028 OVC040 M13/M16 A3037 RMK AO2 SLP351 T11281156,48.6036,-112.3766,1172,Cut Bank Muni,OVC,"[{'cover': 'BKN', 'base': 2800}, {'cover': 'OVC', 'base': 4000}]",MVFR,,,1035.1,,,US,United States
959,KCTY,2025-11-29 02:02:12.754000+00:00,1764381300,2025-11-29T02:00:00.000Z,2.0,-6.0,10,4.0,10+,1027.2,6,,,METAR,METAR KCTY 290155Z AUTO 01004KT 10SM CLR 02/M06 A3033 RMK AO2,29.6334,-83.1055,12,Cross City Arpt,CLR,[],VFR,,,,,,US,United States
969,KCTZ,2025-11-29 02:01:18.598000+00:00,1764381300,2025-11-29T02:00:00.000Z,-0.6,-5.1,0,0.0,10+,1029.2,6,,,METAR,METAR KCTZ 290155Z AUTO 00000KT 10SM CLR M01/M05 A3039 RMK AO2 T10061051,34.9752,-78.3628,43,Clinton/Sampson Cnty,CLR,[],VFR,,,,,,US,United States
1007,KCUB,2025-11-29 01:57:33.513000+00:00,1764381180,2025-11-29T02:00:00.000Z,1.1,-6.7,0,0.0,10+,1029.5,6,,,METAR,METAR KCUB 290153Z AUTO 00000KT 10SM CLR 01/M07 A3040 RMK AO2 SLP293 T00111067,33.972,-80.9938,55,Columbia/Downtown Arpt,CLR,[],VFR,,,1029.3,,,US,United States
1013,KCVG,2025-11-29 01:57:37.106000+00:00,1764381120,2025-11-29T02:00:00.000Z,-3.9,-11.1,0,0.0,10+,1029.9,4,,,METAR,METAR KCVG 290152Z 00000KT 10SM FEW250 M04/M11 A3041 RMK AO2 SLP308 T10391111,39.0444,-84.6724,264,Cincinnati Intl,FEW,"[{'cover': 'FEW', 'base': 25000}]",VFR,,,1030.8,,,US,United States
940,KCVN,2025-11-29 02:01:00.524000+00:00,1764381360,2025-11-29T02:00:00.000Z,7.2,3.3,220,9.0,10+,1013.6,14,,,METAR,METAR KCVN 290156Z AUTO 22009KT 10SM CLR 07/03 A2993 RMK AO2 SLP131 T00720033 $,34.4227,-103.0803,1278,Clovis Muni,CLR,[],VFR,,,1013.1,,,US,United States
938,KCVO,2025-11-29 02:00:42.581000+00:00,1764381360,2025-11-29T02:00:00.000Z,9.4,8.9,30,5.0,10+,1021.8,4,,,METAR,METAR KCVO 290156Z 03005KT 10SM CLR 09/09 A3017 RMK AO2 SLP222 T00940089,44.5013,-123.293,75,Corvallis Muni,CLR,[],VFR,,,1022.2,,,US,United States
965,KCVS,2025-11-29 01:59:03.537000+00:00,1764381300,2025-11-29T02:00:00.000Z,7.8,2.9,230,8.0,10+,1012.6,14,,,METAR,METAR KCVS 290155Z AUTO 23008KT 10SM CLR 08/03 A2990 RMK AO2 SLP111 T00780029 $,34.381,-103.322,1305,Clovis/Cannon AFB,CLR,[],VFR,,,1011.1,,,US,United States
1033,KCWA,2025-11-29 01:51:16.559000+00:00,1764381000,2025-11-29T02:00:00.000Z,-6.0,-11.0,0,0.0,10+,1026.8,0,-SN,,METAR,METAR KCWA 290150Z 00000KT 10SM -SN OVC026 M06/M11 A3032,44.7795,-89.671,387,Mosinee/C Wisconsin Arpt,OVC,"[{'cover': 'OVC', 'base': 2600}]",MVFR,,,,,,US,United States
2141,KCWC,2025-11-29 02:01:02.596000+00:00,1764381300,2025-11-29T02:00:00.000Z,11.7,3.6,160,13.0,10+,1017.7,134,,0.01,METAR,METAR KCWC 290155Z AUTO 16013G20KT 10SM OVC033 12/04 A3005 RMK AO2 LTG DSNT NE THRU SE P0001 T01170036 PWINO,33.8629,-98.4914,304,Wichita Falls/Kickapoo Arpt,OVC,"[{'cover': 'OVC', 'base': 3300}]",VFR,,20.0,,,,US,United States
967,KCWF,2025-11-29 01:58:31.021000+00:00,1764381300,2025-11-29T02:00:00.000Z,12.0,1.0,90,3.0,10+,1026.8,0,,,METAR,METAR KCWF 290155Z 09003KT 10SM CLR 12/01 A3032,30.2216,-93.1467,4,Chenault Intl,CLR,[],VFR,,,,,,US,United States
934,KCWI,2025-11-29 02:00:47.767000+00:00,1764381360,2025-11-29T02:00:00.000Z,-3.9,-8.9,0,0.0,10+,1028.2,70,,,METAR,METAR KCWI 290156Z AUTO 00000KT 10SM OVC100 M04/M09 A3036 RMK AO2 SLP298 T10391089 FZRANO,41.8295,-90.3328,212,Clinton Muni,OVC,"[{'cover': 'OVC', 'base': 10000}]",VFR,,,1029.8,,,US,United States
1000,KCXO,2025-11-29 01:58:52.890000+00:00,1764381180,2025-11-29T02:00:00.000Z,14.4,5.0,130,7.0,10+,1024.8,4,,,METAR,METAR KCXO 290153Z 13007KT 10SM BKN090 OVC110 14/05 A3026 RMK AO2 SLP247 T01440050,30.3611,-95.4176,69,Conroe/Executive Arpt,OVC,"[{'cover': 'BKN', 'base': 9000}, {'cover': 'OVC', 'base': 11000}]",VFR,,,1024.7,,,US,United States
961,KCXP,2025-11-29 02:06:34.808000+00:00,1764381300,2025-11-29T02:00:00.000Z,11.0,-3.0,0,0.0,10+,1020.1,6,,,METAR,METAR KCXP 290155Z AUTO 00000KT 10SM CLR 11/M03 A3012 RMK AO2,39.1905,-119.7319,1431,Carson City Arpt,CLR,[],VFR,,,,,,US,United States
1547,KCXY,2025-11-29 02:01:02.655000+00:00,1764381360,2025-11-29T02:00:00.000Z,1.1,-8.9,270,9.0,10+,1024.1,12,,,METAR,METAR KCXY 290156Z 27009G18KT 10SM OVC070 01/M09 A3024 RMK AO2 SLP244 T00111089 $,40.2184,-76.8552,102,Harrisburg/Capital City Arpt,OVC,"[{'cover': 'OVC', 'base': 7000}]",VFR,,18.0,1024.4,,,US,United States
1006,KCYS,2025-11-29 01:58:52.568000+00:00,1764381180,2025-11-29T02:00:00.000Z,5.6,-4.4,270,11.0,10+,1008.5,14,,,METAR,METAR KCYS 290153Z AUTO 27011KT 10SM FEW070 SCT095 06/M04 A2978 RMK AO2 PK WND 29031/0114 SLP093 T00561044 $,41.1579,-104.8081,1868,Cheyenne Rgnl,SCT,"[{'cover': 'FEW', 'base': 7000}, {'cover': 'SCT', 'base': 9500}]",VFR,,,1009.3,,,US,United States
955,KCZT,2025-11-29 02:02:23.446000+00:00,1764381300,2025-11-29T02:00:00.000Z,17.0,17.0,110,4.0,10+,1019.4,6,,,METAR,METAR KCZT 290155Z AUTO 11004KT 10SM OVC041 17/17 A3010 RMK AO2,28.5204,-99.8192,176,Carrizo Springs Arpt,OVC,"[{'cover': 'OVC', 'base': 4100}]",VFR,,,,,,US,United States
966,KDAA,2025-11-29 02:02:06.287000+00:00,1764381300,2025-11-29T02:00:00.000Z,1.4,-11.1,260,4.0,10+,1026.5,14,,,METAR,METAR KDAA 290155Z AUTO 26004KT 10SM CLR 01/M11 A3031 RMK AO2 SLP268 T00141111 $,38.714,-77.178,17,Fort Belvoir/Davison,CLR,[],VFR,,,1026.8,,,US,United States
1004,KDAB,2025-11-29 01:58:45.075000+00:00,1764381180,2025-11-29T02:00:00.000Z,10.6,5.6,310,5.0,10+,1025.8,4,,,METAR,METAR KDAB 290153Z 31005KT 10SM CLR 11/06 A3029 RMK AO2 SLP256 T01060056,29.1735,-81.0719,8,Daytona Beach Intl,CLR,[],VFR,,,1025.6,,,US,United States
1024,KDAG,2025-11-29 01:57:40.023000+00:00,1764381000,2025-11-29T02:00:00.000Z,14.4,5.6,120,4.0,10+,1014.6,6,,,METAR,METAR KDAG 290150Z AUTO 12004KT 10SM CLR 14/06 A2996 RMK AO2 SLP139 T01440056,34.8537,-116.787,584,Barstow/Daggett Cnty,CLR,[],VFR,,,1013.9,,,US,United States
1009,KDAL,2025-11-29 01:58:44.371000+00:00,1764381180,2025-11-29T02:00:00.000Z,13.3,3.3,150,10.0,10+,1020.4,4,-RA,0.02,METAR,METAR KDAL 290153Z 15010G19KT 10SM -RA FEW048 BKN065 OVC080 13/03 A3013 RMK AO2 RAB28 SLP203 OCNL LTGICCC DSNT SW-W CB DSNT SW-W MOV E P0002 T01330033,32.8384,-96.8358,148,Dallas/Love Fld,OVC,"[{'cover': 'FEW', 'base': 4800}, {'cover': 'BKN', 'base': 6500}, {'cover': 'OVC', 'base': 8000}]",VFR,,19.0,1020.3,,,US,United States
1005,KDAN,2025-11-29 01:57:33.578000+00:00,1764381180,2025-11-29T02:00:00.000Z,0.0,-10.6,290,6.0,10+,1029.5,6,,,METAR,METAR KDAN 290153Z AUTO 29006KT 10SM CLR 00/M11 A3040 RMK AO2 SLP293 T00001106,36.5729,-79.335,170,Danville Rgnl,CLR,[],VFR,,,1029.3,,,US,United States
939,KDAY,2025-11-29 02:01:02.815000+00:00,1764381360,2025-11-29T02:00:00.000Z,-5.0,-11.1,280,4.0,10+,1029.5,4,,,METAR,METAR KDAY 290156Z 28004KT 10SM CLR M05/M11 A3040 RMK AO2 SLP309 T10501111,39.9064,-84.2185,303,Dayton/Cox Intl,CLR,[],VFR,,,1030.9,,,US,United States
963,KDBN,2025-11-29 01:58:44.736000+00:00,1764381300,2025-11-29T02:00:00.000Z,0.5,-8.1,320,3.0,10+,1028.9,14,,,METAR,METAR KDBN 290155Z AUTO 32003KT 10SM CLR 01/M08 A3038 RMK AO2 T00051081 $,32.5632,-82.9855,90,Dublin/Barron Arpt,CLR,[],VFR,,,,,,US,United States
984,KDBQ,2025-11-29 01:58:36.536000+00:00,1764381180,2025-11-29T02:00:00.000Z,-3.3,-7.2,0,0.0,10+,1026.8,12,,,METAR,METAR KDBQ 290153Z 00000KT 10SM OVC100 M03/M07 A3032 RMK AO2 SLP285 T10331072 $,42.3984,-90.7091,317,Dubuque Rgnl,OVC,"[{'cover': 'OVC', 'base': 10000}]",VFR,,,1028.5,,,US,United States
1015,KDCA,2025-11-29 01:57:37.133000+00:00,1764381120,2025-11-29T02:00:00.000Z,1.7,-9.4,300,6.0,10+,1027.2,12,,,METAR,METAR KDCA 290152Z 30006KT 10SM SCT070 02/M09 A3033 RMK AO2 SLP269 T00171094 $,38.8472,-77.0345,4,Washington/Reagan-National Arpt,SCT,"[{'cover': 'SCT', 'base': 7000}]",VFR,,,1026.9,,,US,United States
1002,KDCU,2025-11-29 01:57:33.601000+00:00,1764381180,2025-11-29T02:00:00.000Z,1.1,-2.8,360,3.0,10+,1029.9,78,,,METAR,METAR KDCU 290153Z AUTO 36003KT 10SM CLR 01/M03 A3041 RMK AO2 SLP300 T00111028 FZRANO $,34.658,-86.9434,180,Decatur/Pryor Fld,CLR,[],VFR,,,1030.0,,,US,United States
1012,KDDC,2025-11-29 01:57:27.621000+00:00,1764381120,2025-11-29T02:00:00.000Z,7.8,3.9,160,20.0,9,1009.2,6,,,METAR,METAR KDDC 290152Z AUTO 16020G28KT 9SM FEW034 08/04 A2980 RMK AO2 PK WND 18030/0113 SLP097 T00780039,37.7711,-99.9692,786,Dodge City Arpt,FEW,"[{'cover': 'FEW', 'base': 3400}]",VFR,,28.0,1009.7,,,US,United States
974,KDEC,2025-11-29 01:58:56.459000+00:00,1764381240,2025-11-29T02:00:00.000Z,-4.4,-7.2,110,5.0,10+,1028.9,4,,,METAR,METAR KDEC 290154Z 11005KT 10SM FEW100 M04/M07 A3038 RMK AO2 SLP298 T10441072,39.8308,-88.8719,205,Decatur Arpt,FEW,"[{'cover': 'FEW', 'base': 10000}]",VFR,,,1029.8,,,US,United States
951,KDEH,2025-11-29 02:02:15.953000+00:00,1764381300,2025-11-29T02:00:00.000Z,-3.0,-7.0,0,0.0,10+,1025.8,6,,,METAR,METAR KDEH 290155Z AUTO 00000KT 10SM FEW060 OVC075 M03/M07 A3029 RMK AO2,43.2755,-91.7433,348,Decorah Muni,OVC,"[{'cover': 'FEW', 'base': 6000}, {'cover': 'OVC', 'base': 7500}]",VFR,,,,,,US,United States
990,KDEN,2025-11-29 01:58:35.673000+00:00,1764381180,2025-11-29T02:00:00.000Z,0.6,-2.8,50,9.0,10+,1008.5,4,,,METAR,METAR KDEN 290153Z 05009KT 10SM FEW090 FEW130 SCT200 01/M03 A2978 RMK AO2 SLP098 T00061028,39.8466,-104.6562,1656,Denver Intl,SCT,"[{'cover': 'FEW', 'base': 9000}, {'cover': 'FEW', 'base': 13000}, {'cover': 'SCT', 'base': 20000}]",VFR,,,1009.8,,,US,United States
995,KDET,2025-11-29 01:58:35.039000+00:00,1764381180,2025-11-29T02:00:00.000Z,-1.1,-10.0,280,9.0,10+,1027.2,4,,,METAR,METAR KDET 290153Z 28009G18KT 10SM OVC041 M01/M10 A3033 RMK AO2 SLP280 T10111100,42.4072,-83.009,190,Detroit/C Young Arpt,OVC,"[{'cover': 'OVC', 'base': 4100}]",VFR,,18.0,1028.0,,,US,United States
991,KDFI,2025-11-29 01:58:57.618000+00:00,1764381180,2025-11-29T02:00:00.000Z,-1.1,-7.8,260,5.0,10+,1029.2,6,,,METAR,METAR KDFI 290153Z AUTO 26005KT 10SM OVC039 M01/M08 A3039 RMK AO2 SLP300 T10111078,41.3357,-84.4285,215,Defiance Mem Arpt,OVC,"[{'cover': 'OVC', 'base': 3900}]",VFR,,,1030.0,,,US,United States
992,KDFW,2025-11-29 01:58:52.911000+00:00,1764381180,2025-11-29T02:00:00.000Z,12.2,4.4,150,12.0,10+,1020.1,4,-TSRA,0.02,METAR,METAR KDFW 290153Z 15012G17KT 10SM -TSRA SCT041CB OVC080 12/04 A3012 RMK AO2 RAB08 TSB53 SLP197 OCNL LTGICCG S-W TS S-W MOV E P0002 T01220044,32.8974,-97.022,168,Dallas-Ft Worth Intl,OVC,"[{'cover': 'SCT', 'base': 4100}, {'cover': 'OVC', 'base': 8000}]",VFR,,17.0,1019.7,,,US,United States
983,KDGW,2025-11-29 01:58:35.694000+00:00,1764381180,2025-11-29T02:00:00.000Z,1.1,-3.9,60,4.0,10+,1010.2,6,,,METAR,METAR KDGW 290153Z AUTO 06004KT 10SM BKN025 BKN036 OVC065 01/M04 A2983 RMK AO2 SLP128 T00111039,42.796,-105.38,1503,Douglas/Converse Cnty,OVC,"[{'cover': 'BKN', 'base': 2500}, {'cover': 'BKN', 'base': 3600}, {'cover': 'OVC', 'base': 6500}]",MVFR,,,1012.8,,,US,United States
998,KDHN,2025-11-29 01:57:33.781000+00:00,1764381180,2025-11-29T02:00:00.000Z,4.4,-2.8,20,4.0,10+,1029.9,14,,,METAR,METAR KDHN 290153Z AUTO 02004KT 10SM CLR 04/M03 A3041 RMK AO1 SLP297 T00441028 $,31.3177,-85.4432,113,Dothan Rgnl,CLR,[],VFR,,,1029.7,,,US,United States
979,KDHT,2025-11-29 01:59:01.320000+00:00,1764381180,2025-11-29T02:00:00.000Z,6.7,2.8,180,9.0,10+,1009.6,6,,,METAR,METAR KDHT 290153Z AUTO 18009KT 10SM CLR 07/03 A2981 RMK AO2 SLP086 T00670028,36.0252,-102.5487,1217,Dalhart Muni,CLR,[],VFR,,,1008.6,,,US,United States
932,KDIK,2025-11-29 02:01:02.840000+00:00,1764381360,2025-11-29T02:00:00.000Z,-9.4,-10.6,70,9.0,1,1018.7,6,-SN BR,0.005,METAR,METAR KDIK 290156Z AUTO 07009KT 1SM -SN BR VV012 M09/M11 A3008 RMK AO2 SLP237 P0000 T10941106,46.7997,-102.7971,788,Dickinson/Roosevelt,OVX,"[{'cover': 'OVX', 'base': 1200}]",IFR,12.0,,1023.7,,,US,United States
980,KDKK,2025-11-29 01:58:49.024000+00:00,1764381180,2025-11-29T02:00:00.000Z,0.6,-6.7,290,16.0,10+,1023.5,6,,0.005,METAR,METAR KDKK 290153Z AUTO 29016G30KT 10SM SCT034 OVC050 01/M07 A3022 RMK AO2 PK WND 30030/0149 SNE0054B31E42 SLP242 P0000 T00061067,42.4932,-79.2762,205,Dunkirk/Chautauqua Cnty,OVC,"[{'cover': 'SCT', 'base': 3400}, {'cover': 'OVC', 'base': 5000}]",VFR,,30.0,1024.2,,,US,United States
949,KDLF,2025-11-29 01:58:55.631000+00:00,1764381300,2025-11-29T02:00:00.000Z,16.1,13.9,120,8.0,10+,1017.0,14,,,METAR,METAR KDLF 290155Z AUTO 12008KT 10SM BKN011 OVC020 16/14 A3003 RMK AO2 BKN V OVC SLP165 T01610139 $,29.3666,-100.7847,328,Laughlin AFB,OVC,"[{'cover': 'BKN', 'base': 1100}, {'cover': 'OVC', 'base': 2000}]",MVFR,,,1016.5,,,US,United States
954,KDLH,2025-11-29 02:00:58.929000+00:00,1764381300,2025-11-29T02:00:00.000Z,-12.2,-14.4,330,3.0,10+,1026.2,12,,,METAR,METAR KDLH 290155Z 33003KT 10SM FEW025 M12/M14 A3030 RMK AO2 SLP295 T11221144 $,46.8435,-92.1866,434,Duluth Intl Arpt,FEW,"[{'cover': 'FEW', 'base': 2500}]",VFR,,,1029.5,,,US,United States
869,KDLN,2025-11-29 02:04:11.151000+00:00,1764381660,2025-11-29T02:01:00.000Z,-9.4,-14.4,50,17.0,10+,1021.4,6,,0.005,SPECI,SPECI KDLN 290201Z AUTO 05017G27KT 10SM SCT016 OVC041 M09/M14 A3016 RMK AO2 PK WND 04027/0158 SNE0154 P0000 T10941144,45.2584,-112.5546,1586,Dillon Arpt,OVC,"[{'cover': 'SCT', 'base': 1600}, {'cover': 'OVC', 'base': 4100}]",VFR,,27.0,,,,US,United States
948,KDMA,2025-11-29 01:59:23.615000+00:00,1764381300,2025-11-29T02:00:00.000Z,17.3,2.8,290,5.0,10+,1016.7,14,,,METAR,METAR KDMA 290155Z AUTO 29005KT 10SM CLR 17/03 A3002 RMK AO2 SLP188 T01730028 $,32.165,-110.887,804,Tucson/Davis AFB,CLR,[],VFR,,,1018.8,,,US,United States
996,KDMN,2025-11-29 01:58:44.265000+00:00,1764381180,2025-11-29T02:00:00.000Z,15.6,1.1,270,8.0,10+,1017.0,6,,,METAR,METAR KDMN 290153Z AUTO 27008KT 10SM CLR 16/01 A3003 RMK AO2 SLP139 T01560011,32.2592,-107.7206,1310,Deming Muni,CLR,[],VFR,,,1013.9,,,US,United States
997,KDMO,2025-11-29 01:57:33.863000+00:00,1764381180,2025-11-29T02:00:00.000Z,2.8,-5.6,110,10.0,10+,1022.8,6,,,METAR,METAR KDMO 290153Z AUTO 11010KT 10SM OVC070 03/M06 A3020 RMK AO2 SLP235 T00281056,38.712,-93.1747,271,Sedalia Mem,OVC,"[{'cover': 'OVC', 'base': 7000}]",VFR,,,1023.5,,,US,United States
1003,KDNL,2025-11-29 01:57:33.879000+00:00,1764381180,2025-11-29T02:00:00.000Z,5.6,-8.9,340,5.0,10+,1028.2,6,,,METAR,METAR KDNL 290153Z AUTO 34005KT 10SM CLR 06/M09 A3036 RMK AO2 SLP283 T00561089,33.4668,-82.0385,126,Augusta/Daniel Fld,CLR,[],VFR,,,1028.3,,,US,United States
944,KDNN,2025-11-29 01:58:47.257000+00:00,1764381300,2025-11-29T02:00:00.000Z,0.9,-7.4,340,5.0,10+,1029.5,6,,,METAR,METAR KDNN 290155Z AUTO 34005KT 10SM FEW350 01/M07 A3040 RMK AO2 T00091074,34.727,-84.8733,216,Dalton Muni,FEW,"[{'cover': 'FEW', 'base': 35000}]",VFR,,,,,,US,United States
941,KDNS,2025-11-29 02:02:20.657000+00:00,1764381300,2025-11-29T02:00:00.000Z,-4.0,-5.0,100,12.0,3,1022.8,6,-SN,,METAR,METAR KDNS 290155Z AUTO 10012G17KT 3SM -SN FEW004 SCT018 BKN022 M04/M05 A3020 RMK AO2,41.9842,-95.38,382,Denison Muni,BKN,"[{'cover': 'FEW', 'base': 400}, {'cover': 'SCT', 'base': 1800}, {'cover': 'BKN', 'base': 2200}]",MVFR,,17.0,,,,US,United States
964,KDOV,2025-11-29 01:58:44.250000+00:00,1764381300,2025-11-29T02:00:00.000Z,2.0,-8.4,260,9.0,10+,1024.5,14,,,METAR,METAR KDOV 290155Z AUTO 26009KT 10SM CLR 02/M08 A3025 RMK AO2 SLP248 T00201084 $,39.13,-75.465,6,Dover AFB,CLR,[],VFR,,,1024.8,,,US,United States
1016,KDPA,2025-11-29 01:57:28.187000+00:00,1764381120,2025-11-29T02:00:00.000Z,-5.0,-9.4,0,0.0,10+,1028.2,4,,,METAR,METAR KDPA 290152Z 00000KT 10SM CLR M05/M09 A3036 RMK AO2 SLP293 T10501094,41.8964,-88.2512,228,Dupage Cnty Arpt,CLR,[],VFR,,,1029.3,,,US,United States
982,KDRA,2025-11-29 01:59:09.567000+00:00,1764381180,2025-11-29T02:00:00.000Z,9.4,3.9,50,4.0,10+,1016.3,6,,,METAR,METAR KDRA 290153Z AUTO 05004KT 10SM CLR 09/04 A3001 RMK AO2 SLP151 T00940039,36.621,-116.029,988,Mercury/Desert Rock,CLR,[],VFR,,,1015.1,,,US,United States
945,KDRI,2025-11-29 01:58:47.282000+00:00,1764381300,2025-11-29T02:00:00.000Z,10.2,-0.7,0,0.0,10+,1026.5,14,,,METAR,METAR KDRI 290155Z AUTO 00000KT 10SM CLR 10/M01 A3031 RMK AO2 T01021007 $,30.8344,-93.3358,59,Deridder/Beauregard Rgnl,CLR,[],VFR,,,,,,US,United States
962,KDRM,2025-11-29 01:58:56.491000+00:00,1764381300,2025-11-29T02:00:00.000Z,-3.0,-9.8,0,0.0,10+,1023.5,6,,,METAR,METAR KDRM 290155Z AUTO 00000KT 10SM OVC065 M03/M10 A3022 RMK AO2 T10301098,46.009,-83.743,201,Drummond Island Arpt,OVC,"[{'cover': 'OVC', 'base': 6500}]",VFR,,,,,,US,United States
993,KDRO,2025-11-29 01:58:35.435000+00:00,1764381180,2025-11-29T02:00:00.000Z,6.1,-3.3,280,3.0,10+,1015.7,6,,,METAR,METAR KDRO 290153Z AUTO 28003KT 10SM CLR 06/M03 A2999 RMK AO2 SLP162 T00611033,37.1431,-107.7602,2021,Durango/La Plata Cnty,CLR,[],VFR,,,1016.2,,,US,United States
985,KDRT,2025-11-29 01:58:44.323000+00:00,1764381180,2025-11-29T02:00:00.000Z,15.6,13.9,120,6.0,10+,1018.4,6,,,METAR,METAR KDRT 290153Z AUTO 12006KT 10SM OVC010 16/14 A3007 RMK AO2 SLP181 T01560139,29.3784,-100.927,303,Del Rio Intl,OVC,"[{'cover': 'OVC', 'base': 1000}]",MVFR,,,1018.1,,,US,United States
970,KDSM,2025-11-29 01:59:09.790000+00:00,1764381240,2025-11-29T02:00:00.000Z,-3.9,-5.6,90,12.0,10+,1024.5,4,-SN,0.005,METAR,METAR KDSM 290154Z 09012KT 10SM -SN FEW019 OVC050 M04/M06 A3025 RMK AO2 SNE18B47 SLP259 P0000 T10391056,41.5339,-93.6531,286,Des Moines Intl,OVC,"[{'cover': 'FEW', 'base': 1900}, {'cover': 'OVC', 'base': 5000}]",VFR,,,1025.9,,,US,United States
1264,KDSV,2025-11-29 01:58:47.298000+00:00,1764381240,2025-11-29T02:00:00.000Z,0.6,-6.7,280,11.0,10+,1021.1,6,,,METAR,METAR KDSV 290154Z AUTO 28011G17KT 10SM CLR 01/M07 A3015 RMK AO2 SLP227 T00061067,42.5699,-77.7143,195,Dansville Muni,CLR,[],VFR,,17.0,1022.7,,,US,United States
1231,KDTA,2025-11-29 02:01:02.938000+00:00,1764381300,2025-11-29T02:00:00.000Z,7.0,-9.0,,,10+,1016.7,6,,,METAR,METAR KDTA 290155Z AUTO 10SM CLR 07/M09 A3002 RMK AO1,39.3879,-112.5041,1452,Delta Muni,CLR,[],VFR,,,,,,US,United States
1291,KDTN,2025-11-29 01:57:33.950000+00:00,1764381180,2025-11-29T02:00:00.000Z,12.8,0.6,150,9.0,10+,1025.5,6,,,METAR,METAR KDTN 290153Z AUTO 15009KT 10SM BKN100 OVC120 13/01 A3028 RMK AO2 SLP255 T01280006,32.5429,-93.745,53,Shreveport/Downtown Arpt,OVC,"[{'cover': 'BKN', 'base': 10000}, {'cover': 'OVC', 'base': 12000}]",VFR,,,1025.5,,,US,United States
994,KDTS,2025-11-29 01:59:02.185000+00:00,1764381180,2025-11-29T02:00:00.000Z,10.6,-2.8,20,9.0,10+,1028.2,4,,,METAR,METAR KDTS 290153Z 02009G16KT 10SM CLR 11/M03 A3036 RMK AO2 SLP279 T01061028,30.3933,-86.4674,5,Destin Arpt,CLR,[],VFR,,16.0,1027.9,,,US,United States
1285,KDTW,2025-11-29 01:57:39.714000+00:00,1764381180,2025-11-29T02:00:00.000Z,-1.0,-9.0,280,11.0,10+,1027.9,0,,,METAR,METAR KDTW 290153Z 28011KT 10SM OVC040 M01/M09 A3035 RMK SLPNO T10101090,42.2311,-83.3312,192,Detroit/Metro Wayne Cnty,OVC,"[{'cover': 'OVC', 'base': 4000}]",VFR,,,,,,US,United States
1229,KDUA,2025-11-29 02:01:19.222000+00:00,1764381300,2025-11-29T02:00:00.000Z,12.0,4.0,140,10.0,10+,1021.8,6,VCTS,,METAR,METAR KDUA 290155Z AUTO 14010G17KT 10SM VCTS OVC060 12/04 A3017 RMK AO2 LTG DSNT N AND W,33.9427,-96.3967,209,Durant/Eaker Fld,OVC,"[{'cover': 'OVC', 'base': 6000}]",VFR,,17.0,,,,US,United States
1232,KDUC,2025-11-29 02:01:19.285000+00:00,1764381300,2025-11-29T02:00:00.000Z,9.0,6.0,140,13.0,10+,1018.0,6,,,METAR,METAR KDUC 290155Z AUTO 14013KT 10SM OVC037 09/06 A3006 RMK AO2 LTG DSNT E AND SE,34.4778,-97.9616,339,Duncan/Halliburton Fld,OVC,"[{'cover': 'OVC', 'base': 3700}]",VFR,,,,,,US,United States
1269,KDUJ,2025-11-29 01:58:35.062000+00:00,1764381180,2025-11-29T02:00:00.000Z,-3.9,-7.2,270,10.0,10+,1022.4,6,,,METAR,METAR KDUJ 290153Z AUTO 27010G18KT 10SM BKN018 BKN023 OVC060 M04/M07 A3019 RMK AO2 SLP249 T10391072,41.1795,-78.8933,552,Du Bois Rgnl,OVC,"[{'cover': 'BKN', 'base': 1800}, {'cover': 'BKN', 'base': 2300}, {'cover': 'OVC', 'base': 6000}]",MVFR,,18.0,1024.9,,,US,United States
1209,KDVL,2025-11-29 02:00:58.802000+00:00,1764381360,2025-11-29T02:00:00.000Z,-8.3,-11.7,80,8.0,10+,1026.2,70,,,METAR,METAR KDVL 290156Z AUTO 08008KT 10SM OVC020 M08/M12 A3030 RMK AO2 SLP297 T10831117 FZRANO,48.1136,-98.9034,439,Devils Lake Rgnl,OVC,"[{'cover': 'OVC', 'base': 2000}]",MVFR,,,1029.7,,,US,United States
1304,KDVN,2025-11-29 01:57:28.209000+00:00,1764381120,2025-11-29T02:00:00.000Z,-1.7,-7.8,0,0.0,10+,,14,,,METAR,METAR KDVN 290152Z AUTO 00000KT 10SM OVC060 M02/M08 RMK AO2 SLPNO T10171078 $,41.6133,-90.5948,227,Davenport Muni,OVC,"[{'cover': 'OVC', 'base': 6000}]",VFR,,,,,,US,United States
3131,KDVO,2025-11-29 02:02:20.091000+00:00,1764381300,2025-11-29T02:00:00.000Z,9.0,7.0,130,4.0,10+,1019.0,6,,,METAR,METAR KDVO 290155Z AUTO 13004KT 10SM OVC008 09/07 A3009 RMK AO2,38.1417,-122.5547,1,Novato/Gnoss Fld,OVC,"[{'cover': 'OVC', 'base': 800}]",IFR,,,,,,US,United States
3147,KDVP,2025-11-29 01:57:39.733000+00:00,1764381180,2025-11-29T02:00:00.000Z,-5.5,-5.5,100,9.0,7,1022.8,6,UP,,METAR,METAR KDVP 290153Z AUTO 10009KT 7SM UP BKN060 OVC090 M05/M05 A3020 RMK AO2 T10551055,43.9905,-95.781,493,Slayton Muni,OVC,"[{'cover': 'BKN', 'base': 6000}, {'cover': 'OVC', 'base': 9000}]",VFR,,,,,,US,United States
1275,KDVT,2025-11-29 01:58:53.332000+00:00,1764381180,2025-11-29T02:00:00.000Z,17.2,7.8,0,0.0,10+,1015.0,4,,,METAR,METAR KDVT 290153Z 00000KT 10SM CLR 17/08 A2997 RMK AO2 SLP139 T01720078,33.6902,-112.0662,454,Phoenix/Deer Valley Arpt,CLR,[],VFR,,,1013.9,,,US,United States
1270,KDWH,2025-11-29 01:58:35.453000+00:00,1764381180,2025-11-29T02:00:00.000Z,14.4,7.2,110,11.0,10+,1024.1,4,,,METAR,METAR KDWH 290153Z 11011KT 10SM SCT100 OVC110 14/07 A3024 RMK AO2 SLP240 T01440072,30.068,-95.5563,46,Houston/Hooks Mem,OVC,"[{'cover': 'SCT', 'base': 10000}, {'cover': 'OVC', 'base': 11000}]",VFR,,,1024.0,,,US,United States
1276,KDXR,2025-11-29 01:58:53.167000+00:00,1764381180,2025-11-29T02:00:00.000Z,2.8,-9.4,280,11.0,10+,1017.4,12,,,METAR,METAR KDXR 290153Z 28011G21KT 10SM FEW055 03/M09 A3004 RMK AO2 SLP175 T00281094 $,41.3721,-73.4834,138,Danbury Muni,FEW,"[{'cover': 'FEW', 'base': 5500}]",VFR,,21.0,1017.5,,,US,United States
1260,KDYL,2025-11-29 01:58:56.538000+00:00,1764381240,2025-11-29T02:00:00.000Z,1.1,-7.2,290,11.0,10+,1021.4,6,,,METAR,METAR KDYL 290154Z AUTO 29011G20KT 10SM CLR 01/M07 A3016 RMK AO2 SLP221 T00111072,40.3302,-75.1228,121,Doylestown Arpt,CLR,[],VFR,,20.0,1022.1,,,US,United States
1250,KDYS,2025-11-29 02:02:06.311000+00:00,1764381300,2025-11-29T02:00:00.000Z,13.5,11.0,170,23.0,10+,1016.0,12,,,METAR,METAR KDYS 290155Z 17023G28KT 10SM SCT010 OVC028 14/11 A3000 RMK AO2A PK WND 17030/29 SLP152 T01350110 $,32.406,-99.85,544,Abilene/Dyess AFB,OVC,"[{'cover': 'SCT', 'base': 1000}, {'cover': 'OVC', 'base': 2800}]",MVFR,,28.0,1015.2,,,US,United States
1242,KEAN,2025-11-29 02:04:09.751000+00:00,1764381300,2025-11-29T02:00:00.000Z,-0.4,-4.7,0,0.0,10+,1009.9,6,,,METAR,METAR KEAN 290155Z AUTO 00000KT 10SM CLR 00/M05 A2982 RMK AO2 T10041047,42.0563,-104.9386,1452,Wheatland/Phifer Fld,CLR,[],VFR,,,,,,US,United States
1192,KEAR,2025-11-29 02:00:58.954000+00:00,1764381360,2025-11-29T02:00:00.000Z,-1.7,-5.6,90,13.0,10+,1014.6,70,,,METAR,METAR KEAR 290156Z AUTO 09013KT 10SM OVC034 M02/M06 A2996 RMK AO2 SLP166 T10171056 FZRANO,40.7193,-99.0086,649,Kearney Rgnl,OVC,"[{'cover': 'OVC', 'base': 3400}]",VFR,,,1016.6,,,US,United States
1128,KEAT,2025-11-29 02:08:27.025000+00:00,1764381900,2025-11-29T02:05:00.000Z,2.2,0.6,320,3.0,10+,1028.5,6,,,SPECI,SPECI KEAT 290205Z AUTO 32003KT 10SM FEW023 02/01 A3037 RMK AO2 T00220006,47.3975,-120.2013,375,Wenatchee/Pangborn Mem,FEW,"[{'cover': 'FEW', 'base': 2300}]",VFR,,,,,,US,United States
1205,KEAU,2025-11-29 02:01:03.052000+00:00,1764381360,2025-11-29T02:00:00.000Z,-7.2,-10.0,70,4.0,10+,1027.2,4,,,METAR,METAR KEAU 290156Z 07004KT 10SM SCT033 M07/M10 A3033 RMK AO2 SLP287 T10721100,44.8665,-91.4881,271,Eau Claire/Chippewa Valley Rgnl,SCT,"[{'cover': 'SCT', 'base': 3300}]",VFR,,,1028.7,,,US,United States
1237,KEBS,2025-11-29 02:02:21.434000+00:00,1764381300,2025-11-29T02:00:00.000Z,-5.0,-5.0,100,12.0,0.5,1024.1,6,-SN BR,,METAR,METAR KEBS 290155Z AUTO 10012KT 1/2SM -SN BR OVC002 M05/M05 A3024 RMK AO2,42.4372,-93.8725,340,Webster City Muni,OVC,"[{'cover': 'OVC', 'base': 200}]",LIFR,,,,,,US,United States
1262,KECG,2025-11-29 01:58:56.561000+00:00,1764381240,2025-11-29T02:00:00.000Z,-1.1,-8.9,310,8.0,10+,1028.2,4,,,METAR,METAR KECG 290154Z 31008KT 10SM CLR M01/M09 A3036 RMK AO2 SLP281 T10111089,36.2572,-76.1716,2,Elizabeth City Rgnl,CLR,[],VFR,,,1028.1,,,US,United States
1277,KECP,2025-11-29 01:57:34.066000+00:00,1764381180,2025-11-29T02:00:00.000Z,4.4,0.0,360,4.0,10+,1027.9,4,,,METAR,METAR KECP 290153Z 36004KT 10SM CLR 04/00 A3035 RMK AO2 SLP290 T00440000,30.3487,-85.7883,17,Panama City/NW Florida Beaches Intl,CLR,[],VFR,,,1029.0,,,US,United States
1255,KECS,2025-11-29 02:01:03.090000+00:00,1764381300,2025-11-29T02:00:00.000Z,0.0,-1.0,330,7.0,1.25,1011.3,6,SN,0.01,METAR,METAR KECS 290155Z AUTO 33007KT 1 1/4SM SN OVC008 00/M01 A2986 RMK AO2 P0001,43.8845,-104.312,1273,Newcastle/Mondell Arpt,OVC,"[{'cover': 'OVC', 'base': 800}]",IFR,,,,,,US,United States
1216,KEDE,2025-11-29 02:00:45.102000+00:00,1764381300,2025-11-29T02:00:00.000Z,1.2,-5.5,320,5.0,10+,1028.9,6,,,METAR,METAR KEDE 290155Z AUTO 32005KT 10SM CLR 01/M05 A3038 RMK AO2 T00121055,36.0286,-76.5668,4,Edenton/Northeast Rgnl,CLR,[],VFR,,,,,,US,United States
1230,KEDN,2025-11-29 02:01:03.119000+00:00,1764381300,2025-11-29T02:00:00.000Z,3.9,-1.1,0,0.0,10+,1028.5,6,,,METAR,METAR KEDN 290155Z AUTO 00000KT 10SM CLR 04/M01 A3037 RMK AO1 T00391011,31.299,-85.9,103,Enterprise Muni,CLR,[],VFR,,,,,,US,United States
1249,KEDW,2025-11-29 02:02:06.340000+00:00,1764381300,2025-11-29T02:00:00.000Z,15.9,-4.1,240,10.0,50,1014.6,4,,,METAR,METAR KEDW 290155Z 24010KT 50SM CLR 16/M04 A2996 RMK AO2A SLP145 T01591041,34.908,-117.874,698,Edwards AFB,CLR,[],VFR,,,1014.5,,,US,United States
1195,KEED,2025-11-29 02:01:05.601000+00:00,1764381360,2025-11-29T02:00:00.000Z,17.2,7.2,240,3.0,10+,1014.0,6,,,METAR,METAR KEED 290156Z AUTO 24003KT 10SM CLR 17/07 A2994 RMK AO2 SLP126 T01720072,34.7678,-114.6184,271,Needles Arpt,CLR,[],VFR,,,1012.6,,,US,United States
1259,KEFD,2025-11-29 01:47:46.061000+00:00,1764381240,2025-11-29T02:00:00.000Z,16.0,9.0,90,7.0,10+,1024.8,0,,,METAR,METAR KEFD 290154Z 09007KT 10SM BKN027 16/09 A3026,29.606,-95.16,9,Houston/Ellington Arpt,BKN,"[{'cover': 'BKN', 'base': 2700}]",MVFR,,,,,,US,United States
1211,KEFK,2025-11-29 02:00:59.992000+00:00,1764381300,2025-11-29T02:00:00.000Z,-3.7,-8.3,240,7.0,5,1009.9,6,-SN,,METAR,METAR KEFK 290155Z AUTO 24007G18KT 220V280 5SM -SN SCT026 OVC032 M04/M08 A2982 RMK AO2 T10371083,44.8886,-72.2296,282,Newport/Northeast Kingdom Intl,OVC,"[{'cover': 'SCT', 'base': 2600}, {'cover': 'OVC', 'base': 3200}]",MVFR,,18.0,,,,US,United States
1202,KEGE,2025-11-29 02:00:48.857000+00:00,1764381360,2025-11-29T02:00:00.000Z,7.2,-4.4,300,12.0,10+,1013.3,14,,,METAR,METAR KEGE 290156Z AUTO 30012KT 10SM FEW065 SCT110 07/M04 A2992 RMK AO2 SLP130 T00721044 $,39.6448,-106.9176,1993,Eagle Cnty Rgnl,SCT,"[{'cover': 'FEW', 'base': 6500}, {'cover': 'SCT', 'base': 11000}]",VFR,,,1013.0,,,US,United States
1251,KEGI,2025-11-29 02:06:47.167000+00:00,1764381300,2025-11-29T02:00:00.000Z,3.6,-1.2,20,3.0,10+,1028.2,14,,,METAR,METAR KEGI 290155Z AUTO 02003KT 10SM CLR 04/M01 A3036 RMK AO2 SLP283 T00361012 $,30.653,-86.525,59,Eglin AFB/Duke Fld,CLR,[],VFR,,,1028.3,,,US,United States
1245,KEGV,2025-11-29 02:00:52.741000+00:00,1764381300,2025-11-29T02:00:00.000Z,-8.7,-11.5,250,4.0,10+,1025.5,6,,,METAR,METAR KEGV 290155Z AUTO 25004KT 10SM OVC031 M09/M11 A3028 RMK AO2 T10871115,45.9309,-89.267,499,Eagle River/Union Arpt,OVC,"[{'cover': 'OVC', 'base': 3100}]",VFR,,,,,,US,United States
1218,KEKM,2025-11-29 01:58:47.324000+00:00,1764381300,2025-11-29T02:00:00.000Z,-6.8,-8.5,0,0.0,10+,1028.5,14,,,METAR,METAR KEKM 290155Z AUTO 00000KT 10SM OVC039 M07/M09 A3037 RMK AO2 T10681085 $,41.7222,-86.0,236,Elkhart Muni,OVC,"[{'cover': 'OVC', 'base': 3900}]",VFR,,,,,,US,United States
1305,KEKN,2025-11-29 01:58:44.447000+00:00,1764381060,2025-11-29T02:00:00.000Z,-2.2,-8.9,0,0.0,10+,1026.8,6,,0.005,METAR,METAR KEKN 290151Z AUTO 00000KT 10SM OVC050 M02/M09 A3032 RMK AO2 SNE18 SLP298 P0000 T10221089,38.8899,-79.8554,596,Elkins Arpt,OVC,"[{'cover': 'OVC', 'base': 5000}]",VFR,,,1029.8,,,US,United States
1196,KEKO,2025-11-29 02:01:05.802000+00:00,1764381360,2025-11-29T02:00:00.000Z,6.1,-3.3,360,12.0,10+,1020.1,6,,,METAR,METAR KEKO 290156Z AUTO 36012KT 10SM CLR 06/M03 A3012 RMK AO2 SLP209 T00611033,40.824,-115.7863,1541,Elko Rgnl,CLR,[],VFR,,,1020.9,,,US,United States
1244,KEKX,2025-11-29 02:00:59.356000+00:00,1764381300,2025-11-29T02:00:00.000Z,-4.1,-7.5,0,0.0,10+,1029.9,6,,,METAR,METAR KEKX 290155Z AUTO 00000KT 10SM CLR M04/M07 A3041 RMK AO2 T10411075,37.6924,-85.9204,234,Elizabethtown/Addington Fld,CLR,[],VFR,,,,,,US,United States
1213,KELA,2025-11-29 02:04:04.679000+00:00,1764381300,2025-11-29T02:00:00.000Z,15.3,9.5,110,9.0,10+,1022.8,6,,,METAR,METAR KELA 290155Z AUTO 11009KT 10SM OVC070 15/10 A3020 RMK AO2 T01530095,29.602,-96.3239,56,Eagle Lake Arpt,OVC,"[{'cover': 'OVC', 'base': 7000}]",VFR,,,,,,US,United States
1271,KELD,2025-11-29 01:57:34.156000+00:00,1764381180,2025-11-29T02:00:00.000Z,7.8,0.6,120,5.0,10+,1026.5,6,,,METAR,METAR KELD 290153Z AUTO 12005KT 10SM CLR 08/01 A3031 RMK AO2 SLP264 T00780006,33.2207,-92.814,76,El Dorado/S Arkansas Rgnl,CLR,[],VFR,,,1026.4,,,US,United States
1248,KELK,2025-11-29 01:58:47.360000+00:00,1764381300,2025-11-29T02:00:00.000Z,10.9,3.4,170,17.0,10+,1013.3,14,,,METAR,METAR KELK 290155Z AUTO 17017G20KT 10SM 11/03 A2992 RMK AO2 T01090034 $,35.4261,-99.3926,603,Elk City Rgnl,,,,,20.0,,,,US,United States
1287,KELM,2025-11-29 01:58:57.638000+00:00,1764381180,2025-11-29T02:00:00.000Z,-1.1,-5.6,250,13.0,10+,1019.7,4,,,METAR,METAR KELM 290153Z 25013G19KT 10SM OVC042 M01/M06 A3011 RMK AO2 SLP207 T10111056,42.1601,-76.89,287,Elmira-Corning Rgnl,OVC,"[{'cover': 'OVC', 'base': 4200}]",VFR,,19.0,1020.7,,,US,United States
1266,KELN,2025-11-29 01:58:52.966000+00:00,1764381180,2025-11-29T02:00:00.000Z,1.7,1.7,0,0.0,0.5,1027.5,6,FG,,METAR,METAR KELN 290153Z AUTO 00000KT 1/2SM FG VV002 02/02 A3034 RMK AO2 SLP289 T00170017,47.0338,-120.5314,532,Ellensburg/Bowers Fld,OVX,"[{'cover': 'OVX', 'base': 200}]",LIFR,2.0,,1028.9,,,US,United States
2610,KELO,2025-11-29 02:00:47.795000+00:00,1764381300,2025-11-29T02:00:00.000Z,-17.0,-20.0,0,0.0,10+,1026.5,6,,,METAR,METAR KELO 290155Z AUTO 00000KT 10SM CLR M17/M20 A3031 RMK AO2,47.8287,-91.8371,438,Ely Muni,CLR,[],VFR,,,,,,US,United States
1308,KELP,2025-11-29 01:57:32.055000+00:00,1764381060,2025-11-29T02:00:00.000Z,17.8,2.8,230,4.0,10+,1016.0,4,,,METAR,METAR KELP 290151Z 23004KT 10SM FEW200 18/03 A3000 RMK AO2 SLP120 T01780028,31.8123,-106.3774,1205,El Paso Intl,FEW,"[{'cover': 'FEW', 'base': 20000}]",VFR,,,1012.0,,,US,United States
1300,KELY,2025-11-29 01:59:09.597000+00:00,1764381180,2025-11-29T02:00:00.000Z,4.4,-12.8,10,7.0,10+,1019.4,38,,,METAR,METAR KELY 290153Z AUTO 01007KT 10SM CLR 04/M13 A3010 RMK AO2 SLP191 T00441128 TSNO,39.2954,-114.8466,1906,Ely/Yelland Fld,CLR,[],VFR,,,1019.1,,,US,United States
1193,KELZ,2025-11-29 02:00:54.006000+00:00,1764381360,2025-11-29T02:00:00.000Z,-4.4,-6.7,280,16.0,8,1020.1,6,-SN,0.01,METAR,METAR KELZ 290156Z AUTO 28016KT 8SM -SN FEW015 SCT025 OVC033 M04/M07 A3012 RMK AO2 SNE40B56 SLP229 P0001 T10441067,42.1077,-77.9842,639,Wellsville/Tarantine Fld,OVC,"[{'cover': 'FEW', 'base': 1500}, {'cover': 'SCT', 'base': 2500}, {'cover': 'OVC', 'base': 3300}]",VFR,,,1022.9,,,US,United States
1234,KEMM,2025-11-29 02:04:04.719000+00:00,1764381300,2025-11-29T02:00:00.000Z,-1.0,-4.0,290,15.0,10+,1014.3,6,,,METAR,METAR KEMM 290155Z AUTO 29015G19KT 10SM M01/M04 A2995 RMK AO2,41.8224,-110.5555,2219,Kemmerer Muni,,,,,19.0,,,,US,United States
1272,KEMP,2025-11-29 01:57:24.736000+00:00,1764381180,2025-11-29T02:00:00.000Z,5.0,1.7,140,8.0,10+,1016.7,6,-RA,0.005,METAR,METAR KEMP 290153Z AUTO 14008KT 10SM -RA OVC044 05/02 A3002 RMK AO2 RAB0055E05B47 SLP177 P0000 T00500017,38.3291,-96.1945,366,Emporia Muni,OVC,"[{'cover': 'OVC', 'base': 4400}]",VFR,,,1017.7,,,US,United States
1342,KEMT,2025-11-29 01:54:11.558000+00:00,1764380700,2025-11-29T02:00:00.000Z,18.0,8.0,210,5.0,10+,1015.7,0,,,METAR,METAR KEMT 290145Z 21005KT 10SM CLR 18/08 A2999,34.0883,-118.0342,84,El Monte Arpt,CLR,[],VFR,,,,,,US,United States
1220,KEND,2025-11-29 01:58:58.836000+00:00,1764381300,2025-11-29T02:00:00.000Z,11.5,1.4,170,17.0,10+,1014.0,14,,,METAR,METAR KEND 290155Z AUTO 17017KT 10SM OVC037 12/01 A2994 RMK AO2 SLP143 T01150014 $,36.338,-97.919,392,Enid/Vance AFB,OVC,"[{'cover': 'OVC', 'base': 3700}]",VFR,,,1014.3,,,US,United States
1198,KENV,2025-11-29 02:00:46.310000+00:00,1764381360,2025-11-29T02:00:00.000Z,9.4,-5.0,310,14.0,10+,1018.7,6,,,METAR,METAR KENV 290156Z AUTO 31014G19KT 10SM CLR 09/M05 A3008 RMK AO2 SLP200 T00941050,40.7211,-114.0312,1291,Wendover Arpt,CLR,[],VFR,,19.0,1020.0,,,US,United States
1299,KENW,2025-11-29 01:57:48.032000+00:00,1764381180,2025-11-29T02:00:00.000Z,-6.0,-10.0,0,0.0,10+,1028.5,0,,,METAR,METAR KENW 290153Z 00000KT 10SM CLR M06/M10 A3037,42.5953,-87.9383,222,Kenosha Rgnl,CLR,[],VFR,,,,,,US,United States
1273,KEPH,2025-11-29 01:58:53.352000+00:00,1764381180,2025-11-29T02:00:00.000Z,2.8,-5.0,340,11.0,10+,1027.5,6,,,METAR,METAR KEPH 290153Z AUTO 34011KT 10SM CLR 03/M05 A3034 RMK AO2 SLP284 T00281050,47.3078,-119.5155,382,Ephrata Muni,CLR,[],VFR,,,1028.4,,,US,United States
1212,KEQA,2025-11-29 02:00:45.277000+00:00,1764381300,2025-11-29T02:00:00.000Z,10.0,0.0,160,15.0,10+,1016.0,6,,,METAR,METAR KEQA 290155Z AUTO 16015KT 10SM OVC045 10/00 A3000 RMK AO2,37.7753,-96.8145,422,El Dorado/Thomas Mem,OVC,"[{'cover': 'OVC', 'base': 4500}]",VFR,,,,,,US,United States
1307,KERI,2025-11-29 01:57:35.686000+00:00,1764381060,2025-11-29T02:00:00.000Z,0.6,-8.9,280,14.0,10+,1024.8,12,,,METAR,METAR KERI 290151Z 28014G23KT 10SM OVC048 01/M09 A3026 RMK AO2 SLP254 T00061089 $,42.0803,-80.1824,222,Erie Intl,OVC,"[{'cover': 'OVC', 'base': 4800}]",VFR,,23.0,1025.4,,,US,United States
1256,KERV,2025-11-29 02:01:03.252000+00:00,1764381300,2025-11-29T02:00:00.000Z,14.6,13.5,150,8.0,5,1020.4,6,DZ,,METAR,METAR KERV 290155Z AUTO 15008KT 5SM DZ OVC017 15/14 A3013 RMK AO2 T01460135,29.9779,-99.0872,483,Kerrville Muni,OVC,"[{'cover': 'OVC', 'base': 1700}]",MVFR,,,,,,US,United States
1200,KESC,2025-11-29 02:00:47.814000+00:00,1764381360,2025-11-29T02:00:00.000Z,-7.2,-10.6,280,7.0,10+,1027.2,70,,,METAR,METAR KESC 290156Z AUTO 28007KT 10SM BKN047 M07/M11 A3033 RMK AO2 SLP287 T10721106 FZRANO,45.7225,-87.0893,180,Escanaba/Delta Cnty,BKN,"[{'cover': 'BKN', 'base': 4700}]",VFR,,,1028.7,,,US,United States
1293,KESF,2025-11-29 01:57:36.242000+00:00,1764381180,2025-11-29T02:00:00.000Z,5.0,1.1,0,0.0,10+,1026.5,14,,,METAR,METAR KESF 290153Z AUTO 00000KT 10SM CLR 05/01 A3031 RMK AO2 SLP264 T00500011 $,31.3963,-92.2828,27,Alexandria/Esler Rgnl,CLR,[],VFR,,,1026.4,,,US,United States
1344,KESN,2025-11-29 01:46:04.018000+00:00,1764380700,2025-11-29T02:00:00.000Z,2.0,-9.0,280,9.0,10+,1025.8,0,,,METAR,METAR KESN 290145Z 28009KT 10SM CLR 02/M09 A3029,38.804,-76.069,14,Easton Muni,CLR,[],VFR,,,,,,US,United States
1127,KEST,2025-11-29 02:08:33.075000+00:00,1764381960,2025-11-29T02:06:00.000Z,-5.6,-6.7,100,9.0,0.25,1023.8,6,+SN FZFG,0.01,SPECI,SPECI KEST 290206Z AUTO 10009KT 1/4SM +SN FZFG VV006 M06/M07 A3023 RMK AO2 P0001 T10561067,43.4008,-94.7476,401,Estherville Muni,OVX,"[{'cover': 'OVX', 'base': 600}]",LIFR,6.0,,,,,US,United States
1228,KETB,2025-11-29 02:00:54.038000+00:00,1764381300,2025-11-29T02:00:00.000Z,-2.0,-8.0,330,4.0,10+,1028.2,6,,,METAR,METAR KETB 290155Z AUTO 33004KT 10SM OVC032 M02/M08 A3036 RMK AO2,43.4225,-88.1326,269,West Bend Muni,OVC,"[{'cover': 'OVC', 'base': 3200}]",VFR,,,,,,US,United States
1328,KETN,2025-11-29 02:04:12.632000+00:00,1764381000,2025-11-29T02:00:00.000Z,12.1,10.2,150,7.0,10+,1018.7,6,-DZ,,METAR,METAR KETN 290150Z AUTO 15007KT 10SM -DZ OVC028 12/10 A3008 RMK AO2 LTG DSNT E T01210102,32.4164,-98.8113,445,Eastland Muni,OVC,"[{'cover': 'OVC', 'base': 2800}]",MVFR,,,,,,US,United States
1190,KEUF,2025-11-29 02:02:05.471000+00:00,1764381480,2025-11-29T02:00:00.000Z,1.7,-3.3,0,0.0,10+,1029.5,6,,,METAR,METAR KEUF 290158Z AUTO 00000KT 10SM CLR 02/M03 A3040 RMK AO1 SLP296 T00171033,31.9516,-85.1312,87,Eufaula/Weedon Fld,CLR,[],VFR,,,1029.6,,,US,United States
1258,KEUG,2025-11-29 02:00:48.879000+00:00,1764381240,2025-11-29T02:00:00.000Z,8.9,7.2,310,6.0,10+,1021.4,12,,,METAR,METAR KEUG 290154Z 31006KT 10SM FEW020 SCT200 SCT250 09/07 A3016 RMK AO2 SLP212 T00890072 $,44.1331,-123.2156,109,Eugene/Mahlon Sweet Fld,SCT,"[{'cover': 'FEW', 'base': 2000}, {'cover': 'SCT', 'base': 20000}, {'cover': 'SCT', 'base': 25000}]",VFR,,,1021.2,,,US,United States
1217,KEVM,2025-11-29 02:00:59.687000+00:00,1764381300,2025-11-29T02:00:00.000Z,-12.2,-13.9,0,0.0,10+,1026.8,6,,,METAR,METAR KEVM 290155Z AUTO 00000KT 10SM CLR M12/M14 A3032 RMK AO2 T11221139,47.4274,-92.4972,419,Eveleth Muni,CLR,[],VFR,,,,,,US,United States
1263,KEVV,2025-11-29 01:58:56.613000+00:00,1764381240,2025-11-29T02:00:00.000Z,-2.2,-6.7,60,3.0,10+,1030.6,12,,,METAR,METAR KEVV 290154Z 06003KT 10SM CLR M02/M07 A3043 RMK AO2 SLP309 T10221067 $,38.0502,-87.5147,123,Evansville Rgnl,CLR,[],VFR,,,1030.9,,,US,United States
1267,KEVW,2025-11-29 01:58:52.990000+00:00,1764381180,2025-11-29T02:00:00.000Z,0.0,-5.0,280,6.0,10+,1016.0,14,,,METAR,METAR KEVW 290153Z AUTO 28006KT 10SM BKN037 BKN070 OVC090 00/M05 A3000 RMK AO2 SLP161 T00001050 $,41.2727,-111.0305,2178,Evanston/Uinta Cnty,OVC,"[{'cover': 'BKN', 'base': 3700}, {'cover': 'BKN', 'base': 7000}, {'cover': 'OVC', 'base': 9000}]",VFR,,,1016.1,,,US,United States
1292,KEWB,2025-11-29 01:58:53.192000+00:00,1764381180,2025-11-29T02:00:00.000Z,2.8,-7.8,260,12.0,10+,1014.3,12,,,METAR,METAR KEWB 290153Z 26012G22KT 10SM CLR 03/M08 A2995 RMK AO2 PK WND 24027/0125 SLP144 T00281078 $,41.6791,-70.9591,22,New Bedford Rgnl,CLR,[],VFR,,22.0,1014.4,,,US,United States
1203,KEWK,2025-11-29 01:59:24.075000+00:00,1764381360,2025-11-29T02:00:00.000Z,8.9,0.0,160,14.0,10+,1015.3,14,,,METAR,METAR KEWK 290156Z AUTO 16014G22KT 10SM OVC041 09/00 A2998 RMK AO2 SLP159 T00890000 $,38.0621,-97.275,468,Newton City Arpt,OVC,"[{'cover': 'OVC', 'base': 4100}]",VFR,,22.0,1015.9,,,US,United States
1261,KEWN,2025-11-29 01:59:00.171000+00:00,1764381240,2025-11-29T02:00:00.000Z,-0.6,-4.4,0,0.0,10+,1028.5,12,,,METAR,METAR KEWN 290154Z 00000KT 10SM CLR M01/M04 A3037 RMK AO2 SLP285 T10061044 $,35.0684,-77.0478,3,New Bern/Coastal Carolina Rgnl,CLR,[],VFR,,,1028.5,,,US,United States
1306,KEWR,2025-11-29 01:57:40.313000+00:00,1764381060,2025-11-29T02:00:00.000Z,2.8,-8.9,250,15.0,10+,1020.1,12,,,METAR,METAR KEWR 290151Z 25015KT 10SM FEW065 03/M09 A3012 RMK AO2 PK WND 27026/0118 SLP198 T00281089 $,40.6828,-74.1692,2,Newark Intl,FEW,"[{'cover': 'FEW', 'base': 6500}]",VFR,,,1019.8,,,US,United States
1297,KEYW,2025-11-29 01:57:44.004000+00:00,1764381180,2025-11-29T02:00:00.000Z,20.0,15.6,30,13.0,10+,1020.7,6,,,METAR,METAR KEYW 290153Z AUTO 03013G22KT 10SM CLR 20/16 A3014 RMK AO2 SLP210 T02000156,24.5571,-81.7554,1,Key West Intl,CLR,[],VFR,,22.0,1021.0,,,US,United States
1417,KFAM,2025-11-29 01:26:18.080000+00:00,1764379320,2025-11-29T01:22:00.000Z,2.0,-5.0,140,9.0,10+,1027.2,96,,,METAR,METAR KFAM 290122Z 14009KT 10SM FEW120 02/M05 A3033 RMK TSNO FZRANO,37.7631,-90.4292,276,Farmington Rgnl,FEW,"[{'cover': 'FEW', 'base': 12000}]",VFR,,,,,,US,United States
1289,KFAR,2025-11-29 01:58:36.554000+00:00,1764381180,2025-11-29T02:00:00.000Z,-8.9,-11.7,50,8.0,10+,1026.8,12,,,METAR,METAR KFAR 290153Z 05008KT 10SM SCT095 M09/M12 A3032 RMK AO2 SLP287 T10891117 $,46.9242,-96.8119,276,Fargo/Hector Intl,SCT,"[{'cover': 'SCT', 'base': 9500}]",VFR,,,1028.7,,,US,United States
1288,KFAT,2025-11-29 01:58:44.904000+00:00,1764381180,2025-11-29T02:00:00.000Z,8.9,6.7,0,0.0,1.75,1019.7,12,BR,,METAR,METAR KFAT 290153Z 00000KT 1 3/4SM BR OVC010 09/07 A3011 RMK AO2 TWR VIS 2 SLP196 T00890067 $,36.78,-119.7202,102,Fresno/Yosemite Intl,OVC,"[{'cover': 'OVC', 'base': 1000}]",IFR,,,1019.6,,,US,United States
1298,KFAY,2025-11-29 01:57:44.076000+00:00,1764381180,2025-11-29T02:00:00.000Z,-0.6,-7.2,250,4.0,10+,1028.5,14,,,METAR,METAR KFAY 290153Z AUTO 25004KT 10SM CLR M01/M07 A3037 RMK AO2 SLP281 T10061072 $,34.9895,-78.88,57,Fayetteville Rgnl,CLR,[],VFR,,,1028.1,,,US,United States
1239,KFBG,2025-11-29 01:59:24.105000+00:00,1764381300,2025-11-29T02:00:00.000Z,-1.3,-5.5,0,0.0,10+,1027.9,14,,,METAR,METAR KFBG 290155Z AUTO 00000KT 10SM CLR M01/M05 A3035 RMK AO2 SLP283 T10131055 $,35.131,-78.932,69,Fort Bragg/Simmons AAF,CLR,[],VFR,,,1028.3,,,US,United States
1215,KFBL,2025-11-29 02:00:59.724000+00:00,1764381300,2025-11-29T02:00:00.000Z,-4.0,-7.0,0,0.0,10+,1026.2,6,,,METAR,METAR KFBL 290155Z AUTO 00000KT 10SM OVC100 M04/M07 A3030 RMK AO2,44.3298,-93.3119,318,Faribault Muni,OVC,"[{'cover': 'OVC', 'base': 10000}]",VFR,,,,,,US,United States
1252,KFBR,2025-11-29 02:00:51.244000+00:00,1764381300,2025-11-29T02:00:00.000Z,1.4,-4.8,270,15.0,10+,1016.0,6,,,METAR,METAR KFBR 290155Z AUTO 27015G21KT 10SM SCT040 BKN050 01/M05 A3000 RMK AO2 T00141048,41.3941,-110.406,2140,Fort Bridger Arpt,BKN,"[{'cover': 'SCT', 'base': 4000}, {'cover': 'BKN', 'base': 5000}]",VFR,,21.0,,,,US,United States
1254,KFCH,2025-11-29 02:06:34.917000+00:00,1764381300,2025-11-29T02:00:00.000Z,9.0,8.0,260,4.0,3,1020.1,6,BR,,METAR,METAR KFCH 290155Z AUTO 26004KT 3SM BR OVC008 09/08 A3012 RMK A01,36.7338,-119.8204,85,Fresno/Chandler Exec,OVC,"[{'cover': 'OVC', 'base': 800}]",IFR,,,,,,US,United States
1301,KFCM,2025-11-29 01:58:35.108000+00:00,1764381180,2025-11-29T02:00:00.000Z,-5.0,-8.9,0,0.0,10+,1026.2,4,,,METAR,METAR KFCM 290153Z 00000KT 10SM OVC110 M05/M09 A3030 RMK AO2 SLP278 T10501089,44.8321,-93.4705,276,Eden Prairie/Flying,OVC,"[{'cover': 'OVC', 'base': 11000}]",VFR,,,1027.8,,,US,United States
1257,KFCS,2025-11-29 01:58:58.578000+00:00,1764381300,2025-11-29T02:00:00.000Z,10.3,-9.4,280,9.0,10+,1007.5,4,,,METAR,METAR KFCS 290155Z 28009KT 10SM BKN150 10/M09 A2975 RMK AO2A SLP086 T01031094,38.6756,-104.751,1789,Fort Carson/Butts AAF,BKN,"[{'cover': 'BKN', 'base': 15000}]",VFR,,,1008.6,,,US,United States
1339,KFDK,2025-11-29 01:48:56.034000+00:00,1764380820,2025-11-29T02:00:00.000Z,1.0,-8.0,280,9.0,10+,1027.2,0,,,METAR,METAR KFDK 290147Z 28009KT 10SM FEW075 01/M08 A3033,39.4177,-77.3696,82,Frederick Muni,FEW,"[{'cover': 'FEW', 'base': 7500}]",VFR,,,,,,US,United States
1280,KFDR,2025-11-29 01:57:41.512000+00:00,1764381180,2025-11-29T02:00:00.000Z,11.7,3.9,140,14.0,10+,1015.0,6,,,METAR,METAR KFDR 290153Z AUTO 14014KT 10SM OVC033 12/04 A2997 RMK AO2 SLP145 T01170039,34.3531,-98.9876,378,Frederick Rgnl,OVC,"[{'cover': 'OVC', 'base': 3300}]",VFR,,,1014.5,,,US,United States
1281,KFDY,2025-11-29 01:58:49.044000+00:00,1764381180,2025-11-29T02:00:00.000Z,-1.1,-7.8,270,9.0,10+,1028.5,6,,,METAR,METAR KFDY 290153Z AUTO 27009KT 10SM OVC040 M01/M08 A3037 RMK AO2 SLP292 T10111078,41.0137,-83.6681,247,Findlay Arpt,OVC,"[{'cover': 'OVC', 'base': 4000}]",VFR,,,1029.2,,,US,United States
1246,KFET,2025-11-29 02:02:21.483000+00:00,1764381300,2025-11-29T02:00:00.000Z,-3.0,-6.0,120,8.0,5,1020.4,6,-SN,0.01,METAR,METAR KFET 290155Z AUTO 12008KT 5SM -SN SCT039 OVC046 M03/M06 A3013 RMK AO2 P0001 T10301060,41.4489,-96.5237,366,Fremont Muni,OVC,"[{'cover': 'SCT', 'base': 3900}, {'cover': 'OVC', 'base': 4600}]",MVFR,,,,,,US,United States
1238,KFFA,2025-11-29 02:00:51.316000+00:00,1764381300,2025-11-29T02:00:00.000Z,3.6,-8.0,320,4.0,10+,1027.5,6,,,METAR,METAR KFFA 290155Z AUTO 32004KT 10SM CLR 04/M08 A3034 RMK AO2 T00361080,36.0165,-75.6739,2,First Flight Airport,CLR,[],VFR,,,,,,US,United States
1225,KFFL,2025-11-29 02:02:16.022000+00:00,1764381300,2025-11-29T02:00:00.000Z,-2.0,-9.0,110,8.0,10+,1026.2,6,,,METAR,METAR KFFL 290155Z AUTO 11008KT 10SM OVC065 M02/M09 A3030 RMK A01,41.0521,-91.9834,240,Fairfield Muni,OVC,"[{'cover': 'OVC', 'base': 6500}]",VFR,,,,,,US,United States
1210,KFFM,2025-11-29 02:00:47.857000+00:00,1764381300,2025-11-29T02:00:00.000Z,-8.0,-10.0,80,7.0,10+,1025.8,6,,,METAR,METAR KFFM 290155Z AUTO 08007KT 10SM BKN085 OVC110 M08/M10 A3029 RMK AO2,46.2865,-96.1534,362,Fergus Falls/Mickelson Fld,OVC,"[{'cover': 'BKN', 'base': 8500}, {'cover': 'OVC', 'base': 11000}]",VFR,,,,,,US,United States
1240,KFFO,2025-11-29 01:58:58.596000+00:00,1764381300,2025-11-29T02:00:00.000Z,-2.6,-10.6,280,5.0,10+,1029.5,6,,,METAR,METAR KFFO 290155Z AUTO 28005KT 10SM CLR M03/M11 A3040 RMK AO2 SLP308 T10261106,39.837,-84.035,250,Wright Patterson AFB,CLR,[],VFR,,,1030.8,,,US,United States
1282,KFFT,2025-11-29 01:57:41.584000+00:00,1764381180,2025-11-29T02:00:00.000Z,,,,,,1030.2,198,,,METAR,METAR KFFT 290153Z AUTO A3042 RMK AO2 SLPNO PWINO FZRANO,38.1846,-84.9039,235,Frankfort/Capital City Arpt,,,,,,,,,US,United States
1625,KFHR,2025-11-29 01:58:34.894000+00:00,1764381180,2025-11-29T02:00:00.000Z,6.7,3.3,VRB,4.0,10+,1026.2,6,,,METAR,METAR KFHR 290153Z AUTO VRB04KT 10SM CLR 07/03 A3030 RMK AO2 SLP262 T00670033,48.52,-123.0264,34,Friday Harbor Arpt,CLR,[],VFR,,,1026.2,,,US,United States
1233,KFHU,2025-11-29 01:58:58.615000+00:00,1764381300,2025-11-29T02:00:00.000Z,15.2,0.6,260,10.0,10+,1019.4,6,,,METAR,METAR KFHU 290155Z AUTO 26010KT 10SM CLR 15/01 A3010 RMK AO2 SLP166 T01520006,31.586,-110.348,1424,Fort Huachuca/Libby AAF,CLR,[],VFR,,,1016.6,,,US,United States
1130,KFKL,2025-11-29 02:04:06.265000+00:00,1764381660,2025-11-29T02:01:00.000Z,-4.0,-5.0,260,8.0,6,1024.8,70,-SN BR,0.005,SPECI,SPECI KFKL 290201Z AUTO 26008KT 6SM -SN BR FEW008 BKN030 OVC049 M04/M05 A3026 RMK AO2 P0000 FZRANO,41.3805,-79.8603,468,Franklin/Lamberton Fld,OVC,"[{'cover': 'FEW', 'base': 800}, {'cover': 'BKN', 'base': 3000}, {'cover': 'OVC', 'base': 4900}]",MVFR,,,,,,US,United States
1219,KFKN,2025-11-29 01:58:47.510000+00:00,1764381300,2025-11-29T02:00:00.000Z,-3.1,-8.8,0,0.0,10+,1028.9,6,,,METAR,METAR KFKN 290155Z AUTO 00000KT 10SM CLR M03/M09 A3038 RMK AO2 T10311088,36.6984,-76.9032,9,Franklin/Rose Arpt,CLR,[],VFR,,,,,,US,United States
1302,KFLD,2025-11-29 01:58:35.152000+00:00,1764381180,2025-11-29T02:00:00.000Z,-4.4,-10.6,330,3.0,10+,1028.2,6,,,METAR,METAR KFLD 290153Z AUTO 33003KT 10SM OVC033 M04/M11 A3036 RMK AO2 SLP296 T10441106,43.7695,-88.4907,242,Fond Du Lac Cnty Arpt,OVC,"[{'cover': 'OVC', 'base': 3300}]",VFR,,,1029.6,,,US,United States
1191,KFLG,2025-11-29 02:02:12.176000+00:00,1764381420,2025-11-29T02:00:00.000Z,3.3,-2.2,0,0.0,10+,1020.1,4,,,METAR,METAR KFLG 290157Z 00000KT 10SM CLR 03/M02 A3012 RMK AO2 SLP189 T00331022,35.1443,-111.6664,2134,Flagstaff/Pulliam Arpt,CLR,[],VFR,,,1018.9,,,US,United States
1265,KFLL,2025-11-29 01:58:49.236000+00:00,1764381180,2025-11-29T02:00:00.000Z,17.8,13.3,350,6.0,10+,1021.1,12,,,METAR,METAR KFLL 290153Z 35006KT 10SM FEW039 SCT050 18/13 A3015 RMK AO2 SLP210 T01780133 $,26.0787,-80.1622,1,Ft Lauderdale-Hollywood Intl,SCT,"[{'cover': 'FEW', 'base': 3900}, {'cover': 'SCT', 'base': 5000}]",VFR,,,1021.0,,,US,United States
1283,KFLO,2025-11-29 01:57:41.691000+00:00,1764381180,2025-11-29T02:00:00.000Z,-0.6,-7.2,0,0.0,10+,1029.2,12,,,METAR,METAR KFLO 290153Z 00000KT 10SM CLR M01/M07 A3039 RMK AO2 SLP292 T10061072 $,34.1877,-79.7308,43,Florence Rgnl,CLR,[],VFR,,,1029.2,,,US,United States
1204,KFLP,2025-11-29 01:59:24.822000+00:00,1764381360,2025-11-29T02:00:00.000Z,8.3,-2.8,120,7.0,10+,1025.1,6,,,METAR,METAR KFLP 290156Z AUTO 12007KT 10SM OVC100 08/M03 A3027 RMK AO2 SLP253 T00831028,36.2925,-92.5851,215,Flippin/Marion Cnty,OVC,"[{'cover': 'OVC', 'base': 10000}]",VFR,,,1025.3,,,US,United States
1253,KFME,2025-11-29 02:06:47.226000+00:00,1764381300,2025-11-29T02:00:00.000Z,0.0,-7.0,270,7.0,10+,1027.2,6,,,METAR,METAR KFME 290155Z AUTO 27007KT 10SM SCT060 00/M07 A3033 RMK AO1,39.086,-76.757,43,Fort Meade/Tipton Fld,SCT,"[{'cover': 'SCT', 'base': 6000}]",VFR,,,,,,US,United States
1345,KFMH,2025-11-29 01:24:50.726000+00:00,1764380700,2025-11-29T02:00:00.000Z,3.0,-7.0,260,18.0,10+,1014.3,0,,,METAR,METAR KFMH 290145Z 26018G25KT 10SM CLR 03/M07 A2995,41.6608,-70.5221,35,Otis ANGB,CLR,[],VFR,,25.0,,,,US,United States
1290,KFMN,2025-11-29 01:58:44.279000+00:00,1764381180,2025-11-29T02:00:00.000Z,3.9,-1.1,40,4.0,10+,1014.3,4,,,METAR,METAR KFMN 290153Z 04004KT 10SM CLR 04/M01 A2995 RMK AO2 SLP155 T00391011,36.7435,-108.2293,1677,Farmington/Four Corners Rgnl,CLR,[],VFR,,,1015.5,,,US,United States
1294,KFMY,2025-11-29 01:57:41.715000+00:00,1764381180,2025-11-29T02:00:00.000Z,13.9,6.1,50,8.0,10+,1023.1,12,,,METAR,METAR KFMY 290153Z 05008KT 10SM CLR 14/06 A3021 RMK AO2 SLP231 T01390061 $,26.584,-81.8615,4,Fort Myers/Page Fld,CLR,[],VFR,,,1023.1,,,US,United States
1199,KFNL,2025-11-29 02:01:00.570000+00:00,1764381360,2025-11-29T02:00:00.000Z,7.2,-2.2,,,10+,1009.6,12,,,METAR,METAR KFNL 290156Z 10SM FEW075 OVC100 07/M02 A2981 RMK AO2 SLP097 T00721022 $,40.4427,-105.0097,1529,Fort Collins/N Colorado Rgnl,OVC,"[{'cover': 'FEW', 'base': 7500}, {'cover': 'OVC', 'base': 10000}]",VFR,,,1009.7,,,US,United States
1274,KFNT,2025-11-29 01:58:44.463000+00:00,1764381180,2025-11-29T02:00:00.000Z,-2.2,-7.8,310,10.0,10+,1027.2,6,,,METAR,METAR KFNT 290153Z AUTO 31010KT 10SM OVC033 M02/M08 A3033 RMK AO2 SLP284 T10221078,42.9669,-83.75,235,Flint/Bishop Intl,OVC,"[{'cover': 'OVC', 'base': 3300}]",VFR,,,1028.4,,,US,United States
1126,KFOD,2025-11-29 02:08:33.100000+00:00,1764382020,2025-11-29T02:07:00.000Z,-4.0,-6.0,100,12.0,1.25,1024.8,78,-SN BR,0.005,SPECI,SPECI KFOD 290207Z AUTO 10012KT 1 1/4SM -SN BR BKN010 BKN015 OVC024 M04/M06 A3026 RMK AO2 CIG 007V013 P0000 FZRANO $,42.549,-94.182,347,Fort Dodge Rgnl,OVC,"[{'cover': 'BKN', 'base': 1000}, {'cover': 'BKN', 'base': 1500}, {'cover': 'OVC', 'base': 2400}]",IFR,,,,,,US,United States
1295,KFOE,2025-11-29 01:57:41.738000+00:00,1764381180,2025-11-29T02:00:00.000Z,3.3,-1.7,120,14.0,10+,1017.4,12,,0.005,METAR,METAR KFOE 290153Z 12014G22KT 10SM OVC050 03/M02 A3004 RMK AO2 RAE0054 SLP182 P0000 T00331017 $,38.9414,-95.6513,315,Topeka/Forbes Fld,OVC,"[{'cover': 'OVC', 'base': 5000}]",VFR,,22.0,1018.2,,,US,United States
1284,KFOK,2025-11-29 01:58:48.743000+00:00,1764381180,2025-11-29T02:00:00.000Z,1.7,-9.4,250,6.0,10+,1018.4,4,,,METAR,METAR KFOK 290153Z 25006G16KT 10SM CLR 02/M09 A3007 RMK AO2 SLP183 T00171094,40.8505,-72.6193,13,Westhampton/Gabreski Arpt,CLR,[],VFR,,16.0,1018.3,,,US,United States
1235,KFOM,2025-11-29 02:03:35.716000+00:00,1764381300,2025-11-29T02:00:00.000Z,9.0,-8.0,60,6.0,10+,1017.4,6,,,METAR,METAR KFOM 290155Z AUTO 06006KT 10SM CLR 09/M08 A3004 RMK AO2,38.9618,-112.36,1519,Fillmore Muni,CLR,[],VFR,,,,,,US,United States
1296,KFPR,2025-11-29 01:57:41.790000+00:00,1764381180,2025-11-29T02:00:00.000Z,12.8,10.0,320,5.0,10+,1022.8,6,,,METAR,METAR KFPR 290153Z AUTO 32005KT 10SM FEW050 13/10 A3020 RMK AO2 SLP226 T01280100,27.4981,-80.3763,7,Ft Pierce/Treasure Coast Intl,FEW,"[{'cover': 'FEW', 'base': 5000}]",VFR,,,1022.6,,,US,United States
1624,KFRG,2025-11-29 01:58:49.061000+00:00,1764381180,2025-11-29T02:00:00.000Z,2.2,-8.3,260,12.0,10+,1019.0,4,,,METAR,METAR KFRG 290153Z 26012G19KT 10SM CLR 02/M08 A3009 RMK AO2 SLP188 T00221083,40.7344,-73.4164,23,Farmingdale/Republic Arpt,CLR,[],VFR,,19.0,1018.8,,,US,United States
1572,KFRH,2025-11-29 01:58:57.798000+00:00,1764381300,2025-11-29T02:00:00.000Z,-2.0,-8.0,0,0.0,10+,1029.9,6,,,METAR,METAR KFRH 290155Z AUTO 00000KT 10SM CLR M02/M08 A3041 RMK AO1,38.5034,-86.6442,241,French Lick Muni,CLR,[],VFR,,,,,,US,United States
1570,KFRI,2025-11-29 01:59:24.412000+00:00,1764381300,2025-11-29T02:00:00.000Z,6.2,-1.5,120,10.0,10+,1016.3,6,,,METAR,METAR KFRI 290155Z AUTO 12010KT 10SM OVC044 06/M01 A3001 RMK AO2 SLP168 T00621015,39.0568,-96.7617,232,Ft Riley/Marshall Fld,OVC,"[{'cover': 'OVC', 'base': 4400}]",VFR,,,1016.8,,,US,United States
1559,KFRM,2025-11-29 02:00:59.779000+00:00,1764381360,2025-11-29T02:00:00.000Z,-5.6,-6.7,100,7.0,2,1025.5,70,-SN BR,0.005,METAR,METAR KFRM 290156Z AUTO 10007KT 2SM -SN BR BKN017 OVC024 M06/M07 A3028 RMK AO2 SLP278 P0000 T10561067 FZRANO,43.6455,-94.4168,353,Fairmont Muni,OVC,"[{'cover': 'BKN', 'base': 1700}, {'cover': 'OVC', 'base': 2400}]",IFR,,,1027.8,,,US,United States
1576,KFRR,2025-11-29 01:57:41.903000+00:00,1764381300,2025-11-29T02:00:00.000Z,0.8,-10.2,280,8.0,10+,1026.5,6,,,METAR,METAR KFRR 290155Z AUTO 28008KT 240V310 10SM OVC060 01/M10 A3031 RMK AO2 T00081102,38.9169,-78.2487,213,Front Royal/Warren Cnty,OVC,"[{'cover': 'OVC', 'base': 6000}]",VFR,,,,,,US,United States
1558,KFSD,2025-11-29 02:00:58.244000+00:00,1764381360,2025-11-29T02:00:00.000Z,-5.6,-7.2,110,13.0,10+,1022.1,12,,0.005,METAR,METAR KFSD 290156Z 11013KT 10SM OVC012 M06/M07 A3018 RMK AO2 SNB21E47 SLP245 P0000 T10561072 $,43.5775,-96.7539,433,Sioux Falls/Foss Fld,OVC,"[{'cover': 'OVC', 'base': 1200}]",MVFR,,,1024.5,,,US,United States
1573,KFSK,2025-11-29 02:00:45.623000+00:00,1764381300,2025-11-29T02:00:00.000Z,7.0,2.0,130,6.0,10+,1019.7,6,-RA,,METAR,METAR KFSK 290155Z AUTO 13006KT 10SM -RA OVC050 07/02 A3011 RMK AO2 T00700020,37.796,-94.7676,276,Fort Scott Muni,OVC,"[{'cover': 'OVC', 'base': 5000}]",VFR,,,,,,US,United States
1607,KFSM,2025-11-29 01:57:41.920000+00:00,1764381180,2025-11-29T02:00:00.000Z,12.2,0.6,130,10.0,10+,1022.4,4,,,METAR,METAR KFSM 290153Z 13010KT 10SM BKN090 OVC110 12/01 A3019 RMK AO2 SLP225 T01220006,35.3335,-94.3653,136,Fort Smith Rgnl,OVC,"[{'cover': 'BKN', 'base': 9000}, {'cover': 'OVC', 'base': 11000}]",VFR,,,1022.5,,,US,United States
1626,KFST,2025-11-29 01:58:53.007000+00:00,1764381180,2025-11-29T02:00:00.000Z,14.4,10.0,150,13.0,10+,1015.0,6,,,METAR,METAR KFST 290153Z AUTO 15013KT 10SM CLR 14/10 A2997 RMK AO2 SLP123 T01440100,30.9119,-102.9171,917,Fort Stockton/Pecos Cnty,CLR,[],VFR,,,1012.3,,,US,United States
1224,KFSW,2025-11-29 02:02:18.667000+00:00,1764381300,2025-11-29T02:00:00.000Z,-1.0,-9.0,90,11.0,10+,1026.8,6,,,METAR,METAR KFSW 290155Z AUTO 09011KT 10SM OVC080 M01/M09 A3032 RMK AO2,40.6615,-91.3267,219,Fort Madison Muni,OVC,"[{'cover': 'OVC', 'base': 8000}]",VFR,,,,,,US,United States
1571,KFTK,2025-11-29 02:02:06.367000+00:00,1764381300,2025-11-29T02:00:00.000Z,-3.0,-7.3,0,0.0,10+,1029.5,14,,,METAR,METAR KFTK 290155Z AUTO 00000KT 10SM CLR M03/M07 A3040 RMK AO2 SLP305 T10301073 $,37.907,-85.973,225,Fort Knox/Godman AAF,CLR,[],VFR,,,1030.5,,,US,United States
1627,KFTW,2025-11-29 01:58:52.611000+00:00,1764381180,2025-11-29T02:00:00.000Z,10.0,6.1,130,13.0,4,1020.1,4,-TSRA,0.18,METAR,METAR KFTW 290153Z 13013G23KT 4SM -TSRA FEW029 BKN043 OVC060 10/06 A3012 RMK AO2 PK WND 15030/0125 LTG DSNT SE AND SW TSB43 SLP199 P0018 T01000061,32.8248,-97.364,213,Fort Worth/Meacham Intl,OVC,"[{'cover': 'FEW', 'base': 2900}, {'cover': 'BKN', 'base': 4300}, {'cover': 'OVC', 'base': 6000}]",MVFR,,23.0,1019.9,,,US,United States
1628,KFTY,2025-11-29 01:57:41.986000+00:00,1764381180,2025-11-29T02:00:00.000Z,1.1,-5.0,0,0.0,10+,1028.9,4,,,METAR,METAR KFTY 290153Z 00000KT 10SM CLR 01/M05 A3038 RMK AO2 SLP293 T00111050,33.7776,-84.5246,245,Atlanta/Fulton Cnty,CLR,[],VFR,,,1029.3,,,US,United States
1593,KFUL,2025-11-29 01:58:34.910000+00:00,1764381180,2025-11-29T02:00:00.000Z,16.1,13.9,0,0.0,9,1015.3,4,,,METAR,METAR KFUL 290153Z 00000KT 9SM CLR 16/14 A2998 RMK AO2 SLP153 T01610139,33.8715,-117.9856,23,Fullerton Muni,CLR,[],VFR,,,1015.3,,,US,United States
4838,KFVE,2025-11-29 01:58:48.759000+00:00,1764381180,2025-11-29T02:00:00.000Z,-3.9,-7.2,240,12.0,8,1000.4,6,-SN,0.005,METAR,METAR KFVE 290153Z AUTO 24012KT 8SM -SN BKN019 OVC024 M04/M07 A2954 RMK AO2 SNB50 SLP013 P0000 T10391072,47.2852,-68.3072,299,Frenchville/N Aroostook Rgnl,OVC,"[{'cover': 'BKN', 'base': 1900}, {'cover': 'OVC', 'base': 2400}]",MVFR,,,1001.3,,,US,United States
1588,KFWA,2025-11-29 01:59:09.813000+00:00,1764381240,2025-11-29T02:00:00.000Z,-4.4,-9.4,240,5.0,10+,1029.2,12,,,METAR,METAR KFWA 290154Z 24005KT 10SM FEW040 FEW250 M04/M09 A3039 RMK AO2 SLP304 T10441094 $,40.9725,-85.2064,243,Fort Wayne Intl,FEW,"[{'cover': 'FEW', 'base': 4000}, {'cover': 'FEW', 'base': 25000}]",VFR,,,1030.4,,,US,United States
1581,KFXY,2025-11-29 02:06:30.817000+00:00,1764381300,2025-11-29T02:00:00.000Z,-3.0,-7.0,90,5.0,5,1025.1,6,-SN,,METAR,METAR KFXY 290155Z AUTO 09005KT 5SM -SN BKN028 OVC038 M03/M07 A3027 RMK AO2,43.2323,-93.6237,366,Forest City Muni,OVC,"[{'cover': 'BKN', 'base': 2800}, {'cover': 'OVC', 'base': 3800}]",MVFR,,,,,,US,United States
1582,KFYM,2025-11-29 02:06:33.649000+00:00,1764381300,2025-11-29T02:00:00.000Z,2.0,-5.0,0,0.0,10+,1029.5,6,,,METAR,METAR KFYM 290155Z AUTO 00000KT 10SM CLR 02/M05 A3040 RMK A01,35.0603,-86.5656,297,Fayetteville Muni,CLR,[],VFR,,,,,,US,United States
1616,KFYV,2025-11-29 01:57:36.261000+00:00,1764381180,2025-11-29T02:00:00.000Z,10.6,-0.6,160,14.0,10+,1021.4,4,,,METAR,METAR KFYV 290153Z 16014G25KT 10SM OVC065 11/M01 A3016 RMK AO2 PK WND 19026/0140 SLP216 T01061006,36.0103,-94.1624,377,Fayetteville/Drake Fld,OVC,"[{'cover': 'OVC', 'base': 6500}]",VFR,,25.0,1021.6,,,US,United States
1546,KGAD,2025-11-29 01:59:24.894000+00:00,1764381360,2025-11-29T02:00:00.000Z,-1.1,-2.8,0,0.0,10+,1030.2,78,,,METAR,METAR KGAD 290156Z AUTO 00000KT 10SM CLR M01/M03 A3042 RMK AO2 SLP310 T10111028 FZRANO $,33.9686,-86.0917,169,Gadsden/NE Alabama Rgnl,CLR,[],VFR,,,1031.0,,,US,United States
1623,KGAG,2025-11-29 01:57:36.280000+00:00,1764381180,2025-11-29T02:00:00.000Z,10.6,2.8,180,21.0,10+,1011.6,6,,,METAR,METAR KGAG 290153Z AUTO 18021G32KT 10SM OVC023 11/03 A2987 RMK AO2 PK WND 17032/0057 SLP112 T01060028,36.2966,-99.7686,670,Gage Arpt,OVC,"[{'cover': 'OVC', 'base': 2300}]",MVFR,,32.0,1011.2,,,US,United States
1544,KGAI,2025-11-29 02:00:47.888000+00:00,1764381360,2025-11-29T02:00:00.000Z,-0.6,-7.8,270,8.0,10+,1026.2,70,,,METAR,METAR KGAI 290156Z AUTO 27008G15KT 10SM CLR M01/M08 A3030 RMK AO2 SLP282 T10061078 FZRANO,39.1696,-77.1653,151,Gaithersburg/Montgomery Cnty,CLR,[],VFR,,15.0,1028.2,,,US,United States
1542,KGBD,2025-11-29 01:59:24.514000+00:00,1764381360,2025-11-29T02:00:00.000Z,7.8,2.2,150,20.0,10+,1011.3,14,,,METAR,METAR KGBD 290156Z AUTO 15020KT 10SM OVC038 08/02 A2986 RMK AO2 PK WND 16026/0137 SLP122 T00780022 $,38.3405,-98.8591,573,Great Bend Muni,OVC,"[{'cover': 'OVC', 'base': 3800}]",VFR,,,1012.2,,,US,United States
1577,KGBG,2025-11-29 02:02:16.115000+00:00,1764381300,2025-11-29T02:00:00.000Z,-1.7,-5.6,0,0.0,10+,,6,,,METAR,METAR KGBG 290155Z AUTO 00000KT 10SM OVC070 M02/M06 RMK AO2 T10171056,40.9329,-90.4334,230,Galesburg Muni,OVC,"[{'cover': 'OVC', 'base': 7000}]",VFR,,,,,,US,United States
1598,KGCC,2025-11-29 01:58:44.431000+00:00,1764381180,2025-11-29T02:00:00.000Z,-3.9,-6.1,340,23.0,3,1014.0,6,-SN BR,0.02,METAR,METAR KGCC 290153Z AUTO 34023G33KT 3SM -SN BR FEW009 BKN015 OVC022 M04/M06 A2994 RMK AO2 PK WND 34033/0152 SLP172 P0002 T10391061,44.3398,-105.5416,1328,Gillette/Campbell Cnty,OVC,"[{'cover': 'FEW', 'base': 900}, {'cover': 'BKN', 'base': 1500}, {'cover': 'OVC', 'base': 2200}]",MVFR,,33.0,1017.2,,,US,United States
2139,KGCD,2025-11-29 02:04:04.749000+00:00,1764381300,2025-11-29T02:00:00.000Z,3.0,-0.2,360,6.0,10+,1023.8,6,,,METAR,METAR KGCD 290155Z AUTO 36006KT 10SM OVC024 03/00 A3023 RMK AO2 T00301002,44.4029,-118.9672,1122,John Day/Grant Cnty,OVC,"[{'cover': 'OVC', 'base': 2400}]",MVFR,,,,,,US,United States
1590,KGCK,2025-11-29 01:58:56.637000+00:00,1764381240,2025-11-29T02:00:00.000Z,8.3,6.1,150,12.0,10+,1007.9,4,,,METAR,METAR KGCK 290154Z 15012KT 10SM CLR 08/06 A2976 RMK AO2 SLP083 T00830061,37.9221,-100.723,877,Garden City Rgnl,CLR,[],VFR,,,1008.3,,,US,United States
1589,KGCN,2025-11-29 02:00:48.898000+00:00,1764381240,2025-11-29T02:00:00.000Z,2.8,-2.8,240,5.0,10+,1019.0,6,,,METAR,METAR KGCN 290154Z AUTO 24005KT 10SM CLR 03/M03 A3009 RMK AO2 SLP191 T00281028,35.9458,-112.1554,1993,Grand Canyon Park Arpt,CLR,[],VFR,,,1019.1,,,US,United States
1560,KGCY,2025-11-29 02:06:33.688000+00:00,1764381300,2025-11-29T02:00:00.000Z,-1.0,-11.0,350,3.0,10+,1028.9,6,,,METAR,METAR KGCY 290155Z AUTO 35003KT 10SM CLR M01/M11 A3038 RMK A01,36.1924,-82.8135,488,Greeneville/Greene Cnty,CLR,[],VFR,,,,,,US,United States
1485,KGDV,2025-11-29 02:04:06.580000+00:00,1764381660,2025-11-29T02:01:00.000Z,-9.0,-11.0,40,10.0,2.5,1020.7,110,-SN BR,0.005,SPECI,SPECI KGDV 290201Z AUTO 04010KT 2 1/2SM -SN BR FEW003 BKN028 OVC033 M09/M11 A3014 RMK AO2 P0000 FZRANO TSNO $,47.1401,-104.8127,749,Glendive/Dawson Arpt,OVC,"[{'cover': 'FEW', 'base': 300}, {'cover': 'BKN', 'base': 2800}, {'cover': 'OVC', 'base': 3300}]",IFR,,,,,,US,United States
1591,KGED,2025-11-29 01:58:56.659000+00:00,1764381240,2025-11-29T02:00:00.000Z,1.7,-8.9,280,6.0,10+,1025.5,6,,,METAR,METAR KGED 290154Z AUTO 28006KT 10SM CLR 02/M09 A3028 RMK AO2 SLP255 T00171089,38.6898,-75.3625,15,Georgetown/Sussex Cnty,CLR,[],VFR,,,1025.5,,,US,United States
1597,KGEG,2025-11-29 01:58:44.527000+00:00,1764381180,2025-11-29T02:00:00.000Z,1.1,-1.1,0,0.0,10+,1026.5,12,,,METAR,METAR KGEG 290153Z 00000KT 10SM FEW020 SCT035 01/M01 A3031 RMK AO2 SLP284 T00111011 $,47.6217,-117.528,718,Spokane Intl,SCT,"[{'cover': 'FEW', 'base': 2000}, {'cover': 'SCT', 'base': 3500}]",VFR,,,1028.4,,,US,United States
1622,KGEY,2025-11-29 01:58:34.925000+00:00,1764381180,2025-11-29T02:00:00.000Z,-2.8,-10.0,330,34.0,9,1013.6,6,-SN,0.005,METAR,METAR KGEY 290153Z AUTO 33034G46KT 9SM -SN OVC034 M03/M10 A2993 RMK AO2 PK WND 32046/0152 SNB40 SLP178 P0000 T10281100,44.5174,-108.0752,1191,Greybull/South Big Horn Arpt,OVC,"[{'cover': 'OVC', 'base': 3400}]",VFR,,46.0,1017.8,,,US,United States
1594,KGFK,2025-11-29 01:58:48.777000+00:00,1764381180,2025-11-29T02:00:00.000Z,-6.7,-11.1,160,3.0,10+,1027.9,4,,,METAR,METAR KGFK 290153Z 16003KT 10SM OVC029 M07/M11 A3035 RMK AO2 SLP294 T10671111,47.9428,-97.1829,256,Grand Forks Intl,OVC,"[{'cover': 'OVC', 'base': 2900}]",MVFR,,,1029.4,,,US,United States
1610,KGFL,2025-11-29 01:58:57.676000+00:00,1764381180,2025-11-29T02:00:00.000Z,0.6,-8.3,290,10.0,10+,1014.3,6,,,METAR,METAR KGFL 290153Z AUTO 29010G22KT 260V320 10SM OVC050 01/M08 A2995 RMK AO2 SLP150 T00061083,43.3385,-73.6102,99,Glens Falls/Warren Cnty,OVC,"[{'cover': 'OVC', 'base': 5000}]",VFR,,22.0,1015.0,,,US,United States
1574,KGGE,2025-11-29 02:00:45.690000+00:00,1764381300,2025-11-29T02:00:00.000Z,1.0,-3.0,0,0.0,10+,1029.5,6,,,METAR,METAR KGGE 290155Z AUTO 00000KT 10SM CLR 01/M03 A3040 RMK AO2,33.3138,-79.3187,9,Georgetown Cnty,CLR,[],VFR,,,,,,US,United States
1608,KGGG,2025-11-29 01:58:35.471000+00:00,1764381180,2025-11-29T02:00:00.000Z,12.8,1.7,150,9.0,10+,1024.1,12,,,METAR,METAR KGGG 290153Z 15009KT 10SM FEW085 OVC110 13/02 A3024 RMK AO2 SLP243 T01280017 $,32.3909,-94.714,107,Longview/Gregg Cnty,OVC,"[{'cover': 'FEW', 'base': 8500}, {'cover': 'OVC', 'base': 11000}]",VFR,,,1024.3,,,US,United States
1596,KGGW,2025-11-29 01:55:17.008000+00:00,1764381180,2025-11-29T02:00:00.000Z,-8.3,-10.0,30,6.0,3,1023.5,38,-SN BR,0.01,METAR,METAR KGGW 290153Z AUTO 03006KT 3SM -SN BR OVC049 M08/M10 A3022 RMK AO2 SLP279 P0001 T10831100 TSNO ,48.2142,-106.6214,698,Glasgow Intl Arpt,OVC,"[{'cover': 'OVC', 'base': 4900}]",MVFR,,,1027.9,,,US,United States
1621,KGIF,2025-11-29 01:57:34.564000+00:00,1764381180,2025-11-29T02:00:00.000Z,11.7,6.7,10,7.0,10+,1025.5,6,,,METAR,METAR KGIF 290153Z AUTO 01007KT 10SM CLR 12/07 A3028 RMK AO1 SLP252 T01170067,28.0614,-81.7568,44,Winter Haven Rgnl,CLR,[],VFR,,,1025.2,,,US,United States
1619,KGJT,2025-11-29 01:58:34.941000+00:00,1764381180,2025-11-29T02:00:00.000Z,2.2,-1.7,70,6.0,10+,1013.6,4,,,METAR,METAR KGJT 290153Z 07006KT 10SM CLR 02/M02 A2993 RMK AO2 SLP139 T00221017,39.1344,-108.5408,1475,Grand Junction Rgnl,CLR,[],VFR,,,1013.9,,,US,United States
2666,KGKJ,2025-11-29 01:58:57.826000+00:00,1764381180,2025-11-29T02:00:00.000Z,-3.9,-6.1,230,5.0,10+,1024.5,6,,0.005,METAR,METAR KGKJ 290153Z AUTO 23005KT 10SM OVC046 M04/M06 A3025 RMK AO2 SNB13E30 SLP261 P0000 T10391061,41.6258,-80.2123,428,Meadville Arpt,OVC,"[{'cover': 'OVC', 'base': 4600}]",VFR,,,1026.1,,,US,United States
1555,KGKT,2025-11-29 02:06:33.781000+00:00,1764381360,2025-11-29T02:00:00.000Z,-2.0,-6.0,0,0.0,10+,1030.2,6,,,METAR,METAR KGKT 290156Z AUTO 00000KT 10SM CLR M02/M06 A3042 RMK A01,35.8568,-83.5333,305,Gatlinburg-Pigeon Forge Arpt,CLR,[],VFR,,,,,,US,United States
1618,KGLD,2025-11-29 01:57:34.660000+00:00,1764381180,2025-11-29T02:00:00.000Z,2.8,1.1,70,9.0,10+,1008.9,14,,,METAR,METAR KGLD 290153Z AUTO 07009KT 10SM OVC012 03/01 A2979 RMK AO2 SLP104 T00280011 $,39.3673,-101.6932,1111,Goodland/Renner Fld,OVC,"[{'cover': 'OVC', 'base': 1200}]",MVFR,,,1010.4,,,US,United States
1631,KGLS,2025-11-29 01:57:36.085000+00:00,1764381120,2025-11-29T02:00:00.000Z,17.8,8.9,110,14.0,10+,1025.1,14,,,METAR,METAR KGLS 290152Z AUTO 11014KT 10SM FEW110 18/09 A3027 RMK AO1 SLP248 T01780089 $,29.2704,-94.8642,2,Galveston/Scholes Intl,FEW,"[{'cover': 'FEW', 'base': 11000}]",VFR,,,1024.8,,,US,United States
1575,KGLW,2025-11-29 02:02:13.183000+00:00,1764381300,2025-11-29T02:00:00.000Z,-3.1,-7.0,0,0.0,10+,1030.2,6,,,METAR,METAR KGLW 290155Z AUTO 00000KT 10SM CLR M03/M07 A3042 RMK AO2 T10311070,37.0337,-85.9523,216,Glasgow Muni,CLR,[],VFR,,,,,,US,United States
1617,KGMU,2025-11-29 01:57:34.677000+00:00,1764381180,2025-11-29T02:00:00.000Z,2.2,-10.0,20,8.0,10+,1028.2,4,,,METAR,METAR KGMU 290153Z 02008KT 10SM CLR 02/M10 A3036 RMK AO2 SLP288 T00221100,34.8487,-82.35,309,Greenville/Downtown Arpt,CLR,[],VFR,,,1028.8,,,US,United States
1580,KGNG,2025-11-29 02:06:24.977000+00:00,1764381300,2025-11-29T02:00:00.000Z,3.0,3.0,260,16.0,10+,1019.4,6,,,METAR,METAR KGNG 290155Z AUTO 26016G23KT 10SM CLR 03/03 A3010 RMK AO2,42.9155,-114.7655,1128,Gooding Muni,CLR,[],VFR,,23.0,,,,US,United States
1579,KGNT,2025-11-29 01:57:32.419000+00:00,1764381300,2025-11-29T02:00:00.000Z,9.7,-9.3,250,16.0,10+,1017.7,6,,,METAR,METAR KGNT 290155Z AUTO 25016G21KT 10SM CLR 10/M09 A3005 RMK AO2 T00971093,35.1653,-107.9021,1988,Grants-Milan Muni,CLR,[],VFR,,21.0,,,,US,United States
1612,KGNV,2025-11-29 01:57:36.351000+00:00,1764381180,2025-11-29T02:00:00.000Z,4.4,-2.2,0,0.0,10+,1027.9,4,,,METAR,METAR KGNV 290153Z 00000KT 10SM CLR 04/M02 A3035 RMK AO2 SLP278 T00441022,29.6917,-82.276,41,Gainesville Rgnl,CLR,[],VFR,,,1027.8,,,US,United States
1613,KGOK,2025-11-29 01:57:34.715000+00:00,1764381180,2025-11-29T02:00:00.000Z,12.2,2.2,170,23.0,10+,1017.0,14,,,METAR,METAR KGOK 290153Z AUTO 17023G36KT 10SM OVC039 12/02 A3003 RMK AO2 PK WND 18036/0152 SLP171 T01220022 $,35.8517,-97.4142,326,Guthrie-Edmond Rgnl,OVC,"[{'cover': 'OVC', 'base': 3900}]",VFR,,36.0,1017.1,,,US,United States
1554,KGON,2025-11-29 02:00:51.553000+00:00,1764381360,2025-11-29T02:00:00.000Z,2.8,-8.3,270,12.0,10+,1016.3,4,,,METAR,METAR KGON 290156Z 27012G23KT 10SM CLR 03/M08 A3001 RMK AO2 SLP161 T00281083,41.3279,-72.0489,2,Groton-New London Arpt,CLR,[],VFR,,23.0,1016.1,,,US,United States
1606,KGPT,2025-11-29 01:57:43.014000+00:00,1764381180,2025-11-29T02:00:00.000Z,7.8,-1.7,40,3.0,10+,1028.2,6,,,METAR,METAR KGPT 290153Z AUTO 04003KT 10SM CLR 08/M02 A3036 RMK AO2 SLP280 T00781017,30.4121,-89.0809,5,Gulfport-Biloxi Intl,CLR,[],VFR,,,1028.0,,,US,United States
1549,KGPZ,2025-11-29 02:00:58.862000+00:00,1764381360,2025-11-29T02:00:00.000Z,-8.3,-12.2,0,0.0,9,1027.2,70,-SN,0.005,METAR,METAR KGPZ 290156Z AUTO 00000KT 9SM -SN OVC022 M08/M12 A3033 RMK AO2 SNB00 SLP301 P0000 T10831122 FZRANO,47.2029,-93.5071,410,Grand Rapids/Itasca Cnty,OVC,"[{'cover': 'OVC', 'base': 2200}]",MVFR,,,1030.1,,,US,United States
1614,KGRB,2025-11-29 01:58:49.083000+00:00,1764381180,2025-11-29T02:00:00.000Z,-4.4,-9.4,270,5.0,10+,1028.2,6,,,METAR,METAR KGRB 290153Z AUTO 27005KT 10SM OVC037 M04/M09 A3036 RMK AO2 SLP294 T10441094,44.4796,-88.137,209,Green Bay/Straubel Intl,OVC,"[{'cover': 'OVC', 'base': 3700}]",VFR,,,1029.4,,,US,United States
1551,KGRD,2025-11-29 02:00:45.755000+00:00,1764381360,2025-11-29T02:00:00.000Z,0.6,-6.1,0,0.0,10+,1028.9,6,,,METAR,METAR KGRD 290156Z AUTO 00000KT 10SM CLR 01/M06 A3038 RMK AO2 SLP290 T00061061,34.254,-82.1526,188,Greenwood Cnty,CLR,[],VFR,,,1029.0,,,US,United States
1662,KGRF,2025-11-29 01:59:52.813000+00:00,1764380700,2025-11-29T01:45:00.000Z,8.0,6.0,0,0.0,10+,1024.1,14,,,SPECI,SPECI KGRF 290145Z AUTO 00000KT 10SM SCT017 08/06 A3024 RMK AO2 SLP245 $,47.079,-122.58,91,Fort Lewis/Gray AAF,SCT,"[{'cover': 'SCT', 'base': 1700}]",VFR,,,1024.5,,,US,United States
1615,KGRI,2025-11-29 01:56:33.890000+00:00,1764381180,2025-11-29T02:00:00.000Z,-3.0,-6.0,90,11.0,10+,1016.3,0,,,METAR,METAR KGRI 290153Z 09011KT 10SM OVC040 M03/M06 A3001,40.9615,-98.313,562,Grand Island Rgnl,OVC,"[{'cover': 'OVC', 'base': 4000}]",VFR,,,,,,US,United States
1584,KGRK,2025-11-29 01:59:02.688000+00:00,1764381300,2025-11-29T02:00:00.000Z,17.1,11.8,140,12.0,7,1020.1,4,,0.02,METAR,METAR KGRK 290155Z 14012G18KT 7SM BKN029 BKN034 OVC046 17/12 A3012 RMK AO2A PK WND 14029/32 SLP197 P0002 T01710118,31.0779,-97.8323,311,Killeen-Ft Hood Rgnl,OVC,"[{'cover': 'BKN', 'base': 2900}, {'cover': 'BKN', 'base': 3400}, {'cover': 'OVC', 'base': 4600}]",MVFR,,18.0,1019.7,,,US,United States
1561,KGRN,2025-11-29 02:00:51.596000+00:00,1764381300,2025-11-29T02:00:00.000Z,-0.3,-3.7,0,0.0,10+,1011.6,6,,,METAR,METAR KGRN 290155Z AUTO 00000KT 10SM OVC019 00/M04 A2987 RMK AO2 T10031037,42.8039,-102.181,1080,Gordon Muni,OVC,"[{'cover': 'OVC', 'base': 1900}]",MVFR,,,,,,US,United States
1620,KGRR,2025-11-29 01:58:36.494000+00:00,1764381180,2025-11-29T02:00:00.000Z,-1.7,-7.8,290,6.0,10+,1027.9,12,,,METAR,METAR KGRR 290153Z 29006KT 10SM OVC036 M02/M08 A3035 RMK AO2 SLP288 T10171078 $,42.8821,-85.523,239,Grand Rapids Intl,OVC,"[{'cover': 'OVC', 'base': 3600}]",VFR,,,1028.8,,,US,United States
1563,KGSB,2025-11-29 01:59:02.408000+00:00,1764381300,2025-11-29T02:00:00.000Z,3.7,-8.7,10,7.0,10+,1028.2,46,,,METAR,METAR KGSB 290155Z AUTO 01007KT 10SM CLR 04/M09 A3036 RMK AO2 SLP285 T00371087 TSNO $,35.3445,-77.9458,33,Goldsboro/Johnson AFB,CLR,[],VFR,,,1028.5,,,US,United States
1605,KGSH,2025-11-29 01:58:57.696000+00:00,1764381180,2025-11-29T02:00:00.000Z,-7.8,-10.0,190,3.0,10+,1028.5,6,,,METAR,METAR KGSH 290153Z AUTO 19003KT 10SM CLR M08/M10 A3037 RMK AO2 SLP297 T10781100,41.5265,-85.7872,252,Goshen Muni,CLR,[],VFR,,,1029.7,,,US,United States
1592,KGSO,2025-11-29 01:58:35.992000+00:00,1764381240,2025-11-29T02:00:00.000Z,-0.6,-10.6,20,4.0,10+,1028.5,12,,,METAR,METAR KGSO 290154Z 02004KT 10SM CLR M01/M11 A3037 RMK AO2 SLP292 T10061106 $,36.0969,-79.9432,275,Greensboro Intl,CLR,[],VFR,,,1029.2,,,US,United States
1604,KGSP,2025-11-29 01:57:43.103000+00:00,1764381180,2025-11-29T02:00:00.000Z,1.1,-10.0,20,5.0,10+,1028.2,4,,,METAR,METAR KGSP 290153Z 02005KT 10SM CLR 01/M10 A3036 RMK AO2 SLP285 T00111100,34.8842,-82.2209,285,Greenville-Spartanburg Intl,CLR,[],VFR,,,1028.5,,,US,United States
1595,KGTF,2025-11-29 01:58:34.956000+00:00,1764381180,2025-11-29T02:00:00.000Z,-11.7,-13.3,310,5.0,0.75,1028.9,12,-SN BR,0.02,METAR,METAR KGTF 290153Z 31005KT 3/4SM -SN BR VV008 M12/M13 A3038 RMK AO2 SLP365 P0002 T11171133 $,47.4733,-111.3828,1117,Great Falls Intl,OVX,"[{'cover': 'OVX', 'base': 800}]",LIFR,8.0,,1036.5,,,US,United States
1541,KGTR,2025-11-29 01:59:24.913000+00:00,1764381360,2025-11-29T02:00:00.000Z,4.4,0.0,0,0.0,10+,1029.5,14,,,METAR,METAR KGTR 290156Z AUTO 00000KT 10SM CLR 04/00 A3040 RMK AO2 SLP299 T00440000 $,33.456,-88.593,80,Golden Triangle Arpt,CLR,[],VFR,,,1029.9,,,US,United States
1540,KGUC,2025-11-29 02:00:48.915000+00:00,1764381360,2025-11-29T02:00:00.000Z,5.6,-5.6,270,10.0,10+,1014.0,14,,,METAR,METAR KGUC 290156Z AUTO 27010KT 10SM CLR 06/M06 A2994 RMK AO2 SLP156 T00561056 $,38.5322,-106.9419,2337,Gunnison Arpt,CLR,[],VFR,,,1015.6,,,US,United States
1600,KGUP,2025-11-29 01:59:01.341000+00:00,1764381180,2025-11-29T02:00:00.000Z,5.6,-4.4,220,6.0,10+,1018.0,6,,,METAR,METAR KGUP 290153Z AUTO 22006KT 10SM CLR 06/M04 A3006 RMK AO2 SLP186 T00561044,35.5086,-108.7932,1972,Gallup Muni,CLR,[],VFR,,,1018.6,,,US,United States
1578,KGUS,2025-11-29 01:59:20.879000+00:00,1764381300,2025-11-29T02:00:00.000Z,-4.9,-10.3,180,3.0,10+,1028.2,14,,,METAR,METAR KGUS 290155Z AUTO 18003KT 10SM CLR M05/M10 A3036 RMK AO2 SLP295 T10491103 $,40.6375,-86.1631,245,Peru/Grissom ARB,CLR,[],VFR,,,1029.5,,,US,United States
1603,KGUY,2025-11-29 01:57:43.167000+00:00,1764381180,2025-11-29T02:00:00.000Z,10.6,7.2,180,12.0,10+,1007.5,6,,,METAR,METAR KGUY 290153Z AUTO 18012G20KT 10SM CLR 11/07 A2975 RMK AO2 SLP065 T01060072,36.6819,-101.5052,950,Guymon Muni,CLR,[],VFR,,20.0,1006.5,,,US,United States
1602,KGVL,2025-11-29 01:57:43.184000+00:00,1764381180,2025-11-29T02:00:00.000Z,3.3,-9.4,310,8.0,10+,1028.2,6,,,METAR,METAR KGVL 290153Z AUTO 31008KT 10SM CLR 03/M09 A3036 RMK AO2 SLP285 T00331094,34.2721,-83.8304,387,Gainesville/Gilmer Mem,CLR,[],VFR,,,1028.5,,,US,United States
1654,KGVT,2025-11-29 02:04:12.848000+00:00,1764381000,2025-11-29T02:00:00.000Z,13.0,1.0,150,13.0,10+,1021.4,6,,,METAR,METAR KGVT 290150Z AUTO 15013KT 10SM BKN075 OVC090 13/01 A3016 RMK AO2 LTG DSNT SW THRU N,33.0669,-96.0614,165,Greenville/Majors Arpt,OVC,"[{'cover': 'BKN', 'base': 7500}, {'cover': 'OVC', 'base': 9000}]",VFR,,,,,,US,United States
1601,KGWO,2025-11-29 01:57:43.207000+00:00,1764381180,2025-11-29T02:00:00.000Z,6.1,0.0,90,4.0,10+,1028.5,6,,,METAR,METAR KGWO 290153Z AUTO 09004KT 10SM CLR 06/00 A3037 RMK AO2 SLP287 T00610000,33.4961,-90.0894,42,Greenwood/Leflore Arpt,CLR,[],VFR,,,1028.7,,,US,United States
1556,KGXY,2025-11-29 02:01:00.609000+00:00,1764381360,2025-11-29T02:00:00.000Z,3.3,-2.8,0,0.0,10+,1009.6,14,,,METAR,METAR KGXY 290156Z AUTO 00000KT 10SM 03/M03 A2981 RMK AO2 SLP134 T00331028 $,40.4345,-104.6296,1420,Greeley/Weld Cnty Arpt,,,,,,1013.4,,,US,United States
1567,KGYH,2025-11-29 02:06:47.252000+00:00,1764381300,2025-11-29T02:00:00.000Z,2.0,-10.0,30,6.0,10+,1027.9,6,,,METAR,METAR KGYH 290155Z AUTO 03006KT 10SM CLR 02/M10 A3035 RMK AO2,34.763,-82.375,283,Greenville/Donaldson Fld,CLR,[],VFR,,,,,,US,United States
3405,KGYI,2025-11-29 02:02:20.156000+00:00,1764381300,2025-11-29T02:00:00.000Z,13.6,0.7,150,16.0,10+,1020.4,14,VCTS,0.005,METAR,METAR KGYI 290155Z AUTO 15016G20KT 10SM VCTS OVC060 14/01 A3013 RMK AO2 RAE0111 P0000 T01360007 $,33.7231,-96.6714,227,Dennison/N Texas Rgnl,OVC,"[{'cover': 'OVC', 'base': 6000}]",VFR,,20.0,,,,US,United States
1659,KGYR,2025-11-29 01:59:57.562000+00:00,1764380820,2025-11-29T02:00:00.000Z,17.0,10.0,220,4.0,10+,1015.0,0,,,METAR,METAR KGYR 290147Z 22004KT 10SM FEW250 17/10 A2997,33.428,-112.368,292,Phoenix/Goodyear Muni,FEW,"[{'cover': 'FEW', 'base': 25000}]",VFR,,,,,,US,United States
1653,KGYY,2025-11-29 01:51:16.605000+00:00,1764381000,2025-11-29T02:00:00.000Z,-4.0,-7.0,220,4.0,10+,1028.9,0,,,METAR,METAR KGYY 290150Z 22004KT 10SM CLR M04/M07 A3038,41.6121,-87.4091,179,Gary Intl,CLR,[],VFR,,,,,,US,United States
1564,KHAF,2025-11-29 02:01:00.650000+00:00,1764381300,2025-11-29T02:00:00.000Z,10.0,10.0,350,6.0,5,1018.0,6,BR,,METAR,METAR KHAF 290155Z AUTO 35006KT 5SM BR CLR 10/10 A3006 RMK AO2,37.5136,-122.4996,11,Half Moon Bay Arpt,CLR,[],MVFR,,,,,,US,United States
1661,KHAI,2025-11-29 01:57:40.434000+00:00,1764380820,2025-11-29T02:00:00.000Z,-2.0,-8.0,240,4.0,10+,1028.2,4,,,METAR,METAR KHAI 290147Z 24004KT 10SM OVC038 M02/M08 A3036 RMK AO2,41.9591,-85.5933,250,Three Rivers Muni,OVC,"[{'cover': 'OVC', 'base': 3800}]",VFR,,,,,,US,United States
1599,KHAO,2025-11-29 01:58:57.849000+00:00,1764381180,2025-11-29T02:00:00.000Z,-7.2,-9.4,0,0.0,10+,1030.9,6,,,METAR,METAR KHAO 290153Z AUTO 00000KT 10SM CLR M07/M09 A3044 RMK AO2 SLP317 T10721094,39.3612,-84.5206,185,Hamilton/Butler Cnty,CLR,[],VFR,,,1031.7,,,US,United States
1611,KHBG,2025-11-29 01:57:43.289000+00:00,1764381180,2025-11-29T02:00:00.000Z,5.0,1.1,0,0.0,,1029.2,142,,,METAR,METAR KHBG 290153Z AUTO 00000KT CLR 05/01 A3039 RMK AO2 SLP290 T00500011 PWINO $,31.2648,-89.2561,45,Hattiesburg/Chain Muni,CLR,[],,,,1029.0,,,US,United States
1609,KHBR,2025-11-29 01:57:43.309000+00:00,1764381180,2025-11-29T02:00:00.000Z,11.1,2.8,180,20.0,10+,1015.0,6,,,METAR,METAR KHBR 290153Z AUTO 18020G29KT 10SM OVC030 11/03 A2997 RMK AO2 PK WND 17037/0057 SLP149 T01110028,34.9891,-99.0528,475,Hobart Muni,OVC,"[{'cover': 'OVC', 'base': 3000}]",MVFR,,29.0,1014.9,,,US,United States
1865,KHDE,2025-11-29 02:02:21.529000+00:00,1764381300,2025-11-29T02:00:00.000Z,-0.3,-4.2,90,13.0,10+,1013.0,6,,,METAR,METAR KHDE 290155Z AUTO 09013KT 10SM OVC031 00/M04 A2991 RMK AO2 T10031042,40.4496,-99.3363,703,Holdrege/Brewster Fld,OVC,"[{'cover': 'OVC', 'base': 3100}]",VFR,,,,,,US,United States
1845,KHDN,2025-11-29 02:01:00.668000+00:00,1764381360,2025-11-29T02:00:00.000Z,1.7,-0.6,210,5.0,10+,1013.6,78,-RA,0.01,METAR,METAR KHDN 290156Z AUTO 21005KT 10SM -RA FEW026 SCT034 OVC060 02/M01 A2993 RMK AO2 RAB06SNB42E51 SLP150 P0001 T00171006 FZRANO $,40.4842,-107.2296,2012,Hayden/Yampa Valley Arpt,OVC,"[{'cover': 'FEW', 'base': 2600}, {'cover': 'SCT', 'base': 3400}, {'cover': 'OVC', 'base': 6000}]",VFR,,,1015.0,,,US,United States
2900,KHEF,2025-11-29 01:59:21.009000+00:00,1764381360,2025-11-29T02:00:00.000Z,1.1,-10.0,270,5.0,10+,1027.9,76,,,METAR,METAR KHEF 290156Z 27005KT 10SM OVC070 01/M10 A3035 RMK AO2 SLP284 T00111100 FZRANO $,38.724,-77.5175,53,Manassas Rgnl,OVC,"[{'cover': 'OVC', 'base': 7000}]",VFR,,,1028.4,,,US,United States
1836,KHEZ,2025-11-29 01:59:24.963000+00:00,1764381360,2025-11-29T02:00:00.000Z,8.9,-1.1,110,3.0,10+,1028.2,14,,,METAR,METAR KHEZ 290156Z AUTO 11003KT 10SM CLR 09/M01 A3036 RMK AO2 SLP284 T00891011 $,31.6159,-91.2973,82,Natchez/Adams Cnty,CLR,[],VFR,,,1028.4,,,US,United States
1909,KHFD,2025-11-29 01:58:57.366000+00:00,1764381180,2025-11-29T02:00:00.000Z,2.8,-7.2,250,8.0,10+,1016.0,4,,,METAR,METAR KHFD 290153Z 25008G16KT 10SM OVC075 03/M07 A3000 RMK AO2 SLP158 T00281072,41.7352,-72.6512,3,Hartford/Brainard Arpt,OVC,"[{'cover': 'OVC', 'base': 7500}]",VFR,,16.0,1015.8,,,US,United States
1867,KHFF,2025-11-29 02:02:17.380000+00:00,1764381300,2025-11-29T02:00:00.000Z,-3.3,-7.5,0,0.0,10+,1027.9,14,,,METAR,METAR KHFF 290155Z AUTO 00000KT 10SM CLR M03/M07 A3035 RMK AO2 SLP284 T10331075 $,35.0424,-79.4973,100,Mackall,CLR,[],VFR,,,1028.4,,,US,United States
1915,KHGR,2025-11-29 01:58:51.490000+00:00,1764381180,2025-11-29T02:00:00.000Z,0.6,-8.3,280,13.0,10+,1025.5,12,,,METAR,METAR KHGR 290153Z 28013KT 10SM FEW049 OVC065 01/M08 A3028 RMK AO2 SLP273 T00061083 $,39.7062,-77.7304,206,Hagerstown Rgnl,OVC,"[{'cover': 'FEW', 'base': 4900}, {'cover': 'OVC', 'base': 6500}]",VFR,,,1027.3,,,US,United States
1906,KHHR,2025-11-29 01:58:50.836000+00:00,1764381180,2025-11-29T02:00:00.000Z,16.7,13.9,280,3.0,10+,1015.7,4,,,METAR,METAR KHHR 290153Z 28003KT 10SM CLR 17/14 A2999 RMK AO2 SLP157 T01670139,33.9235,-118.3329,21,Hawthorne Muni,CLR,[],VFR,,,1015.7,,,US,United States
1873,KHHW,2025-11-29 02:04:12.896000+00:00,1764381300,2025-11-29T02:00:00.000Z,12.0,0.0,130,10.0,10+,1022.1,6,,,METAR,METAR KHHW 290155Z AUTO 13010G17KT 10SM OVC070 12/00 A3018 RMK AO2 LTG DSNT SW AND W,34.0308,-95.5401,178,Hugo/Stamper Muni,OVC,"[{'cover': 'OVC', 'base': 7000}]",VFR,,17.0,,,,US,United States
1917,KHIB,2025-11-29 01:58:57.385000+00:00,1764381180,2025-11-29T02:00:00.000Z,-12.8,-13.9,0,0.0,10+,1026.5,6,,,METAR,METAR KHIB 290153Z AUTO 00000KT 10SM CLR M13/M14 A3031 RMK AO2 SLP297 T11281139,47.3804,-92.8325,409,Hibbing/Chisholm Arpt,CLR,[],VFR,,,1029.7,,,US,United States
1924,KHIE,2025-11-29 01:57:37.179000+00:00,1764381120,2025-11-29T02:00:00.000Z,-3.9,-6.1,290,6.0,1,1009.2,6,-SN BR,0.005,METAR,METAR KHIE 290152Z AUTO 29006KT 1SM -SN BR BKN014 OVC024 M04/M06 A2980 RMK AO2 SNB23 SLP106 P0000 T10391061,44.3659,-71.5522,321,Mt Washington Rgnl,OVC,"[{'cover': 'BKN', 'base': 1400}, {'cover': 'OVC', 'base': 2400}]",IFR,,,1010.6,,,US,United States
1870,KHIF,2025-11-29 02:06:26.331000+00:00,1764381300,2025-11-29T02:00:00.000Z,7.4,-1.1,250,7.0,10+,1016.7,6,,,METAR,METAR KHIF 290155Z AUTO 25007KT 10SM OVC060 07/M01 A3002 RMK AO2 SLP154 T00741011,41.111,-111.962,1461,Ogden/Hill AFB,OVC,"[{'cover': 'OVC', 'base': 6000}]",VFR,,,1015.4,,,US,United States
1864,KHII,2025-11-29 02:02:19.455000+00:00,1764381300,2025-11-29T02:00:00.000Z,18.0,7.0,0,0.0,10+,1013.6,6,,,METAR,METAR KHII 290155Z AUTO 00000KT 10SM CLR 18/07 A2993 RMK AO2,34.5659,-114.3522,241,Lake Havasu City Arpt,CLR,[],VFR,,,,,,US,United States
1908,KHIO,2025-11-29 01:58:50.854000+00:00,1764381180,2025-11-29T02:00:00.000Z,10.0,5.6,50,4.0,10+,1023.8,4,,,METAR,METAR KHIO 290153Z 05004KT 10SM FEW038 OVC050 10/06 A3023 RMK AO2 SLP237 T01000056,45.5476,-122.9557,62,Portland/Hillsboro Arpt,OVC,"[{'cover': 'FEW', 'base': 3800}, {'cover': 'OVC', 'base': 5000}]",VFR,,,1023.7,,,US,United States
1887,KHKS,2025-11-29 01:57:43.517000+00:00,1764381180,2025-11-29T02:00:00.000Z,7.2,-0.6,100,3.0,10+,1028.5,4,,,METAR,METAR KHKS 290153Z 10003KT 10SM CLR 07/M01 A3037 RMK AO2 SLP282 T00721006,32.3376,-90.2214,103,Jackson/Hawkins Fld,CLR,[],VFR,,,1028.2,,,US,United States
1907,KHKY,2025-11-29 01:57:43.541000+00:00,1764381180,2025-11-29T02:00:00.000Z,1.1,-10.0,330,5.0,10+,1028.2,12,,,METAR,METAR KHKY 290153Z 33005KT 10SM CLR 01/M10 A3036 RMK AO2 SLP280 T00111100 $,35.742,-81.3822,357,Hickory Rgnl,CLR,[],VFR,,,1028.0,,,US,United States
1856,KHLB,2025-11-29 02:06:29.455000+00:00,1764381300,2025-11-29T02:00:00.000Z,-6.0,-9.0,0,0.0,10+,1029.5,6,,,METAR,METAR KHLB 290155Z AUTO 00000KT 10SM CLR M06/M09 A3040 RMK A01,39.3463,-85.2602,297,Batesville Arpt,CLR,[],VFR,,,,,,US,United States
1888,KHLC,2025-11-29 01:57:24.814000+00:00,1764381180,2025-11-29T02:00:00.000Z,6.1,1.1,90,10.0,10+,1011.3,6,,,METAR,METAR KHLC 290153Z AUTO 09010KT 10SM OVC031 06/01 A2986 RMK AO2 SLP123 T00610011,39.3741,-99.8299,667,Hill City Muni,OVC,"[{'cover': 'OVC', 'base': 3100}]",VFR,,,1012.3,,,US,United States
1900,KHLG,2025-11-29 01:58:51.108000+00:00,1764381180,2025-11-29T02:00:00.000Z,-2.2,-7.2,250,10.0,10+,1027.5,4,,,METAR,METAR KHLG 290153Z 25010G16KT 10SM OVC055 M02/M07 A3034 RMK AO2 SLP293 T10221072,40.1699,-80.6441,365,Wheeling/Ohio Cnty,OVC,"[{'cover': 'OVC', 'base': 5500}]",VFR,,16.0,1029.3,,,US,United States
1889,KHLN,2025-11-29 01:58:51.332000+00:00,1764381180,2025-11-29T02:00:00.000Z,-10.0,-14.4,290,5.0,10+,1028.2,4,,0.005,METAR,METAR KHLN 290153Z 29005KT 10SM SCT026 OVC033 M10/M14 A3036 RMK AO2 SNE36 SLP353 P0000 T11001144,46.6045,-111.9892,1178,Helena Rgnl,OVC,"[{'cover': 'SCT', 'base': 2600}, {'cover': 'OVC', 'base': 3300}]",VFR,,,1035.3,,,US,United States
1862,KHMN,2025-11-29 01:59:02.704000+00:00,1764381300,2025-11-29T02:00:00.000Z,13.9,2.5,140,5.0,10+,1016.7,14,,,METAR,METAR KHMN 290155Z AUTO 14005KT 10SM CLR 14/03 A3002 RMK AO2 SLP136 T01390025 $,32.852,-106.108,1240,Holloman AFB,CLR,[],VFR,,,1013.6,,,US,United States
1857,KHMT,2025-11-29 02:01:28.721000+00:00,1764381300,2025-11-29T02:00:00.000Z,16.0,5.0,230,5.0,10+,1016.7,6,,,METAR,METAR KHMT 290155Z AUTO 23005KT 10SM CLR 16/05 A3002 RMK AO2,33.7303,-117.0272,462,Hemet/Ryan Arpt,CLR,[],VFR,,,,,,US,United States
1844,KHNB,2025-11-29 02:00:48.511000+00:00,1764381360,2025-11-29T02:00:00.000Z,-3.3,-6.1,120,3.0,10+,1030.2,70,,,METAR,METAR KHNB 290156Z AUTO 12003KT 10SM CLR M03/M06 A3042 RMK AO2 SLP308 T10331061 FZRANO,38.2505,-86.9473,159,Huntingburg Arpt,CLR,[],VFR,,,1030.8,,,US,United States
1841,KHND,2025-11-29 02:00:46.575000+00:00,1764381360,2025-11-29T02:00:00.000Z,13.3,3.9,0,0.0,10+,1016.0,12,,,METAR,METAR KHND 290156Z 00000KT 10SM CLR 13/04 A3000 RMK AO2 SLP172 T01330039 $,35.9657,-115.1343,740,Henderson Exec,CLR,[],VFR,,,1017.2,,,US,United States
1851,KHOB,2025-11-29 01:58:47.862000+00:00,1764381300,2025-11-29T02:00:00.000Z,9.0,8.0,180,8.0,10+,1015.0,6,,,METAR,METAR KHOB 290155Z AUTO 18008KT 10SM CLR 09/08 A2997 RMK AO2,32.6797,-103.2222,1112,Hobbs Arpt,CLR,[],VFR,,,,,,US,United States
1850,KHON,2025-11-29 02:00:58.763000+00:00,1764381300,2025-11-29T02:00:00.000Z,-5.0,-6.7,120,9.0,6,1021.4,14,BR,,METAR,METAR KHON 290155Z AUTO 12009KT 6SM BR FEW010 OVC025 M05/M07 A3016 RMK AO2 SLP236 I1001 T10501067 $,44.3792,-98.2227,391,Huron Rgnl,OVC,"[{'cover': 'FEW', 'base': 1000}, {'cover': 'OVC', 'base': 2500}]",MVFR,,,1023.6,,,US,United States
1848,KHOP,2025-11-29 01:58:43.989000+00:00,1764381300,2025-11-29T02:00:00.000Z,0.0,-6.6,110,3.0,10+,1029.2,6,,,METAR,METAR KHOP 290155Z AUTO 11003KT 10SM CLR 00/M07 A3039 RMK AO2 SLP298 T00001066,36.672,-87.495,170,Fort Campbell,CLR,[],VFR,,,1029.8,,,US,United States
1905,KHOT,2025-11-29 01:57:43.622000+00:00,1764381180,2025-11-29T02:00:00.000Z,10.0,-1.1,140,6.0,10+,1025.5,14,,,METAR,METAR KHOT 290153Z AUTO 14006KT 10SM BKN110 10/M01 A3028 RMK AO2 SLP256 T01001011 $,34.4755,-93.1041,153,Hot Springs Mem,BKN,"[{'cover': 'BKN', 'base': 11000}]",VFR,,,1025.6,,,US,United States
1904,KHOU,2025-11-29 01:58:50.891000+00:00,1764381180,2025-11-29T02:00:00.000Z,16.1,10.0,100,8.0,10+,1024.5,4,,,METAR,METAR KHOU 290153Z 10008KT 10SM BKN090 BKN250 16/10 A3025 RMK AO2 SLP248 T01610100,29.6458,-95.2821,13,Houston/Hobby Arpt,BKN,"[{'cover': 'BKN', 'base': 9000}, {'cover': 'BKN', 'base': 25000}]",VFR,,,1024.8,,,US,United States
1838,KHPN,2025-11-29 02:00:51.814000+00:00,1764381360,2025-11-29T02:00:00.000Z,2.8,-10.0,260,9.0,10+,1018.0,4,,,METAR,METAR KHPN 290156Z 26009G22KT 10SM FEW070 03/M10 A3006 RMK AO2 PK WND 29039/0128 SLP185 T00281100,41.0624,-73.7045,113,White Plains/Westchester Cnty,FEW,"[{'cover': 'FEW', 'base': 7000}]",VFR,,22.0,1018.5,,,US,United States
1871,KHPT,2025-11-29 02:02:22.289000+00:00,1764381300,2025-11-29T02:00:00.000Z,-5.0,-6.0,120,7.0,1.5,1025.5,6,-SN,,METAR,METAR KHPT 290155Z AUTO 12007KT 1 1/2SM -SN BKN019 OVC025 M05/M06 A3028 RMK AO2,42.7175,-93.2244,354,Hampton Muni,OVC,"[{'cover': 'BKN', 'base': 1900}, {'cover': 'OVC', 'base': 2500}]",IFR,,,,,,US,United States
1910,KHQM,2025-11-29 01:58:50.910000+00:00,1764381180,2025-11-29T02:00:00.000Z,10.6,5.6,80,11.0,10+,1024.1,6,,,METAR,METAR KHQM 290153Z AUTO 08011KT 10SM OVC030 11/06 A3024 RMK AO2 SLP244 T01060056,46.9729,-123.9308,4,Hoquiam/Bowerman Arpt,OVC,"[{'cover': 'OVC', 'base': 3000}]",MVFR,,,1024.4,,,US,United States
1899,KHRI,2025-11-29 01:58:51.346000+00:00,1764381180,2025-11-29T02:00:00.000Z,4.4,2.2,130,6.0,10+,1027.5,6,,,METAR,METAR KHRI 290153Z AUTO 13006KT 10SM CLR 04/02 A3034 RMK AO2 SLP278 T00440022,45.8259,-119.2612,194,Hermiston Muni,CLR,[],VFR,,,1027.8,,,US,United States
1923,KHRL,2025-11-29 01:57:28.348000+00:00,1764381120,2025-11-29T02:00:00.000Z,21.1,17.8,130,11.0,10+,1020.1,12,,,METAR,METAR KHRL 290152Z 13011KT 10SM BKN049 OVC060 21/18 A3012 RMK AO2 SLP199 T02110178 $,26.2303,-97.6556,9,Harlingen/Valley Intl,OVC,"[{'cover': 'BKN', 'base': 4900}, {'cover': 'OVC', 'base': 6000}]",VFR,,,1019.9,,,US,United States
1896,KHRO,2025-11-29 01:57:43.728000+00:00,1764381180,2025-11-29T02:00:00.000Z,8.9,-2.2,150,15.0,10+,1023.1,6,,,METAR,METAR KHRO 290153Z AUTO 15015KT 10SM OVC070 09/M02 A3021 RMK AO2 SLP234 T00891022,36.2673,-93.1566,417,Harrison/Boone Cnty,OVC,"[{'cover': 'OVC', 'base': 7000}]",VFR,,,1023.4,,,US,United States
1861,KHSB,2025-11-29 02:02:22.376000+00:00,1764381300,2025-11-29T02:00:00.000Z,1.0,-5.6,120,6.0,10+,1029.5,6,,,METAR,METAR KHSB 290155Z AUTO 12006KT 10SM SCT110 01/M06 A3040 RMK AO2 T00101056,37.8128,-88.5449,118,Harrisburg/Raleigh Arpt,SCT,"[{'cover': 'SCT', 'base': 11000}]",VFR,,,,,,US,United States
1928,KHSE,2025-11-29 01:54:11.107000+00:00,1764381060,2025-11-29T02:00:00.000Z,6.1,-8.3,320,8.0,10+,1027.9,14,,,METAR,METAR KHSE 290151Z AUTO 32008G16KT 10SM CLR 06/M08 A3035 RMK AO2 SLP278 T00611083 $,35.2324,-75.6223,4,Hatteras/Mitchell Fld,CLR,[],VFR,,16.0,1027.8,,,US,United States
4313,KHSG,2025-11-29 02:02:25.686000+00:00,1764381300,2025-11-29T02:00:00.000Z,-4.4,-9.2,330,19.0,10+,1014.3,6,,,METAR,METAR KHSG 290155Z AUTO 33019G28KT 10SM OVC028 M04/M09 A2995 RMK AO2 T10441092,43.7178,-108.3851,1497,Thermopolis/Hot Springs Cnty,OVC,"[{'cover': 'OVC', 'base': 2800}]",MVFR,,28.0,,,,US,United States
1895,KHSI,2025-11-29 01:58:51.127000+00:00,1764381180,2025-11-29T02:00:00.000Z,-1.7,-5.6,100,7.0,10+,1015.3,6,,,METAR,METAR KHSI 290153Z AUTO 10007KT 10SM OVC039 M02/M06 A2998 RMK AO2 SLP173 T10171056,40.6002,-98.4264,592,Hastings Muni,OVC,"[{'cover': 'OVC', 'base': 3900}]",VFR,,,1017.3,,,US,United States
1876,KHSP,2025-11-29 02:01:16.001000+00:00,1764381300,2025-11-29T02:00:00.000Z,-6.1,-11.3,290,10.0,10+,1022.4,6,,,METAR,METAR KHSP 290155Z AUTO 29010G22KT 260V320 10SM OVC024 M06/M11 A3019 RMK AO2 T10611113,37.9531,-79.8285,1148,Hot Springs/Ingalls Fld,OVC,"[{'cover': 'OVC', 'base': 2400}]",MVFR,,22.0,,,,US,United States
1863,KHST,2025-11-29 01:59:02.720000+00:00,1764381300,2025-11-29T02:00:00.000Z,23.1,16.6,350,9.0,10+,1021.1,6,,,METAR,METAR KHST 290155Z AUTO 35009KT 10SM CLR 23/17 A3015 RMK AO2 SLP213 T02310166,25.49,-80.379,1,Homestead AFB,CLR,[],VFR,,,1021.3,,,US,United States
1914,KHSV,2025-11-29 01:57:36.542000+00:00,1764381180,2025-11-29T02:00:00.000Z,3.9,-5.0,0,0.0,10+,1029.5,12,,,METAR,METAR KHSV 290153Z 00000KT 10SM BKN250 04/M05 A3040 RMK AO2 SLP298 T00391050 $,34.6441,-86.7862,190,Huntsville Intl,BKN,"[{'cover': 'BKN', 'base': 25000}]",VFR,,,1029.8,,,US,United States
1858,KHTH,2025-11-29 02:06:25.106000+00:00,1764381300,2025-11-29T02:00:00.000Z,11.0,-2.0,320,12.0,10+,1019.4,6,,,METAR,METAR KHTH 290155Z AUTO 32012KT 10SM CLR 11/M02 A3010 RMK A01,38.5448,-118.6314,1281,Hawthorne Muni,CLR,[],VFR,,,,,,US,United States
1926,KHTS,2025-11-29 01:57:23.171000+00:00,1764381060,2025-11-29T02:00:00.000Z,-1.7,-10.0,200,3.0,10+,1030.2,4,,,METAR,METAR KHTS 290151Z 20003KT 10SM CLR M02/M10 A3042 RMK AO2 SLP310 T10171100,38.3653,-82.5548,252,Huntington/Ferguson Fld,CLR,[],VFR,,,1031.0,,,US,United States
1903,KHUF,2025-11-29 01:58:51.146000+00:00,1764381180,2025-11-29T02:00:00.000Z,-5.0,-7.2,0,0.0,10+,1029.5,4,,,METAR,METAR KHUF 290153Z 00000KT 10SM CLR M05/M07 A3040 RMK AO2 SLP304 T10501072,39.4429,-87.3221,174,Terre Haute/Hulman Fld,CLR,[],VFR,,,1030.4,,,US,United States
1913,KHUL,2025-11-29 01:58:51.165000+00:00,1764381180,2025-11-29T02:00:00.000Z,-3.3,-7.2,230,5.0,10+,1003.5,6,,,METAR,METAR KHUL 290153Z AUTO 23005KT 10SM BKN033 M03/M07 A2963 RMK AO2 SLP040 T10331072,46.1185,-67.7929,148,Houlton Intl,BKN,"[{'cover': 'BKN', 'base': 3300}]",VFR,,,1004.0,,,US,United States
1921,KHUT,2025-11-29 01:57:28.367000+00:00,1764381120,2025-11-29T02:00:00.000Z,8.3,0.6,160,15.0,10+,1014.6,4,,,METAR,METAR KHUT 290152Z 16015KT 10SM OVC037 08/01 A2996 RMK AO2 SLP144 T00830006,38.0682,-97.8607,464,Hutchinson Muni,OVC,"[{'cover': 'OVC', 'base': 3700}]",VFR,,,1014.4,,,US,United States
1874,KHVE,2025-11-29 02:04:13.030000+00:00,1764381300,2025-11-29T02:00:00.000Z,7.0,0.0,0,0.0,10+,1014.6,6,,,METAR,METAR KHVE 290155Z AUTO 00000KT 10SM CLR 07/00 A2996 RMK AO2,38.418,-110.7041,1351,Hanksville Arpt,CLR,[],VFR,,,,,,US,United States
1894,KHVN,2025-11-29 01:58:57.404000+00:00,1764381180,2025-11-29T02:00:00.000Z,4.4,-6.1,270,7.0,10+,1017.0,12,,,METAR,METAR KHVN 290153Z 27007G15KT 10SM CLR 04/M06 A3003 RMK AO2 SLP170 T00441061 $,41.259,-72.8891,4,New Haven/Tweed Arpt,CLR,[],VFR,,15.0,1017.0,,,US,United States
1919,KHVR,2025-11-29 01:58:36.416000+00:00,1764381180,2025-11-29T02:00:00.000Z,-9.4,-11.1,310,6.0,1.75,1028.9,6,-SN BR,0.01,METAR,METAR KHVR 290153Z AUTO 31006KT 1 3/4SM -SN BR OVC023 M09/M11 A3038 RMK AO2 SLP331 P0001 T10941111,48.5425,-109.7644,789,Havre/City Arpt,OVC,"[{'cover': 'OVC', 'base': 2300}]",IFR,,,1033.1,,,US,United States
1877,KHVS,2025-11-29 02:01:16.056000+00:00,1764381300,2025-11-29T02:00:00.000Z,-3.0,-9.0,0,0.0,10+,1028.9,6,,,METAR,METAR KHVS 290155Z AUTO 00000KT 10SM FEW036 BKN043 BKN050 M03/M09 A3038 RMK AO2,34.4065,-80.1198,110,Hartsville Rgnl,BKN,"[{'cover': 'FEW', 'base': 3600}, {'cover': 'BKN', 'base': 4300}, {'cover': 'BKN', 'base': 5000}]",VFR,,,,,,US,United States
1885,KHWD,2025-11-29 02:00:48.972000+00:00,1764381240,2025-11-29T02:00:00.000Z,9.4,7.2,310,3.0,7,1018.4,4,HZ,,METAR,METAR KHWD 290154Z 31003KT 7SM HZ CLR 09/07 A3007 RMK AO2 SLP191 T00940072,37.6589,-122.1212,9,Hayward Exec,CLR,[],VFR,,,1019.1,,,US,United States
1902,KHWO,2025-11-29 01:57:43.854000+00:00,1764381180,2025-11-29T02:00:00.000Z,17.8,12.8,360,8.0,,,142,,,METAR,METAR KHWO 290153Z AUTO 36008KT CLR 18/13 RMK AO2 SLPNO T01780128 PWINO $,25.9996,-80.2412,2,Hollywood/North Perry Arpt,CLR,[],,,,,,,US,United States
4810,KHWV,2025-11-29 02:00:51.877000+00:00,1764381360,2025-11-29T02:00:00.000Z,2.2,-8.9,260,8.0,10+,1018.4,198,,,METAR,METAR KHWV 290156Z AUTO 26008KT 10SM CLR 02/M09 A3007 RMK AO2 SLP182 T00221089 PWINO FZRANO,40.8212,-72.8674,20,Brookhaven Arpt,CLR,[],VFR,,,1018.2,,,US,United States
1869,KHXD,2025-11-29 02:02:13.421000+00:00,1764381300,2025-11-29T02:00:00.000Z,4.0,-1.0,0,0.0,10+,1029.2,6,,,METAR,METAR KHXD 290155Z AUTO 00000KT 10SM CLR 04/M01 A3039 RMK AO2,32.2263,-80.6949,5,Hilton Head Arpt,CLR,[],VFR,,,,,,US,United States
1846,KHYA,2025-11-29 02:00:51.899000+00:00,1764381360,2025-11-29T02:00:00.000Z,3.3,-7.8,260,11.0,10+,1013.6,12,,,METAR,METAR KHYA 290156Z 26011G20KT 10SM CLR 03/M08 A2993 RMK AO2 SLP135 T00331078 $,41.6719,-70.2697,11,Hyannis/Barnstable Muni,CLR,[],VFR,,20.0,1013.5,,,US,United States
1890,KHYR,2025-11-29 01:58:51.184000+00:00,1764381180,2025-11-29T02:00:00.000Z,-7.8,-10.0,20,3.0,9,1026.8,14,,0.005,METAR,METAR KHYR 290153Z AUTO 02003KT 9SM OVC023 M08/M10 A3032 RMK AO2 SNB0055E44 SLP294 P0000 T10781100 $,46.0303,-91.4427,369,Hayward Muni,OVC,"[{'cover': 'OVC', 'base': 2300}]",MVFR,,,1029.4,,,US,United States
1840,KHYS,2025-11-29 01:59:21.130000+00:00,1764381360,2025-11-29T02:00:00.000Z,7.2,2.2,150,10.0,10+,1011.6,14,,,METAR,METAR KHYS 290156Z AUTO 15010KT 10SM OVC033 07/02 A2987 RMK AO2 SLP128 T00720022 $,38.8392,-99.2742,607,Hays Rgnl,OVC,"[{'cover': 'OVC', 'base': 3300}]",VFR,,,1012.8,,,US,United States
1853,KHZL,2025-11-29 02:00:48.542000+00:00,1764381300,2025-11-29T02:00:00.000Z,-1.0,-8.0,260,5.0,10+,1020.4,6,,,METAR,METAR KHZL 290155Z AUTO 26005KT 10SM BKN045 M01/M08 A3013 RMK AO2,40.9845,-75.9901,481,Hazleton Muni,BKN,"[{'cover': 'BKN', 'base': 4500}]",VFR,,,,,,US,United States
2151,KHZY,2025-11-29 01:58:51.204000+00:00,1764381180,2025-11-29T02:00:00.000Z,-0.6,-8.9,300,8.0,10+,1025.1,6,,,METAR,METAR KHZY 290153Z AUTO 30008KT 270V330 10SM BKN046 OVC050 M01/M09 A3027 RMK AO2 SLP260 T10061089,41.7794,-80.6968,279,Ashtabula/NE Ohio Rgnl,OVC,"[{'cover': 'BKN', 'base': 4600}, {'cover': 'OVC', 'base': 5000}]",VFR,,,1026.0,,,US,United States
1860,KIAB,2025-11-29 01:58:55.780000+00:00,1764381300,2025-11-29T02:00:00.000Z,10.2,0.5,170,8.0,10+,1015.3,14,,,METAR,METAR KIAB 290155Z AUTO 17008KT 10SM OVC041 10/01 A2998 RMK AO2 SLP161 T01020005 $,37.622,-97.268,413,McConnell AFB,OVC,"[{'cover': 'OVC', 'base': 4100}]",VFR,,,1016.1,,,US,United States
1922,KIAD,2025-11-29 01:57:37.204000+00:00,1764381120,2025-11-29T02:00:00.000Z,0.0,-10.0,290,9.0,10+,1026.8,4,,,METAR,METAR KIAD 290152Z 29009KT 10SM FEW065 00/M10 A3032 RMK AO2 SLP271 T00001100,38.9348,-77.4473,90,Washington/Dulles Intl,FEW,"[{'cover': 'FEW', 'base': 6500}]",VFR,,,1027.1,,,US,United States
1891,KIAG,2025-11-29 01:59:01.704000+00:00,1764381180,2025-11-29T02:00:00.000Z,-2.2,-5.6,270,14.0,10+,1022.1,4,,,METAR,METAR KIAG 290153Z 27014KT 10SM FEW035 M02/M06 A3018 RMK AO2 SLP236 T10221056,43.1083,-78.9382,179,Niagara Falls Intl,FEW,"[{'cover': 'FEW', 'base': 3500}]",VFR,,,1023.6,,,US,United States
1901,KIAH,2025-11-29 01:58:52.655000+00:00,1764381180,2025-11-29T02:00:00.000Z,13.9,7.2,100,9.0,10+,1024.8,12,,,METAR,METAR KIAH 290153Z 10009KT 10SM BKN100 BKN250 14/07 A3026 RMK AO2 SLP247 T01390072 PNO $,29.9844,-95.3607,27,Houston/Bush Intl,BKN,"[{'cover': 'BKN', 'base': 10000}, {'cover': 'BKN', 'base': 25000}]",VFR,,,1024.7,,,US,United States
1875,KICL,2025-11-29 02:02:21.609000+00:00,1764381300,2025-11-29T02:00:00.000Z,-2.0,-9.0,130,10.0,10+,1022.1,6,,,METAR,METAR KICL 290155Z AUTO 13010G15KT 10SM FEW045 OVC055 M02/M09 A3018 RMK AO2,40.7242,-95.0222,299,Clarinda/Schenck Fld,OVC,"[{'cover': 'FEW', 'base': 4500}, {'cover': 'OVC', 'base': 5500}]",VFR,,15.0,,,,US,United States
1898,KICT,2025-11-29 01:57:42.158000+00:00,1764381180,2025-11-29T02:00:00.000Z,9.4,0.6,170,11.0,10+,1015.3,12,,,METAR,METAR KICT 290153Z 17011KT 10SM OVC044 09/01 A2998 RMK AO2 SLP160 T00940006 $,37.6475,-97.43,428,Wichita/Eisenhower Arpt,OVC,"[{'cover': 'OVC', 'base': 4400}]",VFR,,,1016.0,,,US,United States
1916,KIDA,2025-11-29 01:58:52.381000+00:00,1764381180,2025-11-29T02:00:00.000Z,1.1,-3.9,350,5.0,10+,1015.3,4,,,METAR,METAR KIDA 290153Z 35005KT 10SM FEW075 01/M04 A2998 RMK AO2 SLP177 T00111039,43.5204,-112.0675,1444,Idaho Falls Rgnl,FEW,"[{'cover': 'FEW', 'base': 7500}]",VFR,,,1017.7,,,US,United States
1852,KIDI,2025-11-29 01:58:49.370000+00:00,1764381300,2025-11-29T02:00:00.000Z,-3.0,-6.0,260,9.0,10+,1025.1,6,,,METAR,METAR KIDI 290155Z AUTO 26009KT 10SM FEW023 BKN032 OVC055 M03/M06 A3027 RMK A01,40.6337,-79.1036,425,Indiana/Stewart Arpt,OVC,"[{'cover': 'FEW', 'base': 2300}, {'cover': 'BKN', 'base': 3200}, {'cover': 'OVC', 'base': 5500}]",VFR,,,,,,US,United States
1868,KIDP,2025-11-29 02:02:13.466000+00:00,1764381300,2025-11-29T02:00:00.000Z,10.0,2.0,160,10.0,10+,1018.4,6,RA,,METAR,METAR KIDP 290155Z AUTO 16010KT 10SM RA OVC050 10/02 A3007 RMK AO2,37.1566,-95.7792,252,Independence Muni,OVC,"[{'cover': 'OVC', 'base': 5000}]",VFR,,,,,,US,United States
1847,KIFA,2025-11-29 02:00:52.050000+00:00,1764381300,2025-11-29T02:00:00.000Z,-4.1,-7.1,120,10.0,0.75,1025.8,6,SN,,METAR,METAR KIFA 290155Z AUTO 12010KT 3/4SM SN OVC007 M04/M07 A3029 RMK AO2 T10411071,42.4691,-93.2651,344,Iowa Falls Muni,OVC,"[{'cover': 'OVC', 'base': 700}]",LIFR,,,,,,US,United States
1855,KIFP,2025-11-29 02:06:37.159000+00:00,1764381300,2025-11-29T02:00:00.000Z,17.0,6.0,110,7.0,10+,1013.6,6,,,METAR,METAR KIFP 290155Z AUTO 11007KT 10SM CLR 17/06 A2993 RMK AO2,35.1487,-114.5611,210,Bullhead City Intl,CLR,[],VFR,,,,,,US,United States
1929,KIGM,2025-11-29 01:57:32.076000+00:00,1764381060,2025-11-29T02:00:00.000Z,12.8,1.7,0,0.0,10+,1016.7,6,,,METAR,METAR KIGM 290151Z AUTO 00000KT 10SM CLR 13/02 A3002 RMK AO2 SLP132 T01280017,35.2575,-113.9341,1045,Kingman Arpt,CLR,[],VFR,,,1013.2,,,US,United States
1837,KILE,2025-11-29 02:01:00.705000+00:00,1764381360,2025-11-29T02:00:00.000Z,,,160,16.0,10+,1020.4,78,,0.01,METAR,METAR KILE 290156Z AUTO 16016G22KT 10SM SCT040 OVC050 A3013 RMK AO2 TSB13E37RAB32E53 SLPNO P0001 FZRANO $,31.084,-97.6885,256,Killeen/Skylark Fld,OVC,"[{'cover': 'SCT', 'base': 4000}, {'cover': 'OVC', 'base': 5000}]",VFR,,22.0,,,,US,United States
1927,KILG,2025-11-29 01:57:35.717000+00:00,1764381060,2025-11-29T02:00:00.000Z,1.1,-8.3,250,8.0,10+,1024.1,6,,,METAR,METAR KILG 290151Z AUTO 25008KT 10SM CLR 01/M08 A3024 RMK AO2 SLP242 T00111083,39.6744,-75.6057,22,Wilmington/New Castle Arpt,CLR,[],VFR,,,1024.2,,,US,United States
1912,KILM,2025-11-29 01:57:42.251000+00:00,1764381180,2025-11-29T02:00:00.000Z,0.6,-3.3,0,0.0,10+,1028.9,12,,,METAR,METAR KILM 290153Z 00000KT 10SM CLR 01/M03 A3038 RMK AO2 SLP288 T00061033 $,34.2668,-77.8999,9,Wilmington Intl,CLR,[],VFR,,,1028.8,,,US,United States
1883,KILN,2025-11-29 01:58:56.709000+00:00,1764381240,2025-11-29T02:00:00.000Z,-5.0,-10.6,270,4.0,10+,1029.5,14,,,METAR,METAR KILN 290154Z AUTO 27004KT 10SM CLR M05/M11 A3040 RMK AO2 SLP330 T10501106 $,39.4308,-83.777,325,Wilmington Arpt,CLR,[],VFR,,,1033.0,,,US,United States
1911,KIML,2025-11-29 01:58:57.712000+00:00,1764381180,2025-11-29T02:00:00.000Z,0.0,-2.8,90,6.0,10+,1011.6,6,,,METAR,METAR KIML 290153Z AUTO 09006KT 10SM OVC015 00/M03 A2987 RMK AO2 SLP143 T00001028,40.5106,-101.6243,997,Imperial Muni,OVC,"[{'cover': 'OVC', 'base': 1500}]",MVFR,,,1014.3,,,US,United States
1854,KIMM,2025-11-29 02:06:37.204000+00:00,1764381300,2025-11-29T02:00:00.000Z,13.0,9.0,360,5.0,10+,1022.8,6,,,METAR,METAR KIMM 290155Z AUTO 36005KT 10SM BKN038 13/09 A3020 RMK AO2,26.4321,-81.4073,11,Immokalee Rgnl,BKN,"[{'cover': 'BKN', 'base': 3800}]",VFR,,,,,,US,United States
2621,KIMS,2025-11-29 02:02:18.783000+00:00,1764381300,2025-11-29T02:00:00.000Z,-4.0,-6.0,0,0.0,10+,1030.6,6,,,METAR,METAR KIMS 290155Z AUTO 00000KT 10SM CLR M04/M06 A3043 RMK AO2,38.7515,-85.4689,244,Madison Muni,CLR,[],VFR,,,,,,US,United States
1884,KIMT,2025-11-29 01:58:56.728000+00:00,1764381240,2025-11-29T02:00:00.000Z,-5.6,-10.0,290,3.0,10+,1025.8,6,,,METAR,METAR KIMT 290154Z AUTO 29003KT 10SM OVC038 M06/M10 A3029 RMK AO2 SLP278 T10561100 PNO,45.8134,-88.1129,343,Iron Mountain/Ford Arpt,OVC,"[{'cover': 'OVC', 'base': 3800}]",VFR,,,1027.8,,,US,United States
1879,KIND,2025-11-29 01:59:07.378000+00:00,1764381240,2025-11-29T02:00:00.000Z,-2.8,-9.4,0,0.0,10+,1029.5,12,,,METAR,METAR KIND 290154Z 00000KT 10SM FEW250 M03/M09 A3040 RMK AO2 SLP304 T10281094 $,39.7252,-86.2816,242,Indianapolis Intl,FEW,"[{'cover': 'FEW', 'base': 25000}]",VFR,,,1030.4,,,US,United States
1882,KINL,2025-11-29 01:59:09.405000+00:00,1764381240,2025-11-29T02:00:00.000Z,-9.4,-13.3,0,0.0,10+,1027.2,14,,,METAR,METAR KINL 290154Z AUTO 00000KT 10SM OVC023 M09/M13 A3033 RMK AO2 SLP298 T10941133 $,48.5594,-93.3955,353,International Falls/Einarson Fld,OVC,"[{'cover': 'OVC', 'base': 2300}]",MVFR,,,1029.8,,,US,United States
1849,KINS,2025-11-29 02:00:44.377000+00:00,1764381300,2025-11-29T02:00:00.000Z,14.2,2.1,200,10.0,10+,1015.7,14,,,METAR,METAR KINS 290155Z AUTO 20010KT 10SM CLR 14/02 A2999 RMK AO2 SLP141 T01420021 $,36.586,-115.69,954,Indian Springs/Creech AFB,CLR,[],VFR,,,1014.1,,,US,United States
1886,KINT,2025-11-29 01:59:00.188000+00:00,1764381240,2025-11-29T02:00:00.000Z,0.0,-10.6,340,7.0,10+,1029.2,4,,,METAR,METAR KINT 290154Z 34007KT 10SM CLR 00/M11 A3039 RMK AO2 SLP297 T00001106,36.1335,-80.2244,292,Winston-Salem/Reynolds Arpt,CLR,[],VFR,,,1029.7,,,US,United States
1842,KINW,2025-11-29 02:01:05.619000+00:00,1764381360,2025-11-29T02:00:00.000Z,8.9,0.0,210,7.0,10+,1016.7,6,,,METAR,METAR KINW 290156Z AUTO 21007KT 10SM CLR 09/00 A3002 RMK AO2 SLP162 T00890000,35.0279,-110.7221,1492,Winslow/Lindberg Rgnl,CLR,[],VFR,,,1016.2,,,US,United States
1925,KIOW,2025-11-29 01:57:28.435000+00:00,1764381120,2025-11-29T02:00:00.000Z,-2.2,-8.9,50,6.0,4,1028.2,6,-SN,0.005,METAR,METAR KIOW 290152Z AUTO 05006KT 4SM -SN OVC028 M02/M09 A3036 RMK AO2 SNE08B41 SLP290 P0000 T10221089,41.6394,-91.5446,199,Iowa City Muni,OVC,"[{'cover': 'OVC', 'base': 2800}]",MVFR,,,1029.0,,,US,United States
1918,KIPL,2025-11-29 01:59:01.357000+00:00,1764381180,2025-11-29T02:00:00.000Z,19.4,8.3,0,0.0,10+,1013.3,6,,,METAR,METAR KIPL 290153Z AUTO 00000KT 10SM CLR 19/08 A2992 RMK AO2 SLP132 T01940083,32.8346,-115.5766,-16,Imperial Cnty Arpt,CLR,[],VFR,,,1013.2,,,US,United States
1881,KIPT,2025-11-29 01:59:07.407000+00:00,1764381240,2025-11-29T02:00:00.000Z,0.6,-7.8,280,9.0,10+,1022.1,12,,,METAR,METAR KIPT 290154Z 28009G18KT 10SM OVC047 01/M08 A3018 RMK AO2 SLP225 T00061078 $,41.243,-76.9217,160,Williamsport Rgnl,OVC,"[{'cover': 'OVC', 'base': 4700}]",VFR,,18.0,1022.5,,,US,United States
1866,KIRK,2025-11-29 01:59:22.105000+00:00,1764381300,2025-11-29T02:00:00.000Z,-2.2,-7.8,110,10.0,10+,1025.1,6,,,METAR,METAR KIRK 290155Z AUTO 11010KT 10SM OVC060 M02/M08 A3027 RMK AO2 SLP267 T10221078,40.0966,-92.5469,292,Kirksville Rgnl,OVC,"[{'cover': 'OVC', 'base': 6000}]",VFR,,,1026.7,,,US,United States
1878,KIRS,2025-11-29 02:00:47.322000+00:00,1764381300,2025-11-29T02:00:00.000Z,-2.0,-8.0,250,5.0,10+,1027.9,6,,,METAR,METAR KIRS 290155Z AUTO 25005KT 10SM OVC036 M02/M08 A3035 RMK AO2,41.8154,-85.4376,282,Sturgis/Kirsh Muni,OVC,"[{'cover': 'OVC', 'base': 3600}]",VFR,,,,,,US,United States
2130,KISM,2025-11-29 01:59:21.384000+00:00,1764381360,2025-11-29T02:00:00.000Z,12.2,5.0,360,8.0,10+,1025.5,12,,,METAR,METAR KISM 290156Z 36008KT 10SM CLR 12/05 A3028 RMK AO2 SLP255 T01220050 $,28.2924,-81.4371,25,Kissimmee Muni,CLR,[],VFR,,,1025.5,,,US,United States
2131,KISO,2025-11-29 01:58:31.310000+00:00,1764381360,2025-11-29T02:00:00.000Z,0.0,-7.0,350,4.0,10+,1028.9,0,,,METAR,METAR KISO 290156Z 35004KT 10SM CLR 00/M07 A3038,35.324,-77.6187,27,Kinston Rgnl,CLR,[],VFR,,,,,,US,United States
2127,KISP,2025-11-29 02:00:52.128000+00:00,1764381360,2025-11-29T02:00:00.000Z,3.3,-8.9,270,13.0,10+,1018.0,4,,,METAR,METAR KISP 290156Z 27013KT 10SM FEW065 03/M09 A3006 RMK AO2 SLP181 T00331089,40.7939,-73.1018,25,Islip/Macarthur Arpt,FEW,"[{'cover': 'FEW', 'base': 6500}]",VFR,,,1018.1,,,US,United States
2138,KISQ,2025-11-29 02:00:47.353000+00:00,1764381300,2025-11-29T02:00:00.000Z,-5.0,-6.6,270,5.0,10+,1025.5,6,,,METAR,METAR KISQ 290155Z AUTO 27005KT 10SM SCT043 BKN049 M05/M07 A3028 RMK AO2 T10501066,45.9729,-86.1728,206,Manistique/Schoolcraft Cnty,BKN,"[{'cover': 'SCT', 'base': 4300}, {'cover': 'BKN', 'base': 4900}]",VFR,,,,,,US,United States
2145,KISW,2025-11-29 01:58:56.786000+00:00,1764381240,2025-11-29T02:00:00.000Z,-5.6,-11.7,10,3.0,10+,1027.9,6,,,METAR,METAR KISW 290154Z AUTO 01003KT 10SM OVC029 M06/M12 A3035 RMK AO2 SLP296 T10561117,44.3591,-89.837,311,Wisconsin Rapids/S Wood Cnty,OVC,"[{'cover': 'OVC', 'base': 2900}]",MVFR,,,1029.6,,,US,United States
2137,KITH,2025-11-29 02:00:47.369000+00:00,1764381360,2025-11-29T02:00:00.000Z,-0.6,-5.0,280,21.0,10+,1018.7,4,,,METAR,METAR KITH 290156Z 28021G26KT 10SM OVC032 M01/M05 A3008 RMK AO2 PK WND 28026/0155 SLP197 T10061050,42.4931,-76.4569,338,Ithaca/Tompkins Rgnl,OVC,"[{'cover': 'OVC', 'base': 3200}]",VFR,,26.0,1019.7,,,US,United States
466,KIWA,2025-11-29 01:47:46.118000+00:00,1764380820,2025-11-29T02:00:00.000Z,18.0,10.0,0,0.0,10+,1015.3,0,,,METAR,METAR KIWA 290147Z 00000KT 10SM CLR 18/10 A2998,33.3008,-111.6437,420,Phoenix/Mesa Gateway Arpt,CLR,[],VFR,,,,,,US,United States
2128,KIWD,2025-11-29 02:01:00.111000+00:00,1764381360,2025-11-29T02:00:00.000Z,-7.8,-10.0,200,4.0,9,1026.8,70,-SN,0.005,METAR,METAR KIWD 290156Z AUTO 20004KT 9SM -SN OVC025 M08/M10 A3032 RMK AO2 SLP292 P0000 T10781100 FZRANO,46.5321,-90.126,373,Ironwood/Iron Cnty,OVC,"[{'cover': 'OVC', 'base': 2500}]",MVFR,,,1029.2,,,US,United States
2149,KIWI,2025-11-29 01:58:35.179000+00:00,1764381180,2025-11-29T02:00:00.000Z,-0.6,-6.7,VRB,3.0,10+,1009.6,6,,,METAR,METAR KIWI 290153Z AUTO VRB03KT 10SM CLR M01/M07 A2981 RMK AO2 SLP096 T10061067,43.9639,-69.7114,16,Wiscasset Arpt,CLR,[],VFR,,,1009.6,,,US,United States
2156,KIXD,2025-11-29 01:57:42.369000+00:00,1764381180,2025-11-29T02:00:00.000Z,2.8,-2.2,110,10.0,10+,1019.4,12,,0.01,METAR,METAR KIXD 290153Z 11010G22KT 10SM OVC055 03/M02 A3010 RMK AO2 RAE49 SLP200 P0001 T00281022 $,38.8221,-94.8902,322,Olathe/New Century Arpt,OVC,"[{'cover': 'OVC', 'base': 5500}]",VFR,,22.0,1020.0,,,US,United States
3974,KIZA,2025-11-29 02:02:12.590000+00:00,1764381300,2025-11-29T02:00:00.000Z,14.0,11.0,210,4.0,10+,1015.7,6,,,METAR,METAR KIZA 290155Z AUTO 21004KT 10SM CLR 14/11 A2999 RMK AO2,34.6059,-120.0761,200,Santa Ynez Arpt,CLR,[],VFR,,,,,,US,United States
1586,KIZG,2025-11-29 01:58:56.807000+00:00,1764381240,2025-11-29T02:00:00.000Z,-0.6,-10.0,280,5.0,10+,1009.2,6,,,METAR,METAR KIZG 290154Z AUTO 28005KT 10SM BKN050 M01/M10 A2980 RMK AO2 SLP097 T10061100,43.9899,-70.9501,138,Fryeburg/Eastern Slopes Rgnl,BKN,"[{'cover': 'BKN', 'base': 5000}]",VFR,,,1009.7,,,US,United States
2125,KJAC,2025-11-29 02:00:47.258000+00:00,1764381360,2025-11-29T02:00:00.000Z,-0.6,-1.1,170,10.0,1.25,1011.9,4,-SN BR,0.02,METAR,METAR KJAC 290156Z 17010KT 1 1/4SM -SN BR OVC009 M01/M01 A2988 RMK AO2 CIG 005V012 SLP144 P0002 T10061011,43.6129,-110.7366,1967,Jackson Hole Arpt,OVC,"[{'cover': 'OVC', 'base': 900}]",IFR,,,1014.4,,,US,United States
2144,KJAN,2025-11-29 01:58:45.038000+00:00,1764381240,2025-11-29T02:00:00.000Z,7.8,-0.6,100,6.0,10+,1028.9,12,,,METAR,METAR KJAN 290154Z 10006KT 10SM BKN230 08/M01 A3038 RMK AO2 SLP286 T00781006 $,32.3198,-90.0778,92,Jackson/Evers Intl,BKN,"[{'cover': 'BKN', 'base': 23000}]",VFR,,,1028.6,,,US,United States
2140,KJAS,2025-11-29 02:02:19.541000+00:00,1764381300,2025-11-29T02:00:00.000Z,9.0,6.0,0,0.0,10+,1025.8,6,,,METAR,METAR KJAS 290155Z AUTO 00000KT 10SM SCT029 SCT090 BKN110 09/06 A3029 RMK AO2,30.8904,-94.0332,60,Jasper/Bell Fld,BKN,"[{'cover': 'SCT', 'base': 2900}, {'cover': 'SCT', 'base': 9000}, {'cover': 'BKN', 'base': 11000}]",VFR,,,,,,US,United States
2132,KJAX,2025-11-29 02:01:03.354000+00:00,1764381360,2025-11-29T02:00:00.000Z,3.3,0.0,0,0.0,10+,1027.5,12,,,METAR,METAR KJAX 290156Z 00000KT 10SM SCT250 03/00 A3034 RMK AO2 SLP276 T00330000 $,30.4953,-81.6937,8,Jacksonville Intl,SCT,"[{'cover': 'SCT', 'base': 25000}]",VFR,,,1027.6,,,US,United States
2155,KJBR,2025-11-29 01:57:25.889000+00:00,1764381180,2025-11-29T02:00:00.000Z,4.4,-1.7,90,4.0,10+,1027.5,14,,,METAR,METAR KJBR 290153Z AUTO 09004KT 10SM CLR 04/M02 A3034 RMK AO2 SLP276 T00441017 $,35.8357,-90.6442,79,Jonesboro Muni,CLR,[],VFR,,,1027.6,,,US,United States
2157,KJCT,2025-11-29 01:57:36.131000+00:00,1764381060,2025-11-29T02:00:00.000Z,15.6,13.9,170,9.0,10+,1019.0,14,,,METAR,METAR KJCT 290151Z AUTO 17009KT 10SM OVC014 16/14 A3009 RMK AO2 SLP168 T01560139 $,30.5105,-99.7665,522,Junction/Kimble Cnty,OVC,"[{'cover': 'OVC', 'base': 1400}]",MVFR,,,1016.8,,,US,United States
2185,KJDN,2025-11-29 01:57:22.802000+00:00,1764380880,2025-11-29T02:00:00.000Z,-8.3,-10.0,340,7.0,,1021.4,6,,0.01,METAR,METAR KJDN 290148Z AUTO 34007KT M08/M10 A3016 RMK AO1 SLP258 P0001 T10831100,47.3259,-106.9488,802,Jordan Arpt,,,,,,1025.8,,,US,United States
2152,KJEF,2025-11-29 01:57:42.391000+00:00,1764381180,2025-11-29T02:00:00.000Z,2.8,-6.7,100,11.0,10+,1024.8,4,,,METAR,METAR KJEF 290153Z 10011KT 10SM OVC085 03/M07 A3026 RMK AO2 SLP243 T00281067,38.5945,-92.1567,167,Jefferson City Mem,OVC,"[{'cover': 'OVC', 'base': 8500}]",VFR,,,1024.3,,,US,United States
2159,KJFK,2025-11-29 01:58:49.253000+00:00,1764381060,2025-11-29T02:00:00.000Z,2.8,-7.8,270,16.0,10+,1020.1,8,,,METAR,METAR KJFK 290151Z 27016G29KT 10SM FEW065 03/M08 A3012 RMK PK WND 28030/0112 SLP198 T00281078 $,40.6392,-73.7639,3,New York/JF Kennedy Intl,FEW,"[{'cover': 'FEW', 'base': 6500}]",VFR,,29.0,1019.8,,,US,United States
2129,KJHW,2025-11-29 02:00:48.081000+00:00,1764381360,2025-11-29T02:00:00.000Z,-2.2,-7.8,290,9.0,9,1022.1,70,-SN,0.005,METAR,METAR KJHW 290156Z AUTO 29009KT 9SM -SN OVC030 M02/M08 A3018 RMK AO2 SLP245 P0000 T10221078 FZRANO,42.1534,-79.2541,520,Jamestown/Chautauqua Cnty,OVC,"[{'cover': 'OVC', 'base': 3000}]",MVFR,,,1024.5,,,US,United States
1566,KJKA,2025-11-29 01:59:14.736000+00:00,1764381300,2025-11-29T02:00:00.000Z,9.0,-1.0,20,4.0,10+,1028.2,0,,,METAR,METAR KJKA 290155Z 02004KT 10SM CLR 09/M01 A3036,30.291,-87.661,5,Gulf Shores/Edwards Arpt,CLR,[],VFR,,,,,,US,United States
2150,KJLN,2025-11-29 01:57:30.652000+00:00,1764381180,2025-11-29T02:00:00.000Z,8.9,1.7,130,7.0,10+,1020.1,4,,0.005,METAR,METAR KJLN 290153Z 13007KT 10SM OVC060 09/02 A3012 RMK AO2 RAB0058E43 SLP202 P0000 T00890017,37.1522,-94.4952,297,Joplin Rgnl,OVC,"[{'cover': 'OVC', 'base': 6000}]",VFR,,,1020.2,,,US,United States
2134,KJMS,2025-11-29 02:00:52.147000+00:00,1764381360,2025-11-29T02:00:00.000Z,-9.4,-11.7,90,9.0,10+,1025.1,6,,,METAR,METAR KJMS 290156Z AUTO 09009KT 10SM BKN014 OVC075 M09/M12 A3027 RMK AO2 SLP284 T10941117,46.9259,-98.6704,455,Jamestown Rgnl,OVC,"[{'cover': 'BKN', 'base': 1400}, {'cover': 'OVC', 'base': 7500}]",MVFR,,,1028.4,,,US,United States
2142,KJOT,2025-11-29 02:02:21.649000+00:00,1764381300,2025-11-29T02:00:00.000Z,-5.2,-8.4,0,0.0,10+,1029.2,6,,,METAR,METAR KJOT 290155Z AUTO 00000KT 10SM CLR M05/M08 A3039 RMK AO2 T10521084,41.5175,-88.179,175,Joliet Rgnl,CLR,[],VFR,,,,,,US,United States
4554,KJQF,2025-11-29 02:01:46.564000+00:00,1764381300,2025-11-29T02:00:00.000Z,1.0,-10.0,0,0.0,10+,1029.9,0,,,METAR,METAR KJQF 290155Z 00000KT 10SM CLR 01/M10 A3041,35.3896,-80.7074,204,Concord Rgnl,CLR,[],VFR,,,,,,US,United States
2143,KJSO,2025-11-29 01:59:07.964000+00:00,1764381300,2025-11-29T02:00:00.000Z,12.6,0.6,140,7.0,10+,1023.1,14,,,METAR,METAR KJSO 290155Z AUTO 14007KT 10SM BKN080 OVC110 13/01 A3021 RMK AO2 T01260006 $,31.869,-95.2145,204,Jacksonvil0e/Cherokee Cnty,OVC,"[{'cover': 'BKN', 'base': 8000}, {'cover': 'OVC', 'base': 11000}]",VFR,,,,,,US,United States
2146,KJST,2025-11-29 01:59:00.205000+00:00,1764381240,2025-11-29T02:00:00.000Z,-4.4,-8.3,280,15.0,8,1022.8,6,-SN,0.005,METAR,METAR KJST 290154Z AUTO 28015G26KT 8SM -SN BKN022 BKN027 OVC032 M04/M08 A3020 RMK AO2 PK WND 28026/0154 SNE0056B25 SLP258 P0000 T10441083,40.3149,-78.8307,695,Johnstown/Murtha Arpt,OVC,"[{'cover': 'BKN', 'base': 2200}, {'cover': 'BKN', 'base': 2700}, {'cover': 'OVC', 'base': 3200}]",MVFR,,26.0,1025.8,,,US,United States
2187,KJVL,2025-11-29 01:46:27.807000+00:00,1764380700,2025-11-29T02:00:00.000Z,-6.0,-9.0,0,0.0,10+,1028.5,0,,,METAR,METAR KJVL 290145Z 00000KT 10SM FEW039 M06/M09 A3037,42.6213,-89.0419,244,Janesville/S Wisconsin Rgnl,FEW,"[{'cover': 'FEW', 'base': 3900}]",VFR,,,,,,US,United States
2136,KJXN,2025-11-29 02:00:54.201000+00:00,1764381360,2025-11-29T02:00:00.000Z,-2.2,-9.4,260,7.0,10+,1027.9,4,,,METAR,METAR KJXN 290156Z 26007KT 10SM OVC035 M02/M09 A3035 RMK AO2 SLP290 T10221094,42.259,-84.4589,303,Jackson Cnty,OVC,"[{'cover': 'OVC', 'base': 3500}]",VFR,,,1029.0,,,US,United States
2133,KKLS,2025-11-29 02:00:46.599000+00:00,1764381360,2025-11-29T02:00:00.000Z,8.9,7.8,0,0.0,10+,1024.8,6,,,METAR,METAR KKLS 290156Z AUTO 00000KT 10SM CLR 09/08 A3026 RMK AO2 SLP249 T00890078,46.118,-122.898,4,Kelso/Longview Arpt,CLR,[],VFR,,,1024.9,,,US,United States
2373,KLAA,2025-11-29 01:58:34.990000+00:00,1764381180,2025-11-29T02:00:00.000Z,-0.6,-1.7,0,0.0,10+,1006.5,6,,,METAR,METAR KLAA 290153Z AUTO 00000KT 10SM CLR M01/M02 A2972 RMK AO2 SLP079 T10061017,38.0718,-102.6875,1129,Lamar Muni,CLR,[],VFR,,,1007.9,,,US,United States
2358,KLAF,2025-11-29 01:59:07.438000+00:00,1764381240,2025-11-29T02:00:00.000Z,-6.1,-10.0,0,0.0,10+,1029.5,6,,,METAR,METAR KLAF 290154Z AUTO 00000KT 10SM CLR M06/M10 A3040 RMK AO2 SLP304 T10611100,40.4124,-86.9474,182,Lafayette/Purdue Univ Arpt,CLR,[],VFR,,,1030.4,,,US,United States
2412,KLAL,2025-11-29 01:59:58.398000+00:00,1764381000,2025-11-29T02:00:00.000Z,11.0,5.0,20,8.0,10+,1025.5,0,,,METAR,METAR KLAL 290150Z 02008KT 10SM SKC 11/05 A3028,27.9866,-82.0193,39,Lakeland/Linder Intl,SKC,[],VFR,,,,,,US,United States
2355,KLAM,2025-11-29 02:02:16.948000+00:00,1764381300,2025-11-29T02:00:00.000Z,8.3,-5.2,180,7.0,10+,1015.7,14,,,METAR,METAR KLAM 290155Z AUTO 18007KT 10SM CLR 08/M05 A2999 RMK AO2 T00831052 $,35.8789,-106.2621,2166,Los Alamos Arpt,CLR,[],VFR,,,,,,US,United States
2378,KLAN,2025-11-29 01:58:36.514000+00:00,1764381180,2025-11-29T02:00:00.000Z,-2.8,-7.8,280,4.0,10+,1027.9,12,,,METAR,METAR KLAN 290153Z 28004KT 10SM OVC037 M03/M08 A3035 RMK AO2 SLP289 T10281078 $,42.7761,-84.5997,261,Lansing/Capital City Arpt,OVC,"[{'cover': 'OVC', 'base': 3700}]",VFR,,,1028.9,,,US,United States
2377,KLAR,2025-11-29 01:58:35.486000+00:00,1764381180,2025-11-29T02:00:00.000Z,1.1,-5.6,250,9.0,10+,1009.6,6,,,METAR,METAR KLAR 290153Z AUTO 25009KT 10SM FEW085 01/M06 A2981 RMK AO2 SLP077 T00111056,41.3165,-105.6729,2217,Laramie Rgnl,FEW,"[{'cover': 'FEW', 'base': 8500}]",VFR,,,1007.7,,,US,United States
2331,KLAS,2025-11-29 02:01:05.639000+00:00,1764381360,2025-11-29T02:00:00.000Z,16.1,2.8,0,0.0,10+,1015.3,4,,,METAR,METAR KLAS 290156Z 00000KT 10SM CLR 16/03 A2998 RMK AO2 SLP145 T01610028,36.0719,-115.1634,662,Las Vegas/Reid Intl,CLR,[],VFR,,,1014.5,,,US,United States
2376,KLAW,2025-11-29 01:57:42.507000+00:00,1764381180,2025-11-29T02:00:00.000Z,10.6,3.9,140,14.0,10+,1016.7,6,,,METAR,METAR KLAW 290153Z AUTO 14014KT 10SM OVC034 11/04 A3002 RMK AO2 SLP167 T01060039,34.5577,-98.4172,328,Lawton-Fort Sill Rgnl,OVC,"[{'cover': 'OVC', 'base': 3400}]",VFR,,,1016.7,,,US,United States
2382,KLAX,2025-11-29 01:58:44.340000+00:00,1764381180,2025-11-29T02:00:00.000Z,15.6,14.4,270,8.0,10+,1015.7,12,,,METAR,METAR KLAX 290153Z 27008KT 10SM SCT006 16/14 A2999 RMK AO2 SLP155 T01560144 $,33.9382,-118.3866,30,Los Angeles Intl,SCT,"[{'cover': 'SCT', 'base': 600}]",VFR,,,1015.5,,,US,United States
2383,KLBB,2025-11-29 01:58:44.386000+00:00,1764381180,2025-11-29T02:00:00.000Z,12.8,8.3,180,12.0,10+,1014.0,4,,,METAR,METAR KLBB 290153Z 18012G21KT 10SM CLR 13/08 A2994 RMK AO2 SLP118 T01280083,33.6658,-101.8233,996,Lubbock Intl Arpt,CLR,[],VFR,,21.0,1011.8,,,US,United States
2423,KLBE,2025-11-29 01:54:11.617000+00:00,1764380820,2025-11-29T02:00:00.000Z,-2.0,-6.0,240,10.0,10+,1028.5,0,,,METAR,METAR KLBE 290147Z 24010G20KT 10SM OVC060 M02/M06 A3037,40.2767,-79.4039,345,Latrobe/Palmer Rgnl,OVC,"[{'cover': 'OVC', 'base': 6000}]",VFR,,20.0,,,,US,United States
2367,KLBF,2025-11-29 01:58:57.866000+00:00,1764381180,2025-11-29T02:00:00.000Z,-2.2,-3.3,90,7.0,6,1013.6,6,BR,,METAR,METAR KLBF 290153Z AUTO 09007KT 6SM BR OVC008 M02/M03 A2993 RMK AO2 CIG 007V012 SLP163 T10221033,41.122,-100.6689,843,N Platte/Lee Bird Fld,OVC,"[{'cover': 'OVC', 'base': 800}]",IFR,,,1016.3,,,US,United States
2332,KLBL,2025-11-29 01:59:21.629000+00:00,1764381360,2025-11-29T02:00:00.000Z,9.4,6.7,170,17.0,10+,1008.9,14,,,METAR,METAR KLBL 290156Z AUTO 17017KT 10SM CLR 09/07 A2979 RMK AO2 SLP090 T00940067 PNO $,37.0375,-100.9574,877,Liberal/Mid America Rgnl,CLR,[],VFR,,,1009.0,,,US,United States
2338,KLBT,2025-11-29 02:00:52.213000+00:00,1764381360,2025-11-29T02:00:00.000Z,-2.2,-6.1,0,0.0,10+,1028.9,6,,,METAR,METAR KLBT 290156Z AUTO 00000KT 10SM CLR M02/M06 A3038 RMK AO2 SLP290 T10221061,34.6082,-79.059,37,Lumberton Muni,CLR,[],VFR,,,1029.0,,,US,United States
2365,KLBX,2025-11-29 01:58:52.418000+00:00,1764381180,2025-11-29T02:00:00.000Z,,,,,,1023.8,142,,,METAR,METAR KLBX 290153Z AUTO A3023 RMK AO2 SLP238 PWINO $,29.1154,-95.4632,4,Angleton/Texas Gulf Coast Rgnl,,,,,,1023.8,,,US,United States
2381,KLCH,2025-11-29 01:57:42.580000+00:00,1764381180,2025-11-29T02:00:00.000Z,11.1,2.8,0,0.0,10+,1026.5,6,HZ,,METAR,METAR KLCH 290153Z AUTO 00000KT 10SM HZ CLR 11/03 A3031 RMK AO2 SLP272 T01110028,30.1255,-93.2277,2,Lake Charles Rgnl,CLR,[],VFR,,,1027.2,,,US,United States
2347,KLCK,2025-11-29 02:02:22.737000+00:00,1764381300,2025-11-29T02:00:00.000Z,-2.5,-8.6,260,6.0,10+,1029.9,6,,,METAR,METAR KLCK 290155Z AUTO 26006KT 10SM BKN050 M02/M09 A3041 RMK AO2 T10251086,39.83,-82.919,225,Columbus/Rickenbacker Intl,BKN,"[{'cover': 'BKN', 'base': 5000}]",VFR,,,,,,US,United States
2339,KLCQ,2025-11-29 02:02:13.729000+00:00,1764381300,2025-11-29T02:00:00.000Z,5.0,-7.0,30,4.0,10+,1027.5,6,,,METAR,METAR KLCQ 290155Z AUTO 03004KT 10SM CLR 05/M07 A3034 RMK AO2,30.1838,-82.5684,59,Lake City/Gateway Arpt,CLR,[],VFR,,,,,,US,United States
2345,KLDJ,2025-11-29 01:57:40.603000+00:00,1764381300,2025-11-29T02:00:00.000Z,2.1,-8.6,280,12.0,10+,1020.4,6,,,METAR,METAR KLDJ 290155Z AUTO 28012G18KT 10SM CLR 02/M09 A3013 RMK AO2 T00211086,40.6162,-74.2451,6,Linden Arpt,CLR,[],VFR,,18.0,,,,US,United States
2352,KLDM,2025-11-29 02:00:52.241000+00:00,1764381300,2025-11-29T02:00:00.000Z,-2.0,-8.0,350,4.0,10+,1026.8,6,-SN,,METAR,METAR KLDM 290155Z AUTO 35004KT 10SM -SN OVC031 M02/M08 A3032 RMK AO2,43.9614,-86.4107,194,Ludington/Mason Cnty,OVC,"[{'cover': 'OVC', 'base': 3100}]",VFR,,,,,,US,United States
2363,KLEB,2025-11-29 01:58:48.589000+00:00,1764381180,2025-11-29T02:00:00.000Z,0.6,-8.3,270,10.0,10+,1011.3,4,,,METAR,METAR KLEB 290153Z 27010KT 10SM FEW042 BKN055 01/M08 A2986 RMK AO2 SLP118 T00061083,43.6271,-72.3054,169,Lebanon Muni,BKN,"[{'cover': 'FEW', 'base': 4200}, {'cover': 'BKN', 'base': 5500}]",VFR,,,1011.8,,,US,United States
2380,KLEE,2025-11-29 01:57:28.561000+00:00,1764381180,2025-11-29T02:00:00.000Z,9.4,3.3,360,7.0,10+,1026.5,6,,,METAR,METAR KLEE 290153Z AUTO 36007KT 10SM CLR 09/03 A3031 RMK AO2 SLP264 T00940033,28.8214,-81.8006,21,Leesburg Muni,CLR,[],VFR,,,1026.4,,,US,United States
2360,KLEX,2025-11-29 01:58:36.059000+00:00,1764381240,2025-11-29T02:00:00.000Z,-3.3,-9.4,0,0.0,10+,1030.2,4,,,METAR,METAR KLEX 290154Z 00000KT 10SM CLR M03/M09 A3042 RMK AO2 SLP311 T10331094,38.0339,-84.6114,294,Lexington/Blue Grass Arpt,CLR,[],VFR,,,1031.1,,,US,United States
2356,KLFI,2025-11-29 02:02:09.109000+00:00,1764381300,2025-11-29T02:00:00.000Z,2.3,-11.3,340,6.0,10+,1027.9,14,,,METAR,METAR KLFI 290155Z AUTO 34006KT 10SM CLR 02/M11 A3035 RMK AO2 SLP284 T00231113 $,37.088,-76.349,2,Langley AFB,CLR,[],VFR,,,1028.4,,,US,United States
2368,KLFK,2025-11-29 01:58:53.025000+00:00,1764381180,2025-11-29T02:00:00.000Z,10.6,2.8,130,3.0,10+,1025.1,6,,,METAR,METAR KLFK 290153Z AUTO 13003KT 10SM OVC110 11/03 A3027 RMK AO2 SLP249 T01060028,31.2359,-94.7546,87,Lufkin/Angelina Cnty,OVC,"[{'cover': 'OVC', 'base': 11000}]",VFR,,,1024.9,,,US,United States
2379,KLFT,2025-11-29 01:57:28.623000+00:00,1764381180,2025-11-29T02:00:00.000Z,11.1,-1.1,90,3.0,10+,1027.2,4,,,METAR,METAR KLFT 290153Z 09003KT 10SM CLR 11/M01 A3033 RMK AO2 SLP269 T01111011,30.1986,-91.9896,9,Lafayette Rgnl,CLR,[],VFR,,,1026.9,,,US,United States
2384,KLGA,2025-11-29 01:57:40.654000+00:00,1764381060,2025-11-29T02:00:00.000Z,3.3,-10.0,250,14.0,10+,1019.7,4,,,METAR,METAR KLGA 290151Z 25014G27KT 10SM FEW060 03/M10 A3011 RMK AO2 PK WND 27033/0102 SLP194 T00331100,40.7794,-73.8803,9,New York/La Guardia Arpt,FEW,"[{'cover': 'FEW', 'base': 6000}]",VFR,,27.0,1019.4,,,US,United States
2375,KLGB,2025-11-29 01:58:53.373000+00:00,1764381180,2025-11-29T02:00:00.000Z,16.1,14.4,0,0.0,10+,1015.7,4,,,METAR,METAR KLGB 290153Z 00000KT 10SM CLR 16/14 A2999 RMK AO2 SLP154 T01610144,33.8118,-118.1472,10,Long Beach Arpt,CLR,[],VFR,,,1015.4,,,US,United States
2344,KLGC,2025-11-29 02:01:11.247000+00:00,1764381300,2025-11-29T02:00:00.000Z,0.0,-3.0,0,0.0,10+,1029.2,6,,,METAR,METAR KLGC 290155Z AUTO 00000KT 10SM CLR 00/M03 A3039 RMK AO2,33.0093,-85.0717,209,La Grange/Callaway Arpt,CLR,[],VFR,,,,,,US,United States
2337,KLGD,2025-11-29 02:00:46.340000+00:00,1764381360,2025-11-29T02:00:00.000Z,2.2,0.6,330,7.0,10+,1026.2,78,,,METAR,METAR KLGD 290156Z AUTO 33007KT 10SM OVC034 02/01 A3030 RMK AO2 SLP280 T00220006 FZRANO $,45.2906,-118.0088,827,La Grande/Union Cnty,OVC,"[{'cover': 'OVC', 'base': 3400}]",VFR,,,1028.0,,,US,United States
2350,KLGF,2025-11-29 01:57:11.277000+00:00,1764381300,2025-11-29T02:00:00.000Z,18.3,10.9,140,5.0,10+,1013.6,14,,,METAR,METAR KLGF 290155Z AUTO 14005KT 10SM CLR 18/11 A2993 RMK AO2 SLP136 T01830109 $,32.868,-114.393,118,Laguna,CLR,[],VFR,,,1013.6,,,US,United States
2385,KLGU,2025-11-29 01:57:36.157000+00:00,1764381060,2025-11-29T02:00:00.000Z,6.1,-1.1,80,3.0,10+,1016.7,6,,0.005,METAR,METAR KLGU 290151Z AUTO 08003KT 10SM BKN055 OVC070 06/M01 A3002 RMK AO2 RAB21E30 SLP171 P0000 T00611011,41.7865,-111.8519,1359,Logan/Cache Arpt,OVC,"[{'cover': 'BKN', 'base': 5500}, {'cover': 'OVC', 'base': 7000}]",VFR,,,1017.1,,,US,United States
2341,KLHW,2025-11-29 01:58:58.657000+00:00,1764381300,2025-11-29T02:00:00.000Z,1.3,-4.0,0,0.0,10+,1028.5,14,,,METAR,METAR KLHW 290155Z AUTO 00000KT 10SM CLR 01/M04 A3037 RMK AO2 SLP288 T00131040 $,31.8872,-81.5625,14,Ft Stewart/Mid Coast Rgnl,CLR,[],VFR,,,1028.8,,,US,United States
2346,KLHZ,2025-11-29 02:01:17.075000+00:00,1764381300,2025-11-29T02:00:00.000Z,0.0,-10.0,0,0.0,10+,1029.5,6,,,METAR,METAR KLHZ 290155Z AUTO 00000KT 10SM CLR 00/M10 A3040 RMK AO2,36.0229,-78.3341,104,Louisburg/Franklin Cnty,CLR,[],VFR,,,,,,US,United States
2340,KLIC,2025-11-29 02:00:59.030000+00:00,1764381300,2025-11-29T02:00:00.000Z,3.3,-0.6,110,7.0,10+,1007.5,6,,,METAR,METAR KLIC 290155Z AUTO 11007KT 10SM BKN110 03/M01 A2975 RMK AO2 SLP082 T00331006,39.2733,-103.6674,1635,Limon Muni,BKN,"[{'cover': 'BKN', 'base': 11000}]",VFR,,,1008.2,,,US,United States
2366,KLIT,2025-11-29 01:57:30.746000+00:00,1764381180,2025-11-29T02:00:00.000Z,8.3,-0.6,180,5.0,10+,1026.8,4,,,METAR,METAR KLIT 290153Z 18005KT 10SM BKN120 08/M01 A3032 RMK AO2 SLP269 T00831006,34.7273,-92.2358,77,Little Rock/Clinton Natl,BKN,"[{'cover': 'BKN', 'base': 12000}]",VFR,,,1026.9,,,US,United States
2353,KLKP,2025-11-29 02:02:11.102000+00:00,1764381300,2025-11-29T02:00:00.000Z,-5.0,-9.0,310,6.0,7,1010.9,6,-SN HZ,,METAR,METAR KLKP 290155Z AUTO 31006G18KT 280V340 7SM -SN HZ FEW004 SCT021 OVC031 M05/M09 A2985 RMK AO2,44.265,-73.963,533,Lake Placid Arpt,OVC,"[{'cover': 'FEW', 'base': 400}, {'cover': 'SCT', 'base': 2100}, {'cover': 'OVC', 'base': 3100}]",VFR,,18.0,,,,US,United States
2623,KLKU,2025-11-29 01:58:49.956000+00:00,1764381300,2025-11-29T02:00:00.000Z,-0.3,-11.1,280,5.0,10+,1028.2,6,,,METAR,METAR KLKU 290155Z AUTO 28005KT 10SM BKN060 00/M11 A3036 RMK AO2 T10031111,38.0085,-77.9681,146,Louisa/Freeman Fld,BKN,"[{'cover': 'BKN', 'base': 6000}]",VFR,,,,,,US,United States
2371,KLKV,2025-11-29 01:57:35.003000+00:00,1764381180,2025-11-29T02:00:00.000Z,2.2,-2.8,20,6.0,10+,1022.1,70,,,METAR,METAR KLKV 290153Z AUTO 02006KT 10SM CLR 02/M03 A3018 RMK AO2 SLP246 T00221028 FZRANO,42.1538,-120.4027,1440,Lakeview/Lake Cnty,CLR,[],VFR,,,1024.6,,,US,United States
681,KLLJ,2025-11-29 02:00:46.357000+00:00,1764381300,2025-11-29T02:00:00.000Z,1.1,-8.9,40,3.0,10+,1018.0,6,,,METAR,METAR KLLJ 290155Z AUTO 04003KT 10SM CLR 01/M09 A3006 RMK AO2 SLP195 T00111089,44.523,-114.2161,1535,Challis Arpt,CLR,[],VFR,,,1019.5,,,US,United States
2303,KLMS,2025-11-29 02:06:37.450000+00:00,1764381600,2025-11-29T02:00:00.000Z,4.0,-1.0,0,0.0,9,1029.9,6,,,METAR,METAR KLMS 290200Z AUTO 00000KT 9SM CLR 04/M01 A3041 RMK AO2,33.15,-89.063,169,Louisville/Winston Cnty,CLR,[],VFR,,,,,,US,United States
2372,KLMT,2025-11-29 01:58:53.044000+00:00,1764381180,2025-11-29T02:00:00.000Z,2.8,-1.7,350,3.0,10+,1021.1,4,,,METAR,METAR KLMT 290153Z 35003KT 10SM CLR 03/M02 A3015 RMK AO2 SLP219 T00281017,42.147,-121.7255,1246,Klamath Falls Intl,CLR,[],VFR,,,1021.9,,,US,United States
2342,KLNA,2025-11-29 02:00:52.304000+00:00,1764381300,2025-11-29T02:00:00.000Z,18.3,11.1,300,5.0,10+,1022.1,6,,,METAR,METAR KLNA 290155Z AUTO 30005KT 10SM BKN045 BKN050 18/11 A3018 RMK AO2 T01830111,26.5925,-80.0848,3,Lantana/Palm Beach Cnty,BKN,"[{'cover': 'BKN', 'base': 4500}, {'cover': 'BKN', 'base': 5000}]",VFR,,,,,,US,United States
2370,KLND,2025-11-29 01:58:44.542000+00:00,1764381180,2025-11-29T02:00:00.000Z,1.1,-5.6,20,7.0,10+,1009.6,6,,,METAR,METAR KLND 290153Z AUTO 02007KT 10SM FEW075 01/M06 A2981 RMK AO2 SLP117 T00111056,42.8154,-108.726,1700,Lander/Hunt Fld,FEW,"[{'cover': 'FEW', 'base': 7500}]",VFR,,,1011.7,,,US,United States
2651,KLNK,2025-11-29 01:58:56.911000+00:00,1764381240,2025-11-29T02:00:00.000Z,-2.2,-6.1,100,11.0,10+,1019.4,4,,0.005,METAR,METAR KLNK 290154Z 10011KT 10SM OVC044 M02/M06 A3010 RMK AO2 UPE25 SLP208 P0000 T10221061,40.8478,-96.7647,357,Lincoln Arpt,OVC,"[{'cover': 'OVC', 'base': 4400}]",VFR,,,1020.8,,,US,United States
2637,KLNN,2025-11-29 02:06:31.050000+00:00,1764381300,2025-11-29T02:00:00.000Z,0.2,-9.9,310,13.0,10+,1026.8,6,,,METAR,METAR KLNN 290155Z AUTO 31013G19KT 10SM BKN040 OVC046 00/M10 A3032 RMK AO1 T00021099,41.6839,-81.3896,190,Willoughby/Lake Cnty Exec,OVC,"[{'cover': 'BKN', 'base': 4000}, {'cover': 'OVC', 'base': 4600}]",VFR,,19.0,,,,US,United States
2645,KLNP,2025-11-29 02:00:46.013000+00:00,1764381300,2025-11-29T02:00:00.000Z,-5.0,-10.0,290,4.0,10+,1027.9,6,,,METAR,METAR KLNP 290155Z AUTO 29004KT 10SM CLR M05/M10 A3035 RMK AO2,36.9884,-82.524,817,Wise/Lonesome Pine Arpt,CLR,[],VFR,,,,,,US,United States
2605,KLNR,2025-11-29 02:00:52.366000+00:00,1764381360,2025-11-29T02:00:00.000Z,-4.4,-7.8,90,3.0,10+,1027.9,6,,,METAR,METAR KLNR 290156Z AUTO 09003KT 10SM BKN120 M04/M08 A3035 RMK AO2 SLP282 T10441078,43.2111,-90.1874,218,Lone Rock/Tri Cnty Rgnl,BKN,"[{'cover': 'BKN', 'base': 12000}]",VFR,,,1028.2,,,US,United States
2659,KLNS,2025-11-29 01:58:49.099000+00:00,1764381180,2025-11-29T02:00:00.000Z,-0.6,-7.2,270,12.0,10+,1023.5,4,,,METAR,METAR KLNS 290153Z 27012KT 10SM CLR M01/M07 A3022 RMK AO2 SLP236 T10061072,40.1206,-76.2944,122,Lancaster Arpt,CLR,[],VFR,,,1023.6,,,US,United States
2670,KLOL,2025-11-29 01:58:52.435000+00:00,1764381180,2025-11-29T02:00:00.000Z,7.2,-5.0,40,8.0,10+,1019.7,6,,,METAR,METAR KLOL 290153Z AUTO 04008KT 10SM CLR 07/M05 A3011 RMK AO2 SLP210 T00721050,40.0684,-118.5702,1191,Lovelock/Derby Fld,CLR,[],VFR,,,1021.0,,,US,United States
375,KLOM,2025-11-29 02:02:16.203000+00:00,1764381300,2025-11-29T02:00:00.000Z,0.4,-7.4,270,6.0,10+,1022.8,6,,,METAR,METAR KLOM 290155Z AUTO 27006KT 10SM CLR 00/M07 A3020 RMK AO2 T00041074,40.1376,-75.2684,87,Philadelphia/Wings Field Arpt,CLR,[],VFR,,,,,,US,United States
2719,KLOT,2025-11-29 01:46:27.880000+00:00,1764380700,2025-11-29T02:00:00.000Z,-4.0,-10.0,0,0.0,10+,1029.2,0,,,METAR,METAR KLOT 290145Z 00000KT 10SM CLR M04/M10 A3039,41.6031,-88.1017,205,Romeoville/Lewis Univ Arpt,CLR,[],VFR,,,,,,US,United States
2669,KLOU,2025-11-29 01:57:28.772000+00:00,1764381180,2025-11-29T02:00:00.000Z,-2.8,-7.8,0,0.0,10+,1030.6,4,,,METAR,METAR KLOU 290153Z 00000KT 10SM CLR M03/M08 A3043 RMK AO2 SLP311 T10281078,38.2302,-85.6629,165,Louisville/Bowman Fld,CLR,[],VFR,,,1031.1,,,US,United States
2668,KLOZ,2025-11-29 01:57:28.794000+00:00,1764381180,2025-11-29T02:00:00.000Z,-2.8,-7.2,0,0.0,10+,1030.2,6,,,METAR,METAR KLOZ 290153Z AUTO 00000KT 10SM CLR M03/M07 A3042 RMK AO2 SLP313 T10281072,37.0896,-84.0688,361,London-Corbin Arpt,CLR,[],VFR,,,1031.3,,,US,United States
2693,KLPC,2025-11-29 01:57:40.076000+00:00,1764381060,2025-11-29T02:00:00.000Z,12.8,12.8,,,9,1016.3,14,,,METAR,METAR KLPC 290151Z AUTO 9SM CLR 13/13 A3001 RMK AO2 SLP163 T01280128 $,34.6647,-120.4642,26,Lompoc Arpt,CLR,[],VFR,,,1016.3,,,US,United States
2643,KLQK,2025-11-29 02:01:11.324000+00:00,1764381300,2025-11-29T02:00:00.000Z,-0.8,-7.0,60,3.0,10+,1027.5,6,,,METAR,METAR KLQK 290155Z AUTO 06003KT 10SM CLR M01/M07 A3034 RMK AO2 T10081070,34.8069,-82.7047,291,Pickens Cnty,CLR,[],VFR,,,,,,US,United States
2599,KLRD,2025-11-29 02:00:46.376000+00:00,1764381360,2025-11-29T02:00:00.000Z,21.1,15.6,130,13.0,10+,1018.4,12,,,METAR,METAR KLRD 290156Z 13013G22KT 10SM OVC040 21/16 A3007 RMK AO2 PK WND 14026/0124 SLP181 T02110156 $,27.551,-99.4614,150,Laredo Intl,OVC,"[{'cover': 'OVC', 'base': 4000}]",VFR,,22.0,1018.1,,,US,United States
2633,KLRF,2025-11-29 01:59:21.740000+00:00,1764381300,2025-11-29T02:00:00.000Z,8.3,-0.7,0,0.0,3,1026.2,14,HZ,,METAR,METAR KLRF 290155Z AUTO 00000KT 3SM HZ CLR 08/M01 A3030 RMK AO2 SLP265 T00831007 $,34.92,-92.131,85,Little Rock AFB,CLR,[],MVFR,,,1026.5,,,US,United States
2618,KLRJ,2025-11-29 02:00:52.401000+00:00,1764381300,2025-11-29T02:00:00.000Z,-5.0,-5.0,110,13.0,3,1021.4,6,-SN,,METAR,METAR KLRJ 290155Z AUTO 11013KT 3SM -SN BKN003 OVC026 M05/M05 A3016 RMK AO2,42.7771,-96.195,363,Le Mars Muni,OVC,"[{'cover': 'BKN', 'base': 300}, {'cover': 'OVC', 'base': 2600}]",LIFR,,,,,,US,United States
2614,KLRU,2025-11-29 02:02:19.580000+00:00,1764381300,2025-11-29T02:00:00.000Z,15.5,-3.9,260,14.0,10+,1017.0,6,,,METAR,METAR KLRU 290155Z AUTO 26014KT 10SM CLR 16/M04 A3003 RMK AO2 T01551039,32.2884,-106.9131,1355,Las Cruces Intl,CLR,[],VFR,,,,,,US,United States
2622,KLSB,2025-11-29 02:04:04.884000+00:00,1764381300,2025-11-29T02:00:00.000Z,12.0,1.0,290,8.0,10+,1018.0,6,,,METAR,METAR KLSB 290155Z AUTO 29008KT 10SM CLR 12/01 A3006 RMK AO2,32.334,-108.6955,1308,Lordsburg Muni,CLR,[],VFR,,,,,,US,United States
2681,KLSE,2025-11-29 01:58:48.603000+00:00,1764381180,2025-11-29T02:00:00.000Z,-3.3,-8.9,100,3.0,10+,1027.5,4,,,METAR,METAR KLSE 290153Z 10003KT 10SM SCT120 M03/M09 A3034 RMK AO2 SLP291 T10331089,43.8792,-91.253,198,La Crosse Muni,SCT,"[{'cover': 'SCT', 'base': 12000}]",VFR,,,1029.1,,,US,United States
2629,KLSF,2025-11-29 01:58:44.022000+00:00,1764381300,2025-11-29T02:00:00.000Z,1.4,-6.2,0,0.0,4,1028.5,14,HZ,,METAR,METAR KLSF 290155Z AUTO 00000KT 4SM HZ CLR 01/M06 A3037 RMK AO2 SLP291 T00141062 $,32.3239,-84.9826,68,Fort Benning/Lawson AAF,CLR,[],MVFR,,,1029.1,,,US,United States
2630,KLSV,2025-11-29 01:58:44.051000+00:00,1764381300,2025-11-29T02:00:00.000Z,15.2,3.3,60,6.0,10+,1013.6,14,,,METAR,METAR KLSV 290155Z AUTO 06006KT 10SM CLR 15/03 A2993 RMK AO2 SLP131 T01520033 $,36.236,-115.034,563,Nellis AFB,CLR,[],VFR,,,1013.1,,,US,United States
2641,KLTS,2025-11-29 01:58:58.676000+00:00,1764381300,2025-11-29T02:00:00.000Z,12.6,3.3,150,14.0,10+,1014.3,14,,,METAR,METAR KLTS 290155Z AUTO 15014KT 10SM OVC030 13/03 A2995 RMK AO2 PK WND 16026/16 SLP142 T01260033 $,34.666,-99.27,416,Altus AFB,OVC,"[{'cover': 'OVC', 'base': 3000}]",MVFR,,,1014.2,,,US,United States
2538,KLUF,2025-11-29 02:08:33.130000+00:00,1764381900,2025-11-29T02:05:00.000Z,19.0,8.0,0,0.0,3,1014.3,14,HZ,,SPECI,SPECI KLUF 290205Z AUTO 00000KT 3SM HZ CLR 19/08 A2995 RMK AO2 SLP139 $,33.538,-112.38,333,Phoenix/Luke AFB,CLR,[],MVFR,,,1013.9,,,US,United States
2673,KLUK,2025-11-29 01:58:35.225000+00:00,1764381180,2025-11-29T02:00:00.000Z,-3.9,-7.8,0,0.0,10+,1031.2,4,,,METAR,METAR KLUK 290153Z 00000KT 10SM CLR M04/M08 A3045 RMK AO2 SLP317 T10391078,39.106,-84.4161,144,Cincinnati/Lunken Fld,CLR,[],VFR,,,1031.7,,,US,United States
2626,KLUL,2025-11-29 02:01:11.377000+00:00,1764381300,2025-11-29T02:00:00.000Z,5.4,1.0,310,3.0,10+,1029.5,6,,,METAR,METAR KLUL 290155Z AUTO 31003KT 10SM CLR 05/01 A3040 RMK A02 T00540010,31.6682,-89.1705,74,Laurel/Hesler-Noble Fld,CLR,[],VFR,,,,,,US,United States
2554,KLVK,2025-11-29 02:04:06.600000+00:00,1764381600,2025-11-29T02:00:00.000Z,7.2,6.1,60,6.0,2.5,1018.7,4,BR,,SPECI,SPECI KLVK 290200Z 06006KT 2 1/2SM BR SCT004 07/06 A3008 RMK AO2 T00720061,37.6931,-121.8149,120,Livermore Muni,SCT,"[{'cover': 'SCT', 'base': 400}]",IFR,,,,,,US,United States
2638,KLVL,2025-11-29 02:00:46.088000+00:00,1764381300,2025-11-29T02:00:00.000Z,1.0,-10.3,0,0.0,10+,1029.2,6,,,METAR,METAR KLVL 290155Z AUTO 00000KT 10SM CLR 01/M10 A3039 RMK AO1 T00101103,36.7723,-77.7925,98,Lawrenceville Muni,CLR,[],VFR,,,,,,US,United States
2687,KLVM,2025-11-29 01:58:53.414000+00:00,1764381180,2025-11-29T02:00:00.000Z,-10.6,-15.6,330,17.0,7,1023.1,14,,0.005,METAR,METAR KLVM 290153Z AUTO 33017G26KT 7SM OVC025 M11/M16 A3021 RMK AO2 PK WND 33029/0130 SNE17 SLP286 P0000 T11061156 $,45.6984,-110.4415,1418,Livingston/Mission Fld,OVC,"[{'cover': 'OVC', 'base': 2500}]",MVFR,,26.0,1028.6,,,US,United States
2664,KLVS,2025-11-29 01:58:52.677000+00:00,1764381180,2025-11-29T02:00:00.000Z,6.1,-3.3,220,14.0,10+,1014.6,14,,,METAR,METAR KLVS 290153Z AUTO 22014KT 10SM CLR 06/M03 A2996 RMK AO2 SLP108 T00611033 $,35.6558,-105.1385,2095,Las Vegas Muni,CLR,[],VFR,,,1010.8,,,US,United States
2639,KLWB,2025-11-29 02:00:54.223000+00:00,1764381300,2025-11-29T02:00:00.000Z,-3.0,-11.0,300,11.0,10+,1026.8,6,,,METAR,METAR KLWB 290155Z AUTO 30011G17KT 10SM OVC041 M03/M11 A3032 RMK AO2,37.8633,-80.3923,702,Lewisburg/Greenbrier Valley Arpt,OVC,"[{'cover': 'OVC', 'base': 4100}]",VFR,,17.0,,,,US,United States
2692,KLWC,2025-11-29 01:57:35.022000+00:00,1764381120,2025-11-29T02:00:00.000Z,2.2,-1.7,120,10.0,9,1019.4,6,-RA,0.02,METAR,METAR KLWC 290152Z AUTO 12010KT 9SM -RA BKN055 OVC070 02/M02 A3010 RMK AO1 RAB0056 SLP199 P0002 T00221017,39.0078,-95.2115,252,Lawrence Muni,OVC,"[{'cover': 'BKN', 'base': 5500}, {'cover': 'OVC', 'base': 7000}]",VFR,,,1019.9,,,US,United States
2648,KLWM,2025-11-29 01:58:56.932000+00:00,1764381240,2025-11-29T02:00:00.000Z,1.1,-5.0,240,10.0,10+,1012.6,4,,,METAR,METAR KLWM 290154Z 24010KT 10SM CLR 01/M05 A2990 RMK AO2 SLP127 T00111050,42.7125,-71.1256,42,Lawrence Muni,CLR,[],VFR,,,1012.7,,,US,United States
2607,KLWS,2025-11-29 02:01:05.825000+00:00,1764381360,2025-11-29T02:00:00.000Z,3.9,1.1,280,3.0,10+,1026.8,6,,,METAR,METAR KLWS 290156Z AUTO 28003KT 10SM FEW060 04/01 A3032 RMK AO2 SLP278 T00390011,46.3746,-117.0153,435,Lewiston/Nez Perce Cnty,FEW,"[{'cover': 'FEW', 'base': 6000}]",VFR,,,1027.8,,,US,United States
2649,KLWT,2025-11-29 01:59:07.002000+00:00,1764381240,2025-11-29T02:00:00.000Z,-12.2,-13.9,300,11.0,1,1024.8,6,-SN BR,0.005,METAR,METAR KLWT 290154Z AUTO 30011KT 1SM -SN BR VV009 M12/M14 A3026 RMK AO2 SLP310 P0000 T11221139,47.0544,-109.4565,1254,Lewistown Muni,OVX,"[{'cover': 'OVX', 'base': 900}]",IFR,9.0,,1031.0,,,US,United States
2663,KLWV,2025-11-29 01:58:48.622000+00:00,1764381180,2025-11-29T02:00:00.000Z,-3.3,-7.2,100,5.0,10+,1030.2,14,,,METAR,METAR KLWV 290153Z AUTO 10005KT 10SM CLR M03/M07 A3042 RMK AO2 SLP305 T10331072 $,38.7604,-87.599,128,Lawrenceville-Vincennes Intl,CLR,[],VFR,,,1030.5,,,US,United States
2628,KLXN,2025-11-29 02:00:52.579000+00:00,1764381300,2025-11-29T02:00:00.000Z,-0.4,-5.6,100,9.0,10+,1013.3,6,,,METAR,METAR KLXN 290155Z AUTO 10009G14KT 10SM OVC028 00/M06 A2992 RMK AO2 T10041056,40.7915,-99.775,734,Lexington/Kelly Fld,OVC,"[{'cover': 'OVC', 'base': 2800}]",MVFR,,14.0,,,,US,United States
2647,KLYH,2025-11-29 01:58:36.081000+00:00,1764381240,2025-11-29T02:00:00.000Z,-3.3,-10.6,0,0.0,10+,1028.2,12,,,METAR,METAR KLYH 290154Z 00000KT 10SM CLR M03/M11 A3036 RMK AO2 SLP290 T10331106 $,37.3213,-79.2065,282,Lynchburg/Glenn Fld,CLR,[],VFR,,,1029.0,,,US,United States
2603,KLZU,2025-11-29 01:59:25.047000+00:00,1764381360,2025-11-29T02:00:00.000Z,2.2,-7.2,300,3.0,10+,1028.2,78,,,METAR,METAR KLZU 290156Z AUTO 30003KT 10SM CLR 02/M07 A3036 RMK AO2 SLP300 T00221072 FZRANO $,33.9828,-83.9585,316,Lawrenceville/Gwinnett Cnty,CLR,[],VFR,,,1030.0,,,US,United States
2677,KMAE,2025-11-29 01:58:53.088000+00:00,1764381180,2025-11-29T02:00:00.000Z,8.3,7.2,240,3.0,4,1020.1,6,BR,,METAR,METAR KMAE 290153Z AUTO 24003KT 4SM BR OVC008 08/07 A3012 RMK AO2 SLP198 T00830072,36.9851,-120.1107,77,Madera Muni,OVC,"[{'cover': 'OVC', 'base': 800}]",IFR,,,1019.8,,,US,United States
2660,KMAF,2025-11-29 01:58:50.023000+00:00,1764381180,2025-11-29T02:00:00.000Z,12.2,10.6,170,16.0,10+,1016.0,4,,,METAR,METAR KMAF 290153Z 17016G24KT 10SM OVC009 12/11 A3000 RMK AO2 SLP135 T01220106,31.9475,-102.2086,874,Midland Intl,OVC,"[{'cover': 'OVC', 'base': 900}]",IFR,,24.0,1013.5,,,US,United States
2646,KMAW,2025-11-29 01:57:29.137000+00:00,1764381300,2025-11-29T02:00:00.000Z,3.0,-1.0,80,5.0,4,1028.9,6,HZ,,METAR,METAR KMAW 290155Z AUTO 08005KT 4SM HZ CLR 03/M01 A3038 RMK AO1,36.5945,-89.9865,88,Malden Rgnl,CLR,[],MVFR,,,,,,US,United States
2689,KMBG,2025-11-29 01:57:30.951000+00:00,1764381120,2025-11-29T02:00:00.000Z,-7.8,-10.0,90,17.0,7,1019.4,6,-SN,0.005,METAR,METAR KMBG 290152Z AUTO 09017KT 7SM -SN SCT022 BKN029 OVC038 M08/M10 A3010 RMK AO2 SNB42 SLP226 P0000 T10781100,45.543,-100.404,515,Mobridge Muni,OVC,"[{'cover': 'SCT', 'base': 2200}, {'cover': 'BKN', 'base': 2900}, {'cover': 'OVC', 'base': 3800}]",MVFR,,,1022.6,,,US,United States
2600,KMBL,2025-11-29 02:00:48.154000+00:00,1764381360,2025-11-29T02:00:00.000Z,-1.7,-7.8,320,6.0,9,1026.8,70,-SN,0.005,METAR,METAR KMBL 290156Z AUTO 32006KT 9SM -SN OVC035 M02/M08 A3032 RMK AO2 SLP275 P0000 T10171078 FZRANO,44.2714,-86.2378,187,Manistee/Blacker Arpt,OVC,"[{'cover': 'OVC', 'base': 3500}]",VFR,,,1027.5,,,US,United States
1247,KMBO,2025-11-29 01:58:50.067000+00:00,1764381300,2025-11-29T02:00:00.000Z,8.0,1.0,VRB,3.0,9,1028.5,6,,,METAR,METAR KMBO 290155Z AUTO VRB03KT 9SM FEW037 08/01 A3037 RMK AO2,32.4385,-90.1014,98,Madison/Campbell Fld,FEW,"[{'cover': 'FEW', 'base': 3700}]",VFR,,,,,,US,United States
2672,KMBS,2025-11-29 01:58:49.115000+00:00,1764381180,2025-11-29T02:00:00.000Z,-2.2,-10.0,270,11.0,10+,1027.2,4,,,METAR,METAR KMBS 290153Z 27011KT 10SM OVC046 M02/M10 A3033 RMK AO2 SLP280 T10221100,43.5281,-84.0813,201,Saginaw Intl,OVC,"[{'cover': 'OVC', 'base': 4600}]",VFR,,,1028.0,,,US,United States
2636,KMBY,2025-11-29 01:57:29.208000+00:00,1764381300,2025-11-29T02:00:00.000Z,0.0,-6.0,90,10.0,10+,1024.8,6,,,METAR,METAR KMBY 290155Z AUTO 09010KT 10SM SCT050 SCT075 00/M06 A3026 RMK AO2,39.464,-92.4244,263,Moberly/Bradley Arpt,SCT,"[{'cover': 'SCT', 'base': 5000}, {'cover': 'SCT', 'base': 7500}]",VFR,,,,,,US,United States
2679,KMCB,2025-11-29 01:57:29.229000+00:00,1764381180,2025-11-29T02:00:00.000Z,8.3,0.0,,,10+,1028.2,6,,,METAR,METAR KMCB 290153Z AUTO 10SM CLR 08/00 A3036 RMK AO2 SLP281 T00830000,31.1823,-90.4721,124,McComb/Lewis Fld,CLR,[],VFR,,,1028.1,,,US,United States
2612,KMCC,2025-11-29 02:08:11.020000+00:00,1764381300,2025-11-29T02:00:00.000Z,8.0,6.0,300,4.0,8,1019.7,6,,,METAR,METAR KMCC 290155Z AUTO 30004KT 8SM OVC010 08/06 A3011 RMK AO2,38.678,-121.403,21,McClellan AFB,OVC,"[{'cover': 'OVC', 'base': 1000}]",MVFR,,,,,,US,United States
2617,KMCD,2025-11-29 02:00:42.459000+00:00,1764381300,2025-11-29T02:00:00.000Z,-4.0,-6.0,290,13.0,10+,1023.8,6,,,METAR,METAR KMCD 290155Z AUTO 29013KT 10SM CLR M04/M06 A3023 RMK AO2,45.866,-84.634,228,Mackinac Isl Arpt,CLR,[],VFR,,,,,,US,United States
2678,KMCE,2025-11-29 01:58:52.701000+00:00,1764381180,2025-11-29T02:00:00.000Z,8.9,6.7,290,3.0,6,1019.4,6,BR,,METAR,METAR KMCE 290153Z AUTO 29003KT 6SM BR OVC012 09/07 A3010 RMK AO2 SLP193 T00890067,37.286,-120.5179,49,Merced/Macready Fld,OVC,"[{'cover': 'OVC', 'base': 1200}]",MVFR,,,1019.3,,,US,United States
2635,KMCF,2025-11-29 02:02:09.153000+00:00,1764381300,2025-11-29T02:00:00.000Z,12.7,2.0,40,9.0,10+,1024.8,6,,,METAR,METAR KMCF 290155Z AUTO 04009KT 10SM CLR 13/02 A3026 RMK AO2 SLP250 T01270020,27.8598,-82.5132,3,Tampa/MacDill AFB,CLR,[],VFR,,,1025.0,,,US,United States
2662,KMCI,2025-11-29 01:57:35.501000+00:00,1764381180,2025-11-29T02:00:00.000Z,1.1,-5.0,120,17.0,9,1019.4,12,-SN,0.005,METAR,METAR KMCI 290153Z 12017KT 9SM -SN OVC055 01/M05 A3010 RMK AO2 PK WND 11026/0136 SNB01 SLP201 P0000 T00111050 $,39.2975,-94.7309,308,Kansas City Intl,OVC,"[{'cover': 'OVC', 'base': 5500}]",VFR,,,1020.1,,,US,United States
2674,KMCK,2025-11-29 01:58:48.815000+00:00,1764381180,2025-11-29T02:00:00.000Z,0.0,-3.9,70,11.0,10+,1012.3,6,,,METAR,METAR KMCK 290153Z AUTO 07011KT 10SM OVC024 00/M04 A2989 RMK AO2 PRESRR SLP142 T00001039,40.204,-100.5904,780,McCook Muni,OVC,"[{'cover': 'OVC', 'base': 2400}]",MVFR,,,1014.2,,,US,United States
2675,KMCN,2025-11-29 01:57:30.818000+00:00,1764381180,2025-11-29T02:00:00.000Z,1.7,-8.3,330,4.0,10+,1028.9,6,,,METAR,METAR KMCN 290153Z AUTO 33004KT 10SM CLR 02/M08 A3038 RMK AO2 SLP289 T00171083,32.6889,-83.6529,104,Macon/Middle Georgia Rgnl,CLR,[],VFR,,,1028.9,,,US,United States
2665,KMCO,2025-11-29 02:02:15.266000+00:00,1764381180,2025-11-29T02:00:00.000Z,11.1,5.0,360,12.0,10+,1025.5,4,,,METAR,METAR KMCO 290153Z 36012KT 10SM CLR 11/05 A3028 RMK AO2 SLP252 T01110050,28.4182,-81.3241,27,Orlando Intl,CLR,[],VFR,,,1025.2,,,US,United States
2683,KMCW,2025-11-29 01:58:49.134000+00:00,1764381180,2025-11-29T02:00:00.000Z,-3.3,-8.9,140,9.0,9,1025.1,6,,0.005,METAR,METAR KMCW 290153Z AUTO 14009KT 9SM BKN047 OVC070 M03/M09 A3027 RMK AO2 SNB32E49 SLP266 P0000 T10331089,43.1543,-93.3262,363,Mason City Muni,OVC,"[{'cover': 'BKN', 'base': 4700}, {'cover': 'OVC', 'base': 7000}]",VFR,,,1026.6,,,US,United States
2620,KMDD,2025-11-29 02:02:23.605000+00:00,1764381300,2025-11-29T02:00:00.000Z,12.7,10.2,180,14.0,10+,1016.0,6,,,METAR,METAR KMDD 290155Z AUTO 18014G18KT 10SM OVC009 13/10 A3000 RMK AO2 T01270102,32.0359,-102.0995,853,Midland Airpark,OVC,"[{'cover': 'OVC', 'base': 900}]",IFR,,18.0,,,,US,United States
2688,KMDH,2025-11-29 01:57:35.041000+00:00,1764381120,2025-11-29T02:00:00.000Z,2.2,-5.0,150,5.0,10+,1028.9,4,,,METAR,METAR KMDH 290152Z 15005KT 10SM OVC100 02/M05 A3038 RMK AO2 SLP292 T00221050,37.7833,-89.2453,122,Murphysboro/S Illinois Arpt,OVC,"[{'cover': 'OVC', 'base': 10000}]",VFR,,,1029.2,,,US,United States
4827,KMDS,2025-11-29 01:58:50.098000+00:00,1764381300,2025-11-29T02:00:00.000Z,-6.0,-6.0,120,12.0,10+,1021.1,38,,,METAR,METAR KMDS 290155Z AUTO 12012KT 10SM BKN008 OVC013 M06/M06 A3015 RMK AO2 TSNO,44.0141,-97.0817,524,Madison Muni,OVC,"[{'cover': 'BKN', 'base': 800}, {'cover': 'OVC', 'base': 1300}]",IFR,,,,,,US,United States
2604,KMDT,2025-11-29 02:00:49.603000+00:00,1764381360,2025-11-29T02:00:00.000Z,1.1,-7.2,290,16.0,10+,1023.8,4,,,METAR,METAR KMDT 290156Z 29016KT 10SM BKN070 01/M07 A3023 RMK AO2 SLP241 T00111072,40.1962,-76.7725,91,Harrisburg Intl,BKN,"[{'cover': 'BKN', 'base': 7000}]",VFR,,,1024.1,,,US,United States
2676,KMDW,2025-11-29 01:58:57.730000+00:00,1764381180,2025-11-29T02:00:00.000Z,-2.8,-10.0,240,3.0,10+,1028.9,4,,,METAR,METAR KMDW 290153Z 24003KT 10SM BKN200 M03/M10 A3038 RMK AO2 SLP304 T10281100,41.7841,-87.7552,186,Chicago/Midway Intl,BKN,"[{'cover': 'BKN', 'base': 20000}]",VFR,,,1030.4,,,US,United States
2627,KMDZ,2025-11-29 02:00:49.659000+00:00,1764381300,2025-11-29T02:00:00.000Z,-7.1,-11.7,0,0.0,10+,1026.2,134,,,METAR,METAR KMDZ 290155Z AUTO 00000KT 10SM OVC023 M07/M12 A3030 RMK AO2 T10711117 PWINO,45.1013,-90.3064,446,Medford/Taylor Cnty,OVC,"[{'cover': 'OVC', 'base': 2300}]",MVFR,,,,,,US,United States
2598,KMEI,2025-11-29 02:02:24.202000+00:00,1764381480,2025-11-29T02:00:00.000Z,4.4,0.0,0,0.0,10+,1029.5,4,,,METAR,METAR KMEI 290158Z 00000KT 10SM CLR 04/00 A3040 RMK AO2 SLP294 I1000 T00440000,32.3348,-88.7507,90,Meridian/Key Fld,CLR,[],VFR,,,1029.4,,,US,United States
2650,KMEM,2025-11-29 01:58:56.980000+00:00,1764381240,2025-11-29T02:00:00.000Z,7.2,-5.0,140,6.0,10+,1028.2,12,,,METAR,METAR KMEM 290154Z 14006KT 10SM OVC250 07/M05 A3036 RMK AO2 SLP281 T00721050 $,35.0564,-89.9864,78,Memphis Intl,OVC,"[{'cover': 'OVC', 'base': 25000}]",VFR,,,1028.1,,,US,United States
2611,KMEV,2025-11-29 02:06:37.875000+00:00,1764381300,2025-11-29T02:00:00.000Z,9.0,-2.0,360,10.0,10+,1019.0,6,,,METAR,METAR KMEV 290155Z AUTO 36010KT 10SM CLR 09/M02 A3009 RMK AO2,38.9963,-119.75,1437,Minden-Tahoe Arpt,CLR,[],VFR,,,,,,US,United States
2691,KMFD,2025-11-29 01:57:37.258000+00:00,1764381120,2025-11-29T02:00:00.000Z,-2.8,-7.2,260,7.0,10+,1027.5,12,,,METAR,METAR KMFD 290152Z 26007KT 10SM OVC046 M03/M07 A3034 RMK AO2 SLP291 T10281072 $,40.8204,-82.5177,394,Mansfield/Lahm Rgnl,OVC,"[{'cover': 'OVC', 'base': 4600}]",VFR,,,1029.1,,,US,United States
2658,KMFE,2025-11-29 01:58:52.721000+00:00,1764381180,2025-11-29T02:00:00.000Z,22.8,17.2,120,11.0,10+,1019.7,12,,,METAR,METAR KMFE 290153Z 12011KT 10SM OVC047 23/17 A3011 RMK AO2 SLP196 T02280172 $,26.1791,-98.2445,29,McAllen/Miller Intl,OVC,"[{'cover': 'OVC', 'base': 4700}]",VFR,,,1019.6,,,US,United States
2654,KMFI,2025-11-29 01:58:56.999000+00:00,1764381240,2025-11-29T02:00:00.000Z,-6.7,-10.6,0,0.0,10+,1026.8,6,,,METAR,METAR KMFI 290154Z AUTO 00000KT 10SM OVC026 M07/M11 A3032 RMK AO2 SLP291 T10671106,44.6379,-90.1875,383,Marshfield Muni,OVC,"[{'cover': 'OVC', 'base': 2600}]",MVFR,,,1029.1,,,US,United States
2657,KMFR,2025-11-29 01:58:35.508000+00:00,1764381180,2025-11-29T02:00:00.000Z,8.3,4.4,200,6.0,10+,1019.7,4,,,METAR,METAR KMFR 290153Z 20006KT 10SM CLR 08/04 A3011 RMK AO2 SLP203 T00830044,42.375,-122.877,397,Medford/Rogue Valley Intl,CLR,[],VFR,,,1020.3,,,US,United States
2619,KMFV,2025-11-29 01:50:28.471000+00:00,1764381300,2025-11-29T02:00:00.000Z,2.7,-9.8,320,14.0,10+,1027.2,6,,,METAR,METAR KMFV 290155Z AUTO 32014G19KT 10SM OVC055 03/M10 A3033 RMK AO2 T00271098,37.646,-75.763,13,Melfa/Accomack Cnty,OVC,"[{'cover': 'OVC', 'base': 5500}]",VFR,,19.0,,,,US,United States
2733,KMGC,2025-11-29 01:42:05.884000+00:00,1764380100,2025-11-29T01:35:00.000Z,-3.0,-10.0,200,3.0,10+,1029.2,6,,,METAR,METAR KMGC 290135Z AUTO 20003KT 10SM SCT041 M03/M10 A3039 RMK AO2,41.7048,-86.8183,199,Michigan City Muni,SCT,"[{'cover': 'SCT', 'base': 4100}]",VFR,,,,,,US,United States
2640,KMGE,2025-11-29 01:58:58.904000+00:00,1764381300,2025-11-29T02:00:00.000Z,1.1,-6.0,0,0.0,10+,1027.9,6,,,METAR,METAR KMGE 290155Z AUTO 00000KT 10SM CLR 01/M06 A3035 RMK AO2 SLP288 T00111060,33.9189,-84.5267,309,Marietta/Dobbins AFB,CLR,[],VFR,,,1028.8,,,US,United States
2655,KMGJ,2025-11-29 01:59:07.478000+00:00,1764381240,2025-11-29T02:00:00.000Z,2.2,-9.4,290,16.0,10+,1017.7,6,,,METAR,METAR KMGJ 290154Z AUTO 29016G26KT 10SM CLR 02/M09 A3005 RMK AO2 PK WND 28026/0154 SLP178 T00221094,41.5091,-74.2645,106,Montgomery/Orange Cnty,CLR,[],VFR,,26.0,1017.8,,,US,United States
2686,KMGM,2025-11-29 01:57:30.843000+00:00,1764381180,2025-11-29T02:00:00.000Z,3.9,-3.3,0,0.0,10+,1029.5,4,,,METAR,METAR KMGM 290153Z 00000KT 10SM CLR 04/M03 A3040 RMK AO2 SLP296 T00391033,32.2997,-86.4074,64,Montgomery Rgnl,CLR,[],VFR,,,1029.6,,,US,United States
2615,KMGR,2025-11-29 01:58:50.149000+00:00,1764381300,2025-11-29T02:00:00.000Z,3.5,-4.6,0,0.0,10+,1028.9,14,,,METAR,METAR KMGR 290155Z AUTO 00000KT 10SM CLR 04/M05 A3038 RMK AO2 T00351046 $,31.0835,-83.8035,86,Moultrie Muni,CLR,[],VFR,,,,,,US,United States
2656,KMGW,2025-11-29 01:58:48.640000+00:00,1764381180,2025-11-29T02:00:00.000Z,-1.7,-6.7,VRB,5.0,10+,1028.2,4,,,METAR,METAR KMGW 290153Z VRB05KT 10SM OVC060 M02/M07 A3036 RMK AO2 SLP294 T10171067,39.6498,-79.9206,375,Morgantown Muni,OVC,"[{'cover': 'OVC', 'base': 6000}]",VFR,,,1029.4,,,US,United States
2661,KMGY,2025-11-29 01:58:57.887000+00:00,1764381180,2025-11-29T02:00:00.000Z,-3.3,-11.1,0,0.0,10+,1029.5,6,,,METAR,METAR KMGY 290153Z AUTO 00000KT 10SM CLR M03/M11 A3040 RMK AO2 SLP306 T10331111,39.5918,-84.2263,290,Dayton/Wright Brothers Arpt,CLR,[],VFR,,,1030.6,,,US,United States
2685,KMHE,2025-11-29 01:58:48.834000+00:00,1764381180,2025-11-29T02:00:00.000Z,-5.0,-6.1,120,14.0,5,1021.1,14,BR,,METAR,METAR KMHE 290153Z AUTO 12014KT 5SM BR BKN008 OVC012 M05/M06 A3015 RMK AO2 SLP231 I1001 T10501061 $,43.7743,-98.0384,397,Mitchell Muni,OVC,"[{'cover': 'BKN', 'base': 800}, {'cover': 'OVC', 'base': 1200}]",IFR,,,1023.1,,,US,United States
2690,KMHK,2025-11-29 01:57:23.502000+00:00,1764381120,2025-11-29T02:00:00.000Z,4.4,-1.7,100,7.0,10+,1017.0,14,,,METAR,METAR KMHK 290152Z AUTO 10007KT 10SM OVC046 04/M02 A3003 RMK AO2 SLP176 T00441017 $,39.1346,-96.6789,320,Manhattan Rgnl,OVC,"[{'cover': 'OVC', 'base': 4600}]",VFR,,,1017.6,,,US,United States
2616,KMHL,2025-11-29 01:58:50.181000+00:00,1764381300,2025-11-29T02:00:00.000Z,1.0,-5.0,90,11.0,10+,1023.5,6,,,METAR,METAR KMHL 290155Z AUTO 09011KT 10SM OVC070 01/M05 A3022 RMK AO2,39.093,-93.2024,236,Marshall Muni,OVC,"[{'cover': 'OVC', 'base': 7000}]",VFR,,,,,,US,United States
2613,KMHR,2025-11-29 02:06:26.718000+00:00,1764381300,2025-11-29T02:00:00.000Z,9.0,8.0,310,4.0,10+,1019.0,6,,,METAR,METAR KMHR 290155Z AUTO 31004KT 10SM OVC011 09/08 A3009 RMK AO2,38.56,-121.284,30,Sacramento/Mather Fld,OVC,"[{'cover': 'OVC', 'base': 1100}]",MVFR,,,,,,US,United States
2680,KMHT,2025-11-29 01:58:49.150000+00:00,1764381180,2025-11-29T02:00:00.000Z,0.6,-6.1,220,7.0,10+,1011.3,4,,,METAR,METAR KMHT 290153Z 22007KT 10SM BKN055 BKN070 01/M06 A2986 RMK AO2 SLP129 T00061061,42.9245,-71.4377,68,Manchester Rgnl,BKN,"[{'cover': 'BKN', 'base': 5500}, {'cover': 'BKN', 'base': 7000}]",VFR,,,1012.9,,,US,United States
2682,KMIA,2025-11-29 01:57:29.507000+00:00,1764381180,2025-11-29T02:00:00.000Z,18.9,12.8,VRB,5.0,10+,1021.4,12,,,METAR,METAR KMIA 290153Z VRB05KT 10SM FEW060 SCT250 19/13 A3016 RMK AO2 SLP212 T01890128 $,25.7881,-80.3169,1,Miami Intl,SCT,"[{'cover': 'FEW', 'base': 6000}, {'cover': 'SCT', 'base': 25000}]",VFR,,,1021.2,,,US,United States
2644,KMIB,2025-11-29 01:59:02.351000+00:00,1764381300,2025-11-29T02:00:00.000Z,-7.7,-11.2,100,5.0,10+,1023.8,4,,,METAR,METAR KMIB 290155Z 10005KT 10SM OVC021 M08/M11 A3023 RMK AO2A SLP277 T10771112,48.4062,-101.3413,505,Minot AFB,OVC,"[{'cover': 'OVC', 'base': 2100}]",MVFR,,,1027.7,,,US,United States
2684,KMIE,2025-11-29 01:58:48.850000+00:00,1764381180,2025-11-29T02:00:00.000Z,-4.4,-10.6,0,0.0,10+,1029.2,4,,,METAR,METAR KMIE 290153Z 00000KT 10SM CLR M04/M11 A3039 RMK AO2 SLP300 T10441106,40.2345,-85.3936,286,Muncie/Johnson Fld,CLR,[],VFR,,,1030.0,,,US,United States
2653,KMIV,2025-11-29 01:58:57.120000+00:00,1764381240,2025-11-29T02:00:00.000Z,1.1,-7.2,280,11.0,10+,1024.1,6,,,METAR,METAR KMIV 290154Z AUTO 28011KT 10SM CLR 01/M07 A3024 RMK AO2 SLP239 T00111072,39.3662,-75.0778,18,Millville Muni,CLR,[],VFR,,,1023.9,,,US,United States
2609,KMJX,2025-11-29 02:00:48.174000+00:00,1764381360,2025-11-29T02:00:00.000Z,1.1,-7.8,270,10.0,10+,1022.4,78,,,METAR,METAR KMJX 290156Z AUTO 27010KT 10SM CLR 01/M08 A3019 RMK AO2 SLP227 T00111078 FZRANO $,39.9235,-74.297,22,Toms River/Miller Arpt,CLR,[],VFR,,,1022.7,,,US,United States
2652,KMKC,2025-11-29 01:58:57.143000+00:00,1764381240,2025-11-29T02:00:00.000Z,1.7,-4.4,90,9.0,10+,1020.4,4,,0.005,METAR,METAR KMKC 290154Z 09009KT 10SM OVC060 02/M04 A3013 RMK AO2 UPB01E34 SLP209 P0000 T00171044,39.1279,-94.5892,228,Kansas City/Wheeler Downtown Arpt,OVC,"[{'cover': 'OVC', 'base': 6000}]",VFR,,,1020.9,,,US,United States
2952,KMKE,2025-11-29 01:57:35.107000+00:00,1764381120,2025-11-29T02:00:00.000Z,-4.4,-10.6,360,3.0,10+,1028.2,12,,,METAR,METAR KMKE 290152Z 36003KT 10SM BKN230 M04/M11 A3036 RMK AO2 SLP295 T10441106 $,42.9549,-87.9045,203,Milwaukee/Mitchell Intl,BKN,"[{'cover': 'BKN', 'base': 23000}]",VFR,,,1029.5,,,US,United States
2901,KMKG,2025-11-29 02:00:59.006000+00:00,1764381300,2025-11-29T02:00:00.000Z,-1.7,-7.8,300,5.0,9,1027.9,12,-SN,0.005,METAR,METAR KMKG 290155Z 30005KT 9SM -SN OVC032 M02/M08 A3035 RMK AO2 SLP286 P0000 T10171078 $,43.1711,-86.2369,190,Muskegon Cnty Arpt,OVC,"[{'cover': 'OVC', 'base': 3200}]",VFR,,,1028.6,,,US,United States
2925,KMKL,2025-11-29 01:57:29.592000+00:00,1764381180,2025-11-29T02:00:00.000Z,0.6,-2.2,0,0.0,10+,1028.9,6,,,METAR,METAR KMKL 290153Z AUTO 00000KT 10SM CLR 01/M02 A3038 RMK AO1 SLP292 T00061022,35.5933,-88.917,130,Jackson/McKellar Rgnl,CLR,[],VFR,,,1029.2,,,US,United States
2945,KMLB,2025-11-29 01:57:38.741000+00:00,1764381180,2025-11-29T02:00:00.000Z,15.6,10.0,350,10.0,10+,1023.5,4,,,METAR,METAR KMLB 290153Z 35010KT 10SM CLR 16/10 A3022 RMK AO2 SLP233 T01560100,28.0997,-80.6356,7,Melbourne Intl,CLR,[],VFR,,,1023.3,,,US,United States
2946,KMLC,2025-11-29 01:57:38.761000+00:00,1764381180,2025-11-29T02:00:00.000Z,12.2,0.6,170,10.0,10+,1020.7,6,,0.005,METAR,METAR KMLC 290153Z AUTO 17010G19KT 10SM OVC065 12/01 A3014 RMK AO2 RAB06E21 SLP207 P0000 T01220006,34.8824,-95.7815,231,McAlester Rgnl,OVC,"[{'cover': 'OVC', 'base': 6500}]",VFR,,19.0,1020.7,,,US,United States
2951,KMLI,2025-11-29 01:57:35.180000+00:00,1764381120,2025-11-29T02:00:00.000Z,-1.7,-9.4,170,4.0,10+,1027.9,12,,,METAR,METAR KMLI 290152Z 17004KT 10SM OVC065 M02/M09 A3035 RMK AO2 SLP287 T10171094 $,41.4482,-90.5237,174,Moline/Quad City Intl,OVC,"[{'cover': 'OVC', 'base': 6500}]",VFR,,,1028.7,,,US,United States
2928,KMLS,2025-11-29 01:58:35.005000+00:00,1764381180,2025-11-29T02:00:00.000Z,-8.3,-9.4,350,8.0,1.25,1019.7,6,-SN BR,0.005,METAR,METAR KMLS 290153Z AUTO 35008KT 1 1/4SM -SN BR OVC020 M08/M09 A3011 RMK AO2 SLP232 P0000 T10831094,46.4265,-105.8834,800,Miles City/Wiley Fld,OVC,"[{'cover': 'OVC', 'base': 2000}]",IFR,,,1023.2,,,US,United States
2926,KMLU,2025-11-29 01:57:30.863000+00:00,1764381180,2025-11-29T02:00:00.000Z,10.0,0.0,100,5.0,10+,1027.5,4,,,METAR,METAR KMLU 290153Z 10005KT 10SM CLR 10/00 A3034 RMK AO2 SLP274 T01000000,32.5155,-92.0299,22,Monroe Rgnl,CLR,[],VFR,,,1027.4,,,US,United States
2917,KMMH,2025-11-29 01:59:08.064000+00:00,1764381300,2025-11-29T02:00:00.000Z,3.0,-10.0,270,7.0,10+,1021.4,6,,,METAR,METAR KMMH 290155Z AUTO 27007KT 10SM CLR 03/M10 A3016 RMK AO2,37.6253,-118.8384,2167,Mammoth/Yosemite Arpt,CLR,[],VFR,,,,,,US,United States
2910,KMMI,2025-11-29 02:06:38.011000+00:00,1764381300,2025-11-29T02:00:00.000Z,0.0,-8.0,0,0.0,10+,1030.2,6,,,METAR,METAR KMMI 290155Z AUTO 00000KT 10SM CLR M00/M08 A3042 RMK A01,35.3952,-84.5612,252,Athens/McMinn Cnty,CLR,[],VFR,,,,,,US,United States
2896,KMML,2025-11-29 02:00:48.207000+00:00,1764381360,2025-11-29T02:00:00.000Z,-5.6,-6.7,110,9.0,8,1023.8,70,-SN,0.005,METAR,METAR KMML 290156Z AUTO 11009KT 8SM -SN FEW009 OVC047 M06/M07 A3023 RMK AO2 SLP263 P0000 T10561067 FZRANO,44.4504,-95.8215,358,Marshall Muni,OVC,"[{'cover': 'FEW', 'base': 900}, {'cover': 'OVC', 'base': 4700}]",VFR,,,1026.3,,,US,United States
2909,KMMT,2025-11-29 01:59:22.011000+00:00,1764381300,2025-11-29T02:00:00.000Z,-0.7,-7.9,0,0.0,10+,1028.5,14,,,METAR,METAR KMMT 290155Z AUTO 00000KT 10SM CLR M01/M08 A3037 RMK AO2 SLP289 T10071079 $,33.922,-80.802,76,Columbia/McEntire JNGB,CLR,[],VFR,,,1028.9,,,US,United States
2977,KMMU,2025-11-29 01:47:46.187000+00:00,1764380700,2025-11-29T02:00:00.000Z,2.0,-8.0,270,9.0,10+,1020.1,0,,,METAR,METAR KMMU 290145Z 27009G19KT 10SM SKC 02/M08 A3012,40.7989,-74.4164,55,Morristown Muni,SKC,[],VFR,,19.0,,,,US,United States
2891,KMNM,2025-11-29 02:00:49.744000+00:00,1764381420,2025-11-29T02:00:00.000Z,-6.7,-11.1,0,0.0,10+,1027.9,78,,,METAR,METAR KMNM 290157Z AUTO 00000KT 10SM CLR M07/M11 A3035 RMK AO2 SLP289 T10671111 FZRANO PNO $,45.126,-87.639,188,Menominee/Twin Cnty,CLR,[],VFR,,,1028.9,,,US,United States
2924,KMNN,2025-11-29 01:58:35.246000+00:00,1764381180,2025-11-29T02:00:00.000Z,-3.3,-8.9,280,6.0,10+,1028.5,6,,,METAR,METAR KMNN 290153Z AUTO 28006KT 10SM CLR M03/M09 A3037 RMK AO2 SLP301 T10331089,40.6158,-83.0673,301,Marion Muni,CLR,[],VFR,,,1030.1,,,US,United States
2894,KMOB,2025-11-29 02:01:03.378000+00:00,1764381360,2025-11-29T02:00:00.000Z,5.6,-2.2,30,6.0,10+,1029.2,12,,,METAR,METAR KMOB 290156Z 03006KT 10SM CLR 06/M02 A3039 RMK AO2 SLP290 T00561022 $,30.6882,-88.2459,67,Mobile Rgnl,CLR,[],VFR,,,1029.0,,,US,United States
2931,KMOD,2025-11-29 01:58:53.109000+00:00,1764381180,2025-11-29T02:00:00.000Z,8.9,6.7,320,4.0,7,1019.4,4,,,METAR,METAR KMOD 290153Z 32004KT 7SM OVC012 09/07 A3010 RMK AO2 SLP193 T00890067,37.6254,-120.9549,25,Modesto/Sham Fld,OVC,"[{'cover': 'OVC', 'base': 1200}]",MVFR,,,1019.3,,,US,United States
2921,KMOT,2025-11-29 01:58:51.568000+00:00,1764381240,2025-11-29T02:00:00.000Z,-8.3,-11.1,60,4.0,10+,1024.5,4,,,METAR,METAR KMOT 290154Z 06004KT 10SM BKN018 BKN035 OVC070 M08/M11 A3025 RMK AO2 SLP282 T10831111,48.252,-101.269,507,Minot Intl,OVC,"[{'cover': 'BKN', 'base': 1800}, {'cover': 'BKN', 'base': 3500}, {'cover': 'OVC', 'base': 7000}]",MVFR,,,1028.2,,,US,United States
2954,KMPV,2025-11-29 01:57:37.308000+00:00,1764381060,2025-11-29T02:00:00.000Z,-3.3,-10.0,290,15.0,10+,1011.6,6,,0.005,METAR,METAR KMPV 290151Z AUTO 29015G26KT 10SM BKN043 M03/M10 A2987 RMK AO2 PK WND 29034/0134 UPB05E47SNE05 SLP131 P0000 T10331100,44.205,-72.5654,336,Montpelier/Knapp Arpt,BKN,"[{'cover': 'BKN', 'base': 4300}]",VFR,,26.0,1013.1,,,US,United States
2908,KMPZ,2025-11-29 02:02:20.895000+00:00,1764381300,2025-11-29T02:00:00.000Z,-1.0,-7.0,110,7.0,10+,1027.2,6,,,METAR,METAR KMPZ 290155Z AUTO 11007KT 10SM SCT006 SCT010 SCT070 M01/M07 A3033 RMK AO2,40.9453,-91.5122,222,Mount Pleasant Muni,SCT,"[{'cover': 'SCT', 'base': 600}, {'cover': 'SCT', 'base': 1000}, {'cover': 'SCT', 'base': 7000}]",VFR,,,,,,US,United States
2914,KMQB,2025-11-29 02:02:22.831000+00:00,1764381300,2025-11-29T02:00:00.000Z,-1.3,-8.4,130,5.0,10+,1028.5,6,,,METAR,METAR KMQB 290155Z AUTO 13005KT 10SM BKN065 OVC075 M01/M08 A3037 RMK AO2 T10131084,40.5176,-90.6481,205,Macomb Muni,OVC,"[{'cover': 'BKN', 'base': 6500}, {'cover': 'OVC', 'base': 7500}]",VFR,,,,,,US,United States
2631,KMQI,2025-11-29 02:01:17.724000+00:00,1764381300,2025-11-29T02:00:00.000Z,4.4,-9.5,360,7.0,10+,1028.2,6,,,METAR,METAR KMQI 290155Z AUTO 36007KT 10SM CLR 04/M09 A3036 RMK AO2 T00441095,35.9188,-75.6989,3,Manteo/Dare Cnty,CLR,[],VFR,,,,,,US,United States
946,KMQS,2025-11-29 01:58:50.288000+00:00,1764381300,2025-11-29T02:00:00.000Z,-1.0,-7.0,270,10.0,10+,1023.1,6,,,METAR,METAR KMQS 290155Z AUTO 27010KT 10SM CLR M01/M07 A3021 RMK AO2,39.9773,-75.8605,200,Coatesville/Chester Cnty,CLR,[],VFR,,,,,,US,United States
2899,KMQY,2025-11-29 01:59:25.132000+00:00,1764381360,2025-11-29T02:00:00.000Z,0.6,-6.7,0,0.0,10+,1030.9,4,,,METAR,METAR KMQY 290156Z 00000KT 10SM CLR 01/M07 A3044 RMK AO2 SLP320 T00061067,36.0029,-86.5144,156,Smyrna Arpt,CLR,[],VFR,,,1032.0,,,US,United States
2930,KMRB,2025-11-29 01:58:49.180000+00:00,1764381180,2025-11-29T02:00:00.000Z,0.0,-8.3,300,11.0,10+,1026.5,4,,,METAR,METAR KMRB 290153Z 30011KT 10SM FEW070 00/M08 A3031 RMK AO2 SLP269 T00001083,39.4037,-77.975,165,Martinsburg/E West Virginia Rgnl,FEW,"[{'cover': 'FEW', 'base': 7000}]",VFR,,,1026.9,,,US,United States
2960,KMRC,2025-11-29 02:06:38.142000+00:00,1764381000,2025-11-29T02:00:00.000Z,0.0,-3.0,0,0.0,10+,1029.2,6,,,METAR,METAR KMRC 290150Z AUTO 00000KT 10SM CLR 00/M03 A3039 RMK A01,35.5579,-87.1778,205,Columbia/Maury Cnty,CLR,[],VFR,,,,,,US,United States
2834,KMRF,2025-11-29 02:04:04.591000+00:00,1764381660,2025-11-29T02:01:00.000Z,13.3,7.8,170,6.0,10+,1018.7,14,,,METAR,METAR KMRF 290201Z AUTO 17006KT 10SM CLR 13/08 A3008 RMK AO2 SLP158 T01330078 $,30.3707,-104.0117,1476,Marfa Muni,CLR,[],VFR,,,1015.8,,,US,United States
2918,KMRY,2025-11-29 01:58:59.153000+00:00,1764381240,2025-11-29T02:00:00.000Z,12.8,11.1,200,3.0,7,1017.7,4,,,METAR,METAR KMRY 290154Z 20003KT 7SM OVC006 13/11 A3005 RMK AO2 SLP189 T01280111,36.5904,-121.8488,51,Monterey Rgnl,OVC,"[{'cover': 'OVC', 'base': 600}]",IFR,,,1018.9,,,US,United States
2943,KMSL,2025-11-29 01:57:38.956000+00:00,1764381180,2025-11-29T02:00:00.000Z,3.9,-1.1,0,0.0,10+,1029.5,14,,,METAR,METAR KMSL 290153Z AUTO 00000KT 10SM CLR 04/M01 A3040 RMK AO2 SLP296 T00391011 $,34.7439,-87.5997,170,Muscle Shoals/NW Alabama Rgnl,CLR,[],VFR,,,1029.6,,,US,United States
2927,KMSN,2025-11-29 01:58:44.309000+00:00,1764381180,2025-11-29T02:00:00.000Z,-6.1,-9.4,20,3.0,10+,1027.9,12,,,METAR,METAR KMSN 290153Z 02003KT 10SM BKN150 BKN250 M06/M09 A3035 RMK AO2 SLP294 T10611094 $,43.1407,-89.3452,262,Madison/Dane Cnty Rgnl,BKN,"[{'cover': 'BKN', 'base': 15000}, {'cover': 'BKN', 'base': 25000}]",VFR,,,1029.4,,,US,United States
2933,KMSO,2025-11-29 01:58:44.294000+00:00,1764381180,2025-11-29T02:00:00.000Z,-2.2,-7.2,360,9.0,10+,1026.2,4,,,METAR,METAR KMSO 290153Z 36009KT 10SM OVC070 M02/M07 A3030 RMK AO2 SLP289 T10221072,46.9208,-114.0938,974,Missoula Intl,OVC,"[{'cover': 'OVC', 'base': 7000}]",VFR,,,1028.9,,,US,United States
2929,KMSP,2025-11-29 01:58:48.868000+00:00,1764381180,2025-11-29T02:00:00.000Z,-4.4,-10.0,80,7.0,10+,1026.8,4,,,METAR,METAR KMSP 290153Z 08007KT 10SM SCT031 OVC120 M04/M10 A3032 RMK AO2 SLP282 T10441100,44.8852,-93.2313,255,Minneapolis-St Paul Intl,OVC,"[{'cover': 'SCT', 'base': 3100}, {'cover': 'OVC', 'base': 12000}]",VFR,,,1028.2,,,US,United States
2948,KMSS,2025-11-29 01:58:49.201000+00:00,1764381180,2025-11-29T02:00:00.000Z,-2.2,-7.2,260,12.0,10+,1014.6,6,,,METAR,METAR KMSS 290153Z AUTO 26012G18KT 10SM OVC040 M02/M07 A2996 RMK AO2 SLP152 T10221072,44.9334,-74.8484,60,Massena Intl,OVC,"[{'cover': 'OVC', 'base': 4000}]",VFR,,18.0,1015.2,,,US,United States
2940,KMSY,2025-11-29 01:57:39.032000+00:00,1764381180,2025-11-29T02:00:00.000Z,12.8,-1.1,40,6.0,10+,1028.2,12,,,METAR,METAR KMSY 290153Z 04006KT 10SM BKN250 13/M01 A3036 RMK AO2 SLP283 T01281011 $,29.9974,-90.2777,0,New Orleans/Armstrong Intl,BKN,"[{'cover': 'BKN', 'base': 25000}]",VFR,,,1028.3,,,US,United States
2836,KMTC,2025-11-29 02:07:09.588000+00:00,1764381660,2025-11-29T02:01:00.000Z,-1.0,-9.0,290,10.0,10+,1025.8,12,-SN,,SPECI,SPECI KMTC 290201Z 29010KT 10SM -SN OVC045 M01/M09 A3029 RMK AO2A SLP269 $,42.6045,-82.8353,177,Selfridge ANGB,OVC,"[{'cover': 'OVC', 'base': 4500}]",VFR,,,1026.9,,,US,United States
2939,KMTH,2025-11-29 01:57:39.054000+00:00,1764381180,2025-11-29T02:00:00.000Z,20.0,15.0,30,10.0,10+,1020.4,6,,,METAR,METAR KMTH 290153Z AUTO 03010G22KT 10SM CLR 20/15 A3013 RMK AO2 SLP202 T02000150,24.7263,-81.0477,1,Marathon Arpt,CLR,[],VFR,,22.0,1020.2,,,US,United States
2941,KMTJ,2025-11-29 01:58:52.451000+00:00,1764381180,2025-11-29T02:00:00.000Z,3.9,-3.9,50,6.0,10+,1015.3,6,,,METAR,METAR KMTJ 290153Z AUTO 05006KT 10SM CLR 04/M04 A2998 RMK AO2 SLP145 T00391039,38.5054,-107.8981,1755,Montrose Rgnl,CLR,[],VFR,,,1014.5,,,US,United States
2964,KMTN,2025-11-29 01:52:08.308000+00:00,1764381000,2025-11-29T02:00:00.000Z,2.0,-9.0,290,6.0,10+,1026.5,0,,,METAR,METAR KMTN 290150Z 29006KT 10SM CLR 02/M09 A3031,39.3214,-76.4065,2,Baltimore/Martin State Arpt,CLR,[],VFR,,,,,,US,United States
2938,KMTO,2025-11-29 01:58:57.929000+00:00,1764381180,2025-11-29T02:00:00.000Z,-3.9,-7.8,120,3.0,10+,1028.9,6,,,METAR,METAR KMTO 290153Z AUTO 12003KT 10SM CLR M04/M08 A3038 RMK AO2 SLP298 T10391078,39.4744,-88.2724,216,Mattoon/Coles Cnty,CLR,[],VFR,,,1029.8,,,US,United States
2922,KMTP,2025-11-29 01:59:09.439000+00:00,1764381240,2025-11-29T02:00:00.000Z,5.0,-6.1,270,17.0,,1016.7,6,,,METAR,METAR KMTP 290154Z AUTO 27017G35KT 05/M06 A3002 RMK AO1 PK WND 27035/0154 SLP166 T00501061,41.073,-71.9235,2,Montauk Arpt,,,,,35.0,1016.6,,,US,United States
2913,KMUI,2025-11-29 01:58:58.694000+00:00,1764381300,2025-11-29T02:00:00.000Z,1.2,-8.3,250,11.0,10+,1022.4,6,,,METAR,METAR KMUI 290155Z AUTO 25011G21KT 10SM SCT070 01/M08 A3019 RMK AO2 SLP231 T00121083,40.4381,-76.5643,146,Fort Indiantown Gap/Muir AAF,SCT,"[{'cover': 'SCT', 'base': 7000}]",VFR,,21.0,1023.1,,,US,United States
2912,KMUO,2025-11-29 01:58:55.834000+00:00,1764381300,2025-11-29T02:00:00.000Z,3.6,0.8,220,10.0,8,1021.4,14,,,METAR,METAR KMUO 290155Z AUTO 22010KT 8SM CLR 04/01 A3016 RMK AO2 SLP228 T00360008 $,43.03,-115.859,915,Mountain Home AFB,CLR,[],VFR,,,1022.8,,,US,United States
2923,KMVL,2025-11-29 01:58:36.711000+00:00,1764381240,2025-11-29T02:00:00.000Z,-2.2,-8.9,VRB,6.0,9,1011.3,6,-SN,0.005,METAR,METAR KMVL 290154Z AUTO VRB06G15KT 9SM -SN BKN039 OVC046 M02/M09 A2986 RMK AO2 SLP120 P0000 T10221089,44.5328,-72.6152,226,Morrisville-Stowe State Arpt,OVC,"[{'cover': 'BKN', 'base': 3900}, {'cover': 'OVC', 'base': 4600}]",VFR,,15.0,1012.0,,,US,United States
2937,KMVY,2025-11-29 01:58:35.302000+00:00,1764381180,2025-11-29T02:00:00.000Z,3.9,-7.2,260,14.0,10+,1015.0,6,,,METAR,METAR KMVY 290153Z AUTO 26014G30KT 10SM CLR 04/M07 A2997 RMK AO2 PK WND 26032/0127 SLP148 T00391072,41.393,-70.6159,18,Marthas Vineyard Arpt,CLR,[],VFR,,30.0,1014.8,,,US,United States
2907,KMWC,2025-11-29 02:02:22.865000+00:00,1764381300,2025-11-29T02:00:00.000Z,-5.0,-10.0,0,0.0,10+,1029.2,6,,,METAR,METAR KMWC 290155Z AUTO 00000KT 10SM CLR M05/M10 A3039 RMK AO2,43.1095,-88.0343,225,Milwaukee/Timmerman Arpt,CLR,[],VFR,,,,,,US,United States
2953,KMWH,2025-11-29 01:57:35.294000+00:00,1764381120,2025-11-29T02:00:00.000Z,0.6,-3.3,330,6.0,10+,1027.5,4,,,METAR,METAR KMWH 290152Z 33006KT 10SM CLR 01/M03 A3034 RMK AO2 SLP287 T00061033,47.193,-119.3146,355,Moses Lake/Grant Cnty,CLR,[],VFR,,,1028.7,,,US,United States
2932,KMWL,2025-11-29 01:58:53.431000+00:00,1764381180,2025-11-29T02:00:00.000Z,9.4,7.2,130,10.0,10+,1018.7,6,,0.01,METAR,METAR KMWL 290153Z AUTO 13010KT 10SM OVC041 09/07 A3008 RMK AO2 LTG DSNT E AND SW RAE33 SLP183 P0001 T00940072,32.7816,-98.0602,288,Mineral Wells Arpt,OVC,"[{'cover': 'OVC', 'base': 4100}]",VFR,,,1018.3,,,US,United States
2904,KMWO,2025-11-29 02:02:22.902000+00:00,1764381300,2025-11-29T02:00:00.000Z,-5.0,-8.0,0,0.0,10+,1030.9,6,,,METAR,METAR KMWO 290155Z AUTO 00000KT 10SM CLR M05/M08 A3044 RMK AO2,39.5324,-84.3974,197,Middletown/Hook Fld,CLR,[],VFR,,,,,,US,United States
2911,KMXF,2025-11-29 01:59:18.947000+00:00,1764381300,2025-11-29T02:00:00.000Z,5.2,0.0,0,0.0,10+,1028.9,6,,,METAR,METAR KMXF 290155Z AUTO 00000KT 10SM CLR 05/00 A3038 RMK AO2 SLP291 T00520000,32.3877,-86.3724,47,Maxwell AFB,CLR,[],VFR,,,1029.1,,,US,United States
2942,KMYF,2025-11-29 01:58:52.777000+00:00,1764381180,2025-11-29T02:00:00.000Z,15.0,12.8,0,0.0,9,1016.3,4,,,METAR,METAR KMYF 290153Z 00000KT 9SM CLR 15/13 A3001 RMK AO2 SLP160 T01500128,32.8145,-117.1375,128,San Diego/Montgomery Arpt,CLR,[],VFR,,,1016.0,,,US,United States
2955,KMYL,2025-11-29 01:57:22.846000+00:00,1764381060,2025-11-29T02:00:00.000Z,-1.1,-2.2,360,3.0,10+,1021.8,6,,,METAR,METAR KMYL 290151Z AUTO 36003KT 10SM CLR M01/M02 A3017 RMK AO2 SLP244 T10111022,44.8943,-116.0998,1532,McCall Muni,CLR,[],VFR,,,1024.4,,,US,United States
2947,KMYR,2025-11-29 01:57:37.330000+00:00,1764381180,2025-11-29T02:00:00.000Z,2.2,-5.6,330,7.0,10+,1029.5,12,,,METAR,METAR KMYR 290153Z 33007KT 10SM CLR 02/M06 A3040 RMK AO2 SLP294 T00221056 $,33.6769,-78.9325,7,Myrtle Beach Intl,CLR,[],VFR,,,1029.4,,,US,United States
2936,KMYV,2025-11-29 01:58:52.468000+00:00,1764381180,2025-11-29T02:00:00.000Z,7.2,5.6,360,5.0,10+,1020.1,6,,,METAR,METAR KMYV 290153Z AUTO 36005KT 10SM OVC008 07/06 A3012 RMK AO2 SLP203 T00720056,39.102,-121.5688,18,Marysville/Yuba Cnty,OVC,"[{'cover': 'OVC', 'base': 800}]",IFR,,,1020.3,,,US,United States
2905,KMZJ,2025-11-29 02:05:23.181000+00:00,1764381300,2025-11-29T02:00:00.000Z,13.0,9.0,270,4.0,2,1016.3,6,HZ,,METAR,METAR KMZJ 290155Z AUTO 27004KT 2SM HZ 13/09 A3001 RMK AO2,32.5147,-111.3346,574,Marana/Pinal Aprk,,,,,,,,,US,United States
2916,KMZZ,2025-11-29 02:06:31.124000+00:00,1764381300,2025-11-29T02:00:00.000Z,-7.4,-11.5,0,0.0,10+,1029.2,6,,,METAR,METAR KMZZ 290155Z AUTO 00000KT 10SM CLR M07/M11 A3039 RMK AO2 T10741115,40.4863,-85.6859,260,Marion Muni,CLR,[],VFR,,,,,,US,United States
2915,KNBG,2025-11-29 02:02:09.264000+00:00,1764381300,2025-11-29T02:00:00.000Z,4.4,2.2,0,0.0,10+,1027.9,14,,,METAR,METAR KNBG 290155Z AUTO 00000KT 10SM CLR 04/02 A3035 RMK AO2 SLP277 T00440022 $,29.837,-90.024,0,New Orleans,CLR,[],VFR,,,1027.7,,,US,United States
2935,KNEW,2025-11-29 01:57:39.217000+00:00,1764381180,2025-11-29T02:00:00.000Z,12.8,0.6,60,14.0,10+,1028.2,12,,,METAR,METAR KNEW 290153Z 06014KT 10SM CLR 13/01 A3036 RMK AO1 SLP274 T01280006 $,30.0494,-90.029,1,New Orleans/Lakefront Arpt,CLR,[],VFR,,,1027.4,,,US,United States
2890,KNFL,2025-11-29 02:02:07.702000+00:00,1764381420,2025-11-29T02:00:00.000Z,6.7,-2.2,20,7.0,10+,1019.0,6,,,METAR,METAR KNFL 290157Z AUTO 02007KT 10SM CLR 07/M02 A3009 RMK AO2 SLP158 T00671022,39.417,-118.705,1199,Fallon,CLR,[],VFR,,,1015.8,,,US,United States
1629,KNFW,2025-11-29 02:02:06.489000+00:00,1764381120,2025-11-29T02:00:00.000Z,10.0,7.2,130,7.0,6,1020.4,12,TSRA,0.17,METAR,METAR KNFW 290152Z 13007KT 6SM TSRA BKN044CB OVC060 10/07 A3013 RMK AO2 TSB38 SLP184 OCNL LTGICCCCG OHD TSRAB35 TS SW MOV NE T1 SET P0017 T01000072 $,32.781,-97.436,188,Fort Worth/Carswell NAS,OVC,"[{'cover': 'BKN', 'base': 4400}, {'cover': 'OVC', 'base': 6000}]",VFR,,,1018.4,,,US,United States
2897,KNGP,2025-11-29 02:02:24.039000+00:00,1764381360,2025-11-29T02:00:00.000Z,22.2,15.6,130,19.0,10+,1020.4,6,,,METAR,METAR KNGP 290156Z AUTO 13019G27KT 10SM FEW035 OVC046 22/16 A3013 RMK AO2 PK WND 13030/0113 SLP203 T02220156,27.688,-97.292,5,Corpus Christi/Truax Fld NAS,OVC,"[{'cover': 'FEW', 'base': 3500}, {'cover': 'OVC', 'base': 4600}]",VFR,,27.0,1020.3,,,US,United States
2889,KNGU,2025-11-29 02:08:10.933000+00:00,1764381540,2025-11-29T02:00:00.000Z,3.3,-10.0,320,11.0,10+,1028.2,4,,,METAR,METAR KNGU 290159Z 32011KT 10SM FEW060 03/M10 A3036 RMK AO2 SLP281 T00331100,36.937,-76.281,3,Norfolk NAS,FEW,"[{'cover': 'FEW', 'base': 6000}]",VFR,,,1028.1,,,US,United States
2950,KNHK,2025-11-29 02:00:43.785000+00:00,1764381120,2025-11-29T02:00:00.000Z,1.7,-10.0,280,8.0,10+,1027.2,12,,,METAR,METAR KNHK 290152Z 28008KT 10SM CLR 02/M10 A3033 RMK AO2 SLP270 T00171100 $,38.284,-76.408,5,Patuxent River NAS,CLR,[],VFR,,,1027.0,,,US,United States
2934,KNIP,2025-11-29 02:00:43.805000+00:00,1764381180,2025-11-29T02:00:00.000Z,11.1,0.6,30,7.0,10+,1027.9,14,,,METAR,METAR KNIP 290153Z AUTO 03007KT 10SM CLR 11/01 A3035 RMK AO2 SLP272 T01110006 $,30.2346,-81.6746,3,Jacksonville,CLR,[],VFR,,,1027.2,,,US,United States
3120,KNJK,2025-11-29 02:02:07.011000+00:00,1764381360,2025-11-29T02:00:00.000Z,17.2,8.9,20,4.0,10+,1014.0,14,,,METAR,METAR KNJK 290156Z AUTO 02004KT 10SM CLR 17/09 A2994 RMK AO2 SLP154 T01720089 $,32.823,-115.668,-15,El Centro,CLR,[],VFR,,,1015.4,,,US,United States
3133,KNKX,2025-11-29 02:02:05.897000+00:00,1764381300,2025-11-29T02:00:00.000Z,12.2,12.2,0,0.0,9,1016.0,6,,,METAR,METAR KNKX 290155Z AUTO 00000KT 9SM CLR 12/12 A3000 RMK AO2 SLP157 T01220122,32.865,-117.137,138,Miramar,CLR,[],VFR,,,1015.7,,,US,United States
3105,KNPA,2025-11-29 02:02:07.304000+00:00,1764381360,2025-11-29T02:00:00.000Z,6.7,-1.7,360,5.0,10+,1028.5,6,,,METAR,METAR KNPA 290156Z AUTO 36005KT 10SM CLR 07/M02 A3037 RMK AO2 SLP284 T00671017,30.356,-87.323,6,Pensacola,CLR,[],VFR,,,1028.4,,,US,United States
3182,KNQA,2025-11-29 01:46:27.928000+00:00,1764381000,2025-11-29T02:00:00.000Z,4.0,-3.0,0,0.0,10+,1027.9,0,,,METAR,METAR KNQA 290150Z 00000KT 10SM CLR 04/M03 A3035,35.3619,-89.8612,90,Millington Rgnl,CLR,[],VFR,,,,,,US,United States
3106,KNQI,2025-11-29 02:06:26.220000+00:00,1764381360,2025-11-29T02:00:00.000Z,21.7,16.1,150,9.0,10+,1020.4,14,,,METAR,METAR KNQI 290156Z AUTO 15009KT 10SM OVC055 22/16 A3013 RMK AO2 SLP199 T02170161 PNO $,27.507,-97.81,15,Kingsville,OVC,"[{'cover': 'OVC', 'base': 5500}]",VFR,,,1019.9,,,US,United States
3161,KNQX,2025-11-29 01:56:58.736000+00:00,1764381180,2025-11-29T02:00:00.000Z,20.6,14.4,,,10+,1020.7,14,,,METAR,METAR KNQX 290153Z AUTO 10SM CLR 21/14 A3014 RMK AO2 SLP203 T02060144 $,24.5801,-81.6829,2,Key West,CLR,[],VFR,,,1020.3,,,US,United States
3175,KNRB,2025-11-29 02:04:05.845000+00:00,1764381120,2025-11-29T02:00:00.000Z,10.0,1.7,340,6.0,10+,1027.5,6,,,METAR,METAR KNRB 290152Z AUTO 34006KT 10SM CLR 10/02 A3034 RMK AO2 SLP274 T01000017,30.396,-81.423,4,Mayport,CLR,[],VFR,,,1027.4,,,US,United States
3169,KNRS,2025-11-29 02:02:07.032000+00:00,1764381180,2025-11-29T02:00:00.000Z,11.7,11.1,0,0.0,10+,1016.3,14,,,METAR,METAR KNRS 290153Z AUTO 00000KT 10SM CLR 12/11 A3001 RMK AO2 SLP161 T01170111 $,32.563,-117.1109,15,Imperial Beach,CLR,[],VFR,,,1016.1,,,US,United States
3117,KNSE,2025-11-29 02:04:07.199000+00:00,1764381360,2025-11-29T02:00:00.000Z,3.9,-2.2,0,0.0,10+,1028.9,14,,,METAR,METAR KNSE 290156Z AUTO 00000KT 10SM CLR 04/M02 A3038 RMK AO2 SLP277 T00391022 $,30.728,-87.022,56,Milton/Whiting N,CLR,[],VFR,,,1027.7,,,US,United States
3127,KNTD,2025-11-29 02:02:05.976000+00:00,1764381300,2025-11-29T02:00:00.000Z,13.9,13.3,170,3.0,6,1016.0,12,BR,,METAR,METAR KNTD 290155Z 17003KT 6SM BR FEW002 BKN007 14/13 A3000 RMK AO2 SLP158 T01390133 $,34.124,-119.123,1,Pt Mugu,BKN,"[{'cover': 'FEW', 'base': 200}, {'cover': 'BKN', 'base': 700}]",IFR,,,1015.8,,,US,United States
3119,KNTU,2025-11-29 02:06:26.253000+00:00,1764381360,2025-11-29T02:00:00.000Z,3.3,-10.0,310,8.0,10+,1027.9,6,,,METAR,METAR KNTU 290156Z AUTO 31008KT 10SM CLR 03/M10 A3035 RMK AO2 SLP278 T00331100,36.8209,-76.0277,6,Oceana,CLR,[],VFR,,,1027.8,,,US,United States
3191,KNUQ,2025-11-29 02:08:27.109000+00:00,1764381000,2025-11-29T02:00:00.000Z,11.0,9.0,0,0.0,6,1018.4,6,BR,,METAR,METAR KNUQ 290150Z AUTO 00000KT 6SM BR CLR 11/09 A3007 RMK AO2,37.4059,-122.0491,9,Moffett Fed Airfld,CLR,[],VFR,,,,,,US,United States
3160,KNUW,2025-11-29 02:00:43.850000+00:00,1764381180,2025-11-29T02:00:00.000Z,4.4,1.1,0,0.0,10+,1026.2,4,,,METAR,METAR KNUW 290153Z 00000KT 10SM FEW150 BKN230 04/01 A3030 RMK AO2 SLP263 T00440011,48.355,-122.664,14,Whidbey Island,BKN,"[{'cover': 'FEW', 'base': 15000}, {'cover': 'BKN', 'base': 23000}]",VFR,,,1026.3,,,US,United States
3118,KNYG,2025-11-29 02:02:06.026000+00:00,1764381360,2025-11-29T02:00:00.000Z,1.1,-11.1,290,8.0,,1028.2,14,,,METAR,METAR KNYG 290156Z AUTO 29008KT CLR 01/M11 A3036 RMK AO2 SLP280 T00111111 $,38.503,-77.301,2,Quantico,CLR,[],,,,1028.0,,,US,United States
5063,KNYL,2025-11-29 02:02:07.777000+00:00,1764381420,2025-11-29T02:00:00.000Z,19.4,8.9,0,0.0,10+,1014.0,14,,,METAR,METAR KNYL 290157Z AUTO 00000KT 10SM CLR 19/09 A2994 RMK AO2 SLP136 T01940089 $,32.66,-114.6078,58,Yuma,CLR,[],VFR,,,1013.6,,,US,United States
3176,KNZY,2025-11-29 02:00:43.873000+00:00,1764381120,2025-11-29T02:00:00.000Z,15.0,13.9,0,0.0,8,1016.0,6,,,METAR,METAR KNZY 290152Z AUTO 00000KT 8SM FEW007 15/14 A3000 RMK AO2 SLP158 T01500139,32.6922,-117.2098,4,San Diego/North Island NAS,FEW,"[{'cover': 'FEW', 'base': 700}]",VFR,,,1015.8,,,US,United States
3113,KOAJ,2025-11-29 01:59:18.967000+00:00,1764381360,2025-11-29T02:00:00.000Z,-2.8,-5.6,0,0.0,10+,1029.2,12,,,METAR,METAR KOAJ 290156Z 00000KT 10SM CLR M03/M06 A3039 RMK AO2 SLP294 T10281056 $,34.8251,-77.6189,26,Jacksonville/Ellis Arpt,CLR,[],VFR,,,1029.4,,,US,United States
3166,KOAK,2025-11-29 01:58:35.529000+00:00,1764381180,2025-11-29T02:00:00.000Z,8.9,7.2,320,4.0,7,1018.4,4,,,METAR,METAR KOAK 290153Z 32004KT 7SM FEW015 FEW200 09/07 A3007 RMK AO2 SLP184 T00890072,37.7178,-122.233,3,Oakland Intl,FEW,"[{'cover': 'FEW', 'base': 1500}, {'cover': 'FEW', 'base': 20000}]",VFR,,,1018.4,,,US,United States
3126,KOAR,2025-11-29 02:02:21.864000+00:00,1764381300,2025-11-29T02:00:00.000Z,11.0,11.0,240,10.0,5,1017.4,6,BR,,METAR,METAR KOAR 290155Z AUTO 24010KT 5SM BR CLR 11/11 A3004 RMK AO2,36.6815,-121.7574,41,Marina Muni,CLR,[],MVFR,,,,,,US,United States
3128,KOBE,2025-11-29 02:01:07.736000+00:00,1764381300,2025-11-29T02:00:00.000Z,12.0,9.0,10,8.0,10+,1022.4,6,,,METAR,METAR KOBE 290155Z AUTO 01008KT 10SM CLR 12/09 A3019 RMK AO2,27.2663,-80.8487,11,Okeechobee Cnty Arpt,CLR,[],VFR,,,,,,US,United States
3180,KOCF,2025-11-29 01:54:04.129000+00:00,1764381060,2025-11-29T02:00:00.000Z,8.9,-1.7,VRB,3.0,10+,1027.2,6,,,METAR,METAR KOCF 290151Z AUTO VRB03KT 10SM CLR 09/M02 A3033 RMK AO2 SLP272 T00891017,29.1636,-82.221,24,Ocala Rgnl,CLR,[],VFR,,,1027.2,,,US,United States
3109,KOCH,2025-11-29 02:00:46.392000+00:00,1764381360,2025-11-29T02:00:00.000Z,11.1,3.3,110,6.0,10+,1025.5,6,,,METAR,METAR KOCH 290156Z AUTO 11006KT 10SM FEW085 OVC110 11/03 A3028 RMK AO2 SLP258 T01110033,31.5809,-94.7081,105,Nacogdoches Rgnl,OVC,"[{'cover': 'FEW', 'base': 8500}, {'cover': 'OVC', 'base': 11000}]",VFR,,,1025.8,,,US,United States
3192,KOCW,2025-11-29 02:04:13.285000+00:00,1764381000,2025-11-29T02:00:00.000Z,0.6,-9.0,330,3.0,10+,1028.9,6,,,METAR,METAR KOCW 290150Z AUTO 33003KT 10SM CLR 01/M09 A3038 RMK AO2 T00061090,35.5703,-77.05,10,Washington/Warren Arpt,CLR,[],VFR,,,,,,US,United States
3135,KOEO,2025-11-29 02:02:21.021000+00:00,1764381300,2025-11-29T02:00:00.000Z,-6.5,-10.4,60,4.0,10+,1028.2,134,,,METAR,METAR KOEO 290155Z AUTO 06004KT 10SM CLR M06/M10 A3036 RMK AO2 T10651104 PWINO,45.3108,-92.6948,269,Osceola/Simenstad Muni,CLR,[],VFR,,,,,,US,United States
3129,KOFF,2025-11-29 02:02:07.430000+00:00,1764381300,2025-11-29T02:00:00.000Z,-1.3,-9.2,90,9.0,10+,1020.7,8,-SN,,METAR,METAR KOFF 290155Z 09009KT 10SM -SN FEW025 BKN041 OVC049 M01/M09 A3014 RMK SLP223 T10131092 $,41.122,-95.91,308,Bellevue/Offutt AFB,OVC,"[{'cover': 'FEW', 'base': 2500}, {'cover': 'BKN', 'base': 4100}, {'cover': 'OVC', 'base': 4900}]",VFR,,,1022.3,,,US,United States
3121,KOFK,2025-11-29 02:00:58.410000+00:00,1764381360,2025-11-29T02:00:00.000Z,-5.6,-6.1,110,10.0,10+,1018.7,6,,,METAR,METAR KOFK 290156Z AUTO 11010KT 10SM OVC007 M06/M06 A3008 RMK AO2 CIG 006V011 SLP211 I1001 T10561061,41.9799,-97.4335,476,Norfolk/Stefan Mem,OVC,"[{'cover': 'OVC', 'base': 700}]",IFR,,,1021.1,,,US,United States
3136,KOGA,2025-11-29 02:02:18.192000+00:00,1764381300,2025-11-29T02:00:00.000Z,0.1,-2.5,110,8.0,10+,1011.9,6,,,METAR,METAR KOGA 290155Z AUTO 11008KT 10SM OVC012 00/M02 A2988 RMK AO2 T00011025,41.1164,-101.7679,991,Ogalla/Searle Fld,OVC,"[{'cover': 'OVC', 'base': 1200}]",MVFR,,,,,,US,United States
3151,KOGB,2025-11-29 01:57:39.278000+00:00,1764381180,2025-11-29T02:00:00.000Z,1.7,-7.2,0,0.0,10+,1028.9,14,,,METAR,METAR KOGB 290153Z AUTO 00000KT 10SM CLR 02/M07 A3038 RMK AO2 SLP290 T00171072 $,33.4637,-80.8534,59,Orangeburg Muni,CLR,[],VFR,,,1029.0,,,US,United States
3159,KOGD,2025-11-29 01:58:52.485000+00:00,1764381180,2025-11-29T02:00:00.000Z,8.3,-1.7,280,4.0,10+,1016.7,4,,,METAR,METAR KOGD 290153Z 28004KT 10SM OVC065 08/M02 A3002 RMK AO2 SLP154 T00831017,41.1941,-112.0168,1356,Ogden/Hinckley Arpt,OVC,"[{'cover': 'OVC', 'base': 6500}]",VFR,,,1015.4,,,US,United States
3134,KOGS,2025-11-29 02:02:18.242000+00:00,1764381300,2025-11-29T02:00:00.000Z,-2.0,-7.0,290,12.0,10+,1014.6,6,,,METAR,METAR KOGS 290155Z AUTO 29012G17KT 250V310 10SM OVC034 M02/M07 A2996 RMK AO2,44.68,-75.4642,88,Ogdensburg Intl,OVC,"[{'cover': 'OVC', 'base': 3400}]",VFR,,17.0,,,,US,United States
3137,KOIC,2025-11-29 01:58:50.468000+00:00,1764381300,2025-11-29T02:00:00.000Z,-1.0,-5.0,300,9.0,10+,1016.7,6,-SN,,METAR,METAR KOIC 290155Z AUTO 30009G16KT 270V360 10SM -SN SCT027 OVC034 M01/M05 A3002 RMK AO2,42.5642,-75.5269,311,Norwich/Eaton Arpt,OVC,"[{'cover': 'SCT', 'base': 2700}, {'cover': 'OVC', 'base': 3400}]",VFR,,16.0,,,,US,United States
3150,KOJC,2025-11-29 01:57:39.319000+00:00,1764381180,2025-11-29T02:00:00.000Z,2.8,-2.8,100,10.0,8,1019.4,12,-RA,0.005,METAR,METAR KOJC 290153Z 10010KT 8SM -RA OVC055 03/M03 A3010 RMK AO2 UPB43E44RAB44 SLP202 P0000 T00281028 $,38.85,-94.7395,328,Olathe/Johnson Cnty,OVC,"[{'cover': 'OVC', 'base': 5500}]",VFR,,,1020.2,,,US,United States
3174,KOKB,2025-11-29 01:57:35.328000+00:00,1764381120,2025-11-29T02:00:00.000Z,11.7,11.1,0,0.0,8,1015.7,6,,,METAR,METAR KOKB 290152Z AUTO 00000KT 8SM CLR 12/11 A2999 RMK AO2 SLP156 T01170111,33.2195,-117.3496,7,Oceanside Muni,CLR,[],VFR,,,1015.6,,,US,United States
3172,KOKC,2025-11-29 01:57:27.643000+00:00,1764381120,2025-11-29T02:00:00.000Z,9.4,3.3,160,19.0,10+,1017.4,4,,,METAR,METAR KOKC 290152Z 16019G29KT 10SM OVC037 09/03 A3004 RMK AO2 PK WND 16034/0110 SLP175 T00940033,35.3843,-97.6003,391,Oklahoma City/Will Rogers Intl,OVC,"[{'cover': 'OVC', 'base': 3700}]",VFR,,29.0,1017.5,,,US,United States
3209,KOKH,2025-11-29 02:04:13.349000+00:00,1764380820,2025-11-29T02:00:00.000Z,3.0,2.0,0,0.0,10+,1026.2,6,,,METAR,METAR KOKH 290147Z AUTO 00000KT 10SM CLR 03/02 A3030 RMK AO2,48.2515,-122.674,193,Oak Harbor,CLR,[],VFR,,,,,,US,United States
3111,KOKK,2025-11-29 02:00:49.349000+00:00,1764381360,2025-11-29T02:00:00.000Z,-7.2,-9.4,170,4.0,10+,1029.5,78,,,METAR,METAR KOKK 290156Z AUTO 17004KT 10SM CLR M07/M09 A3040 RMK AO2 SLP308 T10721094 FZRANO $,40.5304,-86.055,251,Kokomo Muni,CLR,[],VFR,,,1030.8,,,US,United States
3193,KOKM,2025-11-29 02:04:13.396000+00:00,1764381000,2025-11-29T02:00:00.000Z,11.9,0.0,160,11.0,10+,1019.7,6,,,METAR,METAR KOKM 290150Z AUTO 16011G18KT 10SM OVC060 12/00 A3011 RMK AO2 T01190000,35.6713,-95.9514,215,Okmulgee Rgnl,OVC,"[{'cover': 'OVC', 'base': 6000}]",VFR,,18.0,,,,US,United States
4831,KOKV,2025-11-29 01:57:27.683000+00:00,1764381300,2025-11-29T02:00:00.000Z,0.0,-10.0,290,12.0,10+,1026.2,6,,,METAR,METAR KOKV 290155Z AUTO 29012KT 10SM OVC060 00/M10 A3030 RMK AO2,39.1406,-78.1391,213,Winchester Rgnl,OVC,"[{'cover': 'OVC', 'base': 6000}]",VFR,,,,,,US,United States
3149,KOLF,2025-11-29 01:58:35.550000+00:00,1764381180,2025-11-29T02:00:00.000Z,-7.8,-9.4,50,11.0,3,1023.8,14,-SN BR,0.005,METAR,METAR KOLF 290153Z AUTO 05011KT 3SM -SN BR OVC036 M08/M09 A3023 RMK AO2 SLP275 P0000 T10781094 $,48.0942,-105.5784,605,Wolf Point/Clayton Arpt,OVC,"[{'cover': 'OVC', 'base': 3600}]",MVFR,,,1027.5,,,US,United States
3053,KOLM,2025-11-29 02:04:11.212000+00:00,1764381660,2025-11-29T02:01:00.000Z,5.0,4.4,0,0.0,10+,1025.1,4,,,SPECI,SPECI KOLM 290201Z 00000KT 10SM BKN020 05/04 A3027 RMK AO2 T00500044,46.9737,-122.9049,58,Olympia Rgnl,BKN,"[{'cover': 'BKN', 'base': 2000}]",MVFR,,,,,,US,United States
3143,KOLS,2025-11-29 01:59:07.028000+00:00,1764381240,2025-11-29T02:00:00.000Z,13.3,2.2,0,0.0,10+,1018.4,6,,,METAR,METAR KOLS 290154Z AUTO 00000KT 10SM CLR 13/02 A3007 RMK AO2 SLP153 T01330022,31.4208,-110.8465,1194,Nogales Intl,CLR,[],VFR,,,1015.3,,,US,United States
3110,KOLU,2025-11-29 02:00:47.488000+00:00,1764381360,2025-11-29T02:00:00.000Z,-3.9,-5.6,90,11.0,10+,1019.0,70,,0.01,METAR,METAR KOLU 290156Z AUTO 09011KT 10SM BKN012 BKN019 OVC038 M04/M06 A3009 RMK AO2 SLP213 P0001 T10391056 FZRANO,41.4472,-97.3391,438,Columbus Muni,OVC,"[{'cover': 'BKN', 'base': 1200}, {'cover': 'BKN', 'base': 1900}, {'cover': 'OVC', 'base': 3800}]",MVFR,,,1021.3,,,US,United States
3188,KOLV,2025-11-29 01:52:08.428000+00:00,1764381000,2025-11-29T02:00:00.000Z,6.0,-5.0,130,5.0,10+,1028.2,0,,,METAR,METAR KOLV 290150Z 13005KT 10SM CLR 06/M05 A3036,34.9808,-89.7851,124,Olive Branch Arpt,CLR,[],VFR,,,,,,US,United States
3173,KOMA,2025-11-29 01:57:29.888000+00:00,1764381120,2025-11-29T02:00:00.000Z,-2.2,-8.9,120,7.0,10+,1021.8,4,-SN,0.005,METAR,METAR KOMA 290152Z 12007G17KT 10SM -SN OVC055 M02/M09 A3017 RMK AO2 SLP227 SNB48 P0000 T10221089,41.3119,-95.9018,299,Omaha/Eppley Fld,OVC,"[{'cover': 'OVC', 'base': 5500}]",VFR,,17.0,1022.7,,,US,United States
3145,KOMK,2025-11-29 01:58:53.474000+00:00,1764381180,2025-11-29T02:00:00.000Z,1.7,-4.4,340,12.0,10+,1029.2,6,,,METAR,METAR KOMK 290153Z AUTO 34012KT 10SM CLR 02/M04 A3039 RMK AO2 SLP304 T00171044,48.4611,-119.5209,395,Omak Arpt,CLR,[],VFR,,,1030.4,,,US,United States
3123,KONL,2025-11-29 02:02:21.063000+00:00,1764381300,2025-11-29T02:00:00.000Z,-6.0,-7.3,110,8.0,7,1017.7,6,,,METAR,METAR KONL 290155Z AUTO 11008KT 7SM OVC008 M06/M07 A3005 RMK AO2 T10601073,42.4691,-98.6903,619,O'Neill Muni,OVC,"[{'cover': 'OVC', 'base': 800}]",IFR,,,,,,US,United States
3157,KONO,2025-11-29 01:58:52.794000+00:00,1764381180,2025-11-29T02:00:00.000Z,5.0,-0.6,330,12.0,10+,1023.1,6,,,METAR,METAR KONO 290153Z AUTO 33012KT 10SM CLR 05/M01 A3021 RMK AO2 SLP249 T00501006,44.0142,-117.0081,668,Ontario Muni,CLR,[],VFR,,,1024.9,,,US,United States
3132,KONP,2025-11-29 02:01:05.674000+00:00,1764381300,2025-11-29T02:00:00.000Z,11.0,11.0,0,0.0,2.5,1022.1,6,-DZ,,METAR,METAR KONP 290155Z AUTO 00000KT 2 1/2SM -DZ BKN005 OVC012 11/11 A3018 RMK AO2,44.5825,-124.0575,43,Newport Muni,OVC,"[{'cover': 'BKN', 'base': 500}, {'cover': 'OVC', 'base': 1200}]",IFR,,,,,,US,United States
3146,KONT,2025-11-29 01:58:53.495000+00:00,1764381180,2025-11-29T02:00:00.000Z,16.7,7.2,260,5.0,10+,1015.7,12,,,METAR,METAR KONT 290153Z 26005KT 10SM CLR 17/07 A2999 RMK AO2 SLP151 T01670072 $,34.0531,-117.5769,279,Ontario Intl,CLR,[],VFR,,,1015.1,,,US,United States
3148,KOPF,2025-11-29 01:57:39.475000+00:00,1764381180,2025-11-29T02:00:00.000Z,18.3,12.8,10,7.0,10+,1021.4,12,,,METAR,METAR KOPF 290153Z 01007KT 10SM CLR 18/13 A3016 RMK AO2 SLP215 T01830128 $,25.9102,-80.2828,1,Miami/Opa Locka Arpt,CLR,[],VFR,,,1021.5,,,US,United States
2903,KOQU,2025-11-29 02:02:16.456000+00:00,1764381300,2025-11-29T02:00:00.000Z,,,250,14.0,10+,1015.0,6,,,METAR,METAR KOQU 290155Z AUTO 25014G17KT 10SM CLR A2997 RMK AO2,41.5995,-71.4111,6,N Kingston/Quonset Arpt,CLR,[],VFR,,17.0,,,,US,United States
3179,KORD,2025-11-29 01:57:35.757000+00:00,1764381060,2025-11-29T02:00:00.000Z,-3.3,-10.0,230,3.0,10+,1028.5,12,,,METAR,METAR KORD 290151Z 23003KT 10SM FEW200 BKN250 M03/M10 A3037 RMK AO2 SLP293 T10331100 $,41.9602,-87.9316,202,Chicago/O'Hare Intl,BKN,"[{'cover': 'FEW', 'base': 20000}, {'cover': 'BKN', 'base': 25000}]",VFR,,,1029.3,,,US,United States
3177,KORF,2025-11-29 01:54:11.438000+00:00,1764381060,2025-11-29T02:00:00.000Z,3.9,-10.0,330,4.0,10+,1028.2,4,,,METAR,METAR KORF 290151Z 33004KT 10SM CLR 04/M10 A3036 RMK AO2 SLP278 T00391100,36.9037,-76.1927,5,Norfolk Intl,CLR,[],VFR,,,1027.8,,,US,United States
3141,KORH,2025-11-29 01:58:37.088000+00:00,1764381240,2025-11-29T02:00:00.000Z,-0.6,-6.1,260,21.0,10+,1011.9,12,,,METAR,METAR KORH 290154Z 26021G37KT 10SM CLR M01/M06 A2988 RMK AO2 PK WND 28037/0151 SLP129 T10061061 $,42.2706,-71.8731,306,Worcester Muni,CLR,[],VFR,,37.0,1012.9,,,US,United States
3158,KORL,2025-11-29 01:57:39.497000+00:00,1764381180,2025-11-29T02:00:00.000Z,11.7,4.4,360,9.0,10+,1025.1,4,,,METAR,METAR KORL 290153Z 36009KT 10SM CLR 12/04 A3027 RMK AO2 SLP257 T01170044,28.5465,-81.3354,32,Orlando/Executive,CLR,[],VFR,,,1025.7,,,US,United States
1221,KORS,2025-11-29 01:59:08.172000+00:00,1764381300,2025-11-29T02:00:00.000Z,9.0,-1.0,20,7.0,10+,1026.5,6,,,METAR,METAR KORS 290155Z AUTO 02007G16KT 10SM CLR 09/M01 A3031 RMK AO2,48.7081,-122.9092,7,Eastsound/Orcas Island Arpt,CLR,[],VFR,,16.0,,,,US,United States
3122,KOSC,2025-11-29 02:02:17.339000+00:00,1764381300,2025-11-29T02:00:00.000Z,-5.0,-8.0,250,9.0,10+,1024.8,6,,,METAR,METAR KOSC 290155Z AUTO 25009KT 10SM CLR M05/M08 A3026 RMK AO2,44.453,-83.396,191,Wurtsmith,CLR,[],VFR,,,,,,US,United States
3164,KOSH,2025-11-29 01:58:48.883000+00:00,1764381180,2025-11-29T02:00:00.000Z,-4.4,-11.1,330,5.0,10+,1028.2,12,,,METAR,METAR KOSH 290153Z 33005KT 10SM OVC033 M04/M11 A3036 RMK AO2 SLP300 T10441111 $,43.9669,-88.5582,239,Oshkosh/Wittman Rgnl,OVC,"[{'cover': 'OVC', 'base': 3300}]",VFR,,,1030.0,,,US,United States
3152,KOSU,2025-11-29 01:58:48.677000+00:00,1764381180,2025-11-29T02:00:00.000Z,-1.7,-8.9,280,7.0,10+,1029.2,4,,,METAR,METAR KOSU 290153Z 28007KT 10SM OVC046 M02/M09 A3039 RMK AO2 SLP303 T10171089,40.0784,-83.0782,276,Columbus/Ohio State Univ Arpt,OVC,"[{'cover': 'OVC', 'base': 4600}]",VFR,,,1030.3,,,US,United States
3108,KOTH,2025-11-29 02:00:46.623000+00:00,1764381360,2025-11-29T02:00:00.000Z,10.6,10.6,VRB,3.0,10+,1020.7,4,,,METAR,METAR KOTH 290156Z VRB03KT 10SM CLR 11/11 A3014 RMK AO2 SLP207 T01060106,43.4194,-124.2438,3,North Bend/SW Oregon Rgnl,CLR,[],VFR,,,1020.7,,,US,United States
3153,KOTM,2025-11-29 01:58:35.324000+00:00,1764381180,2025-11-29T02:00:00.000Z,-1.7,-10.6,110,11.0,10+,1025.8,14,,,METAR,METAR KOTM 290153Z AUTO 11011KT 10SM OVC060 M02/M11 A3029 RMK AO2 SLP270 T10171106 $,41.1008,-92.4445,254,Ottumwa Rgnl,OVC,"[{'cover': 'OVC', 'base': 6000}]",VFR,,,1027.0,,,US,United States
3154,KOVE,2025-11-29 02:02:25.708000+00:00,1764381180,2025-11-29T02:00:00.000Z,6.7,5.0,0,0.0,10+,1020.1,14,,,METAR,METAR KOVE 290153Z AUTO 00000KT 10SM OVC005 07/05 A3012 RMK AO2 SLP203 T00670050 $,39.4943,-121.6225,56,Oroville Muni,OVC,"[{'cover': 'OVC', 'base': 500}]",IFR,,,1020.3,,,US,United States
3124,KOWA,2025-11-29 02:00:47.524000+00:00,1764381300,2025-11-29T02:00:00.000Z,-4.7,-7.2,120,4.0,10+,1025.5,6,,,METAR,METAR KOWA 290155Z AUTO 12004KT 10SM OVC070 M05/M07 A3028 RMK AO2 T10471072,44.1191,-93.2569,345,Owatonna/Degner Rgnl,OVC,"[{'cover': 'OVC', 'base': 7000}]",VFR,,,,,,US,United States
3115,KOWB,2025-11-29 01:59:19.125000+00:00,1764381360,2025-11-29T02:00:00.000Z,-1.1,-6.7,0,0.0,10+,1030.6,4,,,METAR,METAR KOWB 290156Z 00000KT 10SM CLR M01/M07 A3043 RMK AO2 SLP310 T10111067,37.7297,-87.1683,121,Owensboro/Daviess Cnty,CLR,[],VFR,,,1031.0,,,US,United States
3165,KOWD,2025-11-29 01:58:48.920000+00:00,1764381180,2025-11-29T02:00:00.000Z,1.1,-6.1,270,4.0,10+,1013.6,14,,,METAR,METAR KOWD 290153Z AUTO 27004KT 10SM BKN060 01/M06 A2993 RMK AO2 SLP137 T00111061 $,42.1912,-71.1732,14,Norwood Mem,BKN,"[{'cover': 'BKN', 'base': 6000}]",VFR,,,1013.7,,,US,United States
3171,KOXB,2025-11-29 01:58:57.951000+00:00,1764381180,2025-11-29T02:00:00.000Z,1.1,-9.4,280,5.0,10+,1026.2,6,,,METAR,METAR KOXB 290153Z AUTO 28005KT 10SM CLR 01/M09 A3030 RMK AO2 SLP261 T00111094,38.3091,-75.1234,2,Ocean City Muni,CLR,[],VFR,,,1026.1,,,US,United States
3052,KOXD,2025-11-29 02:06:39.804000+00:00,1764381660,2025-11-29T02:01:00.000Z,-3.0,-9.0,0,0.0,10+,1029.2,4,,,METAR,METAR KOXD 290201Z 00000KT 10SM CLR M03/M09 A3039 RMK AO2,39.5047,-84.7838,317,Oxford/Miami Univ Arpt,CLR,[],VFR,,,,,,US,United States
3178,KOXR,2025-11-29 01:57:22.894000+00:00,1764381060,2025-11-29T02:00:00.000Z,15.0,13.3,0,0.0,10+,1015.7,4,,,METAR,METAR KOXR 290151Z 00000KT 10SM OVC006 15/13 A2999 RMK AO2 SLP155 T01500133,34.2001,-119.2042,12,Oxnard Arpt,OVC,"[{'cover': 'OVC', 'base': 600}]",IFR,,,1015.5,,,US,United States
3956,KOYM,2025-11-29 02:00:56.325000+00:00,1764381300,2025-11-29T02:00:00.000Z,-2.0,-5.0,270,10.0,5,1022.8,134,,,METAR,METAR KOYM 290155Z AUTO 27010G15KT 5SM BKN019 OVC060 M02/M05 A3020 RMK AO2 PWINO,41.4118,-78.5131,582,St Marys Muni,OVC,"[{'cover': 'BKN', 'base': 1900}, {'cover': 'OVC', 'base': 6000}]",MVFR,,15.0,,,,US,United States
3414,KOZA,2025-11-29 02:06:34.997000+00:00,1764381300,2025-11-29T02:00:00.000Z,12.0,12.0,170,11.0,3,1018.7,6,BR,,METAR,METAR KOZA 290155Z AUTO 17011G17KT 3SM BR OVC004 12/12 A3008 RMK AO2,30.7312,-101.2033,721,Ozona Muni,OVC,"[{'cover': 'OVC', 'base': 400}]",LIFR,,17.0,,,,US,United States
3399,KOZR,2025-11-29 02:01:11.913000+00:00,1764381300,2025-11-29T02:00:00.000Z,5.3,-3.8,10,5.0,10+,1027.9,6,,,METAR,METAR KOZR 290155Z AUTO 01005KT 10SM CLR 05/M04 A3035 RMK AO2 SLP282 T00531038,31.2767,-85.7105,90,Ozark/Cairns AAF,CLR,[],VFR,,,1028.2,,,US,United States
3447,KPAE,2025-11-29 01:58:53.135000+00:00,1764381180,2025-11-29T02:00:00.000Z,5.0,3.3,0,0.0,10+,1025.8,4,,,METAR,METAR KPAE 290153Z 00000KT 10SM CLR 05/03 A3029 RMK AO2 SLP260 T00500033,47.9232,-122.2831,166,Everett/Paine Fld,CLR,[],VFR,,,1026.0,,,US,United States
3443,KPAH,2025-11-29 01:57:29.631000+00:00,1764381180,2025-11-29T02:00:00.000Z,2.2,-5.6,110,4.0,10+,1028.9,12,,,METAR,METAR KPAH 290153Z 11004KT 10SM CLR 02/M06 A3038 RMK AO2 SLP291 T00221056 $,37.0652,-88.7793,125,Paducah/Barkley Rgnl,CLR,[],VFR,,,1029.1,,,US,United States
3400,KPAM,2025-11-29 01:59:19.145000+00:00,1764381300,2025-11-29T02:00:00.000Z,10.8,-3.0,40,7.0,10+,1027.2,6,,,METAR,METAR KPAM 290155Z AUTO 04007KT 10SM CLR 11/M03 A3033 RMK AO2 SLP274 T01081030,30.071,-85.577,4,Tyndall AFB,CLR,[],VFR,,,1027.4,,,US,United States
3413,KPAN,2025-11-29 02:02:23.654000+00:00,1764381300,2025-11-29T02:00:00.000Z,11.0,0.0,150,3.0,10+,1019.7,6,,,METAR,METAR KPAN 290155Z AUTO 15003KT 10SM CLR 11/00 A3011 RMK AO2,34.2551,-111.3379,1575,Payson Arpt,CLR,[],VFR,,,,,,US,United States
3484,KPAO,2025-11-29 01:49:38.795000+00:00,1764380820,2025-11-29T02:00:00.000Z,9.0,8.0,310,5.0,6,1018.7,0,HZ,,METAR,METAR KPAO 290147Z 31005KT 6SM HZ SKC 09/08 A3008,37.458,-122.112,2,Palo Alto Arpt,SKC,[],VFR,,,,,,US,United States
3444,KPBF,2025-11-29 01:57:29.653000+00:00,1764381180,2025-11-29T02:00:00.000Z,8.3,1.7,130,9.0,10+,1026.8,6,,,METAR,METAR KPBF 290153Z AUTO 13009KT 10SM CLR 08/02 A3032 RMK AO2 SLP266 T00830017,34.1798,-91.9344,63,Pine Bluff/Grider Fld,CLR,[],VFR,,,1026.6,,,US,United States
3459,KPBG,2025-11-29 01:58:48.938000+00:00,1764381180,2025-11-29T02:00:00.000Z,-1.7,-7.2,VRB,3.0,10+,1012.6,6,,,METAR,METAR KPBG 290153Z AUTO VRB03KT 10SM FEW037 BKN044 OVC050 M02/M07 A2990 RMK AO2 SLP129 T10171072,44.6392,-73.4631,61,Plattsburgh Intl,OVC,"[{'cover': 'FEW', 'base': 3700}, {'cover': 'BKN', 'base': 4400}, {'cover': 'OVC', 'base': 5000}]",VFR,,,1012.9,,,US,United States
3460,KPBI,2025-11-29 01:58:49.269000+00:00,1764381180,2025-11-29T02:00:00.000Z,17.2,12.8,300,5.0,10+,1021.8,12,,,METAR,METAR KPBI 290153Z 30005KT 10SM SCT045 BKN250 17/13 A3017 RMK AO2 SLP217 T01720128 $,26.6851,-80.0992,4,Palm Beach Intl,BKN,"[{'cover': 'SCT', 'base': 4500}, {'cover': 'BKN', 'base': 25000}]",VFR,,,1021.7,,,US,United States
3402,KPBX,2025-11-29 02:01:08.091000+00:00,1764381300,2025-11-29T02:00:00.000Z,-0.9,-12.0,320,3.0,10+,1029.9,6,,,METAR,METAR KPBX 290155Z AUTO 32003KT 10SM CLR M01/M12 A3041 RMK AO2 T10091120,37.5587,-82.5674,447,Pikeville/Pike Cnty,CLR,[],VFR,,,,,,US,United States
3395,KPDC,2025-11-29 02:00:50.099000+00:00,1764381300,2025-11-29T02:00:00.000Z,-2.7,-7.9,0,0.0,10+,1027.5,6,,,METAR,METAR KPDC 290155Z AUTO 00000KT 10SM OVC090 M03/M08 A3034 RMK AO2 T10271079,43.0194,-91.1212,201,Prairie Du Chien Muni,OVC,"[{'cover': 'OVC', 'base': 9000}]",VFR,,,,,,US,United States
3448,KPDK,2025-11-29 01:57:29.767000+00:00,1764381180,2025-11-29T02:00:00.000Z,0.6,-6.1,300,3.0,10+,1028.5,4,,,METAR,METAR KPDK 290153Z 30003KT 10SM CLR 01/M06 A3037 RMK AO2 SLP302 T00061061,33.8783,-84.298,299,Atlanta/Dekalb-Peachtree Arpt,CLR,[],VFR,,,1030.2,,,US,United States
3439,KPDT,2025-11-29 01:58:35.578000+00:00,1764381180,2025-11-29T02:00:00.000Z,3.9,2.8,90,4.0,10+,1027.2,4,,,METAR,METAR KPDT 290153Z 09004KT 10SM OVC036 04/03 A3033 RMK AO2 SLP275 T00390028,45.6975,-118.8345,453,Pendleton/E Oregon Rgnl,OVC,"[{'cover': 'OVC', 'base': 3600}]",VFR,,,1027.5,,,US,United States
3430,KPDX,2025-11-29 01:58:44.919000+00:00,1764381180,2025-11-29T02:00:00.000Z,9.4,5.6,100,7.0,10+,1024.1,12,,,METAR,METAR KPDX 290153Z 10007KT 10SM FEW050 09/06 A3024 RMK AO2 SLP240 T00940056 $,45.5958,-122.6092,7,Portland Intl,FEW,"[{'cover': 'FEW', 'base': 5000}]",VFR,,,1024.0,,,US,United States
3416,KPEQ,2025-11-29 02:04:13.550000+00:00,1764381300,2025-11-29T02:00:00.000Z,15.7,9.0,70,4.0,10+,1014.3,134,,,METAR,METAR KPEQ 290155Z AUTO 07004KT 10SM CLR 16/09 A2995 RMK AO2 T01570090 PWINO,31.382,-103.5117,794,Pecos Muni,CLR,[],VFR,,,,,,US,United States
3434,KPGA,2025-11-29 01:59:08.653000+00:00,1764381180,2025-11-29T02:00:00.000Z,9.4,3.3,0,0.0,10+,1014.0,6,,,METAR,METAR KPGA 290153Z AUTO 00000KT 10SM CLR 09/03 A2994 RMK AO2 SLP127 T00940033,36.9211,-111.4487,1310,Page Muni,CLR,[],VFR,,,1012.7,,,US,United States
3440,KPGD,2025-11-29 01:57:30.124000+00:00,1764381180,2025-11-29T02:00:00.000Z,11.7,4.4,30,8.0,10+,1024.1,6,,,METAR,METAR KPGD 290153Z AUTO 03008KT 10SM CLR 12/04 A3024 RMK AO2 SLP239 T01170044,26.9185,-81.9939,7,Punta Gorda Arpt,CLR,[],VFR,,,1023.9,,,US,United States
3415,KPGV,2025-11-29 02:01:12.064000+00:00,1764381300,2025-11-29T02:00:00.000Z,0.0,-7.0,0,0.0,7,1029.2,6,,,METAR,METAR KPGV 290155Z AUTO 00000KT 7SM CLR 00/M07 A3039 RMK AO2,35.6374,-77.3851,6,Greenville/Pitt Arpt,CLR,[],VFR,,,,,,US,United States
3441,KPHD,2025-11-29 01:58:48.119000+00:00,1764381180,2025-11-29T02:00:00.000Z,-1.7,-5.6,250,4.0,10+,1028.5,6,,,METAR,METAR KPHD 290153Z AUTO 25004KT 10SM OVC055 M02/M06 A3037 RMK AO2 SLP295 T10171056,40.4703,-81.4218,272,New Philadelphia/Clever Fld,OVC,"[{'cover': 'OVC', 'base': 5500}]",VFR,,,1029.5,,,US,United States
3424,KPHF,2025-11-29 01:58:51.675000+00:00,1764381240,2025-11-29T02:00:00.000Z,1.7,-10.6,330,5.0,10+,1028.2,4,,,METAR,METAR KPHF 290154Z 33005KT 10SM CLR 02/M11 A3036 RMK AO2 SLP280 T00171106,37.1322,-76.494,12,Newport News/Williamsburg Intl,CLR,[],VFR,,,1028.0,,,US,United States
3426,KPHL,2025-11-29 01:58:51.696000+00:00,1764381240,2025-11-29T02:00:00.000Z,2.8,-7.8,280,13.0,10+,1023.8,12,,,METAR,METAR KPHL 290154Z 28013KT 10SM CLR 03/M08 A3023 RMK AO2 SLP235 T00281078 $,39.8733,-75.2268,2,Philadelphia Intl,CLR,[],VFR,,,1023.5,,,US,United States
3406,KPHN,2025-11-29 02:01:00.253000+00:00,1764381300,2025-11-29T02:00:00.000Z,-1.0,-8.0,290,4.0,10+,1026.5,6,,,METAR,METAR KPHN 290155Z AUTO 29004KT 10SM OVC045 M01/M08 A3031 RMK AO2,42.9103,-82.5332,195,Port Huron/St Clair Cnty,OVC,"[{'cover': 'OVC', 'base': 4500}]",VFR,,,,,,US,United States
3394,KPHP,2025-11-29 02:00:58.979000+00:00,1764381300,2025-11-29T02:00:00.000Z,-5.0,-6.7,90,11.0,10+,1016.0,14,,,METAR,METAR KPHP 290155Z AUTO 09011KT 10SM OVC009 M05/M07 A3000 RMK AO2 SLP185 T10501067 $,44.051,-101.6014,673,Philip Muni,OVC,"[{'cover': 'OVC', 'base': 900}]",IFR,,,1018.5,,,US,United States
3408,KPHT,2025-11-29 02:06:31.591000+00:00,1764381300,2025-11-29T02:00:00.000Z,1.0,-6.0,80,4.0,10+,1028.9,6,,,METAR,METAR KPHT 290155Z AUTO 08004KT 10SM CLR 01/M06 A3038 RMK A01,36.3322,-88.3871,172,Paris/Henry Cnty,CLR,[],VFR,,,,,,US,United States
3467,KPHX,2025-11-29 01:57:36.185000+00:00,1764381060,2025-11-29T02:00:00.000Z,19.4,9.4,240,5.0,10+,1014.3,4,,,METAR,METAR KPHX 290151Z 24005KT 10SM CLR 19/09 A2995 RMK AO2 SLP131 T01940094,33.4278,-112.0037,338,Phoenix/Sky Harbor Intl,CLR,[],VFR,,,1013.1,,,US,United States
3420,KPIA,2025-11-29 01:59:09.470000+00:00,1764381240,2025-11-29T02:00:00.000Z,-1.7,-10.0,150,3.0,10+,1028.5,4,,,METAR,METAR KPIA 290154Z 15003KT 10SM OVC100 M02/M10 A3037 RMK AO2 SLP293 T10171100,40.6675,-89.6842,200,Peoria Intl,OVC,"[{'cover': 'OVC', 'base': 10000}]",VFR,,,1029.3,,,US,United States
3385,KPIB,2025-11-29 01:59:25.210000+00:00,1764381360,2025-11-29T02:00:00.000Z,5.6,0.6,10,3.0,10+,1029.5,6,,,METAR,METAR KPIB 290156Z AUTO 01003KT 10SM CLR 06/01 A3040 RMK AO2 SLP295 T00560006,31.4727,-89.3384,91,Hattiesburg/Laurel Rgnl,CLR,[],VFR,,,1029.5,,,US,United States
3449,KPIE,2025-11-29 01:57:30.160000+00:00,1764381180,2025-11-29T02:00:00.000Z,13.9,5.0,40,13.0,10+,1025.1,4,,,METAR,METAR KPIE 290153Z 04013G23KT 10SM CLR 14/05 A3027 RMK AO2 SLP250 T01390050,27.9126,-82.6856,1,St Petersburg-Clearwater Intl,CLR,[],VFR,,23.0,1025.0,,,US,United States
3432,KPIH,2025-11-29 01:59:01.401000+00:00,1764381180,2025-11-29T02:00:00.000Z,3.9,0.0,240,19.0,10+,1016.3,4,-RA,0.005,METAR,METAR KPIH 290153Z 24019KT 10SM -RA BKN022 OVC055 04/00 A3001 RMK AO2 PK WND 24033/0059 RAB01E11B43 SLP167 P0000 T00390000,42.9197,-112.5723,1357,Pocatello Rgnl,OVC,"[{'cover': 'BKN', 'base': 2200}, {'cover': 'OVC', 'base': 5500}]",MVFR,,,1016.7,,,US,United States
3403,KPIM,2025-11-29 02:01:08.154000+00:00,1764381300,2025-11-29T02:00:00.000Z,0.0,-5.0,10,3.0,10+,1028.9,6,,,METAR,METAR KPIM 290155Z AUTO 01003KT 10SM CLR M00/M05 A3038 RMK AO2,32.8421,-84.8766,274,Pine Mountain/Harris Cnty,CLR,[],VFR,,,,,,US,United States
3450,KPIR,2025-11-29 01:58:48.135000+00:00,1764381180,2025-11-29T02:00:00.000Z,-5.6,-6.7,120,11.0,9,1018.0,6,,,METAR,METAR KPIR 290153Z AUTO 12011KT 9SM OVC008 M06/M07 A3006 RMK AO2 CIG 005V009 SLP207 T10561067,44.3819,-100.2864,524,Pierre Muni,OVC,"[{'cover': 'OVC', 'base': 800}]",IFR,,,1020.7,,,US,United States
3465,KPIT,2025-11-29 01:57:35.811000+00:00,1764381060,2025-11-29T02:00:00.000Z,-1.7,-6.7,250,7.0,9,1026.5,12,-SN,0.005,METAR,METAR KPIT 290151Z 25007KT 9SM -SN FEW032 OVC060 M02/M07 A3031 RMK AO2 SNB50 SLP287 P0000 T10171067 $,40.4814,-80.2083,339,Pittsburgh Intl,OVC,"[{'cover': 'FEW', 'base': 3200}, {'cover': 'OVC', 'base': 6000}]",VFR,,,1028.7,,,US,United States
3427,KPKB,2025-11-29 01:58:48.158000+00:00,1764381180,2025-11-29T02:00:00.000Z,-0.6,-10.0,270,5.0,10+,1029.5,4,,,METAR,METAR KPKB 290153Z 27005KT 10SM OVC055 M01/M10 A3040 RMK AO2 SLP305 T10061100,39.3395,-81.4438,245,Parkersburg/Mid Ohio Valley Rgnl,OVC,"[{'cover': 'OVC', 'base': 5500}]",VFR,,,1030.5,,,US,United States
3428,KPKD,2025-11-29 01:58:42.553000+00:00,1764381180,2025-11-29T02:00:00.000Z,-7.8,-12.2,60,5.0,10+,1025.5,6,,,METAR,METAR KPKD 290153Z AUTO 06005KT 10SM OVC019 M08/M12 A3028 RMK AO2 SLP283 T10781122,46.8971,-95.0695,439,Park Rapids/Konshok Fld,OVC,"[{'cover': 'OVC', 'base': 1900}]",MVFR,,,1028.3,,,US,United States
3421,KPLN,2025-11-29 01:58:59.653000+00:00,1764381240,2025-11-29T02:00:00.000Z,-3.9,-6.7,310,6.0,10+,1024.8,6,,0.005,METAR,METAR KPLN 290154Z AUTO 31006KT 10SM FEW032 BKN040 BKN047 M04/M07 A3026 RMK AO2 SNB07E41 SLP258 P0000 T10391067,45.5644,-84.7929,215,Pellston Rgnl,BKN,"[{'cover': 'FEW', 'base': 3200}, {'cover': 'BKN', 'base': 4000}, {'cover': 'BKN', 'base': 4700}]",VFR,,,1025.8,,,US,United States
3397,KPLR,2025-11-29 01:58:50.643000+00:00,1764381300,2025-11-29T02:00:00.000Z,1.0,-2.0,0,0.0,10+,1030.2,6,,,METAR,METAR KPLR 290155Z AUTO 00000KT 10SM FEW027 FEW033 FEW040 01/M02 A3042 RMK A01,33.5608,-86.2463,145,Pell City/St Clair Cnty,FEW,"[{'cover': 'FEW', 'base': 2700}, {'cover': 'FEW', 'base': 3300}, {'cover': 'FEW', 'base': 4000}]",VFR,,,,,,US,United States
3451,KPMD,2025-11-29 01:58:48.568000+00:00,1764381180,2025-11-29T02:00:00.000Z,12.2,3.3,210,7.0,10+,1016.3,4,,,METAR,METAR KPMD 290153Z 21007KT 10SM CLR 12/03 A3001 RMK AO2 SLP163 T01220033,34.6294,-118.0831,764,Palmdale Rgnl,CLR,[],VFR,,,1016.3,,,US,United States
3299,KPMH,2025-11-29 02:04:14.076000+00:00,1764381660,2025-11-29T02:01:00.000Z,-4.0,-7.0,20,2.0,10+,1030.9,4,,,METAR,METAR KPMH 290201Z 02002KT 10SM CLR M04/M07 A3044 RMK AO2,38.8387,-82.8494,200,Portsmouth Rgnl,CLR,[],VFR,,,,,,US,United States
3442,KPMP,2025-11-29 01:57:30.324000+00:00,1764381180,2025-11-29T02:00:00.000Z,,,340,7.0,10+,1021.4,14,,,METAR,METAR KPMP 290153Z AUTO 34007KT 10SM FEW045 A3016 RMK AO2 SLP215 PNO $,26.2464,-80.111,4,Pompano Beach Arpt,FEW,"[{'cover': 'FEW', 'base': 4500}]",VFR,,,1021.5,,,US,United States
3418,KPNA,2025-11-29 02:04:13.603000+00:00,1764381300,2025-11-29T02:00:00.000Z,-3.0,-5.0,300,6.0,10+,1013.3,6,,,METAR,METAR KPNA 290155Z AUTO 30006KT 10SM CLR M03/M05 A2992 RMK AO2,42.7929,-109.8051,2158,Pinedale/Wentz Fld,CLR,[],VFR,,,,,,US,United States
3452,KPNC,2025-11-29 01:57:30.343000+00:00,1764381180,2025-11-29T02:00:00.000Z,11.7,0.6,160,15.0,10+,1015.7,6,,,METAR,METAR KPNC 290153Z AUTO 16015G26KT 10SM OVC043 12/01 A2999 RMK AO2 PK WND 15030/0133 SLP158 T01170006,36.7369,-97.1024,304,Ponca City Rgnl,OVC,"[{'cover': 'OVC', 'base': 4300}]",VFR,,26.0,1015.8,,,US,United States
3422,KPNE,2025-11-29 01:59:00.219000+00:00,1764381240,2025-11-29T02:00:00.000Z,1.7,-7.2,270,12.0,10+,1023.1,4,,,METAR,METAR KPNE 290154Z 27012KT 10SM CLR 02/M07 A3021 RMK AO2 SLP230 T00171072,40.0789,-75.0133,32,Philadelphia/NE Arpt,CLR,[],VFR,,,1023.0,,,US,United States
3445,KPNS,2025-11-29 01:57:30.361000+00:00,1764381180,2025-11-29T02:00:00.000Z,8.9,-2.8,30,6.0,10+,1028.5,4,,,METAR,METAR KPNS 290153Z 03006KT 10SM CLR 09/M03 A3037 RMK AO2 SLP286 T00891028,30.478,-87.1869,34,Pensacola Intl,CLR,[],VFR,,,1028.6,,,US,United States
3410,KPOB,2025-11-29 01:59:02.483000+00:00,1764381300,2025-11-29T02:00:00.000Z,0.1,-7.6,0,0.0,10+,1028.5,14,,,METAR,METAR KPOB 290155Z AUTO 00000KT 10SM CLR 00/M08 A3037 RMK AO2 SLP289 T00011076 $,35.175,-79.008,57,Pope AAF,CLR,[],VFR,,,1028.9,,,US,United States
3485,KPOC,2025-11-29 01:50:37.950000+00:00,1764380820,2025-11-29T02:00:00.000Z,17.0,7.0,250,3.0,10+,1016.0,0,,,METAR,METAR KPOC 290147Z 25003KT 10SM CLR 17/07 A3000,34.0928,-117.7795,304,La Verne/Brackett Fld,CLR,[],VFR,,,,,,US,United States
3391,KPOE,2025-11-29 01:59:01.896000+00:00,1764381300,2025-11-29T02:00:00.000Z,11.6,0.1,100,3.0,10+,1025.8,6,,,METAR,METAR KPOE 290155Z AUTO 10003KT 10SM CLR 12/00 A3029 RMK AO2 SLP261 T01160001,31.047,-93.194,98,Fort Polk AAF,CLR,[],VFR,,,1026.1,,,US,United States
3435,KPOF,2025-11-29 01:57:31.106000+00:00,1764381180,2025-11-29T02:00:00.000Z,2.2,-1.7,0,0.0,10+,1028.2,6,,,METAR,METAR KPOF 290153Z AUTO 00000KT 10SM CLR 02/M02 A3036 RMK AO2 SLP287 T00221017,36.7697,-90.3224,99,Poplar Bluff Muni,CLR,[],VFR,,,1028.7,,,US,United States
3429,KPOU,2025-11-29 01:58:42.569000+00:00,1764381180,2025-11-29T02:00:00.000Z,2.2,-7.8,260,14.0,10+,1017.4,12,,,METAR,METAR KPOU 290153Z 26014G21KT 10SM FEW075 02/M08 A3004 RMK AO2 PK WND 28026/0106 SLP171 T00221078 $,41.6257,-73.8816,45,Poughkeepsie/Hudson Valley Rgnl,FEW,"[{'cover': 'FEW', 'base': 7500}]",VFR,,21.0,1017.1,,,US,United States
3419,KPOY,2025-11-29 02:04:13.643000+00:00,1764381300,2025-11-29T02:00:00.000Z,-10.0,-12.0,350,30.0,2.5,1015.7,6,-SN,,METAR,METAR KPOY 290155Z AUTO 35030G37KT 2 1/2SM -SN SCT006 BKN024 OVC039 M10/M12 A2999 RMK AO2,44.8641,-108.79,1547,Powell Muni,OVC,"[{'cover': 'SCT', 'base': 600}, {'cover': 'BKN', 'base': 2400}, {'cover': 'OVC', 'base': 3900}]",IFR,,37.0,,,,US,United States
3409,KPPA,2025-11-29 02:02:25.771000+00:00,1764381300,2025-11-29T02:00:00.000Z,10.2,8.1,160,16.0,10+,1011.6,6,,,METAR,METAR KPPA 290155Z AUTO 16016G22KT 10SM CLR 10/08 A2987 RMK AO2 T01020081,35.6139,-100.9972,989,Pampa/Lefors Fld,CLR,[],VFR,,22.0,,,,US,United States
3463,KPPF,2025-11-29 01:57:27.752000+00:00,1764381120,2025-11-29T02:00:00.000Z,10.6,0.6,160,10.0,10+,1018.4,134,,,METAR,METAR KPPF 290152Z AUTO 16010G17KT 10SM OVC050 11/01 A3007 RMK AO2 SLP186 T01060006 PWINO,37.3281,-95.5045,265,Parsons/Tri City Arpt,OVC,"[{'cover': 'OVC', 'base': 5000}]",VFR,,17.0,1018.6,,,US,United States
2634,KPPO,2025-11-29 02:02:21.104000+00:00,1764381300,2025-11-29T02:00:00.000Z,-8.0,-8.0,0,0.0,10+,1028.5,6,,,METAR,METAR KPPO 290155Z AUTO 00000KT 10SM SCT034 M08/M08 A3037 RMK AO2,41.5705,-86.7333,242,La Porte Muni,SCT,"[{'cover': 'SCT', 'base': 3400}]",VFR,,,,,,US,United States
3436,KPQL,2025-11-29 01:57:30.402000+00:00,1764381180,2025-11-29T02:00:00.000Z,2.8,0.6,10,3.0,10+,1028.5,6,,,METAR,METAR KPQL 290153Z AUTO 01003KT 10SM CLR 03/01 A3037 RMK AO2 SLP285 T00280006,30.463,-88.5316,4,Pascagoula/Lott Intl,CLR,[],VFR,,,1028.5,,,US,United States
3453,KPRB,2025-11-29 01:59:01.435000+00:00,1764381180,2025-11-29T02:00:00.000Z,12.2,2.2,120,9.0,10+,1017.7,14,,,METAR,METAR KPRB 290153Z AUTO 12009KT 10SM CLR 12/02 A3005 RMK AO2 SLP176 T01220022 $,35.6694,-120.6292,249,Paso Robles Muni,CLR,[],VFR,,,1017.6,,,US,United States
3454,KPRC,2025-11-29 01:59:01.450000+00:00,1764381180,2025-11-29T02:00:00.000Z,11.1,1.7,160,7.0,10+,1018.0,4,,,METAR,METAR KPRC 290153Z 16007KT 10SM CLR 11/02 A3006 RMK AO2 SLP157 T01110017,34.6491,-112.4223,1528,Prescott/Love Fld,CLR,[],VFR,,,1015.7,,,US,United States
3392,KPRO,2025-11-29 02:02:16.525000+00:00,1764381300,2025-11-29T02:00:00.000Z,-4.3,-4.9,120,9.0,10+,1024.5,6,-SN,0.005,METAR,METAR KPRO 290155Z AUTO 12009KT 10SM -SN BKN008 BKN012 OVC050 M04/M05 A3025 RMK AO2 SNB0153 CIG 006V010 BKN012 V OVC PRESRR P0000 T10431049,41.8278,-94.1637,308,Perry Muni,OVC,"[{'cover': 'BKN', 'base': 800}, {'cover': 'BKN', 'base': 1200}, {'cover': 'OVC', 'base': 5000}]",IFR,,,,,,US,United States
3387,KPRX,2025-11-29 02:00:46.408000+00:00,1764381360,2025-11-29T02:00:00.000Z,12.2,1.7,130,13.0,10+,1022.4,6,,,METAR,METAR KPRX 290156Z AUTO 13013KT 10SM OVC075 12/02 A3019 RMK AO2 SLP224 T01220017,33.636,-95.4514,165,Paris/Cox Fld,OVC,"[{'cover': 'OVC', 'base': 7500}]",VFR,,,1022.4,,,US,United States
3455,KPSC,2025-11-29 01:58:45.540000+00:00,1764381180,2025-11-29T02:00:00.000Z,2.2,1.1,340,4.0,10+,1028.2,4,,,METAR,METAR KPSC 290153Z 34004KT 10SM CLR 02/01 A3036 RMK AO2 SLP283 T00220011,46.2695,-119.1182,121,Pasco/Tri Cities Arpt,CLR,[],VFR,,,1028.3,,,US,United States
3423,KPSF,2025-11-29 01:59:07.510000+00:00,1764381240,2025-11-29T02:00:00.000Z,-1.1,-5.0,290,16.0,3,1013.3,6,-SN,0.005,METAR,METAR KPSF 290154Z AUTO 29016G27KT 3SM -SN FEW023 BKN032 OVC041 M01/M05 A2992 RMK AO2 PK WND 31027/0149 SNE0055B24 SLP143 P0000 T10111050,42.4269,-73.2891,352,Pittsfield Muni,OVC,"[{'cover': 'FEW', 'base': 2300}, {'cover': 'BKN', 'base': 3200}, {'cover': 'OVC', 'base': 4100}]",MVFR,,27.0,1014.3,,,US,United States
3398,KPSK,2025-11-29 01:58:50.710000+00:00,1764381300,2025-11-29T02:00:00.000Z,-4.4,-10.5,270,4.0,10+,1027.9,6,,,METAR,METAR KPSK 290155Z AUTO 27004KT 10SM SCT039 M04/M10 A3035 RMK AO2 T10441105,37.1337,-80.6789,629,Dublin/New River Valley Arpt,SCT,"[{'cover': 'SCT', 'base': 3900}]",VFR,,,,,,US,United States
3411,KPSM,2025-11-29 02:01:12.138000+00:00,1764381300,2025-11-29T02:00:00.000Z,0.4,-4.4,230,7.0,10+,1010.9,4,,,METAR,METAR KPSM 290155Z 23007KT 10SM SCT070 00/M04 A2985 RMK AO2A SLP112 T00041044,43.0677,-70.8127,34,Portsmouth Intl,SCT,"[{'cover': 'SCT', 'base': 7000}]",VFR,,,1011.2,,,US,United States
3401,KPSN,2025-11-29 02:02:12.624000+00:00,1764381300,2025-11-29T02:00:00.000Z,14.0,-1.0,130,13.0,10+,1023.1,6,,,METAR,METAR KPSN 290155Z AUTO 13013G21KT 10SM BKN080 OVC110 14/M01 A3021 RMK AO2,31.7784,-95.7048,124,Palestine Muni,OVC,"[{'cover': 'BKN', 'base': 8000}, {'cover': 'OVC', 'base': 11000}]",VFR,,21.0,,,,US,United States
3396,KPSO,2025-11-29 02:02:19.667000+00:00,1764381300,2025-11-29T02:00:00.000Z,0.0,-4.0,290,2.0,10+,1017.0,6,,,METAR,METAR KPSO 290155Z AUTO 29002KT 10SM CLR M00/M04 A3003 RMK AO2,37.291,-107.0557,2332,Pagosa Springs/Stevens Fld,CLR,[],VFR,,,,,,US,United States
3437,KPSP,2025-11-29 01:58:45.310000+00:00,1764381180,2025-11-29T02:00:00.000Z,20.0,6.1,VRB,3.0,10+,1014.3,4,,,METAR,METAR KPSP 290153Z VRB03KT 10SM CLR 20/06 A2995 RMK AO2 SLP142 T02000061,33.8222,-116.5043,123,Palm Springs Intl,CLR,[],VFR,,,1014.2,,,US,United States
3456,KPSX,2025-11-29 01:58:45.325000+00:00,1764381180,2025-11-29T02:00:00.000Z,20.0,12.8,,,10+,1022.1,14,-RA,0.005,METAR,METAR KPSX 290153Z AUTO 10SM -RA FEW043 SCT090 BKN100 20/13 A3018 RMK AO2 SLP220 P0000 T02000128 $,28.7248,-96.2535,4,Palacios Muni,BKN,"[{'cover': 'FEW', 'base': 4300}, {'cover': 'SCT', 'base': 9000}, {'cover': 'BKN', 'base': 10000}]",VFR,,,1022.0,,,US,United States
3393,KPTB,2025-11-29 01:50:28.522000+00:00,1764381300,2025-11-29T02:00:00.000Z,-3.0,-9.3,250,3.0,10+,1028.9,6,,,METAR,METAR KPTB 290155Z AUTO 25003KT 10SM CLR M03/M09 A3038 RMK AO2 T10301093,37.1803,-77.5081,56,Petersburg/Dinwiddie Cnty,CLR,[],VFR,,,,,,US,United States
3431,KPTK,2025-11-29 01:58:47.935000+00:00,1764381180,2025-11-29T02:00:00.000Z,-2.2,-8.9,300,12.0,9,1026.5,4,-SN,0.005,METAR,METAR KPTK 290153Z 30012KT 9SM -SN OVC032 M02/M09 A3031 RMK AO2 SLP279 P0000 T10221089,42.6632,-83.41,295,Pontiac/Oakland Intl,OVC,"[{'cover': 'OVC', 'base': 3200}]",VFR,,,1027.9,,,US,United States
3389,KPTN,2025-11-29 01:59:19.281000+00:00,1764381360,2025-11-29T02:00:00.000Z,9.4,2.2,70,5.0,10+,1027.5,14,,,METAR,METAR KPTN 290156Z AUTO 07005KT 10SM CLR 09/02 A3034 RMK AO2 SLP273 T00940022 $,29.71,-91.3381,2,Patterson/Williams Mem,CLR,[],VFR,,,1027.3,,,US,United States
3417,KPTT,2025-11-29 02:01:08.859000+00:00,1764381300,2025-11-29T02:00:00.000Z,8.5,2.0,160,12.0,10+,1012.6,6,,,METAR,METAR KPTT 290155Z AUTO 16012G17KT 10SM OVC036 09/02 A2990 RMK AO2 T00850020,37.7069,-98.7453,594,Pratt Rgnl,OVC,"[{'cover': 'OVC', 'base': 3600}]",VFR,,17.0,,,,US,United States
3383,KPTV,2025-11-29 02:00:46.640000+00:00,1764381360,2025-11-29T02:00:00.000Z,8.3,7.8,190,3.0,2,1020.4,14,BR,,METAR,METAR KPTV 290156Z AUTO 19003KT 2SM BR OVC005 08/08 A3013 RMK AO2 SLP202 T00830078 $,36.0273,-119.0629,132,Porterville Muni,OVC,"[{'cover': 'OVC', 'base': 500}]",IFR,,,1020.2,,,US,United States
3425,KPTW,2025-11-29 01:58:51.756000+00:00,1764381240,2025-11-29T02:00:00.000Z,0.0,-7.8,270,9.0,10+,1023.1,6,,,METAR,METAR KPTW 290154Z AUTO 27009G14KT 10SM CLR 00/M08 A3021 RMK AO2 SLP231 T00001078,40.238,-75.5549,88,Pottstown/Heritage Fld,CLR,[],VFR,,14.0,1023.1,,,US,United States
3438,KPUB,2025-11-29 01:59:01.466000+00:00,1764381180,2025-11-29T02:00:00.000Z,1.7,-1.1,350,4.0,10+,1006.9,12,,,METAR,METAR KPUB 290153Z 35004KT 10SM CLR 02/M01 A2973 RMK AO2 SLP081 T00171011 $,38.2887,-104.5057,1441,Pueblo Mem Arpt,CLR,[],VFR,,,1008.1,,,US,United States
3457,KPUC,2025-11-29 01:58:48.335000+00:00,1764381180,2025-11-29T02:00:00.000Z,3.3,-2.2,260,4.0,10+,1015.0,6,,,METAR,METAR KPUC 290153Z AUTO 26004KT 10SM CLR 03/M02 A2997 RMK AO2 SLP176 T00331022,39.6089,-110.7555,1777,Price/Buck Fld,CLR,[],VFR,,,1017.6,,,US,United States
3461,KPUW,2025-11-29 01:58:45.340000+00:00,1764381180,2025-11-29T02:00:00.000Z,2.2,1.7,270,6.0,10+,1026.5,6,,,METAR,METAR KPUW 290153Z AUTO 27006KT 10SM OVC004 02/02 A3031 RMK AO2 SLP284 T00220017,46.7438,-117.1158,774,Pullman/Moscow Rgnl,OVC,"[{'cover': 'OVC', 'base': 400}]",LIFR,,,1028.4,,,US,United States
3382,KPVC,2025-11-29 02:00:47.542000+00:00,1764381360,2025-11-29T02:00:00.000Z,3.9,-6.1,270,17.0,10+,1013.6,14,,,METAR,METAR KPVC 290156Z AUTO 27017G29KT 10SM SCT060 04/M06 A2993 RMK AO2 PK WND 26030/0123 SLP134 T00391061 PNO $,42.0743,-70.2183,1,Provincetown Muni,SCT,"[{'cover': 'SCT', 'base': 6000}]",VFR,,29.0,1013.4,,,US,United States
3466,KPVD,2025-11-29 01:57:31.906000+00:00,1764381060,2025-11-29T02:00:00.000Z,2.8,-7.2,240,13.0,10+,1015.0,12,,,METAR,METAR KPVD 290151Z 24013G20KT 10SM FEW060 03/M07 A2997 RMK AO2 SLP149 T00281072 $,41.7225,-71.4325,15,Providence/Green Mem,FEW,"[{'cover': 'FEW', 'base': 6000}]",VFR,,20.0,1014.9,,,US,United States
3407,KPVF,2025-11-29 02:04:04.950000+00:00,1764381300,2025-11-29T02:00:00.000Z,12.0,-1.0,0,0.0,10+,1018.4,6,,,METAR,METAR KPVF 290155Z AUTO 00000KT 10SM CLR 12/M01 A3007 RMK AO1,38.7222,-120.757,788,Placerville Arpt,CLR,[],VFR,,,,,,US,United States
3386,KPVU,2025-11-29 02:00:47.274000+00:00,1764381360,2025-11-29T02:00:00.000Z,6.7,0.6,290,7.0,10+,1017.0,4,,,METAR,METAR KPVU 290156Z 29007KT 10SM CLR 07/01 A3003 RMK AO2 SLP177 T00670006,40.224,-111.7252,1370,Provo Muni,CLR,[],VFR,,,1017.7,,,US,United States
3470,KPVW,2025-11-29 02:06:35.169000+00:00,1764381000,2025-11-29T02:00:00.000Z,10.7,8.0,190,15.0,10+,1013.3,38,,,METAR,METAR KPVW 290150Z AUTO 19015KT 10SM CLR 11/08 A2992 RMK AO2 T01070080 TSNO,34.169,-101.723,1029,Plainview/Hale Cnty,CLR,[],VFR,,,,,,US,United States
3458,KPWA,2025-11-29 01:57:30.595000+00:00,1764381180,2025-11-29T02:00:00.000Z,10.0,3.3,160,21.0,10+,1016.7,4,,,METAR,METAR KPWA 290153Z 16021G34KT 10SM OVC037 10/03 A3002 RMK AO2 PK WND 17040/0107 SLP166 T01000033,35.5411,-97.6472,390,Oklahoma City/Wiley Post Arpt,OVC,"[{'cover': 'OVC', 'base': 3700}]",VFR,,34.0,1016.6,,,US,United States
3412,KPWD,2025-11-29 02:06:23.153000+00:00,1764381300,2025-11-29T02:00:00.000Z,-10.0,-11.0,70,9.0,3,1023.8,6,-SN,,METAR,METAR KPWD 290155Z AUTO 07009KT 3SM -SN OVC006 M10/M11 A3023 RMK AO2,48.7912,-104.5253,690,Plentywood/Sher-Wood Arpt,OVC,"[{'cover': 'OVC', 'base': 600}]",IFR,,,,,,US,United States
3462,KPWK,2025-11-29 01:57:29.949000+00:00,1764381120,2025-11-29T02:00:00.000Z,-5.6,-10.0,0,0.0,10+,1029.2,12,,,METAR,METAR KPWK 290152Z 00000KT 10SM CLR M06/M10 A3039 RMK AO2 SLP301 I1001 T10561100 $,42.1208,-87.9048,194,Chicago Exec,CLR,[],VFR,,,1030.1,,,US,United States
3468,KPWM,2025-11-29 01:57:40.855000+00:00,1764381060,2025-11-29T02:00:00.000Z,0.0,-6.7,260,8.0,10+,1010.2,12,,0.005,METAR,METAR KPWM 290151Z 26008KT 10SM FEW045 00/M07 A2983 RMK AO2 SNE0053 SLP101 P0000 T00001067 $,43.6424,-70.3044,15,Portland Intl,FEW,"[{'cover': 'FEW', 'base': 4500}]",VFR,,,1010.1,,,US,United States
3384,KPWT,2025-11-29 02:00:46.658000+00:00,1764381360,2025-11-29T02:00:00.000Z,5.0,3.9,30,3.0,10+,1025.5,6,,,METAR,METAR KPWT 290156Z AUTO 03003KT 10SM CLR 05/04 A3028 RMK AO2 SLP262 T00500039,47.4942,-122.7594,143,Bremerton Arpt,CLR,[],VFR,,,1026.2,,,US,United States
3464,KPYM,2025-11-29 01:57:27.798000+00:00,1764381120,2025-11-29T02:00:00.000Z,2.2,-8.3,250,12.0,10+,1013.6,6,,,METAR,METAR KPYM 290152Z AUTO 25012G20KT 10SM CLR 02/M08 A2993 RMK AO2 SLP139 T00221083,41.9085,-70.7278,42,Plymouth Muni,CLR,[],VFR,,20.0,1013.9,,,US,United States
3733,KRAC,2025-11-29 01:58:48.176000+00:00,1764381180,2025-11-29T02:00:00.000Z,-7.2,-10.0,0,0.0,8,1028.9,6,,,METAR,METAR KRAC 290153Z AUTO 00000KT 8SM CLR M07/M10 A3038 RMK AO2 SLP301 T10721100,42.7586,-87.8178,203,Racine/Batten Intl,CLR,[],VFR,,,1030.1,,,US,United States
3731,KRAL,2025-11-29 01:58:45.360000+00:00,1764381180,2025-11-29T02:00:00.000Z,18.3,6.1,290,3.0,10+,1015.7,12,,,METAR,METAR KRAL 290153Z 29003KT 10SM CLR 18/06 A2999 RMK AO2 SLP144 T01830061 $,33.9528,-117.4352,254,Riverside Muni,CLR,[],VFR,,,1014.4,,,US,United States
3741,KRAP,2025-11-29 01:57:27.819000+00:00,1764381120,2025-11-29T02:00:00.000Z,-5.0,-7.8,30,9.0,10+,1013.6,4,,,METAR,METAR KRAP 290152Z 03009KT 10SM OVC024 M05/M08 A2993 RMK AO2 SLP180 T10501078,44.0458,-103.0544,965,Rapid City Rgnl,OVC,"[{'cover': 'OVC', 'base': 2400}]",MVFR,,,1018.0,,,US,United States
3737,KRBD,2025-11-29 01:58:48.350000+00:00,1764381180,2025-11-29T02:00:00.000Z,11.7,4.4,160,12.0,6,1020.7,4,VCTS HZ,0.01,METAR,METAR KRBD 290153Z 16012G21KT 6SM VCTS HZ BKN044 BKN055 OVC070 12/04 A3014 RMK AO2 LTG DSNT W AND NW TSB37E52 SLP205 P0001 T01170044,32.6782,-96.8677,200,Dallas/Executive Arpt,OVC,"[{'cover': 'BKN', 'base': 4400}, {'cover': 'BKN', 'base': 5500}, {'cover': 'OVC', 'base': 7000}]",VFR,,21.0,1020.5,,,US,United States
3724,KRBG,2025-11-29 01:58:45.557000+00:00,1764381180,2025-11-29T02:00:00.000Z,10.6,7.2,0,0.0,10+,1020.4,6,,,METAR,METAR KRBG 290153Z AUTO 00000KT 10SM CLR 11/07 A3013 RMK AO2 SLP203 T01060072,43.2337,-123.3578,152,Roseburg Rgnl,CLR,[],VFR,,,1020.3,,,US,United States
3702,KRBL,2025-11-29 01:59:07.062000+00:00,1764381240,2025-11-29T02:00:00.000Z,5.6,5.0,0,0.0,7,1019.4,6,,,METAR,METAR KRBL 290154Z AUTO 00000KT 7SM BKN003 06/05 A3010 RMK AO2 SLP194 T00560050,40.1519,-122.2548,107,Red Bluff Muni,BKN,"[{'cover': 'BKN', 'base': 300}]",LIFR,,,1019.4,,,US,United States
3689,KRBW,2025-11-29 02:00:50.239000+00:00,1764381300,2025-11-29T02:00:00.000Z,0.0,-3.0,0,0.0,10+,1029.5,6,,,METAR,METAR KRBW 290155Z AUTO 00000KT 10SM 00/M03 A3040 RMK AO2,32.921,-80.64,30,Walterboro/Lowcountry Rgnl,,,,,,,,,US,United States
3696,KRCA,2025-11-29 02:00:43.925000+00:00,1764381300,2025-11-29T02:00:00.000Z,-5.5,-7.2,70,5.0,7,1012.6,6,UP,0.005,METAR,METAR KRCA 290155Z AUTO 07005KT 7SM -UP BKN005 OVC016 M05/M07 A2990 RMK AO2 UPE0055UPB44 CIG 005V016 BKN V SCT SLP171 P0000 T10551072,44.155,-103.118,993,Ellsworth AFB,OVC,"[{'cover': 'BKN', 'base': 500}, {'cover': 'OVC', 'base': 1600}]",IFR,,,1017.1,,,US,United States
3690,KRCR,2025-11-29 02:02:25.298000+00:00,1764381300,2025-11-29T02:00:00.000Z,-5.0,-10.0,0,0.0,10+,1029.2,6,,,METAR,METAR KRCR 290155Z AUTO 00000KT 10SM M05/M10 A3039 RMK AO2,41.0651,-86.1864,240,Rochester/Fulton Cnty,,,,,,,,,US,United States
3727,KRDD,2025-11-29 01:58:48.366000+00:00,1764381180,2025-11-29T02:00:00.000Z,5.0,4.4,0,0.0,10+,1018.4,4,,,METAR,METAR KRDD 290153Z 00000KT 10SM CLR 05/04 A3007 RMK AO2 SLP184 T00500044,40.5146,-122.2977,152,Redding Muni,CLR,[],VFR,,,1018.4,,,US,United States
3704,KRDG,2025-11-29 01:59:00.016000+00:00,1764381240,2025-11-29T02:00:00.000Z,0.6,-7.2,280,11.0,10+,1022.8,4,,,METAR,METAR KRDG 290154Z 28011G18KT 10SM CLR 01/M07 A3020 RMK AO2 SLP233 T00061072,40.3734,-75.9592,101,Reading/Spaatz Fld,CLR,[],VFR,,18.0,1023.3,,,US,United States
3669,KRDM,2025-11-29 02:01:05.844000+00:00,1764381360,2025-11-29T02:00:00.000Z,4.4,2.2,330,7.0,10+,1023.8,4,,,METAR,METAR KRDM 290156Z 33007KT 10SM OVC010 04/02 A3023 RMK AO2 SLP252 T00440022,44.2558,-121.1407,930,Redmond Muni,OVC,"[{'cover': 'OVC', 'base': 1000}]",MVFR,,,1025.2,,,US,United States
3691,KRDR,2025-11-29 02:08:11.081000+00:00,1764381300,2025-11-29T02:00:00.000Z,-6.2,-11.3,80,4.0,10+,1027.2,14,,,METAR,METAR KRDR 290155Z AUTO 08004KT 10SM OVC025 M06/M11 A3033 RMK AO2 SLP294 T10621113 $,47.9477,-97.4029,276,Grand Forks AFB,OVC,"[{'cover': 'OVC', 'base': 2500}]",MVFR,,,1029.4,,,US,United States
3743,KRDU,2025-11-29 01:54:09.227000+00:00,1764381060,2025-11-29T02:00:00.000Z,1.7,-11.1,VRB,3.0,10+,1029.2,4,,,METAR,METAR KRDU 290151Z VRB03KT 10SM CLR 02/M11 A3039 RMK AO2 SLP293 T00171111,35.8923,-78.782,121,Raleigh-Durham Intl,CLR,[],VFR,,,1029.3,,,US,United States
3739,KREO,2025-11-29 01:59:09.668000+00:00,1764381120,2025-11-29T02:00:00.000Z,4.4,-1.7,10,7.0,,1021.4,14,,,METAR,METAR KREO 290152Z AUTO 01007KT 04/M02 A3016 RMK AO1 SLP226 T00441017 $,42.5902,-117.8646,1237,Rome/State Arpt,,,,,,1022.6,,,US,United States
3703,KRFD,2025-11-29 01:58:59.668000+00:00,1764381240,2025-11-29T02:00:00.000Z,-6.1,-8.9,0,0.0,10+,1028.9,12,,,METAR,METAR KRFD 290154Z 00000KT 10SM BKN160 BKN200 OVC250 M06/M09 A3038 RMK AO2 SLP299 T10611089 $,42.1915,-89.0876,222,Rockford Intl,OVC,"[{'cover': 'BKN', 'base': 16000}, {'cover': 'BKN', 'base': 20000}, {'cover': 'OVC', 'base': 25000}]",VFR,,,1029.9,,,US,United States
3738,KRHI,2025-11-29 01:58:48.196000+00:00,1764381180,2025-11-29T02:00:00.000Z,-7.8,-10.6,0,0.0,8,1026.2,14,,0.005,METAR,METAR KRHI 290153Z AUTO 00000KT 8SM OVC022 M08/M11 A3030 RMK AO2 SNB02E16B37E53 SLP290 P0000 T10781106 $,45.6315,-89.4822,493,Rhinelander/Oneida Cnty,OVC,"[{'cover': 'OVC', 'base': 2200}]",MVFR,,,1029.0,,,US,United States
3767,KRHV,2025-11-29 01:52:47.683000+00:00,1764380820,2025-11-29T02:00:00.000Z,11.0,8.0,320,3.0,6,1018.7,0,HZ,,METAR,METAR KRHV 290147Z 32003KT 6SM SKC 11/08 A3008 HZ,37.3331,-121.82,37,San Jose/Reid-Hillview Arpt,SKC,[],VFR,,,,,,US,United States
3705,KRIC,2025-11-29 01:59:00.035000+00:00,1764381240,2025-11-29T02:00:00.000Z,0.6,-10.6,310,5.0,10+,1028.5,12,,,METAR,METAR KRIC 290154Z 31005KT 10SM CLR 01/M11 A3037 RMK AO2 SLP290 T00061106 $,37.5115,-77.3234,51,Richmond Intl,CLR,[],VFR,,,1029.0,,,US,United States
3722,KRIL,2025-11-29 01:58:45.376000+00:00,1764381180,2025-11-29T02:00:00.000Z,6.1,-2.2,350,5.0,10+,1013.0,6,,,METAR,METAR KRIL 290153Z AUTO 35005KT 10SM FEW080 BKN100 06/M02 A2991 RMK AO2 SLP129 T00611022,39.5279,-107.7197,1683,Rifle/Garfield Cnty,BKN,"[{'cover': 'FEW', 'base': 8000}, {'cover': 'BKN', 'base': 10000}]",VFR,,,1012.9,,,US,United States
3680,KRIV,2025-11-29 01:59:02.275000+00:00,1764381300,2025-11-29T02:00:00.000Z,15.9,4.6,0,0.0,10+,1015.3,6,,,METAR,METAR KRIV 290155Z AUTO 00000KT 10SM CLR 16/05 A2998 RMK AO2 SLP151 T01590046,33.878,-117.244,454,Riverside/March ARB,CLR,[],VFR,,,1015.1,,,US,United States
3719,KRIW,2025-11-29 01:59:09.693000+00:00,1764381180,2025-11-29T02:00:00.000Z,0.6,-5.0,30,10.0,10+,1009.9,6,,,METAR,METAR KRIW 290153Z AUTO 03010KT 10SM SCT080 BKN090 OVC110 01/M05 A2982 RMK AO2 SLP123 T00061050,43.0622,-108.4471,1662,Riverton Rgnl,OVC,"[{'cover': 'SCT', 'base': 8000}, {'cover': 'BKN', 'base': 9000}, {'cover': 'OVC', 'base': 11000}]",VFR,,,1012.3,,,US,United States
3706,KRKS,2025-11-29 01:59:07.089000+00:00,1764381240,2025-11-29T02:00:00.000Z,1.1,-4.4,260,24.0,10+,1013.0,6,,,METAR,METAR KRKS 290154Z AUTO 26024G31KT 10SM CLR 01/M04 A2991 RMK AO2 PK WND 26031/0146 SLP140 T00111044,41.5947,-109.0529,2062,Rock Springs/SW Wyoming Rgnl,CLR,[],VFR,,31.0,1014.0,,,US,United States
3760,KRKW,2025-11-29 02:06:31.751000+00:00,1764381000,2025-11-29T02:00:00.000Z,-1.0,-9.0,20,5.0,10+,1028.9,6,,,METAR,METAR KRKW 290150Z AUTO 02005KT 10SM CLR M01/M09 A3038 RMK A01,35.922,-84.689,505,Rockwood Muni,CLR,[],VFR,,,,,,US,United States
3726,KRME,2025-11-29 01:58:48.213000+00:00,1764381180,2025-11-29T02:00:00.000Z,-0.6,-2.8,270,9.0,5,1017.0,4,-SN BR,0.005,METAR,METAR KRME 290153Z 27009KT 5SM -SN BR SCT030 OVC034 M01/M03 A3003 RMK AO2 SNB25 SLP171 P0000 T10061028,43.2242,-75.3956,146,Rome/Griffiss Intl,OVC,"[{'cover': 'SCT', 'base': 3000}, {'cover': 'OVC', 'base': 3400}]",MVFR,,,1017.1,,,US,United States
3713,KRMG,2025-11-29 01:57:31.155000+00:00,1764381180,2025-11-29T02:00:00.000Z,4.4,-6.7,310,5.0,10+,1029.2,6,,,METAR,METAR KRMG 290153Z AUTO 31005KT 10SM CLR 04/M07 A3039 RMK AO2 SLP291 T00441067,34.3483,-85.1616,196,Rome/Russell Arpt,CLR,[],VFR,,,1029.1,,,US,United States
3688,KRNC,2025-11-29 02:06:31.788000+00:00,1764381300,2025-11-29T02:00:00.000Z,0.0,-8.0,0,0.0,10+,1028.9,6,,,METAR,METAR KRNC 290155Z AUTO 00000KT 10SM CLR M00/M08 A3038 RMK A01,35.6991,-85.8402,310,McMinnville/Warren Cnty,CLR,[],VFR,,,,,,US,United States
3608,KRND,2025-11-29 02:06:50.731000+00:00,1764381600,2025-11-29T02:00:00.000Z,19.0,13.0,110,9.0,10+,1020.4,6,,,SPECI,SPECI KRND 290200Z AUTO 11009KT 10SM BKN028 OVC034 19/13 A3013 RMK AO2 CIG 026 RWY15R SLP200,29.537,-98.268,224,Randolph AFB,OVC,"[{'cover': 'BKN', 'base': 2800}, {'cover': 'OVC', 'base': 3400}]",MVFR,,,1020.0,,,US,United States
3693,KRNH,2025-11-29 02:06:34.238000+00:00,1764381300,2025-11-29T02:00:00.000Z,-7.3,-9.5,60,3.0,10+,1027.2,6,,,METAR,METAR KRNH 290155Z AUTO 06003KT 10SM CLR M07/M09 A3033 RMK AO2 T10731095,45.1476,-92.5335,302,New Richmond Muni,CLR,[],VFR,,,,,,US,United States
3684,KRNO,2025-11-29 02:00:59.073000+00:00,1764381300,2025-11-29T02:00:00.000Z,8.3,-1.7,360,6.0,10+,1019.7,4,,,METAR,METAR KRNO 290155Z 36006KT 10SM CLR 08/M02 A3011 RMK AO2 SLP193 T00831017,39.5077,-119.7683,1344,Reno/Tahoe Intl,CLR,[],VFR,,,1019.3,,,US,United States
3728,KRNT,2025-11-29 01:58:45.575000+00:00,1764381180,2025-11-29T02:00:00.000Z,7.2,6.1,0,0.0,10+,1025.5,4,,,METAR,METAR KRNT 290153Z 00000KT 10SM CLR 07/06 A3028 RMK AO2 SLP257 T00720061,47.4951,-122.2144,7,Renton Muni,CLR,[],VFR,,,1025.7,,,US,United States
3710,KROA,2025-11-29 01:59:00.056000+00:00,1764381240,2025-11-29T02:00:00.000Z,-0.6,-11.7,290,7.0,10+,1029.2,4,,,METAR,METAR KROA 290154Z 29007KT 10SM FEW050 M01/M12 A3039 RMK AO2 SLP300 T10061117,37.3172,-79.9737,349,Roanoke Rgnl,FEW,"[{'cover': 'FEW', 'base': 5000}]",VFR,,,1030.0,,,US,United States
3711,KROC,2025-11-29 01:59:00.238000+00:00,1764381240,2025-11-29T02:00:00.000Z,0.0,-5.0,270,18.0,9,1020.4,12,-SN,0.01,METAR,METAR KROC 290154Z 27018G24KT 9SM -SN OVC040 00/M05 A3013 RMK AO2 SLP211 P0001 T00001050 $,43.1172,-77.6754,166,Rochester Intl Arpt,OVC,"[{'cover': 'OVC', 'base': 4000}]",VFR,,24.0,1021.1,,,US,United States
3667,KROG,2025-11-29 02:01:12.251000+00:00,1764381480,2025-11-29T02:00:00.000Z,9.4,-0.6,150,12.0,10+,1021.4,174,,,METAR,METAR KROG 290158Z AUTO 15012KT 10SM SCT060 BKN080 OVC110 09/M01 A3016 RMK AO2 SLP215 T00941006 PWINO TSNO $,36.3749,-94.1078,407,Rogers Muni/Carter Fld,OVC,"[{'cover': 'SCT', 'base': 6000}, {'cover': 'BKN', 'base': 8000}, {'cover': 'OVC', 'base': 11000}]",VFR,,,1021.5,,,US,United States
3744,KROW,2025-11-29 01:57:32.096000+00:00,1764381060,2025-11-29T02:00:00.000Z,10.0,4.4,0,0.0,10+,1013.6,4,,,METAR,METAR KROW 290151Z 00000KT 10SM CLR 10/04 A2993 RMK AO2 SLP115 T01000044,33.3074,-104.5082,1105,Roswell/Ind Arpt,CLR,[],VFR,,,1011.5,,,US,United States
3686,KROX,2025-11-29 02:00:47.598000+00:00,1764381300,2025-11-29T02:00:00.000Z,-9.2,-11.8,50,5.0,10+,1027.5,6,,,METAR,METAR KROX 290155Z AUTO 05005KT 10SM SCT022 M09/M12 A3034 RMK AO2 T10921118,48.856,-95.6949,320,Roseau/Billberg Fld,SCT,"[{'cover': 'SCT', 'base': 2200}]",VFR,,,,,,US,United States
3694,KRPD,2025-11-29 02:02:23.078000+00:00,1764381300,2025-11-29T02:00:00.000Z,-6.8,-11.5,60,4.0,10+,1027.5,6,,,METAR,METAR KRPD 290155Z AUTO 06004KT 10SM OVC026 M07/M11 A3034 RMK AO2 T10681115,45.4186,-91.7764,334,Rice Lake Rgnl,OVC,"[{'cover': 'OVC', 'base': 2600}]",MVFR,,,,,,US,United States
4822,KRQB,2025-11-29 02:00:50.406000+00:00,1764381300,2025-11-29T02:00:00.000Z,-4.0,-7.0,250,5.0,10+,1026.5,6,-SN,,METAR,METAR KRQB 290155Z AUTO 25005KT 10SM -SN OVC030 M04/M07 A3031 RMK AO2,43.722,-85.498,282,Big Rapids/Roben Hood Arpt,OVC,"[{'cover': 'OVC', 'base': 3000}]",MVFR,,,,,,US,United States
3695,KRQO,2025-11-29 02:01:12.313000+00:00,1764381300,2025-11-29T02:00:00.000Z,9.0,3.0,170,22.0,10+,1016.3,6,,,METAR,METAR KRQO 290155Z AUTO 17022G28KT 10SM OVC035 09/03 A3001 RMK AO2,35.4709,-98.0061,431,El Reno Rgnl,OVC,"[{'cover': 'OVC', 'base': 3500}]",VFR,,28.0,,,,US,United States
3673,KRRL,2025-11-29 02:00:50.442000+00:00,1764381300,2025-11-29T02:00:00.000Z,-6.7,-11.0,0,0.0,10+,1026.5,38,,,METAR,METAR KRRL 290155Z AUTO 00000KT 10SM OVC027 M07/M11 A3031 RMK AO2 T10671110 TSNO,45.1985,-89.71,397,Merrill Muni,OVC,"[{'cover': 'OVC', 'base': 2700}]",MVFR,,,,,,US,United States
3677,KRRT,2025-11-29 02:01:00.347000+00:00,1764381300,2025-11-29T02:00:00.000Z,-10.0,-12.0,350,6.0,10+,1027.9,6,,,METAR,METAR KRRT 290155Z AUTO 35006KT 10SM CLR M10/M12 A3035 RMK AO2,48.9318,-95.3405,327,Warroad Intl,CLR,[],VFR,,,,,,US,United States
3717,KRSL,2025-11-29 01:57:37.579000+00:00,1764381180,2025-11-29T02:00:00.000Z,7.8,1.7,150,20.0,10+,1011.3,6,,,METAR,METAR KRSL 290153Z AUTO 15020G28KT 10SM SCT037 OVC047 08/02 A2986 RMK AO2 PK WND 15032/0133 SLP124 T00780017,38.8725,-98.8093,569,Russell Muni,OVC,"[{'cover': 'SCT', 'base': 3700}, {'cover': 'OVC', 'base': 4700}]",VFR,,28.0,1012.4,,,US,United States
3681,KRSN,2025-11-29 01:59:00.694000+00:00,1764381300,2025-11-29T02:00:00.000Z,9.1,-1.0,140,5.0,10+,1026.2,14,,,METAR,METAR KRSN 290155Z AUTO 14005KT 10SM CLR 09/M01 A3030 RMK AO2 T00911010 $,32.5159,-92.5899,86,Ruston Rgnl,CLR,[],VFR,,,,,,US,United States
3707,KRST,2025-11-29 01:58:59.700000+00:00,1764381240,2025-11-29T02:00:00.000Z,-4.4,-8.3,80,4.0,10+,1025.5,4,,,METAR,METAR KRST 290154Z 08004KT 10SM OVC100 M04/M08 A3028 RMK AO2 SLP278 T10441083,43.904,-92.4921,398,Rochester Intl,OVC,"[{'cover': 'OVC', 'base': 10000}]",VFR,,,1027.8,,,US,United States
3729,KRSW,2025-11-29 01:57:26.644000+00:00,1764381180,2025-11-29T02:00:00.000Z,14.4,7.8,40,9.0,10+,1023.1,4,,,METAR,METAR KRSW 290153Z 04009KT 10SM CLR 14/08 A3021 RMK AO2 SLP227 T01440078,26.538,-81.7567,8,Ft Myers/SW Florida Intl,CLR,[],VFR,,,1022.7,,,US,United States
3736,KRTN,2025-11-29 01:58:48.383000+00:00,1764381180,2025-11-29T02:00:00.000Z,3.9,-2.8,230,6.0,10+,1011.3,6,,,METAR,METAR KRTN 290153Z AUTO 23006KT 10SM CLR 04/M03 A2986 RMK AO2 SLP107 T00391028,36.7418,-104.5076,1939,Raton/Crews Fld,CLR,[],VFR,,,1010.7,,,US,United States
3977,KRUQ,2025-11-29 02:01:09.021000+00:00,1764381300,2025-11-29T02:00:00.000Z,-2.0,-9.7,0,0.0,10+,1029.2,6,,,METAR,METAR KRUQ 290155Z AUTO 00000KT 10SM CLR M02/M10 A3039 RMK AO2 T10201097,35.6442,-80.5236,231,Salisbury/Rowan Cnty,CLR,[],VFR,,,,,,US,United States
3699,KRVL,2025-11-29 01:59:00.745000+00:00,1764381300,2025-11-29T02:00:00.000Z,0.0,-7.0,230,9.0,10+,1023.5,6,-DZ,,METAR,METAR KRVL 290155Z AUTO 23009G18KT 10SM -DZ BKN037 OVC043 M00/M07 A3022 RMK AO2,40.6768,-77.6251,250,Reedsville/Mifflin Cnty,OVC,"[{'cover': 'BKN', 'base': 3700}, {'cover': 'OVC', 'base': 4300}]",VFR,,18.0,,,,US,United States
3734,KRVS,2025-11-29 01:57:27.881000+00:00,1764381180,2025-11-29T02:00:00.000Z,13.3,0.0,170,13.0,10+,1018.4,4,,,METAR,METAR KRVS 290153Z 17013G25KT 10SM OVC060 13/00 A3007 RMK AO2 PK WND 14027/0140 SLP190 T01330000,36.0424,-95.9901,191,Tulsa/Jones Arpt,OVC,"[{'cover': 'OVC', 'base': 6000}]",VFR,,25.0,1019.0,,,US,United States
3712,KRWF,2025-11-29 01:58:47.952000+00:00,1764381180,2025-11-29T02:00:00.000Z,-5.6,-6.7,80,6.0,4,1024.8,6,-SN BR,0.005,METAR,METAR KRWF 290153Z AUTO 08006KT 4SM -SN BR OVC050 M06/M07 A3026 RMK AO2 SLP267 P0000 T10561067,44.5483,-95.0804,312,Redwood Falls Muni,OVC,"[{'cover': 'OVC', 'base': 5000}]",MVFR,,,1026.7,,,US,United States
3714,KRWI,2025-11-29 01:57:36.892000+00:00,1764381180,2025-11-29T02:00:00.000Z,1.7,-8.9,310,5.0,10+,1029.5,198,,,METAR,METAR KRWI 290153Z AUTO 31005KT 10SM CLR 02/M09 A3040 RMK AO2 SLP294 T00171089 PWINO FZRANO,35.8502,-77.8951,46,Rocky Mount/Wilson Rgnl,CLR,[],VFR,,,1029.4,,,US,United States
3721,KRWL,2025-11-29 01:58:42.495000+00:00,1764381180,2025-11-29T02:00:00.000Z,2.8,-6.1,230,14.0,10+,1010.2,6,,,METAR,METAR KRWL 290153Z AUTO 23014G30KT 10SM FEW060 BKN075 OVC095 03/M06 A2983 RMK AO2 PK WND 24037/0105 SLP092 T00281061,41.8065,-107.1952,2066,Rawlins Muni,OVC,"[{'cover': 'FEW', 'base': 6000}, {'cover': 'BKN', 'base': 7500}, {'cover': 'OVC', 'base': 9500}]",VFR,,30.0,1009.2,,,US,United States
3732,KRXE,2025-11-29 01:58:45.391000+00:00,1764381180,2025-11-29T02:00:00.000Z,1.7,-0.6,30,6.0,10+,1015.3,6,,0.005,METAR,METAR KRXE 290153Z AUTO 03006KT 10SM FEW039 SCT055 02/M01 A2998 RMK AO2 RAE10 SLP173 P0000 T00171006,43.8321,-111.8075,1483,Rexburg/Madison Cnty,SCT,"[{'cover': 'FEW', 'base': 3900}, {'cover': 'SCT', 'base': 5500}]",VFR,,,1017.3,,,US,United States
3683,KRZL,2025-11-29 02:02:16.570000+00:00,1764381300,2025-11-29T02:00:00.000Z,-7.0,-10.0,0,0.0,10+,1029.5,6,,,METAR,METAR KRZL 290155Z AUTO 00000KT 10SM CLR M07/M10 A3040 RMK AO2,40.9488,-87.1851,210,Rensselaer/Jasper Cnty,CLR,[],VFR,,,,,,US,United States
3685,KSAA,2025-11-29 02:02:20.323000+00:00,1764381300,2025-11-29T02:00:00.000Z,2.0,-7.0,270,10.0,10+,1011.3,6,,,METAR,METAR KSAA 290155Z AUTO 27010G14KT 10SM SCT055 SCT065 BKN100 02/M07 A2986 RMK AO2,41.447,-106.815,2093,Saratoga/Shively Fld,BKN,"[{'cover': 'SCT', 'base': 5500}, {'cover': 'SCT', 'base': 6500}, {'cover': 'BKN', 'base': 10000}]",VFR,,14.0,,,,US,United States
3716,KSAC,2025-11-29 01:58:45.593000+00:00,1764381180,2025-11-29T02:00:00.000Z,7.2,5.6,310,3.0,10+,1020.1,4,,,METAR,METAR KSAC 290153Z 31003KT 10SM OVC010 07/06 A3012 RMK AO2 SLP197 T00720056,38.5066,-121.496,5,Sacramento Exec,OVC,"[{'cover': 'OVC', 'base': 1000}]",MVFR,,,1019.7,,,US,United States
3746,KSAD,2025-11-29 01:57:22.947000+00:00,1764381060,2025-11-29T02:00:00.000Z,14.4,3.3,260,7.0,10+,1016.0,6,,,METAR,METAR KSAD 290151Z AUTO 26007KT 10SM CLR 14/03 A3000 RMK AO2 SLP138 T01440033,32.8565,-109.636,937,Safford Rgnl,CLR,[],VFR,,,1013.8,,,US,United States
3725,KSAF,2025-11-29 01:58:48.397000+00:00,1764381180,2025-11-29T02:00:00.000Z,4.4,-2.8,250,6.0,10+,1015.3,4,,,METAR,METAR KSAF 290153Z 25006KT 10SM CLR 04/M03 A2998 RMK AO2 SLP139 T00441028,35.611,-106.0957,1918,Santa Fe Cnty Muni,CLR,[],VFR,,,1013.9,,,US,United States
3742,KSAN,2025-11-29 01:57:32.228000+00:00,1764381060,2025-11-29T02:00:00.000Z,16.1,13.9,190,4.0,10+,1016.7,12,,,METAR,METAR KSAN 290151Z 19004KT 10SM FEW010 16/14 A3002 RMK AO2 SLP165 T01610139 $,32.7364,-117.1973,3,San Diego Intl Arpt,FEW,"[{'cover': 'FEW', 'base': 1000}]",VFR,,,1016.5,,,US,United States
3674,KSAR,2025-11-29 02:00:56.573000+00:00,1764381300,2025-11-29T02:00:00.000Z,1.6,-5.8,140,5.0,10+,1028.5,6,,,METAR,METAR KSAR 290155Z AUTO 14005KT 10SM OVC110 02/M06 A3037 RMK AO2 T00161058,38.1463,-89.7025,162,Sparta/Hunter Fld,OVC,"[{'cover': 'OVC', 'base': 11000}]",VFR,,,,,,US,United States
3745,KSAT,2025-11-29 01:57:32.117000+00:00,1764381060,2025-11-29T02:00:00.000Z,17.8,13.9,130,14.0,10+,1020.7,12,,,METAR,METAR KSAT 290151Z 13014G21KT 10SM OVC022 18/14 A3014 RMK AO2 PK WND 14026/0055 SLP193 T01780139 $,29.5443,-98.4839,246,San Antonio Intl,OVC,"[{'cover': 'OVC', 'base': 2200}]",MVFR,,21.0,1019.3,,,US,United States
3723,KSAV,2025-11-29 01:58:37.435000+00:00,1764381180,2025-11-29T02:00:00.000Z,2.8,-2.8,350,3.0,10+,1028.9,4,,,METAR,METAR KSAV 290153Z 35003KT 10SM CLR 03/M03 A3038 RMK AO2 SLP286 T00281028,32.1313,-81.2023,10,Savannah Intl,CLR,[],VFR,,,1028.6,,,US,United States
2975,KSAW,2025-11-29 01:49:38.855000+00:00,1764380820,2025-11-29T02:00:00.000Z,-6.0,-9.0,270,7.0,10+,1025.1,0,,,METAR,METAR KSAW 290147Z 27007KT 10SM OVC040 M06/M09 A3027,46.341,-87.395,359,Marquette/Sawyer Intl,OVC,"[{'cover': 'OVC', 'base': 4000}]",VFR,,,,,,US,United States
3718,KSBA,2025-11-29 01:58:45.610000+00:00,1764381180,2025-11-29T02:00:00.000Z,14.4,12.8,40,3.0,9,1015.0,12,,,METAR,METAR KSBA 290153Z 04003KT 9SM CLR 14/13 A2997 RMK AO2 SLP149 T01440128 $,34.4241,-119.8425,2,Santa Barbara Muni,CLR,[],VFR,,,1014.9,,,US,United States
3720,KSBM,2025-11-29 01:58:48.233000+00:00,1764381180,2025-11-29T02:00:00.000Z,-3.9,-10.0,320,3.0,10+,1028.2,6,,,METAR,METAR KSBM 290153Z AUTO 32003KT 10SM OVC032 M04/M10 A3036 RMK AO2 SLP296 T10391100,43.7748,-87.849,225,Sheboygan Cnty Mem,OVC,"[{'cover': 'OVC', 'base': 3200}]",VFR,,,1029.6,,,US,United States
3708,KSBN,2025-11-29 01:58:59.719000+00:00,1764381240,2025-11-29T02:00:00.000Z,-5.0,-10.0,200,5.0,10+,1028.9,4,,,METAR,METAR KSBN 290154Z 20005KT 10SM BKN040 M05/M10 A3038 RMK AO2 SLP300 T10501100,41.7072,-86.3163,236,South Bend Rgnl,BKN,"[{'cover': 'BKN', 'base': 4000}]",VFR,,,1030.0,,,US,United States
3671,KSBP,2025-11-29 02:01:05.698000+00:00,1764381360,2025-11-29T02:00:00.000Z,14.4,10.0,0,0.0,10+,1015.7,4,,,METAR,METAR KSBP 290156Z 00000KT 10SM CLR 14/10 A2999 RMK AO2 SLP155 T01440100,35.2381,-120.644,52,San Luis Obispo/San Luis Cnty,CLR,[],VFR,,,1015.5,,,US,United States
3687,KSBS,2025-11-29 02:00:53.636000+00:00,1764381300,2025-11-29T02:00:00.000Z,0.5,0.5,290,4.0,5,1012.6,6,,,METAR,METAR KSBS 290155Z AUTO 29004KT 5SM BKN016 OVC022 01/01 A2990 RMK AO1 T00050005,40.5153,-106.8677,2097,Steamboat Springs/Adams Fld,OVC,"[{'cover': 'BKN', 'base': 1600}, {'cover': 'OVC', 'base': 2200}]",MVFR,,,,,,US,United States
3675,KSBX,2025-11-29 02:06:21.248000+00:00,1764381300,2025-11-29T02:00:00.000Z,-12.0,-12.0,340,19.0,3,1030.2,6,-SN BR,,METAR,METAR KSBX 290155Z AUTO 34019KT 3SM -SN BR BKN007 OVC017 M12/M12 A3042 RMK AO2,48.541,-111.871,1049,Shelby/Toole Cnty Arpt,OVC,"[{'cover': 'BKN', 'base': 700}, {'cover': 'OVC', 'base': 1700}]",IFR,,,,,,US,United States
3701,KSBY,2025-11-29 01:59:06.778000+00:00,1764381240,2025-11-29T02:00:00.000Z,1.1,-8.9,260,9.0,10+,1026.2,4,,,METAR,METAR KSBY 290154Z 26009KT 10SM CLR 01/M09 A3030 RMK AO2 SLP264 T00111089,38.3409,-75.5132,14,Salisbury/Ocean City,CLR,[],VFR,,,1026.4,,,US,United States
3668,KSCH,2025-11-29 01:59:34.929000+00:00,1764381420,2025-11-29T02:00:00.000Z,1.0,-3.0,280,9.0,10+,1015.7,0,,,METAR,METAR KSCH 290157Z 28009G15KT 10SM OVC018 01/M03 A2999,42.8499,-73.9301,100,Schenectady Cnty,OVC,"[{'cover': 'OVC', 'base': 1800}]",MVFR,,15.0,,,,US,United States
3678,KSCK,2025-11-29 02:00:59.099000+00:00,1764381300,2025-11-29T02:00:00.000Z,8.9,6.7,10,4.0,9,1019.4,4,,,METAR,METAR KSCK 290155Z 01004KT 9SM OVC009 09/07 A3010 RMK AO2 SLP191 T00890067,37.89,-121.2264,8,Stockton Metro,OVC,"[{'cover': 'OVC', 'base': 900}]",IFR,,,1019.1,,,US,United States
3950,KSDF,2025-11-29 02:00:50.564000+00:00,1764381360,2025-11-29T02:00:00.000Z,0.0,-9.4,0,0.0,10+,1030.6,4,,,METAR,METAR KSDF 290156Z 00000KT 10SM CLR 00/M09 A3043 RMK AO2 SLP308 T00001094,38.1774,-85.7308,146,Louisville Intl,CLR,[],VFR,,,1030.8,,,US,United States
3730,KSDL,2025-11-29 01:58:45.631000+00:00,1764381180,2025-11-29T02:00:00.000Z,18.9,6.1,0,0.0,10+,1015.3,4,,,METAR,METAR KSDL 290153Z 00000KT 10SM CLR 19/06 A2998 RMK AO2 SLP141 T01890061,33.6123,-111.9232,438,Scottsdale Muni,CLR,[],VFR,,,1014.1,,,US,United States
3994,KSDM,2025-11-29 01:58:44.937000+00:00,1764381180,2025-11-29T02:00:00.000Z,13.3,10.6,0,0.0,8,1016.0,4,,,METAR,METAR KSDM 290153Z 00000KT 8SM CLR 13/11 A3000 RMK AO2 SLP159 T01330106,32.5758,-116.9939,161,San Diego/Brown Fld,CLR,[],VFR,,,1015.9,,,US,United States
3938,KSDY,2025-11-29 02:00:46.419000+00:00,1764381360,2025-11-29T02:00:00.000Z,-7.8,-9.4,20,8.0,2.5,1022.8,78,-SN BR,0.005,METAR,METAR KSDY 290156Z AUTO 02008KT 2 1/2SM -SN BR SCT017 OVC026 M08/M09 A3020 RMK AO2 SLP269 P0000 T10781094 FZRANO $,47.7029,-104.1951,600,Sidney/Richland Muni,OVC,"[{'cover': 'SCT', 'base': 1700}, {'cover': 'OVC', 'base': 2600}]",IFR,,,1026.9,,,US,United States
3996,KSEA,2025-11-29 01:59:09.720000+00:00,1764381180,2025-11-29T02:00:00.000Z,7.2,5.6,360,6.0,10+,1025.1,4,,,METAR,METAR KSEA 290153Z 36006KT 10SM FEW020 SCT180 BKN230 07/06 A3027 RMK AO2 SLP260 T00720056,47.4447,-122.3144,115,Seattle-Tacoma Intl,BKN,"[{'cover': 'FEW', 'base': 2000}, {'cover': 'SCT', 'base': 18000}, {'cover': 'BKN', 'base': 23000}]",VFR,,,1026.0,,,US,United States
4071,KSEE,2025-11-29 01:53:28.611000+00:00,1764380820,2025-11-29T02:00:00.000Z,17.0,11.0,VRB,4.0,10+,1016.3,0,,,METAR,METAR KSEE 290147Z VRB04KT 10SM SKC 17/11 A3001,32.8273,-116.9737,113,San Diego/Gillespie Fld,SKC,[],VFR,,,,,,US,United States
3955,KSEF,2025-11-29 02:00:56.610000+00:00,1764381300,2025-11-29T02:00:00.000Z,12.1,7.7,10,9.0,10+,1024.5,6,,,METAR,METAR KSEF 290155Z AUTO 01009KT 10SM CLR 12/08 A3025 RMK AO2 T01210077,27.4553,-81.3415,17,Sebring Rgnl,CLR,[],VFR,,,,,,US,United States
4020,KSEG,2025-11-29 01:58:48.252000+00:00,1764381180,2025-11-29T02:00:00.000Z,0.0,-7.2,,,10+,1023.1,6,,,METAR,METAR KSEG 290153Z AUTO 10SM CLR 00/M07 A3021 RMK AO2 SLP234 T00001072,40.8193,-76.8658,136,Selinsgrove/Penn Valley Arpt,CLR,[],VFR,,,1023.4,,,US,United States
3989,KSEM,2025-11-29 02:06:31.936000+00:00,1764381300,2025-11-29T02:00:00.000Z,2.0,0.0,0,0.0,10+,1029.5,6,,,METAR,METAR KSEM 290155Z AUTO 00000KT 10SM CLR 02/M00 A3040 RMK AO2,32.3367,-86.9836,48,Selma/Craig Fld,CLR,[],VFR,,,,,,US,United States
3972,KSEP,2025-11-29 02:00:58.534000+00:00,1764381300,2025-11-29T02:00:00.000Z,11.5,7.4,140,7.0,10+,1020.1,6,,,METAR,METAR KSEP 290155Z AUTO 14007KT 10SM OVC034 12/07 A3012 RMK AO2 T01150074,32.215,-98.1793,399,Stephenville/Clark Rgnl,OVC,"[{'cover': 'OVC', 'base': 3400}]",VFR,,,,,,US,United States
3983,KSEZ,2025-11-29 02:02:19.699000+00:00,1764381300,2025-11-29T02:00:00.000Z,12.0,1.0,180,5.0,10+,1018.0,6,,,METAR,METAR KSEZ 290155Z AUTO 18005KT 10SM CLR 12/01 A3006 RMK AO2,34.8467,-111.7884,1455,Sedona Arpt,CLR,[],VFR,,,,,,US,United States
4021,KSFB,2025-11-29 01:57:26.961000+00:00,1764381180,2025-11-29T02:00:00.000Z,11.1,5.0,340,9.0,10+,1025.5,4,,0.005,METAR,METAR KSFB 290153Z 34009KT 10SM CLR 11/05 A3028 RMK AO2 RAE12 SLP253 P0000 T01110050,28.7795,-81.2435,16,Sanford Intl,CLR,[],VFR,,,1025.3,,,US,United States
4016,KSFF,2025-11-29 01:58:45.647000+00:00,1764381180,2025-11-29T02:00:00.000Z,0.6,-1.1,0,0.0,10+,1027.2,4,,,METAR,METAR KSFF 290153Z 00000KT 10SM CLR 01/M01 A3033 RMK AO2 SLP285 T00061011,47.6857,-117.3214,593,Spokane/Felts Fld,CLR,[],VFR,,,1028.5,,,US,United States
3946,KSFO,2025-11-29 02:01:05.866000+00:00,1764381360,2025-11-29T02:00:00.000Z,10.6,8.3,360,9.0,10+,1018.4,12,,,METAR,METAR KSFO 290156Z 36009KT 10SM FEW200 11/08 A3007 RMK AO2 SLP182 T01060083 $,37.6196,-122.3656,2,San Francisco Intl,FEW,"[{'cover': 'FEW', 'base': 20000}]",VFR,,,1018.2,,,US,United States
3943,KSFZ,2025-11-29 02:01:00.372000+00:00,1764381360,2025-11-29T02:00:00.000Z,1.1,-6.7,250,10.0,10+,1014.0,70,,,METAR,METAR KSFZ 290156Z AUTO 25010G16KT 220V280 10SM CLR 01/M07 A2994 RMK AO2 SLP142 T00111067 FZRANO,41.9168,-71.4924,129,Pawtucket/N Central State Arpt,CLR,[],VFR,,16.0,1014.2,,,US,United States
4026,KSGF,2025-11-29 01:57:27.900000+00:00,1764381120,2025-11-29T02:00:00.000Z,7.8,-3.3,150,15.0,10+,1021.4,4,,,METAR,METAR KSGF 290152Z 15015G23KT 10SM OVC075 08/M03 A3016 RMK AO2 PK WND 14026/0138 SLP219 T00781033,37.2398,-93.3899,387,Springfield Muni,OVC,"[{'cover': 'OVC', 'base': 7500}]",VFR,,23.0,1021.9,,,US,United States
3936,KSGH,2025-11-29 02:00:48.062000+00:00,1764381360,2025-11-29T02:00:00.000Z,-4.4,-9.4,250,4.0,10+,1029.5,6,,,METAR,METAR KSGH 290156Z AUTO 25004KT 10SM CLR M04/M09 A3040 RMK AO2 SLP313 T10441094,39.8358,-83.8443,318,Springfield Muni,CLR,[],VFR,,,1031.3,,,US,United States
4534,KSGJ,2025-11-29 01:59:19.599000+00:00,1764381360,2025-11-29T02:00:00.000Z,8.3,1.1,320,7.0,10+,1027.5,14,,,METAR,METAR KSGJ 290156Z AUTO 32007KT 10SM CLR 08/01 A3034 RMK AO2 SLP274 T00830011 $,29.9592,-81.341,2,St Augustine Arpt,CLR,[],VFR,,,1027.4,,,US,United States
3932,KSGR,2025-11-29 02:02:26.123000+00:00,1764381480,2025-11-29T01:58:00.000Z,16.7,8.9,110,9.0,10+,1023.5,4,,,SPECI,SPECI KSGR 290158Z 11009KT 10SM BKN085 OVC120 17/09 A3022 RMK AO2 T01670089,29.6197,-95.6575,22,Houston/Sugar Land Rgnl,OVC,"[{'cover': 'BKN', 'base': 8500}, {'cover': 'OVC', 'base': 12000}]",VFR,,,,,,US,United States
3942,KSGU,2025-11-29 02:00:47.611000+00:00,1764381360,2025-11-29T02:00:00.000Z,12.8,0.6,140,3.0,10+,1015.3,6,,,METAR,METAR KSGU 290156Z AUTO 14003KT 10SM CLR 13/01 A2998 RMK AO2 SLP150 T01280006,37.0444,-113.5034,877,Saint George Muni,CLR,[],VFR,,,1015.0,,,US,United States
3979,KSHD,2025-11-29 01:57:27.076000+00:00,1764381300,2025-11-29T02:00:00.000Z,-0.5,-11.6,300,11.0,10+,1027.9,6,,,METAR,METAR KSHD 290155Z AUTO 30011G16KT 10SM OVC055 00/M12 A3035 RMK AO2 T10051116,38.2601,-78.9013,360,Staunton/Shenandoah Valley Rgnl,OVC,"[{'cover': 'OVC', 'base': 5500}]",VFR,,16.0,,,,US,United States
4011,KSHN,2025-11-29 01:59:01.496000+00:00,1764381180,2025-11-29T02:00:00.000Z,6.7,3.9,20,3.0,10+,1024.8,6,,,METAR,METAR KSHN 290153Z AUTO 02003KT 10SM CLR 07/04 A3026 RMK AO2 SLP249 T00670039,47.2384,-123.1415,84,Shelton/Sanderson Fld,CLR,[],VFR,,,1024.9,,,US,United States
4019,KSHR,2025-11-29 01:58:48.428000+00:00,1764381180,2025-11-29T02:00:00.000Z,-7.8,-9.4,330,17.0,1,1018.7,6,-SN BR,0.02,METAR,METAR KSHR 290153Z AUTO 33017KT 1SM -SN BR VV012 M08/M09 A3008 RMK AO2 SLP237 P0002 T10781094,44.7603,-106.9741,1212,Sheridan Cnty Arpt,OVX,"[{'cover': 'OVX', 'base': 1200}]",IFR,12.0,,1023.7,,,US,United States
3940,KSHV,2025-11-29 01:59:19.676000+00:00,1764381360,2025-11-29T02:00:00.000Z,13.0,1.0,150,7.0,10+,1025.5,0,,,METAR,METAR KSHV 290156Z 15007KT 10SM SCT090 BKN110 13/01 A3028 RMK SLPNO,32.4473,-93.8244,70,Shreveport Rgnl,BKN,"[{'cover': 'SCT', 'base': 9000}, {'cover': 'BKN', 'base': 11000}]",VFR,,,,,,US,United States
3967,KSIK,2025-11-29 01:59:00.824000+00:00,1764381300,2025-11-29T02:00:00.000Z,0.6,-0.9,80,3.0,,1028.5,142,,,METAR,METAR KSIK 290155Z AUTO 08003KT 01/M01 A3037 RMK AO2 T00061009 PWINO $,36.9027,-89.5577,95,Sikeston Arpt,,,,,,,,,US,United States
4010,KSJC,2025-11-29 01:59:01.516000+00:00,1764381180,2025-11-29T02:00:00.000Z,11.1,8.9,350,6.0,6,1018.4,4,BR,,METAR,METAR KSJC 290153Z 35006KT 6SM BR CLR 11/09 A3007 RMK AO2 SLP180 T01110089,37.3594,-121.9244,13,San Jose Intl Arpt,CLR,[],VFR,,,1018.0,,,US,United States
3991,KSJN,2025-11-29 01:59:07.117000+00:00,1764381240,2025-11-29T02:00:00.000Z,10.6,-5.0,240,14.0,10+,1017.7,6,,,METAR,METAR KSJN 290154Z AUTO 24014KT 10SM CLR 11/M05 A3005 RMK AO2 SLP158 T01061050,34.5184,-109.3801,1747,St Johns Ind Arpt,CLR,[],VFR,,,1015.8,,,US,United States
4031,KSJT,2025-11-29 01:57:40.122000+00:00,1764381060,2025-11-29T02:00:00.000Z,14.4,11.7,180,14.0,10+,1017.4,4,,,METAR,METAR KSJT 290151Z 18014G22KT 10SM OVC013 14/12 A3004 RMK AO2 SLP167 T01440117,31.3517,-100.4948,582,San Angelo/Mathis Fld,OVC,"[{'cover': 'OVC', 'base': 1300}]",MVFR,,22.0,1016.7,,,US,United States
3866,KSKA,2025-11-29 02:08:26.152000+00:00,1764381900,2025-11-29T02:05:00.000Z,1.0,-2.0,320,5.0,10+,1025.8,14,,,SPECI,SPECI KSKA 290205Z AUTO 32005KT 10SM SCT027 SCT035 01/M02 A3029 RMK AO2 SLP279 $,47.612,-117.679,754,Spokane/Fairchild AFB,SCT,"[{'cover': 'SCT', 'base': 2700}, {'cover': 'SCT', 'base': 3500}]",VFR,,,1027.9,,,US,United States
3971,KSKF,2025-11-29 01:59:01.984000+00:00,1764381300,2025-11-29T02:00:00.000Z,18.5,14.0,140,9.0,10+,1019.0,14,,,METAR,METAR KSKF 290155Z AUTO 14009KT 10SM OVC019 19/14 A3009 RMK AO2 SLP187 T01850140 $,29.392,-98.581,214,Lackland AFB/Kelly Fld,OVC,"[{'cover': 'OVC', 'base': 1900}]",MVFR,,,1018.7,,,US,United States
3969,KSLB,2025-11-29 02:02:18.868000+00:00,1764381300,2025-11-29T02:00:00.000Z,-5.0,-5.0,110,15.0,1,1022.8,6,-SN,,METAR,METAR KSLB 290155Z AUTO 11015KT 1SM -SN OVC003 M05/M05 A3020 RMK AO2,42.5972,-95.2399,450,Storm Lake Muni,OVC,"[{'cover': 'OVC', 'base': 300}]",LIFR,,,,,,US,United States
3992,KSLC,2025-11-29 01:59:07.148000+00:00,1764381240,2025-11-29T02:00:00.000Z,6.7,-2.2,170,3.0,10+,1017.0,12,,,METAR,METAR KSLC 290154Z 17003KT 10SM FEW080 SCT120 SCT230 07/M02 A3003 RMK AO2 SLP168 T00671022 $,40.7707,-111.965,1286,Salt Lake City Intl,SCT,"[{'cover': 'FEW', 'base': 8000}, {'cover': 'SCT', 'base': 12000}, {'cover': 'SCT', 'base': 23000}]",VFR,,,1016.8,,,US,United States
3949,KSLE,2025-11-29 02:02:23.765000+00:00,1764381360,2025-11-29T02:00:00.000Z,10.6,9.4,10,4.0,10+,1022.1,4,,,METAR,METAR KSLE 290156Z 01004KT 10SM CLR 11/09 A3018 RMK AO2 SLP222 T01060094,44.9049,-123.001,63,Salem Muni,CLR,[],VFR,,,1022.2,,,US,United States
3945,KSLG,2025-11-29 01:59:17.129000+00:00,1764381360,2025-11-29T02:00:00.000Z,10.6,-0.6,150,13.0,10+,1020.7,6,,0.005,METAR,METAR KSLG 290156Z AUTO 15013G27KT 10SM BKN065 OVC085 11/M01 A3014 RMK AO2 PK WND 15027/0151 RAB25E38 SLP208 P0000 T01061006,36.1941,-94.488,361,Siloam Springs/Smith Fld,OVC,"[{'cover': 'BKN', 'base': 6500}, {'cover': 'OVC', 'base': 8500}]",VFR,,27.0,1020.8,,,US,United States
3869,KSLK,2025-11-29 02:04:11.242000+00:00,1764381660,2025-11-29T02:01:00.000Z,-5.6,-8.3,250,8.0,4,1011.3,6,-SN,0.005,SPECI,SPECI KSLK 290201Z AUTO 25008G17KT 4SM -SN SCT018 OVC026 M06/M08 A2986 RMK AO2 P0000 T10561083,44.3928,-74.2029,502,Saranac Lake/Adirondack Rgnl,OVC,"[{'cover': 'SCT', 'base': 1800}, {'cover': 'OVC', 'base': 2600}]",MVFR,,17.0,,,,US,United States
4005,KSLN,2025-11-29 01:57:37.684000+00:00,1764381180,2025-11-29T02:00:00.000Z,8.9,1.1,160,11.0,10+,1014.3,4,,,METAR,METAR KSLN 290153Z 16011KT 10SM OVC040 09/01 A2995 RMK AO2 SLP148 T00890011,38.78,-97.6446,377,Salina Rgnl,OVC,"[{'cover': 'OVC', 'base': 4000}]",VFR,,,1014.8,,,US,United States
3976,KSLO,2025-11-29 02:00:50.633000+00:00,1764381300,2025-11-29T02:00:00.000Z,0.7,-6.5,0,0.0,10+,1029.2,6,,,METAR,METAR KSLO 290155Z AUTO 00000KT 10SM BKN100 01/M06 A3039 RMK AO2 T00071065,38.6446,-88.9612,173,Salem/Leckrone Arpt,BKN,"[{'cover': 'BKN', 'base': 10000}]",VFR,,,,,,US,United States
3987,KSLR,2025-11-29 02:04:04.988000+00:00,1764381300,2025-11-29T02:00:00.000Z,13.5,0.8,140,9.0,10+,1022.8,134,,,METAR,METAR KSLR 290155Z AUTO 14009G17KT 10SM OVC080 14/01 A3020 RMK AO2 LTG DSNT N AND NW T01350008 PWINO,33.1615,-95.6189,144,Sulphur Springs Muni,OVC,"[{'cover': 'OVC', 'base': 8000}]",VFR,,17.0,,,,US,United States
3968,KSMD,2025-11-29 02:01:14.640000+00:00,1764381300,2025-11-29T02:00:00.000Z,-3.0,-9.0,0,0.0,10+,1029.2,6,,,METAR,METAR KSMD 290155Z AUTO 00000KT 10SM CLR M03/M09 A3039 RMK A01,41.144,-85.1492,252,Fort Wayne/Smith Fld,CLR,[],VFR,,,,,,US,United States
3964,KSME,2025-11-29 02:00:56.774000+00:00,1764381300,2025-11-29T02:00:00.000Z,-3.0,-7.0,0,0.0,10+,1029.5,6,,,METAR,METAR KSME 290155Z AUTO 00000KT 10SM CLR M03/M07 A3040 RMK AO2,37.0529,-84.6141,279,Somerset/Lake Cumberland Rgnl,CLR,[],VFR,,,,,,US,United States
4009,KSMF,2025-11-29 01:59:01.535000+00:00,1764381180,2025-11-29T02:00:00.000Z,7.2,5.6,310,5.0,10+,1019.7,4,,,METAR,METAR KSMF 290153Z 31005KT 10SM OVC008 07/06 A3011 RMK AO2 SLP196 T00720056,38.7007,-121.5948,7,Sacramento Intl,OVC,"[{'cover': 'OVC', 'base': 800}]",IFR,,,1019.6,,,US,United States
3952,KSMN,2025-11-29 02:00:46.447000+00:00,1764381360,2025-11-29T02:00:00.000Z,4.4,-8.3,330,9.0,10+,1019.7,6,,,METAR,METAR KSMN 290156Z AUTO 33009G19KT 10SM SCT070 04/M08 A3011 RMK AO2 SLP219 T00441083,45.1283,-113.8833,1228,Salmon/Lemhi Cnty,SCT,"[{'cover': 'SCT', 'base': 7000}]",VFR,,19.0,1021.9,,,US,United States
4034,KSMO,2025-11-29 01:57:36.211000+00:00,1764381060,2025-11-29T02:00:00.000Z,16.1,13.3,0,0.0,10+,1015.7,4,,,METAR,METAR KSMO 290151Z 00000KT 10SM CLR 16/13 A2999 RMK AO2 SLP156 T01610133,34.021,-118.4471,56,Santa Monica Muni,CLR,[],VFR,,,1015.6,,,US,United States
3980,KSMS,2025-11-29 02:01:14.669000+00:00,1764381300,2025-11-29T02:00:00.000Z,-3.0,-5.0,0,0.0,10+,1029.5,134,,,METAR,METAR KSMS 290155Z AUTO 00000KT 10SM CLR M03/M05 A3040 RMK AO2 PWINO,34.0003,-80.3582,53,Sumter Muni,CLR,[],VFR,,,,,,US,United States
4032,KSMX,2025-11-29 01:57:32.146000+00:00,1764381060,2025-11-29T02:00:00.000Z,13.9,12.8,0,0.0,7,1016.0,12,,,METAR,METAR KSMX 290151Z 00000KT 7SM CLR 14/13 A3000 RMK AO2 SLP163 T01390128 $,34.894,-120.4522,73,Santa Maria/Hancock Fld,CLR,[],VFR,,,1016.3,,,US,United States
4013,KSNA,2025-11-29 01:58:45.409000+00:00,1764381180,2025-11-29T02:00:00.000Z,16.1,13.9,0,0.0,10+,1015.3,4,,,METAR,METAR KSNA 290153Z 00000KT 10SM CLR 16/14 A2998 RMK AO2 SLP153 T01610139,33.6798,-117.8675,14,Santa Ana/Wayne Arpt,CLR,[],VFR,,,1015.3,,,US,United States
3978,KSNK,2025-11-29 01:58:45.692000+00:00,1764381300,2025-11-29T02:00:00.000Z,14.0,10.5,190,17.0,10+,1016.7,6,,,METAR,METAR KSNK 290155Z AUTO 19017G23KT 10SM OVC014 14/11 A3002 RMK AO2 T01400105,32.6917,-100.9505,738,Snyder/Winston Fld,OVC,"[{'cover': 'OVC', 'base': 1400}]",MVFR,,23.0,,,,US,United States
3986,KSNL,2025-11-29 02:02:14.412000+00:00,1764381300,2025-11-29T02:00:00.000Z,9.2,3.9,170,17.0,10+,1018.4,6,,,METAR,METAR KSNL 290155Z AUTO 17017KT 10SM OVC041 09/04 A3007 RMK AO2 LTG DSNT SE AND S T00920039,35.3611,-96.9445,327,Shawnee Rgnl,OVC,"[{'cover': 'OVC', 'base': 4100}]",VFR,,,,,,US,United States
4002,KSNS,2025-11-29 01:59:01.382000+00:00,1764381180,2025-11-29T02:00:00.000Z,12.8,11.1,320,6.0,7,1017.0,4,,,METAR,METAR KSNS 290153Z 32006KT 7SM CLR 13/11 A3003 RMK AO2 SLP178 T01280111,36.6635,-121.6093,20,Salinas Muni,CLR,[],VFR,,,1017.8,,,US,United States
4024,KSNY,2025-11-29 01:58:48.016000+00:00,1764381180,2025-11-29T02:00:00.000Z,0.0,-1.7,170,11.0,10+,1008.5,6,,0.005,METAR,METAR KSNY 290153Z AUTO 17011KT 10SM SCT100 BKN120 00/M02 A2978 RMK AO2 UPB07E31 SLP117 P0000 T00001017,41.0993,-102.9864,1307,Sidney/Carr Fld,BKN,"[{'cover': 'SCT', 'base': 10000}, {'cover': 'BKN', 'base': 12000}]",VFR,,,1011.7,,,US,United States
3939,KSOP,2025-11-29 01:59:19.714000+00:00,1764381360,2025-11-29T02:00:00.000Z,-1.1,-7.8,0,0.0,10+,1029.2,78,,,METAR,METAR KSOP 290156Z AUTO 00000KT 10SM CLR M01/M08 A3039 RMK AO2 SLP300 T10111078 FZRANO $,35.2371,-79.3921,135,Southern Pines/Moore Cnty,CLR,[],VFR,,,1030.0,,,US,United States
3963,KSOW,2025-11-29 01:58:44.872000+00:00,1764381300,2025-11-29T02:00:00.000Z,7.0,-2.0,180,10.0,10+,1020.4,6,,,METAR,METAR KSOW 290155Z AUTO 18010KT 10SM CLR 07/M02 A3013 RMK AO2,34.2686,-110.0019,1954,Show Low Muni,CLR,[],VFR,,,,,,US,United States
3975,KSPA,2025-11-29 02:01:14.700000+00:00,1764381300,2025-11-29T02:00:00.000Z,0.0,-10.0,10,3.0,10+,1028.5,6,,,METAR,METAR KSPA 290155Z AUTO 01003KT 10SM CLR 00/M10 A3037 RMK AO2,34.9106,-81.9589,242,Spartanburg/Downtown Arpt,CLR,[],VFR,,,,,,US,United States
3960,KSPF,2025-11-29 01:59:00.849000+00:00,1764381300,2025-11-29T02:00:00.000Z,-5.0,-5.0,10,4.0,1.75,1013.3,6,-SN,,METAR,METAR KSPF 290155Z AUTO 01004KT 1 3/4SM -SN OVC006 M05/M05 A2992 RMK AO2,44.4811,-103.7879,1191,Spearfish/Clyde Fld,OVC,"[{'cover': 'OVC', 'base': 600}]",IFR,,,,,,US,United States
4022,KSPG,2025-11-29 01:57:27.386000+00:00,1764381180,2025-11-29T02:00:00.000Z,16.1,7.8,40,19.0,10+,1024.5,6,,,METAR,METAR KSPG 290153Z AUTO 04019KT 10SM CLR 16/08 A3025 RMK AO2 SLP244 T01610078,27.7685,-82.6257,1,St Petersburg/Whitted Arpt,CLR,[],VFR,,,1024.4,,,US,United States
4029,KSPI,2025-11-29 01:57:27.919000+00:00,1764381120,2025-11-29T02:00:00.000Z,-1.1,-7.2,120,5.0,10+,1028.5,4,,,METAR,METAR KSPI 290152Z 12005KT 10SM OVC085 M01/M07 A3037 RMK AO2 SLP292 T10111072,39.8453,-89.684,179,Springfield/Lincoln Capital Arpt,OVC,"[{'cover': 'OVC', 'base': 8500}]",VFR,,,1029.2,,,US,United States
4028,KSPS,2025-11-29 01:57:32.511000+00:00,1764381120,2025-11-29T02:00:00.000Z,11.7,3.3,150,10.0,10+,1017.0,4,,,METAR,METAR KSPS 290152Z 15010KT 10SM OVC033 12/03 A3003 RMK AO2 SLP168 T01170033,33.9785,-98.493,310,Wichita Falls Rgnl,OVC,"[{'cover': 'OVC', 'base': 3300}]",VFR,,,1016.8,,,US,United States
4023,KSPW,2025-11-29 01:58:48.032000+00:00,1764381180,2025-11-29T02:00:00.000Z,-5.6,-6.7,100,10.0,1.75,1023.5,6,-SN BR,0.01,METAR,METAR KSPW 290153Z AUTO 10010KT 1 3/4SM -SN BR OVC014 M06/M07 A3022 RMK AO2 SLP257 P0001 T10561067,43.1682,-95.2101,407,Spencer Muni,OVC,"[{'cover': 'OVC', 'base': 1400}]",IFR,,,1025.7,,,US,United States
3941,KSQI,2025-11-29 02:00:47.987000+00:00,1764381360,2025-11-29T02:00:00.000Z,-2.8,-7.8,0,0.0,10+,1028.5,78,,,METAR,METAR KSQI 290156Z AUTO 00000KT 10SM CLR M03/M08 A3037 RMK AO2 SLP293 T10281078 FZRANO $,41.7432,-89.6655,196,Sterling-Rock Falls Arpt,CLR,[],VFR,,,1029.3,,,US,United States
4070,KSQL,2025-11-29 01:50:29.403000+00:00,1764380820,2025-11-29T01:47:00.000Z,11.0,9.0,350,3.0,9,1018.7,0,HZ,,SPECI,SPECI KSQL 290147Z 35003KT 9SM HZ SKC 11/09 A3008,37.5119,-122.2483,1,San Carlos Arpt,SKC,[],VFR,,,,,,US,United States
4017,KSRQ,2025-11-29 01:57:27.422000+00:00,1764381180,2025-11-29T02:00:00.000Z,13.9,-0.6,30,9.0,10+,1024.5,4,,,METAR,METAR KSRQ 290153Z 03009KT 10SM CLR 14/M01 A3025 RMK AO2 SLP242 T01391006,27.4015,-82.5597,5,Sarasota-Bradenton Intl,CLR,[],VFR,,,1024.2,,,US,United States
3682,KSRR,2025-11-29 01:59:08.274000+00:00,1764381300,2025-11-29T02:00:00.000Z,9.0,-1.0,120,4.0,10+,1018.4,38,,,METAR,METAR KSRR 290155Z AUTO 12004KT 10SM CLR 09/M01 A3007 RMK AO2 TSNO,33.4667,-105.5278,2063,Ruidoso Rgnl,CLR,[],VFR,,,,,,US,United States
3988,KSSC,2025-11-29 01:59:19.767000+00:00,1764381300,2025-11-29T02:00:00.000Z,0.4,-6.9,10,3.0,10+,1028.5,14,,,METAR,METAR KSSC 290155Z AUTO 01003KT 10SM CLR 00/M07 A3037 RMK AO2 SLP288 T00041069 $,33.978,-80.466,71,Shaw AFB,CLR,[],VFR,,,1028.8,,,US,United States
3995,KSSF,2025-11-29 01:58:48.442000+00:00,1764381180,2025-11-29T02:00:00.000Z,18.3,14.4,140,13.0,10+,1019.7,12,,,METAR,METAR KSSF 290153Z 14013G19KT 10SM BKN026 OVC039 18/14 A3011 RMK AO2 SLP194 T01830144 $,29.339,-98.472,175,San Antonio/Stinson Muni,OVC,"[{'cover': 'BKN', 'base': 2600}, {'cover': 'OVC', 'base': 3900}]",MVFR,,19.0,1019.4,,,US,United States
3981,KSSI,2025-11-29 02:01:14.736000+00:00,1764381300,2025-11-29T02:00:00.000Z,6.0,0.0,20,3.0,10+,1027.9,6,,,METAR,METAR KSSI 290155Z AUTO 02003KT 10SM CLR 06/00 A3035 RMK AO2,31.1527,-81.3905,6,Brunswick/McKinnon St Simons Arpt,CLR,[],VFR,,,,,,US,United States
3998,KSTC,2025-11-29 01:58:44.986000+00:00,1764381180,2025-11-29T02:00:00.000Z,-7.8,-11.7,70,3.0,10+,1026.5,14,,,METAR,METAR KSTC 290153Z AUTO 07003KT 10SM SCT120 M08/M12 A3031 RMK AO2 SLP293 T10781117 $,45.5442,-94.0516,302,St Cloud Rgnl,SCT,"[{'cover': 'SCT', 'base': 12000}]",VFR,,,1029.3,,,US,United States
3965,KSTE,2025-11-29 02:00:56.820000+00:00,1764381300,2025-11-29T02:00:00.000Z,-4.8,-10.6,0,0.0,10+,1027.9,6,,,METAR,METAR KSTE 290155Z AUTO 00000KT 10SM OVC028 M05/M11 A3035 RMK AO2 T10481106,44.5437,-89.5347,335,Stevens Point Muni,OVC,"[{'cover': 'OVC', 'base': 2800}]",MVFR,,,,,,US,United States
4006,KSTJ,2025-11-29 01:57:37.761000+00:00,1764381180,2025-11-29T02:00:00.000Z,0.6,-5.6,110,10.0,10+,1020.1,6,,0.005,METAR,METAR KSTJ 290153Z AUTO 11010G18KT 10SM OVC060 01/M06 A3012 RMK AO2 UPB08E18 SLP209 P0000 T00061056,39.7683,-94.9095,247,St Joseph/Rosecrans Mem,OVC,"[{'cover': 'OVC', 'base': 6000}]",VFR,,18.0,1020.9,,,US,United States
4030,KSTL,2025-11-29 01:54:09.548000+00:00,1764381060,2025-11-29T02:00:00.000Z,2.2,-7.2,140,11.0,10+,1027.5,12,,,METAR,METAR KSTL 290151Z 14011KT 10SM BKN090 OVC110 02/M07 A3034 RMK AO2 SLP286 T00221072 $,38.7525,-90.3734,163,St Louis/Lambert Intl,OVC,"[{'cover': 'BKN', 'base': 9000}, {'cover': 'OVC', 'base': 11000}]",VFR,,,1028.6,,,US,United States
4007,KSTP,2025-11-29 01:58:48.045000+00:00,1764381180,2025-11-29T02:00:00.000Z,-4.4,-8.9,90,4.0,10+,1027.5,4,,,METAR,METAR KSTP 290153Z 09004KT 10SM FEW034 FEW120 M04/M09 A3034 RMK AO2 SLP285 T10441089,44.9323,-93.0559,213,Saint Paul/Downtown Arpt,FEW,"[{'cover': 'FEW', 'base': 3400}, {'cover': 'FEW', 'base': 12000}]",VFR,,,1028.5,,,US,United States
4003,KSTS,2025-11-29 01:59:01.553000+00:00,1764381180,2025-11-29T02:00:00.000Z,7.8,7.2,0,0.0,3,1018.7,4,BR,,METAR,METAR KSTS 290153Z 00000KT 3SM BR OVC005 08/07 A3008 RMK AO2 SLP182 T00780072,38.5037,-122.811,35,Santa Rosa/Schulz Arpt,OVC,"[{'cover': 'OVC', 'base': 500}]",IFR,,,1018.2,,,US,United States
4069,KSUA,2025-11-29 01:48:36.460000+00:00,1764380820,2025-11-29T02:00:00.000Z,20.0,12.0,70,10.0,10+,1022.1,0,,,METAR,METAR KSUA 290147Z 07010KT 10SM FEW049 20/12 A3018,27.1815,-80.2252,4,Stuart/Witham Fld,FEW,"[{'cover': 'FEW', 'base': 4900}]",VFR,,,,,,US,United States
3934,KSUE,2025-11-29 02:00:50.659000+00:00,1764381420,2025-11-29T02:00:00.000Z,-3.9,-9.4,340,8.0,10+,1027.9,78,,0.005,METAR,METAR KSUE 290157Z AUTO 34008KT 10SM OVC033 M04/M09 A3035 RMK AO2 SNB26E39 SLP287 P0000 T10391094 FZRANO $,44.847,-87.425,215,Sturgeon Bay/Door Cnty,OVC,"[{'cover': 'OVC', 'base': 3300}]",VFR,,,1028.7,,,US,United States
4068,KSUN,2025-11-29 01:52:08.534000+00:00,1764380820,2025-11-29T02:00:00.000Z,2.0,-5.0,310,4.0,10+,1017.0,0,,,METAR,METAR KSUN 290147Z 31004KT 10SM CLR 02/M05 A3003,43.4969,-114.2923,1619,Hailey/Friedman Mem,CLR,[],VFR,,,,,,US,United States
3990,KSUS,2025-11-29 01:58:59.735000+00:00,1764381240,2025-11-29T02:00:00.000Z,1.7,-6.7,120,3.0,10+,1026.8,4,,,METAR,METAR KSUS 290154Z 12003KT 10SM OVC090 02/M07 A3032 RMK AO2 SLP277 T00171067,38.6575,-90.6557,140,St Louis/Spirit of St Louis Arpt,OVC,"[{'cover': 'OVC', 'base': 9000}]",VFR,,,1027.7,,,US,United States
3959,KSUU,2025-11-29 02:00:44.286000+00:00,1764381300,2025-11-29T02:00:00.000Z,7.7,5.7,10,6.0,5,1019.0,4,BR,,METAR,METAR KSUU 290155Z 01006KT 5SM BR OVC008 08/06 A3009 RMK AO2A SLP196 T00770057,38.25,-121.938,9,Fairfield/Travis AFB,OVC,"[{'cover': 'OVC', 'base': 800}]",IFR,,,1019.6,,,US,United States
3984,KSUW,2025-11-29 02:00:50.698000+00:00,1764381300,2025-11-29T02:00:00.000Z,-7.8,-11.5,0,0.0,10+,1028.5,6,,,METAR,METAR KSUW 290155Z AUTO 00000KT 10SM OVC033 M08/M11 A3037 RMK AO2 T10781115,46.6833,-92.0926,205,Superior/Bong Arpt,OVC,"[{'cover': 'OVC', 'base': 3300}]",VFR,,,,,,US,United States
4027,KSUX,2025-11-29 01:57:35.895000+00:00,1764381120,2025-11-29T02:00:00.000Z,-5.0,-6.1,110,14.0,1.25,1021.4,4,-SN BR,0.04,METAR,METAR KSUX 290152Z 11014KT 1 1/4SM -SN BR OVC016 M05/M06 A3016 RMK AO2 SLP231 P0004 T10501061,42.3917,-96.3795,332,Sioux City/Day Fld,OVC,"[{'cover': 'OVC', 'base': 1600}]",IFR,,,1023.1,,,US,United States
3982,KSVC,2025-11-29 02:02:17.119000+00:00,1764381300,2025-11-29T02:00:00.000Z,8.3,-0.1,330,7.0,10+,1018.7,6,,,METAR,METAR KSVC 290155Z AUTO 33007KT 10SM CLR 08/00 A3008 RMK AO2 T00831001,32.631,-108.1466,1638,Silver City/Grant Cnty,CLR,[],VFR,,,,,,US,United States
3961,KSVE,2025-11-29 02:00:30.692000+00:00,1764381300,2025-11-29T02:00:00.000Z,6.0,0.0,120,6.0,10+,1020.1,6,,,METAR,METAR KSVE 290155Z AUTO 12006KT 10SM CLR 06/00 A3012 RMK A01 P000,40.376,-120.5742,1263,Susanville Muni,CLR,[],VFR,,,,,,US,United States
3985,KSVH,2025-11-29 02:02:14.485000+00:00,1764381300,2025-11-29T02:00:00.000Z,2.0,-11.0,330,5.0,10+,1028.9,6,,,METAR,METAR KSVH 290155Z AUTO 33005KT 10SM CLR 02/M11 A3038 RMK AO2 T00201110,35.7635,-80.9473,286,Statesville Muni,CLR,[],VFR,,,,,,US,United States
3962,KSVN,2025-11-29 01:58:55.903000+00:00,1764381300,2025-11-29T02:00:00.000Z,3.3,-4.9,0,0.0,10+,1027.2,14,,,METAR,METAR KSVN 290155Z AUTO 00000KT 10SM CLR 03/M05 A3033 RMK AO2 SLP274 T00331049 $,32.011,-81.131,13,Savannah/Hunter AAF,CLR,[],VFR,,,1027.4,,,US,United States
4074,KSWF,2025-11-29 01:44:25.125000+00:00,1764380700,2025-11-29T02:00:00.000Z,2.0,-8.0,290,13.0,10+,1017.0,0,,,METAR,METAR KSWF 290145Z 29013G29KT 10SM BKN060 02/M08 A3003,41.5045,-74.0999,139,Newburgh/Stewart Intl,BKN,"[{'cover': 'BKN', 'base': 6000}]",VFR,,29.0,,,,US,United States
4025,KSWO,2025-11-29 01:57:21.888000+00:00,1764381180,2025-11-29T02:00:00.000Z,11.7,1.1,160,21.0,10+,1017.0,4,,,METAR,METAR KSWO 290153Z 16021G29KT 10SM OVC040 12/01 A3003 RMK AO2 PK WND 16029/0153 SLP168 T01170011,36.1624,-97.0832,293,Stillwater Muni,OVC,"[{'cover': 'OVC', 'base': 4000}]",VFR,,29.0,1016.8,,,US,United States
3966,KSWW,2025-11-29 02:00:56.859000+00:00,1764381300,2025-11-29T02:00:00.000Z,14.3,11.3,170,17.0,10+,1017.0,6,,,METAR,METAR KSWW 290155Z AUTO 17017KT 10SM 14/11 A3003 RMK AO2 T01430113,32.4688,-100.4669,718,Sweetwater/Avenger Fld,,,,,,,,,US,United States
4304,KSYI,2025-11-29 02:06:32.143000+00:00,1764381300,2025-11-29T02:00:00.000Z,-1.0,-6.0,0,0.0,10+,1029.2,6,,,METAR,METAR KSYI 290155Z AUTO 00000KT 10SM CLR M01/M06 A3039 RMK A01,35.5594,-86.4406,244,Shelbyville/Bomar Fld,CLR,[],VFR,,,,,,US,United States
4320,KSYR,2025-11-29 01:59:09.512000+00:00,1764381240,2025-11-29T02:00:00.000Z,0.6,-3.9,270,13.0,9,1017.7,12,-SN,0.01,METAR,METAR KSYR 290154Z 27013KT 9SM -SN SCT038 BKN049 BKN070 01/M04 A3005 RMK AO2 PK WND 27027/0058 SLP177 PCPN VRY LGT P0001 T00061039 $,43.1111,-76.1038,125,Syracuse/Hancock Intl,BKN,"[{'cover': 'SCT', 'base': 3800}, {'cover': 'BKN', 'base': 4900}, {'cover': 'BKN', 'base': 7000}]",VFR,,,1017.7,,,US,United States
4306,KSZL,2025-11-29 02:00:44.014000+00:00,1764381300,2025-11-29T02:00:00.000Z,3.7,-5.0,120,8.0,10+,1022.1,14,,,METAR,METAR KSZL 290155Z AUTO 12008KT 10SM OVC060 04/M05 A3018 RMK AO2 SLP231 T00371050 VISNO RWY01 CHINO RWY01 $,38.736,-93.55,259,Whiteman AFB,OVC,"[{'cover': 'OVC', 'base': 6000}]",VFR,,,1023.1,,,US,United States
4322,KTAD,2025-11-29 01:59:07.176000+00:00,1764381240,2025-11-29T02:00:00.000Z,7.8,-5.6,260,10.0,10+,1008.5,6,,,METAR,METAR KTAD 290154Z AUTO 26010KT 10SM CLR 08/M06 A2978 RMK AO2 SLP058 T00781056,37.2618,-104.3319,1751,Trinidad/Stokes Arpt,CLR,[],VFR,,,1005.8,,,US,United States
4315,KTBN,2025-11-29 02:02:06.174000+00:00,1764381300,2025-11-29T02:00:00.000Z,4.8,-4.8,140,8.0,10+,1022.8,14,,,METAR,METAR KTBN 290155Z AUTO 14008KT 10SM OVC090 05/M05 A3020 RMK AO2 SLP238 T00481048 $,37.7445,-92.1447,349,Waynesville-St Robert Rgnl,OVC,"[{'cover': 'OVC', 'base': 9000}]",VFR,,,1023.8,,,US,United States
4317,KTBR,2025-11-29 02:02:14.694000+00:00,1764381300,2025-11-29T02:00:00.000Z,0.0,-5.0,0,0.0,10+,1028.2,6,,,METAR,METAR KTBR 290155Z AUTO 00000KT 10SM CLR 00/M05 A3036 RMK AO2,32.48,-81.738,54,Statesboro Muni,CLR,[],VFR,,,,,,US,United States
4328,KTCC,2025-11-29 01:58:48.456000+00:00,1764381180,2025-11-29T02:00:00.000Z,11.7,-0.6,230,13.0,10+,1010.9,14,,,METAR,METAR KTCC 290153Z AUTO 23013KT 10SM CLR 12/M01 A2985 RMK AO2 SLP085 T01171006 $,35.1805,-103.6014,1233,Tucumcari Muni,CLR,[],VFR,,,1008.5,,,US,United States
4325,KTCL,2025-11-29 01:57:21.924000+00:00,1764381180,2025-11-29T02:00:00.000Z,3.3,-0.6,0,0.0,10+,1029.9,6,,,METAR,METAR KTCL 290153Z AUTO 00000KT 10SM CLR 03/M01 A3041 RMK AO2 SLP298 T00331006,33.2122,-87.6155,48,Tuscaloosa Rgnl,CLR,[],VFR,,,1029.8,,,US,United States
4316,KTCM,2025-11-29 01:59:02.046000+00:00,1764381300,2025-11-29T02:00:00.000Z,7.1,5.2,0,0.0,10+,1024.5,14,,,METAR,METAR KTCM 290155Z AUTO 00000KT 10SM CLR 07/05 A3025 RMK AO2 SLP249 T00710052 $,47.149,-122.475,87,Tacoma/McChord AFB,CLR,[],VFR,,,1024.9,,,US,United States
4337,KTCS,2025-11-29 01:58:44.953000+00:00,1764381180,2025-11-29T02:00:00.000Z,14.4,-1.7,260,9.0,10+,1015.7,6,,,METAR,METAR KTCS 290153Z AUTO 26009KT 10SM CLR 14/M02 A2999 RMK AO2 SLP117 T01441017,33.2369,-107.2685,1471,Truth or Consequence Muni,CLR,[],VFR,,,1011.7,,,US,United States
4323,KTDZ,2025-11-29 01:58:48.267000+00:00,1764381180,2025-11-29T02:00:00.000Z,-1.1,-6.1,260,10.0,10+,1028.9,6,,,METAR,METAR KTDZ 290153Z AUTO 26010KT 10SM OVC040 M01/M06 A3038 RMK AO2 SLP294 T10111061,41.5633,-83.4767,189,Toledo Executive Arpt,OVC,"[{'cover': 'OVC', 'base': 4000}]",VFR,,,1029.4,,,US,United States
4341,KTEB,2025-11-29 01:57:31.944000+00:00,1764381060,2025-11-29T02:00:00.000Z,2.2,-8.3,260,12.0,10+,1019.4,12,,,METAR,METAR KTEB 290151Z 26012G19KT 10SM CLR 02/M08 A3010 RMK AO2 SLP194 T00221083 $,40.859,-74.0562,3,Teterboro Arpt,CLR,[],VFR,,19.0,1019.4,,,US,United States
4314,KTEX,2025-11-29 02:00:56.953000+00:00,1764381300,2025-11-29T02:00:00.000Z,2.0,-7.0,300,3.0,10+,1017.7,6,,,METAR,METAR KTEX 290155Z AUTO 30003KT 10SM BKN100 02/M07 A3005 RMK AO2,37.954,-107.909,2760,Telluride Rgnl,BKN,"[{'cover': 'BKN', 'base': 10000}]",VFR,,,,,,US,United States
4305,KTHA,2025-11-29 02:06:32.343000+00:00,1764381300,2025-11-29T02:00:00.000Z,0.0,-7.0,0,0.0,10+,1028.5,6,,,METAR,METAR KTHA 290155Z AUTO 00000KT 10SM CLR M00/M07 A3037 RMK A01,35.3804,-86.2419,333,Tullahoma Rgnl,CLR,[],VFR,,,,,,US,United States
4336,KTHV,2025-11-29 01:58:48.064000+00:00,1764381180,2025-11-29T02:00:00.000Z,-0.6,-7.8,260,5.0,10+,1024.5,6,,,METAR,METAR KTHV 290153Z AUTO 26005KT 10SM SCT070 M01/M08 A3025 RMK AO2 SLP250 T10061078,39.9194,-76.8769,141,York Arpt,SCT,"[{'cover': 'SCT', 'base': 7000}]",VFR,,,1025.0,,,US,United States
4303,KTIK,2025-11-29 01:59:02.066000+00:00,1764381300,2025-11-29T02:00:00.000Z,9.7,3.7,190,18.0,10+,1015.7,14,,,METAR,METAR KTIK 290155Z AUTO 19018G25KT 10SM OVC036 10/04 A2999 RMK AO2 PK WND 17036/0057 LTG DSNT SE-S SLP161 T00970037 $,35.415,-97.386,387,Tinker AFB,OVC,"[{'cover': 'OVC', 'base': 3600}]",VFR,,25.0,1016.1,,,US,United States
4329,KTIW,2025-11-29 01:58:45.427000+00:00,1764381180,2025-11-29T02:00:00.000Z,7.8,5.0,10,4.0,10+,1025.1,4,,,METAR,METAR KTIW 290153Z 01004KT 10SM CLR 08/05 A3027 RMK AO2 SLP252 T00780050,47.2674,-122.5762,89,Tacoma Narrows Arpt,CLR,[],VFR,,,1025.2,,,US,United States
4360,KTIX,2025-11-29 01:47:46.226000+00:00,1764380820,2025-11-29T02:00:00.000Z,14.0,8.0,320,6.0,7,1024.8,0,,,METAR,METAR KTIX 290147Z 32006KT 7SM SKC 14/08 A3026,28.508,-80.798,10,Titusville/Space Coast Rgnl,SKC,[],VFR,,,,,,US,United States
2354,KTKX,2025-11-29 01:59:00.965000+00:00,1764381300,2025-11-29T02:00:00.000Z,3.0,3.0,70,5.0,10+,1027.9,6,,,METAR,METAR KTKX 290155Z AUTO 07005KT 10SM CLR 03/03 A3035 RMK AO2,36.2226,-90.0367,73,Kennett Arpt,CLR,[],VFR,,,,,,US,United States
4330,KTLH,2025-11-29 01:57:31.366000+00:00,1764381180,2025-11-29T02:00:00.000Z,2.2,-6.1,0,0.0,10+,1028.2,12,,,METAR,METAR KTLH 290153Z 00000KT 10SM CLR 02/M06 A3036 RMK AO2 SLP282 T00221061 $,30.3935,-84.3513,17,Tallahassee Intl,CLR,[],VFR,,,1028.2,,,US,United States
4309,KTMA,2025-11-29 02:00:59.851000+00:00,1764381300,2025-11-29T02:00:00.000Z,2.2,-3.9,0,0.0,10+,1029.2,6,,,METAR,METAR KTMA 290155Z AUTO 00000KT 10SM CLR 02/M04 A3039 RMK AO2 T00221039,31.4229,-83.4859,105,Tifton/Myers Arpt,CLR,[],VFR,,,,,,US,United States
4335,KTMB,2025-11-29 01:57:22.030000+00:00,1764381180,2025-11-29T02:00:00.000Z,18.3,12.8,20,8.0,10+,1021.4,12,,,METAR,METAR KTMB 290153Z 02008KT 10SM CLR 18/13 A3016 RMK AO2 SLP212 T01830128 $,25.6423,-80.4347,2,Miami Exec Arpt,CLR,[],VFR,,,1021.2,,,US,United States
3138,KTMK,2025-11-29 02:02:20.415000+00:00,1764381300,2025-11-29T02:00:00.000Z,12.0,10.0,60,6.0,0.5,1022.1,6,-RA FG,,METAR,METAR KTMK 290155Z AUTO 06006KT 1/2SM -RA FG BKN002 12/10 A3018 RMK AO2,45.421,-123.8144,8,Tillamook Arpt,BKN,"[{'cover': 'BKN', 'base': 200}]",LIFR,,,,,,US,United States
4319,KTNU,2025-11-29 02:02:18.955000+00:00,1764381300,2025-11-29T02:00:00.000Z,-3.0,-4.0,120,10.0,,1025.1,6,,,METAR,METAR KTNU 290155Z AUTO 12010KT M03/M04 A3027 RMK A01,41.6701,-93.019,287,Newton Muni,,,,,,,,,US,United States
4359,KTOA,2025-11-29 01:57:28.018000+00:00,1764380820,2025-11-29T02:00:00.000Z,,,,,10+,,0,,,METAR,METAR KTOA 290147Z 10SM FEW006 RMK LAX ALTIMETER 3000,33.803,-118.336,30,Torrance Muni,FEW,"[{'cover': 'FEW', 'base': 600}]",VFR,,,,,,US,United States
4308,KTOC,2025-11-29 02:00:57.050000+00:00,1764381300,2025-11-29T02:00:00.000Z,4.0,-10.7,320,7.0,10+,1028.2,6,,,METAR,METAR KTOC 290155Z AUTO 32007KT 10SM CLR 04/M11 A3036 RMK AO2 T00401107,34.588,-83.2974,292,Toccoa/Lefourneau Fld,CLR,[],VFR,,,,,,US,United States
4326,KTOI,2025-11-29 01:58:48.533000+00:00,1764381180,2025-11-29T02:00:00.000Z,1.1,-1.7,0,0.0,10+,1029.2,6,,,METAR,METAR KTOI 290153Z AUTO 00000KT 10SM CLR 01/M02 A3039 RMK AO2 SLP293 T00111017,31.8574,-86.0103,120,Troy Muni,CLR,[],VFR,,,1029.3,,,US,United States
4338,KTOL,2025-11-29 01:57:37.155000+00:00,1764381120,2025-11-29T02:00:00.000Z,-1.1,-6.1,260,9.0,10+,1028.5,4,,,METAR,METAR KTOL 290152Z 26009KT 10SM OVC038 M01/M06 A3037 RMK AO2 SLP292 T10111061,41.587,-83.8054,206,Toledo/Express Arpt,OVC,"[{'cover': 'OVC', 'base': 3800}]",VFR,,,1029.2,,,US,United States
4327,KTOP,2025-11-29 01:57:37.801000+00:00,1764381180,2025-11-29T02:00:00.000Z,2.8,-1.7,110,11.0,10+,1018.4,6,,0.005,METAR,METAR KTOP 290153Z AUTO 11011KT 10SM OVC050 03/M02 A3007 RMK AO2 RAB25E43 SLP188 P0000 T00281017,39.0725,-95.626,268,Topeka/Billard Muni,OVC,"[{'cover': 'OVC', 'base': 5000}]",VFR,,,1018.8,,,US,United States
4333,KTOR,2025-11-29 01:58:45.727000+00:00,1764381180,2025-11-29T02:00:00.000Z,0.0,-5.0,300,5.0,10+,1009.9,70,,,METAR,METAR KTOR 290153Z AUTO 30005KT 10SM OVC095 00/M05 A2982 RMK AO2 SLP126 T00001050 FZRANO,42.0613,-104.1585,1285,Torrington Muni,OVC,"[{'cover': 'OVC', 'base': 9500}]",VFR,,,1012.6,,,US,United States
4324,KTPA,2025-11-29 01:57:22.101000+00:00,1764381180,2025-11-29T02:00:00.000Z,13.3,3.9,30,9.0,10+,1025.5,4,,,METAR,METAR KTPA 290153Z 03009KT 10SM FEW250 13/04 A3028 RMK AO2 SLP253 T01330039,27.9633,-82.54,2,Tampa Intl Arpt,FEW,"[{'cover': 'FEW', 'base': 25000}]",VFR,,,1025.3,,,US,United States
4301,KTPH,2025-11-29 02:01:05.911000+00:00,1764381360,2025-11-29T02:00:00.000Z,,,,,,1019.0,142,,,METAR,METAR KTPH 290156Z AUTO A3009 RMK AO2 SLPNO PWINO $,38.0505,-117.0906,1647,Tonopah Arpt,,,,,,,,,US,United States
4340,KTPL,2025-11-29 01:57:40.160000+00:00,1764381060,2025-11-29T02:00:00.000Z,16.1,8.3,130,12.0,,1020.4,142,,,METAR,METAR KTPL 290151Z AUTO 13012KT OVC039 16/08 A3013 RMK AO2 SLP198 T01610083 PWINO RVRNO $,31.157,-97.4094,206,Temple/Miller Rgnl,OVC,"[{'cover': 'OVC', 'base': 3900}]",,,,1019.8,,,US,United States
4334,KTRI,2025-11-29 01:57:31.685000+00:00,1764381180,2025-11-29T02:00:00.000Z,-2.2,-9.4,320,6.0,10+,1029.2,4,,,METAR,METAR KTRI 290153Z 32006KT 10SM CLR M02/M09 A3039 RMK AO2 SLP297 T10221094,36.4797,-82.3989,456,Bristol/Tri-Cities Arpt,CLR,[],VFR,,,1029.7,,,US,United States
4358,KTRK,2025-11-29 01:49:38.937000+00:00,1764380880,2025-11-29T02:00:00.000Z,2.0,-4.0,VRB,4.0,10+,1021.4,0,,,METAR,METAR KTRK 290148Z VRB04KT 10SM CLR 02/M04 A3016,39.3154,-120.1371,1800,Truckee/Tahoe Arpt,CLR,[],VFR,,,,,,US,United States
4331,KTRL,2025-11-29 01:58:48.471000+00:00,1764381180,2025-11-29T02:00:00.000Z,13.9,0.6,140,13.0,10+,1021.4,6,,,METAR,METAR KTRL 290153Z AUTO 14013G25KT 10SM BKN070 OVC120 14/01 A3016 RMK AO2 SLP212 T01390006,32.7131,-96.2687,144,Terrell Muni,OVC,"[{'cover': 'BKN', 'base': 7000}, {'cover': 'OVC', 'base': 12000}]",VFR,,25.0,1021.2,,,US,United States
4311,KTSP,2025-11-29 01:59:08.388000+00:00,1764381300,2025-11-29T02:00:00.000Z,10.0,-6.0,300,8.0,10+,1019.0,6,,,METAR,METAR KTSP 290155Z AUTO 30008KT 10SM CLR 10/M06 A3009 RMK AO2,35.1387,-118.4424,1209,Tehachapi Muni,CLR,[],VFR,,,,,,US,United States
4581,KTTD,2025-11-29 01:59:01.569000+00:00,1764381180,2025-11-29T02:00:00.000Z,8.9,5.0,90,11.0,10+,1024.1,4,,,METAR,METAR KTTD 290153Z 09011KT 10SM CLR 09/05 A3024 RMK AO2 SLP240 T00890050,45.551,-122.4098,8,Portland/Troutdale Arpt,CLR,[],VFR,,,1024.0,,,US,United States
4577,KTTN,2025-11-29 01:58:42.608000+00:00,1764381180,2025-11-29T02:00:00.000Z,0.6,-7.8,270,8.0,10+,1021.8,4,,,METAR,METAR KTTN 290153Z 27008G17KT 10SM CLR 01/M08 A3017 RMK AO2 SLP212 T00061078,40.2768,-74.8159,58,Trenton/Mercer Arpt,CLR,[],VFR,,17.0,1021.2,,,US,United States
4573,KTUL,2025-11-29 01:57:22.180000+00:00,1764381180,2025-11-29T02:00:00.000Z,12.8,0.0,170,17.0,10+,1018.0,4,,,METAR,METAR KTUL 290153Z 17017G29KT 10SM BKN055 OVC080 13/00 A3006 RMK AO2 PK WND 16033/0125 SLP181 T01280000,36.1985,-95.8782,196,Tulsa Intl Arpt,OVC,"[{'cover': 'BKN', 'base': 5500}, {'cover': 'OVC', 'base': 8000}]",VFR,,29.0,1018.1,,,US,United States
4566,KTUP,2025-11-29 01:57:31.410000+00:00,1764381180,2025-11-29T02:00:00.000Z,3.9,-1.1,0,0.0,10+,1029.2,12,,,METAR,METAR KTUP 290153Z 00000KT 10SM CLR 04/M01 A3039 RMK AO2 SLP294 T00391011 $,34.2622,-88.7713,107,Tupelo Rgnl,CLR,[],VFR,,,1029.4,,,US,United States
4580,KTUS,2025-11-29 01:58:44.968000+00:00,1764381180,2025-11-29T02:00:00.000Z,18.3,2.8,0,0.0,10+,1017.0,4,,,METAR,METAR KTUS 290153Z 00000KT 10SM CLR 18/03 A3003 RMK AO2 SLP143 T01830028,32.1315,-110.9564,776,Tucson Intl Arpt,CLR,[],VFR,,,1014.3,,,US,United States
4557,KTVC,2025-11-29 01:59:25.549000+00:00,1764381300,2025-11-29T01:55:00.000Z,-2.8,-8.3,260,9.0,9,1026.2,4,,0.005,SPECI,SPECI KTVC 290155Z 26009KT 9SM OVC043 M03/M08 A3030 RMK AO2 SNE54 P0000 T10281083,44.739,-85.5694,188,Traverse City/Cherry Capital Arpt,OVC,"[{'cover': 'OVC', 'base': 4300}]",VFR,,,,,,US,United States
4535,KTVF,2025-11-29 02:00:48.640000+00:00,1764381360,2025-11-29T02:00:00.000Z,-7.8,-11.1,70,5.0,10+,1027.5,70,,0.005,METAR,METAR KTVF 290156Z AUTO 07005KT 10SM OVC023 M08/M11 A3034 RMK AO2 SNE49 SLP300 P0000 T10781111 FZRANO,48.0597,-96.1787,339,Thief River Rgnl,OVC,"[{'cover': 'OVC', 'base': 2300}]",MVFR,,,1030.0,,,US,United States
4559,KTVI,2025-11-29 02:01:08.370000+00:00,1764381300,2025-11-29T02:00:00.000Z,2.0,-2.0,0,0.0,10+,1028.9,6,,,METAR,METAR KTVI 290155Z AUTO 00000KT 10SM CLR 02/M02 A3038 RMK AO2,30.9026,-83.8826,74,Thomasville Rgnl,CLR,[],VFR,,,,,,US,United States
4567,KTVL,2025-11-29 01:58:48.485000+00:00,1764381180,2025-11-29T02:00:00.000Z,2.2,-3.9,0,0.0,10+,1020.7,6,,,METAR,METAR KTVL 290153Z AUTO 00000KT 10SM CLR 02/M04 A3014 RMK AO2 SLP205 T00221039,38.8984,-119.9962,1907,Lake Tahoe Arpt,CLR,[],VFR,,,1020.5,,,US,United States
4576,KTWF,2025-11-29 01:58:45.446000+00:00,1764381180,2025-11-29T02:00:00.000Z,3.3,0.6,260,21.0,10+,1018.7,12,-SN,0.005,METAR,METAR KTWF 290153Z 26021G30KT 10SM -SN CLR 03/01 A3008 RMK AO2 PK WND 27030/0146 RAE13B40E44SNB44 SLP178 P0000 T00330006 $,42.4785,-114.4775,1269,Twin Falls/Joslin Fld,CLR,[],VFR,,30.0,1017.8,,,US,United States
4572,KTXK,2025-11-29 01:57:22.263000+00:00,1764381180,2025-11-29T02:00:00.000Z,11.1,1.7,120,8.0,10+,1024.8,4,,,METAR,METAR KTXK 290153Z 12008KT 10SM BKN090 11/02 A3026 RMK AO2 SLP246 T01110017,33.456,-93.9878,118,Texarkana Rgnl,BKN,"[{'cover': 'BKN', 'base': 9000}]",VFR,,,1024.6,,,US,United States
4561,KTYL,2025-11-29 02:00:57.138000+00:00,1764381300,2025-11-29T02:00:00.000Z,7.0,0.0,210,8.0,10+,1019.4,6,,,METAR,METAR KTYL 290155Z AUTO 21008KT 10SM CLR 07/00 A3010 RMK AO2,34.4577,-110.1118,1748,Taylor Arpt,CLR,[],VFR,,,,,,US,United States
4579,KTYR,2025-11-29 01:59:01.587000+00:00,1764381180,2025-11-29T02:00:00.000Z,13.3,0.6,140,14.0,10+,1023.1,4,,,METAR,METAR KTYR 290153Z 14014KT 10SM SCT080 BKN110 13/01 A3021 RMK AO2 SLP228 T01330006,32.3587,-95.404,161,Tyler/Pounds Fld,BKN,"[{'cover': 'SCT', 'base': 8000}, {'cover': 'BKN', 'base': 11000}]",VFR,,,1022.8,,,US,United States
4570,KTYS,2025-11-29 01:57:31.758000+00:00,1764381180,2025-11-29T02:00:00.000Z,1.1,-8.9,40,4.0,10+,1029.5,4,,,METAR,METAR KTYS 290153Z 04004KT 10SM BKN250 01/M09 A3040 RMK AO2 SLP303 T00111089,35.818,-83.9857,300,Knoxville/Tyson Arpt,BKN,"[{'cover': 'BKN', 'base': 25000}]",VFR,,,1030.3,,,US,United States
4618,KUCY,2025-11-29 02:06:32.427000+00:00,1764380700,2025-11-29T02:00:00.000Z,1.0,-3.0,0,0.0,10+,1028.5,6,,,METAR,METAR KUCY 290145Z AUTO 00000KT 10SM CLR 01/M03 A3037 RMK A01,36.3778,-88.9878,97,Union City/Everett-Stewart Rgnl,CLR,[],VFR,,,,,,US,United States
4615,KUES,2025-11-29 01:46:04.988000+00:00,1764380700,2025-11-29T02:00:00.000Z,-7.0,-10.0,0,0.0,10+,1028.5,0,,,METAR,METAR KUES 290145Z 00000KT 10SM CLR M07/M10 A3037,43.0425,-88.2465,273,Waukesha Cnty,CLR,[],VFR,,,,,,US,United States
4586,KUGN,2025-11-29 01:57:35.929000+00:00,1764381060,2025-11-29T02:00:00.000Z,-7.2,-10.0,0,0.0,9,1028.2,4,,,METAR,METAR KUGN 290151Z 00000KT 9SM CLR M07/M10 A3036 RMK AO2 SLP301 LAST T10721100,42.4255,-87.8634,217,Waukegan Rgnl,CLR,[],VFR,,,1030.1,,,US,United States
4569,KUIL,2025-11-29 01:59:08.628000+00:00,1764381180,2025-11-29T02:00:00.000Z,6.1,2.2,0,0.0,10+,1024.1,6,,,METAR,METAR KUIL 290153Z AUTO 00000KT 10SM CLR 06/02 A3024 RMK AO2 SLP241 T00610022,47.937,-124.5576,58,Quillayute State Arpt,CLR,[],VFR,,,1024.1,,,US,United States
4564,KUIN,2025-11-29 01:58:59.751000+00:00,1764381240,2025-11-29T02:00:00.000Z,-1.1,-7.2,120,8.0,10+,1027.2,6,,,METAR,METAR KUIN 290154Z AUTO 12008KT 10SM FEW060 OVC075 M01/M07 A3033 RMK AO2 SLP280 T10111072,39.9371,-91.1966,233,Quincy/Baldwin Fld,OVC,"[{'cover': 'FEW', 'base': 6000}, {'cover': 'OVC', 'base': 7500}]",VFR,,,1028.0,,,US,United States
1872,KUKF,2025-11-29 02:00:50.860000+00:00,1764381300,2025-11-29T02:00:00.000Z,0.0,-10.0,340,5.0,10+,1030.2,6,,,METAR,METAR KUKF 290155Z AUTO 34005KT 10SM CLR 00/M10 A3042 RMK AO2,36.2188,-81.1002,383,Wilkesboro/Wilkes Cnty,CLR,[],VFR,,,,,,US,United States
4537,KUKI,2025-11-29 02:01:03.272000+00:00,1764381360,2025-11-29T02:00:00.000Z,9.4,5.6,0,0.0,10+,1017.7,6,,,METAR,METAR KUKI 290156Z AUTO 00000KT 10SM CLR 09/06 A3005 RMK AO2 SLP175 T00940056,39.1278,-123.2001,183,Ukiah Muni,CLR,[],VFR,,,1017.5,,,US,United States
4545,KUKT,2025-11-29 01:59:07.588000+00:00,1764381300,2025-11-29T02:00:00.000Z,0.0,-7.0,220,7.0,10+,1021.8,6,,,METAR,METAR KUKT 290155Z AUTO 22007G12KT 180V270 10SM CLR M00/M07 A3017 RMK AO2,40.4368,-75.3802,156,Quakertown Arpt,CLR,[],VFR,,12.0,,,,US,United States
4552,KULM,2025-11-29 01:58:52.098000+00:00,1764381300,2025-11-29T02:00:00.000Z,-4.0,-6.0,80,4.0,10+,1025.5,6,,,METAR,METAR KULM 290155Z AUTO 08004KT 10SM SCT046 BKN070 OVC095 M04/M06 A3028 RMK AO2,44.3227,-94.5024,305,New Ulm Muni,OVC,"[{'cover': 'SCT', 'base': 4600}, {'cover': 'BKN', 'base': 7000}, {'cover': 'OVC', 'base': 9500}]",VFR,,,,,,US,United States
111,KUNI,2025-11-29 02:02:19.039000+00:00,1764381300,2025-11-29T02:00:00.000Z,-2.8,-9.5,250,3.0,10+,1029.9,6,,,METAR,METAR KUNI 290155Z AUTO 25003KT 10SM CLR M03/M09 A3041 RMK AO2 T10281095,39.2129,-82.2204,232,Albany/Ohio Univ Arpt,CLR,[],VFR,,,,,,US,United States
3715,KUNV,2025-11-29 02:02:32.920000+00:00,1764381180,2025-11-29T02:00:00.000Z,-1.0,-8.0,290,11.0,10+,1023.1,0,,,METAR,METAR KUNV 290153Z 29011G21KT 10SM SCT031 M01/M08 A3021,40.8534,-77.8401,365,State College/Univ Park Arpt,SCT,"[{'cover': 'SCT', 'base': 3100}]",VFR,,21.0,,,,US,United States
4549,KUOX,2025-11-29 01:59:01.124000+00:00,1764381300,2025-11-29T02:00:00.000Z,4.0,-1.0,130,4.0,10+,1029.2,134,,,METAR,METAR KUOX 290155Z AUTO 13004KT 10SM CLR 04/M01 A3039 RMK AO2 PWINO,34.3851,-89.5435,123,Oxford/University Arpt,CLR,[],VFR,,,,,,US,United States
4541,KUTA,2025-11-29 01:59:01.149000+00:00,1764381300,2025-11-29T02:00:00.000Z,5.8,3.4,110,5.0,10+,1028.2,14,,,METAR,METAR KUTA 290155Z AUTO 11005KT 10SM CLR 06/03 A3036 RMK AO2 T00580034 $,34.6766,-90.344,58,Tunica Muni,CLR,[],VFR,,,,,,US,United States
1920,KUTS,2025-11-29 01:59:01.602000+00:00,1764381180,2025-11-29T02:00:00.000Z,14.4,4.4,150,8.0,10+,1024.5,14,,,METAR,METAR KUTS 290153Z AUTO 15008KT 10SM SCT085 OVC110 14/04 A3025 RMK AO1 SLP242 T01440044 $,30.7443,-95.5866,103,Huntsville Muni,OVC,"[{'cover': 'SCT', 'base': 8500}, {'cover': 'OVC', 'base': 11000}]",VFR,,,1024.2,,,US,United States
3167,KUUU,2025-11-29 01:58:48.285000+00:00,1764381180,2025-11-29T02:00:00.000Z,2.8,-6.7,,,10+,1015.0,6,,,METAR,METAR KUUU 290153Z AUTO 10SM CLR 03/M07 A2997 RMK AO2 SLP148 T00281067,41.5299,-71.2833,45,Newport State Arpt,CLR,[],VFR,,,1014.8,,,US,United States
4558,KUVA,2025-11-29 02:00:50.906000+00:00,1764381300,2025-11-29T02:00:00.000Z,17.1,14.2,120,8.0,10+,1020.1,6,,,METAR,METAR KUVA 290155Z AUTO 12008KT 10SM OVC042 17/14 A3012 RMK AO2 T01710142,29.2135,-99.743,285,Uvalde/Garner Fld,OVC,"[{'cover': 'OVC', 'base': 4200}]",VFR,,,,,,US,United States
3709,KUZA,2025-11-29 01:59:01.185000+00:00,1764381240,2025-11-29T02:00:00.000Z,-0.6,-8.3,0,0.0,10+,1028.9,6,,,METAR,METAR KUZA 290154Z AUTO 00000KT 10SM CLR M01/M08 A3038 RMK AO2 SLP299 T10061083,34.9836,-81.0562,198,Rock Hill/Bryant Fld,CLR,[],VFR,,,1029.9,,,US,United States
4553,KVAD,2025-11-29 02:08:11.104000+00:00,1764381300,2025-11-29T02:00:00.000Z,2.7,-5.0,20,4.0,10+,1027.9,14,,,METAR,METAR KVAD 290155Z AUTO 02004KT 10SM CLR 03/M05 A3035 RMK AO2 SLP281 T00271050 $,30.979,-83.192,70,Valdosta/Moody AFB,CLR,[],VFR,,,1028.1,,,US,United States
2357,KVAY,2025-11-29 01:58:52.120000+00:00,1764381240,2025-11-29T02:00:00.000Z,1.7,-7.8,280,9.0,10+,1022.8,6,,,METAR,METAR KVAY 290154Z AUTO 28009G20KT 10SM CLR 02/M08 A3020 RMK AO2 SLP228 T00171078,39.9408,-74.8407,15,Mount Holly/S Jersey Rgnl,CLR,[],VFR,,20.0,1022.8,,,US,United States
4556,KVBG,2025-11-29 01:59:02.086000+00:00,1764381300,2025-11-29T02:00:00.000Z,12.5,11.7,0,0.0,7,1016.0,46,,,METAR,METAR KVBG 290155Z AUTO 00000KT 7SM CLR 13/12 A3000 RMK AO2 SLP163 T01250117 TSNO $,34.733,-120.583,96,Vandenberg AFB,CLR,[],VFR,,,1016.3,,,US,United States
4585,KVCT,2025-11-29 01:57:23.003000+00:00,1764381060,2025-11-29T02:00:00.000Z,20.0,12.8,130,14.0,10+,1021.4,4,,,METAR,METAR KVCT 290151Z 13014KT 10SM BKN065 OVC080 20/13 A3016 RMK AO2 SLP211 T02000128,28.8624,-96.9301,33,Victoria Rgnl,OVC,"[{'cover': 'BKN', 'base': 6500}, {'cover': 'OVC', 'base': 8000}]",VFR,,,1021.1,,,US,United States
4547,KVCV,2025-11-29 02:06:35.734000+00:00,1764381300,2025-11-29T02:00:00.000Z,15.0,1.0,190,8.0,10+,1017.0,6,,,METAR,METAR KVCV 290155Z AUTO 19008KT 10SM CLR 15/01 A3003 RMK AO2,34.5933,-117.3893,871,Victorville/S California Arpt,CLR,[],VFR,,,,,,US,United States
4555,KVDI,2025-11-29 02:02:15.053000+00:00,1764381300,2025-11-29T02:00:00.000Z,5.0,-9.0,10,6.0,10+,1028.2,6,,,METAR,METAR KVDI 290155Z AUTO 01006KT 10SM CLR 05/M09 A3036 RMK AO2,32.1933,-82.3642,81,Vidalia Rgnl,CLR,[],VFR,,,,,,US,United States
4578,KVEL,2025-11-29 01:58:45.459000+00:00,1764381180,2025-11-29T02:00:00.000Z,6.7,-6.1,340,5.0,10+,1012.6,6,,,METAR,METAR KVEL 290153Z AUTO 34005KT 10SM CLR 07/M06 A2990 RMK AO2 SLP129 T00671061,40.4429,-109.5128,1604,Vernal Rgnl,CLR,[],VFR,,,1012.9,,,US,United States
4574,KVGT,2025-11-29 01:58:45.472000+00:00,1764381180,2025-11-29T02:00:00.000Z,15.6,2.2,0,0.0,10+,1014.6,4,,,METAR,METAR KVGT 290153Z 00000KT 10SM CLR 16/02 A2996 RMK AO2 SLP160 T01560022,36.212,-115.194,664,Las Vegas/North Arpt,CLR,[],VFR,,,1016.0,,,US,United States
4543,KVHN,2025-11-29 02:02:17.189000+00:00,1764381300,2025-11-29T02:00:00.000Z,17.8,7.8,250,7.0,10+,1017.7,6,,,METAR,METAR KVHN 290155Z AUTO 25007KT 10SM CLR 18/08 A3005 RMK AO2 T01780078,31.0602,-104.7832,1200,Van Horn/Culberson Cnty,CLR,[],VFR,,,,,,US,United States
4565,KVIH,2025-11-29 01:57:22.490000+00:00,1764381180,2025-11-29T02:00:00.000Z,2.8,-5.6,110,7.0,10+,1024.8,6,,,METAR,METAR KVIH 290153Z AUTO 11007KT 10SM OVC095 03/M06 A3026 RMK AO2 SLP257 T00281056,38.1318,-91.7647,342,Vichy/Rolla Arpt,OVC,"[{'cover': 'OVC', 'base': 9500}]",VFR,,,1025.7,,,US,United States
4532,KVIS,2025-11-29 02:00:42.783000+00:00,1764381360,2025-11-29T02:00:00.000Z,9.4,7.8,220,5.0,6,1020.1,14,BR,,METAR,METAR KVIS 290156Z AUTO 22005KT 6SM BR OVC014 09/08 A3012 RMK AO2 SLP198 T00940078 $,36.3135,-119.3884,92,Visalia Muni,OVC,"[{'cover': 'OVC', 'base': 1400}]",MVFR,,,1019.8,,,US,United States
4548,KVJI,2025-11-29 02:00:57.282000+00:00,1764381300,2025-11-29T02:00:00.000Z,-3.0,-11.0,160,3.0,10+,1028.5,6,,,METAR,METAR KVJI 290155Z AUTO 16003KT 10SM CLR M03/M11 A3037 RMK AO2,36.6872,-82.037,636,Abingdon/Virginia Highlands Arpt,CLR,[],VFR,,,,,,US,United States
4542,KVKS,2025-11-29 02:00:57.333000+00:00,1764381300,2025-11-29T02:00:00.000Z,7.0,1.0,0,0.0,10+,1027.9,6,,,METAR,METAR KVKS 290155Z AUTO 00000KT 10SM CLR 07/01 A3035 RMK A01,32.2359,-90.9269,31,Vicksburg Arpt,CLR,[],VFR,,,,,,US,United States
4571,KVLD,2025-11-29 01:57:22.507000+00:00,1764381180,2025-11-29T02:00:00.000Z,0.6,-5.0,0,0.0,10+,1028.2,4,,,METAR,METAR KVLD 290153Z 00000KT 10SM CLR 01/M05 A3036 RMK AO2 SLP292 T00061050,30.7763,-83.2739,59,Valdosta Rgnl,CLR,[],VFR,,,1029.2,,,US,United States
4583,KVNY,2025-11-29 01:57:40.195000+00:00,1764381060,2025-11-29T02:00:00.000Z,17.8,7.8,70,3.0,10+,1015.3,4,,,METAR,METAR KVNY 290151Z 07003KT 10SM CLR 18/08 A2998 RMK AO2 SLP150 T01780078,34.2121,-118.4915,241,Van Nuys Arpt,CLR,[],VFR,,,1015.0,,,US,United States
4550,KVPS,2025-11-29 01:59:02.531000+00:00,1764381300,2025-11-29T02:00:00.000Z,7.3,-4.2,20,6.0,10+,1027.9,14,,,METAR,METAR KVPS 290155Z AUTO 02006KT 10SM CLR 07/M04 A3035 RMK AO2 SLP285 T00731042 $,30.483,-86.526,21,Valparaiso/Eglin AFB,CLR,[],VFR,,,1028.5,,,US,United States
4531,KVPZ,2025-11-29 02:00:50.925000+00:00,1764381360,2025-11-29T02:00:00.000Z,-5.0,-10.0,0,0.0,10+,1028.9,14,,,METAR,METAR KVPZ 290156Z AUTO 00000KT 10SM CLR M05/M10 A3038 RMK AO2 SLP300 T10501100 $,41.4535,-86.998,235,Valparaiso/Port Cnty,CLR,[],VFR,,,1030.0,,,US,United States
4591,KVQQ,2025-11-29 01:51:16.690000+00:00,1764381000,2025-11-29T02:00:00.000Z,1.0,-1.0,0,0.0,10+,1027.9,0,,,METAR,METAR KVQQ 290150Z 00000KT 10SM CLR 01/M01 A3035,30.2035,-81.8725,21,Jacksonville/Cecil Arpt,CLR,[],VFR,,,,,,US,United States
4568,KVRB,2025-11-29 01:57:22.527000+00:00,1764381180,2025-11-29T02:00:00.000Z,13.3,9.4,310,6.0,10+,1023.1,4,,,METAR,METAR KVRB 290153Z 31006KT 10SM FEW050 13/09 A3021 RMK AO2 SLP230 T01330094,27.6553,-80.4142,7,Vero Beach Muni,FEW,"[{'cover': 'FEW', 'base': 5000}]",VFR,,,1023.0,,,US,United States
4563,KVSF,2025-11-29 01:58:52.139000+00:00,1764381240,2025-11-29T02:00:00.000Z,0.6,-8.3,280,6.0,10+,1011.9,6,,0.005,METAR,METAR KVSF 290154Z AUTO 28006G18KT 10SM BKN047 BKN055 01/M08 A2988 RMK AO2 SNE25 SLP126 P0000 T00061083,43.3421,-72.5213,176,Springfield/Hartness State Arpt,BKN,"[{'cover': 'BKN', 'base': 4700}, {'cover': 'BKN', 'base': 5500}]",VFR,,18.0,1012.6,,,US,United States
4582,KVTN,2025-11-29 01:57:32.193000+00:00,1764381120,2025-11-29T02:00:00.000Z,-3.9,-8.3,110,8.0,10+,1015.0,6,,,METAR,METAR KVTN 290152Z AUTO 11008KT 10SM OVC017 M04/M08 A2997 RMK AO2 SLP184 T10391083,42.8585,-100.5514,790,Valentine/Miller Fld,OVC,"[{'cover': 'OVC', 'base': 1700}]",MVFR,,,1018.4,,,US,United States
4562,KVYS,2025-11-29 02:02:25.512000+00:00,1764381300,2025-11-29T02:00:00.000Z,-2.2,-7.5,140,3.0,10+,1028.5,38,,,METAR,METAR KVYS 290155Z AUTO 14003KT 10SM SCT120 M02/M07 A3037 RMK AO2 T10221075 TSNO,41.3518,-89.1496,198,Peru/Illinois Valley Rgnl,SCT,"[{'cover': 'SCT', 'base': 12000}]",VFR,,,,,,US,United States
4835,KWAL,2025-11-29 01:58:36.380000+00:00,1764381240,2025-11-29T02:00:00.000Z,1.7,-9.4,290,7.0,10+,1027.2,6,,,METAR,METAR KWAL 290154Z AUTO 29007KT 10SM CLR 02/M09 A3033 RMK AO2 SLP266 T00171094,37.9372,-75.4662,10,Wallops Island Facility Arpt,CLR,[],VFR,,,1026.6,,,US,United States
4860,KWDG,2025-11-29 01:49:38.998000+00:00,1764380700,2025-11-29T02:00:00.000Z,11.0,1.0,170,20.0,10+,1015.7,0,,,METAR,METAR KWDG 290145Z 17020KT 10SM OVC040 11/01 A2999,36.3781,-97.7888,352,Enid/Woodring Arpt,OVC,"[{'cover': 'OVC', 'base': 4000}]",VFR,,,,,,US,United States
4824,KWDR,2025-11-29 02:02:15.190000+00:00,1764381300,2025-11-29T02:00:00.000Z,2.0,-7.0,,,10+,1028.9,4,,,METAR,METAR KWDR 290155Z 10SM CLR 02/M07 A3038 RMK AO2,33.981,-83.667,280,Winder/Barrow Cnty,CLR,[],VFR,,,,,,US,United States
4830,KWHP,2025-11-29 01:53:28.978000+00:00,1764381300,2025-11-29T02:00:00.000Z,18.0,8.0,0,0.0,10+,1016.3,0,,,METAR,METAR KWHP 290155Z 00000KT 10SM SKC 18/08 A3001,34.2596,-118.4146,302,Los Angeles/Whiteman Arpt,SKC,[],VFR,,,,,,US,United States
4809,KWJF,2025-11-29 02:02:17.228000+00:00,1764381360,2025-11-29T02:00:00.000Z,13.9,2.2,260,11.0,10+,1016.0,4,,,METAR,METAR KWJF 290156Z 26011KT 10SM CLR 14/02 A3000 RMK AO2 SLP165 T01390022,34.7412,-118.2125,712,Lancaster/Fox Arfld,CLR,[],VFR,,,1016.5,,,US,United States
4837,KWLD,2025-11-29 01:58:52.176000+00:00,1764381240,2025-11-29T02:00:00.000Z,11.1,0.6,160,18.0,10+,1016.3,6,,,METAR,METAR KWLD 290154Z AUTO 16018G27KT 10SM OVC043 11/01 A3001 RMK AO2 PK WND 15027/0153 SLP167 T01110006,37.1649,-97.0349,351,Winfield/Strother Fld,OVC,"[{'cover': 'OVC', 'base': 4300}]",VFR,,27.0,1016.7,,,US,United States
4808,KWMC,2025-11-29 02:01:05.741000+00:00,1764381360,2025-11-29T02:00:00.000Z,3.9,-5.6,360,5.0,10+,1020.7,6,,,METAR,METAR KWMC 290156Z AUTO 36005KT 10SM CLR 04/M06 A3014 RMK AO2 SLP208 T00391056,40.9018,-117.8081,1311,Winnemucca Muni,CLR,[],VFR,,,1020.8,,,US,United States
4834,KWRB,2025-11-29 02:08:27.130000+00:00,1764381300,2025-11-29T02:00:00.000Z,3.3,-6.7,0,0.0,7,1028.5,14,,,METAR,METAR KWRB 290155Z AUTO 00000KT 7SM CLR 03/M07 A3037 RMK AO2 SLP289 T00331067 $,32.639,-83.593,82,Warner Robins AFB,CLR,[],VFR,,,1028.9,,,US,United States
4833,KWRI,2025-11-29 02:00:44.038000+00:00,1764381300,2025-11-29T02:00:00.000Z,1.8,-7.8,280,10.0,10+,1022.4,6,,,METAR,METAR KWRI 290155Z AUTO 28010KT 10SM CLR 02/M08 A3019 RMK AO2 SLP224 T00181078,40.016,-74.591,35,McGuire AFB,CLR,[],VFR,,,1022.4,,,US,United States
4845,KWRL,2025-11-29 01:58:48.517000+00:00,1764381180,2025-11-29T02:00:00.000Z,-3.9,-8.9,330,19.0,10+,1015.0,6,,,METAR,METAR KWRL 290153Z AUTO 33019G30KT 10SM SCT019 OVC038 M04/M09 A2997 RMK AO2 PK WND 33032/0142 PRESRR SLP196 T10391089,43.9654,-107.9502,1281,Worland Muni,OVC,"[{'cover': 'SCT', 'base': 1900}, {'cover': 'OVC', 'base': 3800}]",VFR,,30.0,1019.6,,,US,United States
4844,KWST,2025-11-29 01:58:48.302000+00:00,1764381180,2025-11-29T02:00:00.000Z,2.8,-7.8,260,10.0,10+,1016.0,6,,,METAR,METAR KWST 290153Z AUTO 26010G22KT 220V310 10SM CLR 03/M08 A3000 RMK AO2 SLP158 T00281078,41.3509,-71.8055,20,Westerly State Arpt,CLR,[],VFR,,22.0,1015.8,,,US,United States
4841,KWVI,2025-11-29 01:58:45.505000+00:00,1764381180,2025-11-29T02:00:00.000Z,12.8,10.6,0,0.0,7,1017.4,6,,,METAR,METAR KWVI 290153Z AUTO 00000KT 7SM CLR 13/11 A3004 RMK AO2 SLP172 T01280106,36.9394,-121.79,47,Watsonville Muni,CLR,[],VFR,,,1017.2,,,US,United States
4814,KWWD,2025-11-29 02:00:49.438000+00:00,1764381360,2025-11-29T02:00:00.000Z,2.8,-6.7,290,11.0,10+,1024.8,14,,,METAR,METAR KWWD 290156Z AUTO 29011G23KT 10SM CLR 03/M07 A3026 RMK AO2 PK WND 27026/0110 SLP250 T00281067 $,39.0108,-74.9079,4,Wildwood/Cape May Cnty,CLR,[],VFR,,23.0,1025.0,,,US,United States
4829,KWWR,2025-11-29 02:01:03.407000+00:00,1764381300,2025-11-29T02:00:00.000Z,10.0,2.0,170,12.0,10+,1013.3,6,,,METAR,METAR KWWR 290155Z AUTO 17012G19KT 10SM OVC028 10/02 A2992 RMK AO2,36.4374,-99.5234,664,Woodward Arpt,OVC,"[{'cover': 'OVC', 'base': 2800}]",MVFR,,19.0,,,,US,United States
4839,KXNA,2025-11-29 01:57:23.818000+00:00,1764381180,2025-11-29T02:00:00.000Z,9.4,1.1,160,16.0,10+,1020.7,4,-RA,0.005,METAR,METAR KXNA 290153Z 16016KT 10SM -RA BKN065 OVC085 09/01 A3014 RMK AO2 RAB43 SLP211 P0000 T00940011,36.2897,-94.3115,390,Fayetteville/NW Arkansas Rgnl,OVC,"[{'cover': 'BKN', 'base': 6500}, {'cover': 'OVC', 'base': 8500}]",VFR,,,1021.1,,,US,United States
4842,KYIP,2025-11-29 01:58:48.086000+00:00,1764381180,2025-11-29T02:00:00.000Z,-1.1,-10.0,270,13.0,10+,1027.9,4,,,METAR,METAR KYIP 290153Z 27013KT 10SM OVC041 M01/M10 A3035 RMK AO2 SLP283 T10111100,42.242,-83.5214,215,Detroit/Willow Run Arpt,OVC,"[{'cover': 'OVC', 'base': 4100}]",VFR,,,1028.3,,,US,United States
4843,KYKM,2025-11-29 01:59:08.593000+00:00,1764381180,2025-11-29T02:00:00.000Z,2.2,1.1,280,3.0,10+,1027.5,12,,,METAR,METAR KYKM 290153Z 28003KT 10SM CLR 02/01 A3034 RMK AO2 SLP284 T00220011 $,46.564,-120.5349,319,Yakima/McAllister Fld,CLR,[],VFR,,,1028.4,,,US,United States
4815,KYKN,2025-11-29 02:00:59.412000+00:00,1764381360,2025-11-29T02:00:00.000Z,-4.4,-5.6,100,11.0,5,1020.4,70,BR UP,0.005,METAR,METAR KYKN 290156Z AUTO 10011KT 5SM UP BR OVC004 M04/M06 A3013 RMK AO2 UPE01B45SNB35E45 SLP237 P0000 T10441056 FZRANO,42.9141,-97.3807,388,Yankton/Gurney Muni,OVC,"[{'cover': 'OVC', 'base': 400}]",LIFR,,,1023.7,,,US,United States
5073,KYNG,2025-11-29 01:57:32.005000+00:00,1764381060,2025-11-29T02:00:00.000Z,-2.8,-5.6,250,11.0,8,1025.8,12,-SN,0.005,METAR,METAR KYNG 290151Z 25011KT 8SM -SN FEW034 OVC050 M03/M06 A3029 RMK AO2 SLP271 P0000 T10281056 $,41.2548,-80.6736,356,Youngstown-Warren Rgnl,OVC,"[{'cover': 'FEW', 'base': 3400}, {'cover': 'OVC', 'base': 5000}]",VFR,,,1027.1,,,US,United States
5068,KZPH,2025-11-29 02:01:08.790000+00:00,1764381300,2025-11-29T02:00:00.000Z,8.3,3.8,20,7.0,10+,1026.2,6,,,METAR,METAR KZPH 290155Z AUTO 02007KT 10SM CLR 08/04 A3030 RMK A02 T00830038,28.2268,-82.1564,26,Zephyrhills Muni,CLR,[],VFR,,,,,,US,United States
5071,KZZV,2025-11-29 01:58:48.318000+00:00,1764381180,2025-11-29T02:00:00.000Z,-1.1,-6.1,250,4.0,10+,1029.2,6,,,METAR,METAR KZZV 290153Z AUTO 25004KT 10SM OVC050 M01/M06 A3039 RMK AO2 SLP300 T10111061,39.9461,-81.8932,268,Zanesville Muni,OVC,"[{'cover': 'OVC', 'base': 5000}]",VFR,,,1030.0,,,US,United States
4348,LATI,2025-11-29 01:46:05.382000+00:00,1764381000,2025-11-29T02:00:00.000Z,9.0,6.0,190,3.0,6+,1010.0,16,,,METAR,METAR LATI 290150Z 19003KT 170V240 9999 OVC064 09/06 Q1010 NOSIG,41.419,19.716,32,Tirana Intl,OVC,"[{'cover': 'OVC', 'base': 6400}]",VFR,,,,,,AL,Albania
1525,LBGO,2025-11-29 02:01:21.125000+00:00,1764381600,2025-11-29T02:00:00.000Z,6.0,6.0,VRB,2.0,3.11,1014.0,2,RA,,METAR,METAR LBGO 290200Z AUTO VRB02KT 5000 RA BKN002/// OVC005/// 06/06 Q1014,43.151,25.713,84,Gorna Orechovista Arpt,OVC,"[{'cover': 'BKN', 'base': 200}, {'cover': 'OVC', 'base': 500}]",LIFR,,,,,,BG,Bulgaria
3320,LBPD,2025-11-29 02:01:21.095000+00:00,1764381600,2025-11-29T02:00:00.000Z,10.0,10.0,100,5.0,6+,1011.0,2,,,METAR,METAR LBPD 290200Z AUTO 10005KT 9999 OVC140/// 10/10 Q1011,42.064,24.86,182,Plovdiv Arpt,OVC,"[{'cover': 'OVC', 'base': 14000}]",VFR,,,,,,BG,Bulgaria
3889,LBSF,2025-11-29 02:01:21.034000+00:00,1764381600,2025-11-29T02:00:00.000Z,3.0,2.0,300,4.0,6+,1012.0,18,,,METAR,METAR LBSF 290200Z AUTO 30004KT 280V340 9999 FEW008/// OVC010/// 03/02 Q1012 NOSIG,42.694,23.414,531,Sofia Intl,OVC,"[{'cover': 'FEW', 'base': 800}, {'cover': 'OVC', 'base': 1000}]",MVFR,,,,,,BG,Bulgaria
4504,LBWN,2025-11-29 02:06:40.474000+00:00,1764381600,2025-11-29T02:00:00.000Z,13.0,13.0,50,4.0,3.73,1014.0,2,,,METAR,METAR LBWN 290200Z AUTO 05004KT 020V090 6000 SCT010/// OVC014/// 13/13 Q1014 TEMPO 3000 BR BKN006,43.232,27.825,74,Varna Intl,OVC,"[{'cover': 'SCT', 'base': 1000}, {'cover': 'OVC', 'base': 1400}]",MVFR,,,,,,BG,Bulgaria
1316,LCEN,2025-11-29 02:02:12.039000+00:00,1764381000,2025-11-29T02:00:00.000Z,10.0,8.0,230,4.0,6+,1017.0,16,,,METAR,METAR LCEN 290150Z 23004KT 9999 FEW020 10/08 Q1017 NOSIG RMK RWY11R 16004KT,35.155,33.496,91,Ercan Arpt,FEW,"[{'cover': 'FEW', 'base': 2000}]",VFR,,,,,,CY,Cyprus
2267,LCLK,2025-11-29 02:02:32.328000+00:00,1764381600,2025-11-29T02:00:00.000Z,18.0,14.0,330,6.0,6+,1015.0,16,,,METAR,METAR LCLK 290200Z 33006KT CAVOK 18/14 Q1015 NOSIG,34.874,33.617,2,Larnaca Intl,CAVOK,[],VFR,,,,,,CY,Cyprus
3319,LCPH,2025-11-29 02:02:32.379000+00:00,1764381600,2025-11-29T02:00:00.000Z,15.0,8.0,40,9.0,6+,1015.0,18,,,METAR,METAR LCPH 290200Z AUTO 04009KT 010V080 9999 NCD 15/08 Q1015 NOSIG,34.715,32.479,8,Paphos Intl,CLR,[],VFR,,,,,,CY,Cyprus
168,LCRA,2025-11-29 01:57:53.317000+00:00,1764381000,2025-11-29T02:00:00.000Z,15.0,7.0,10,2.0,6+,1015.0,0,,,METAR,METAR LCRA 290150Z 01002KT CAVOK 15/07 Q1015,34.59,32.988,23,Akrotiri Arpt,CAVOK,[],VFR,,,,,,CY,Cyprus
928,LDDU,2025-11-29 02:01:34.766000+00:00,1764381600,2025-11-29T02:00:00.000Z,9.0,0.0,20,15.0,6+,1010.0,0,,,METAR,METAR LDDU 290200Z 02015KT 340V080 CAVOK 09/00 Q1010,42.56,18.269,156,Dubrovnik Arpt,CAVOK,[],VFR,,,,,,HR,Croatia
3055,LDOS,2025-11-29 02:01:34.805000+00:00,1764381600,2025-11-29T02:00:00.000Z,2.0,2.0,220,2.0,6+,1017.0,0,-RA,,METAR,METAR LDOS 290200Z 22002KT 9999 -RA OVC030 02/02 Q1017,45.463,18.81,82,Osijek Arpt,OVC,"[{'cover': 'OVC', 'base': 3000}]",MVFR,,,,,,HR,Croatia
3367,LDPL,2025-11-29 02:01:34.836000+00:00,1764381600,2025-11-29T02:00:00.000Z,9.0,-6.0,50,11.0,6+,1013.0,2,,,METAR,METAR LDPL 290200Z AUTO 05011KT CAVOK 09/M06 Q1013,44.894,13.922,63,Pula Arpt,CAVOK,[],VFR,,,,,,HR,Croatia
3611,LDRI,2025-11-29 02:01:34.872000+00:00,1764381600,2025-11-29T02:00:00.000Z,7.0,-7.0,10,13.0,6+,1014.0,0,,,METAR,METAR LDRI 290200Z 01013KT CAVOK 07/M07 Q1014,45.218,14.573,80,Rijeka Arpt,CAVOK,[],VFR,,,,,,HR,Croatia
3930,LDSP,2025-11-29 02:01:34.902000+00:00,1764381600,2025-11-29T02:00:00.000Z,7.0,0.0,20,6.0,6+,1011.0,2,,,METAR,METAR LDSP 290200Z AUTO 02006KT 9999 BKN077/// 07/00 Q1011,43.539,16.301,16,Split Arpt,BKN,"[{'cover': 'BKN', 'base': 7700}]",VFR,,,,,,HR,Croatia
4968,LDZA,2025-11-29 02:01:34.942000+00:00,1764381600,2025-11-29T02:00:00.000Z,-1.0,-3.0,240,2.0,6+,1018.0,16,,,METAR,METAR LDZA 290200Z 24002KT CAVOK M01/M03 Q1018 NOSIG,45.729,16.054,103,Zagreb/Tuđman Intl,CAVOK,[],VFR,,,,,,HR,Croatia
4965,LDZD,2025-11-29 02:01:34.976000+00:00,1764381600,2025-11-29T02:00:00.000Z,7.0,0.0,80,8.0,6+,1012.0,0,,,METAR,METAR LDZD 290200Z 08008KT 030V100 CAVOK 07/00 Q1012,44.108,15.347,82,Zadar Arpt,CAVOK,[],VFR,,,,,,HR,Croatia
56,LEAB,2025-11-29 02:05:59.465000+00:00,1764381600,2025-11-29T02:00:00.000Z,-2.0,-2.0,160,2.0,6+,1020.0,16,,,METAR,METAR LEAB 290200Z 16002KT CAVOK M02/M02 Q1020 NOSIG,38.952,-1.863,704,Albacete Arpt,CAVOK,[],VFR,,,,,,ES,Spain
19,LEAL,2025-11-29 02:04:16.860000+00:00,1764381600,2025-11-29T02:00:00.000Z,7.0,3.0,250,6.0,6+,1019.0,16,,,METAR,METAR LEAL 290200Z 25006KT CAVOK 07/03 Q1019 NOSIG,38.282,-0.558,26,Alicante Arpt,CAVOK,[],VFR,,,,,,ES,Spain
2276,LEAM,2025-11-29 02:04:17.203000+00:00,1764381600,2025-11-29T02:00:00.000Z,11.0,6.0,330,7.0,6+,1020.0,2,,,METAR,METAR LEAM 290200Z AUTO 33007KT CAVOK 11/06 Q1020,36.846,-2.357,16,Almería Arpt,CAVOK,[],VFR,,,,,,ES,Spain
3094,LEAS,2025-11-29 02:04:17.236000+00:00,1764381600,2025-11-29T02:00:00.000Z,12.0,10.0,230,7.0,6+,1017.0,2,,,METAR,METAR LEAS 290200Z AUTO 23007KT 200V260 9999 BKN050 12/10 Q1017,43.567,-6.044,120,Aviles/Asturias Arpt,BKN,"[{'cover': 'BKN', 'base': 5000}]",VFR,,,,,,ES,Spain
3096,LEBA,2025-11-29 02:06:01.447000+00:00,1764381600,2025-11-29T02:00:00.000Z,2.0,2.0,220,1.0,0.12,1021.0,2,FG UP,,METAR,METAR LEBA 290200Z AUTO 22001KT 0200 R21/0150N -UP FG VV/// 02/02 Q1021,37.842,-4.849,88,Córdoba Arpt,OVX,[],LIFR,,,,,,ES,Spain
303,LEBB,2025-11-29 02:04:17.271000+00:00,1764381600,2025-11-29T02:00:00.000Z,8.0,7.0,VRB,2.0,6+,1018.0,2,,,METAR,METAR LEBB 290200Z AUTO VRB02KT 9999 BKN042 08/07 Q1018,43.298,-2.906,38,Bilbao Arpt,BKN,"[{'cover': 'BKN', 'base': 4200}]",VFR,,,,,,ES,Spain
3627,LEBG,2025-11-29 02:04:23.402000+00:00,1764381600,2025-11-29T02:00:00.000Z,-2.0,-2.0,340,1.0,4.97,1019.0,2,,,METAR,METAR LEBG 290200Z AUTO 34001KT 8000 NSC M02/M02 Q1019,42.356,-3.622,892,Burgos Arpt,CLR,[],MVFR,,,,,,ES,Spain
301,LEBL,2025-11-29 02:04:16.890000+00:00,1764381600,2025-11-29T02:00:00.000Z,8.0,1.0,330,11.0,6+,1018.0,16,,,METAR,METAR LEBL 290200Z 33011KT 9999 FEW040 08/01 Q1018 NOSIG,41.293,2.07,2,Barcelona/Prat Arpt,FEW,"[{'cover': 'FEW', 'base': 4000}]",VFR,,,,,,ES,Spain
646,LECH,2025-11-29 02:04:23.433000+00:00,1764381600,2025-11-29T02:00:00.000Z,5.0,1.0,200,3.0,5.59,1019.0,2,,,METAR,METAR LECH 290200Z AUTO 20003KT 9000 NCD 05/01 Q1019,40.211,0.067,360,Castellón Arpt,CLR,[],VFR,,,,,,ES,Spain
2277,LECO,2025-11-29 02:04:17.303000+00:00,1764381600,2025-11-29T02:00:00.000Z,13.0,12.0,200,9.0,6+,1017.0,2,,,METAR,METAR LECO 290200Z AUTO 20009KT 150V230 9999 FEW016 13/12 Q1017,43.307,-8.372,80,A Coruña Arpt,FEW,"[{'cover': 'FEW', 'base': 1600}]",VFR,,,,,,ES,Spain
1799,LEDA,2025-11-29 02:04:18.953000+00:00,1764381600,2025-11-29T02:00:00.000Z,2.0,-1.0,20,2.0,6+,1019.0,2,,,METAR,METAR LEDA 290200Z AUTO 02002KT CAVOK 02/M01 Q1019,41.734,0.538,352,Lleida-Alguaire Arpt,CAVOK,[],VFR,,,,,,ES,Spain
1486,LEGE,2025-11-29 02:04:17.335000+00:00,1764381600,2025-11-29T02:00:00.000Z,3.0,0.0,60,1.0,6+,1018.0,16,,,METAR,METAR LEGE 290200Z 06001KT CAVOK 03/00 Q1018 NOSIG,41.911,2.763,140,Gerona/Costa Brava Arpt,CAVOK,[],VFR,,,,,,ES,Spain
1509,LEGR,2025-11-29 02:04:17.370000+00:00,1764381600,2025-11-29T02:00:00.000Z,1.0,0.0,280,1.0,6+,1021.0,2,,,METAR,METAR LEGR 290200Z AUTO 28001KT CAVOK 01/M00 Q1021,37.19,-3.789,560,Granada/Lorca Arpt,CAVOK,[],VFR,,,,,,ES,Spain
1788,LEHC,2025-11-29 02:06:01.543000+00:00,1764381600,2025-11-29T02:00:00.000Z,-1.0,-2.0,360,2.0,6+,1018.0,2,,,METAR,METAR LEHC 290200Z AUTO 36002KT CAVOK M01/M02 Q1018,42.082,-0.324,540,Huesca/Pirineos Arpt,CAVOK,[],VFR,,,,,,ES,Spain
1809,LEIB,2025-11-29 02:04:16.927000+00:00,1764381600,2025-11-29T02:00:00.000Z,8.0,7.0,VRB,2.0,6+,1019.0,2,,,METAR,METAR LEIB 290200Z AUTO VRB02KT 9999 FEW027/// 08/07 Q1019,38.876,1.384,4,Ibiza Arpt,FEW,"[{'cover': 'FEW', 'base': 2700}]",VFR,,,,,,ES,Spain
4791,LEJR,2025-11-29 02:04:19.043000+00:00,1764381600,2025-11-29T02:00:00.000Z,5.0,4.0,70,2.0,4.35,1020.0,2,,,METAR,METAR LEJR 290200Z AUTO 07002KT 7000 NCD 05/04 Q1020,36.751,-6.056,25,Jerez Arpt,CLR,[],MVFR,,,,,,ES,Spain
2545,LELC,2025-11-29 02:04:18.422000+00:00,1764381600,2025-11-29T02:00:00.000Z,6.0,5.0,290,4.0,4.35,1020.0,2,,,METAR,METAR LELC 290200Z AUTO 29004KT 7000 NCD 06/05 Q1020,37.775,-0.812,3,San Javier Arpt,CLR,[],MVFR,,,,,,ES,Spain
2280,LELN,2025-11-29 02:04:18.459000+00:00,1764381600,2025-11-29T02:00:00.000Z,-1.0,-2.0,VRB,1.0,6+,1019.0,2,,,METAR,METAR LELN 290200Z AUTO VRB01KT CAVOK M01/M02 Q1019,42.588,-5.651,911,León Arpt,CAVOK,[],VFR,,,,,,ES,Spain
3609,LELO,2025-11-29 02:06:01.707000+00:00,1764381600,2025-11-29T02:00:00.000Z,4.0,3.0,290,3.0,6+,1019.0,2,,,METAR,METAR LELO 290200Z AUTO 29003KT CAVOK 04/03 Q1019,42.452,-2.331,352,Logrono Arpt,CAVOK,[],VFR,,,,,,ES,Spain
2553,LEMD,2025-11-29 02:04:16.970000+00:00,1764381600,2025-11-29T02:00:00.000Z,1.0,1.0,VRB,2.0,6+,1020.0,16,,,METAR,METAR LEMD 290200Z VRB02KT CAVOK 01/01 Q1020 NOSIG,40.466,-3.555,589,Madrid/Barajas Arpt,CAVOK,[],VFR,,,,,,ES,Spain
18,LEMG,2025-11-29 02:04:17.016000+00:00,1764381600,2025-11-29T02:00:00.000Z,7.0,6.0,300,5.0,6+,1020.0,16,,,METAR,METAR LEMG 290200Z 30005KT CAVOK 07/06 Q1020 NOSIG,36.666,-4.482,5,Málaga Arpt,CAVOK,[],VFR,,,,,,ES,Spain
2550,LEMH,2025-11-29 02:04:17.410000+00:00,1764381600,2025-11-29T02:00:00.000Z,10.0,8.0,300,4.0,6+,1018.0,2,,,METAR,METAR LEMH 290200Z AUTO 30004KT 260V330 CAVOK 10/08 Q1018,39.855,4.216,82,Mahon/Menorca Arpt,CAVOK,[],VFR,,,,,,ES,Spain
3630,LEMI,2025-11-29 02:04:18.540000+00:00,1764381600,2025-11-29T02:00:00.000Z,7.0,3.0,290,6.0,6+,1019.0,2,,,METAR,METAR LEMI 290200Z AUTO 29006KT CAVOK 07/03 Q1019,37.803,-1.125,193,Murcia Intl,CAVOK,[],VFR,,,,,,ES,Spain
3301,LEMO,2025-11-29 02:06:02.367000+00:00,1764381600,2025-11-29T02:00:00.000Z,5.0,2.0,VRB,2.0,6+,1020.0,16,,,METAR,METAR LEMO 290200Z VRB02KT CAVOK 05/02 Q1020 NOSIG,37.175,-5.616,82,Morón,CAVOK,[],VFR,,,,,,ES,Spain
3316,LEPA,2025-11-29 02:04:17.060000+00:00,1764381600,2025-11-29T02:00:00.000Z,3.0,3.0,VRB,1.0,6+,1019.0,16,,,METAR,METAR LEPA 290200Z VRB01KT 9999 FEW025 03/03 Q1019 NOSIG,39.561,2.737,8,Palma De Mallorca Arpr,FEW,"[{'cover': 'FEW', 'base': 2500}]",VFR,,,,,,ES,Spain
3314,LEPP,2025-11-29 02:04:18.338000+00:00,1764381600,2025-11-29T02:00:00.000Z,2.0,2.0,170,2.0,4.97,1018.0,2,,,METAR,METAR LEPP 290200Z AUTO 17002KT 8000 NSC 02/02 Q1018,42.777,-1.65,448,Pamplona Arpt,CLR,[],MVFR,,,,,,ES,Spain
3631,LERS,2025-11-29 02:04:17.446000+00:00,1764381600,2025-11-29T02:00:00.000Z,4.0,3.0,40,5.0,6+,1018.0,2,,,METAR,METAR LERS 290200Z AUTO 04005KT CAVOK 04/03 Q1018,41.15,1.179,68,Reus Arpt,CAVOK,[],VFR,,,,,,ES,Spain
3607,LERT,2025-11-29 02:06:02.423000+00:00,1764381600,2025-11-29T02:00:00.000Z,8.0,7.0,70,4.0,6+,1020.0,16,,,METAR,METAR LERT 290200Z 07004KT CAVOK 08/07 Q1020 NOSIG,36.645,-6.349,27,Rota),CAVOK,[],VFR,,,,,,ES,Spain
3890,LESA,2025-11-29 02:04:18.888000+00:00,1764381600,2025-11-29T02:00:00.000Z,-2.0,-2.0,140,1.0,2.86,1020.0,2,BR,,METAR,METAR LESA 290200Z AUTO 14001KT 4600 BR NCD M02/M02 Q1020,40.96,-5.498,788,Salamanca Arpt,CLR,[],IFR,,,,,,ES,Spain
1188,LESO,2025-11-29 02:04:17.479000+00:00,1764381600,2025-11-29T02:00:00.000Z,6.0,6.0,190,5.0,6+,1019.0,2,,,METAR,METAR LESO 290200Z AUTO 19005KT CAVOK 06/06 Q1019,43.361,-1.787,3,San Sebastian Arpt,CAVOK,[],VFR,,,,,,ES,Spain
3644,LEST,2025-11-29 02:06:49.227000+00:00,1764381600,2025-11-29T02:00:00.000Z,11.0,10.0,220,5.0,3.73,1019.0,0,-DZ,,METAR,METAR LEST 290200Z 22005KT 170V280 6000 2000S -DZ OVC002 11/10 Q1019 TEMPO 3000 BR,42.888,-8.411,363,Santiago Arpt,OVC,"[{'cover': 'OVC', 'base': 200}]",LIFR,,,,,,ES,Spain
4285,LETL,2025-11-29 02:04:23.476000+00:00,1764381600,2025-11-29T02:00:00.000Z,1.0,1.0,0,0.0,6+,1020.0,2,,,METAR,METAR LETL 290200Z AUTO 00000KT CAVOK 01/01 Q1020,40.404,-1.218,1024,Teruel Arpt,CAVOK,[],VFR,,,,,,ES,Spain
4253,LETO,2025-11-29 02:06:02.503000+00:00,1764381600,2025-11-29T02:00:00.000Z,1.0,0.0,20,4.0,6+,1020.0,16,,,METAR,METAR LETO 290200Z 02004KT CAVOK 01/00 Q1020 NOSIG,40.489,-3.451,598,Torrejon,CAVOK,[],VFR,,,,,,ES,Spain
4520,LEVC,2025-11-29 02:04:17.104000+00:00,1764381600,2025-11-29T02:00:00.000Z,6.0,2.0,270,3.0,6+,1019.0,16,,,METAR,METAR LEVC 290200Z 27003KT 220V300 CAVOK 06/02 Q1019 NOSIG,39.489,-0.482,58,Valencia Arpt,CAVOK,[],VFR,,,,,,ES,Spain
4505,LEVD,2025-11-29 02:06:49.280000+00:00,1764381600,2025-11-29T02:00:00.000Z,0.0,0.0,200,2.0,2.17,1019.0,2,BR,,METAR,METAR LEVD 290200Z AUTO 20002KT 3500 1000 BR NCD 00/M00 Q1019,41.706,-4.852,844,Valladolid Arpt,CLR,[],IFR,,,,,,ES,Spain
4503,LEVT,2025-11-29 02:06:49.332000+00:00,1764381600,2025-11-29T02:00:00.000Z,3.0,3.0,40,3.0,0.25,1019.0,0,FG,,METAR,METAR LEVT 290200Z 04003KT 010V070 0400 R04/0650N R22/0600N FG VV002 03/03 Q1019,42.872,-2.733,501,Vitoria Arpt,OVX,"[{'cover': 'OVX', 'base': 200}]",LIFR,2.0,,,,,ES,Spain
4518,LEVX,2025-11-29 02:06:49.384000+00:00,1764381600,2025-11-29T02:00:00.000Z,10.0,10.0,200,5.0,0.09,1019.0,2,FG,,METAR,METAR LEVX 290200Z AUTO 20005KT 0150 R19/1600N R01/0600N FG BKN001 OVC002 10/10 Q1019,42.239,-8.624,253,Vigo/Peinador Arpt,OVC,"[{'cover': 'BKN', 'base': 100}, {'cover': 'OVC', 'base': 200}]",LIFR,,,,,,ES,Spain
3893,LEXJ,2025-11-29 02:04:18.381000+00:00,1764381600,2025-11-29T02:00:00.000Z,9.0,6.0,VRB,2.0,4.35,1018.0,2,,,METAR,METAR LEXJ 290200Z AUTO VRB02KT 7000 NCD 09/06 Q1018,43.429,-3.831,1,Santander/Ballesteros Arpt,CLR,[],MVFR,,,,,,ES,Spain
5000,LEZG,2025-11-29 02:04:19.114000+00:00,1764381600,2025-11-29T02:00:00.000Z,5.0,4.0,VRB,1.0,6+,1019.0,16,,,METAR,METAR LEZG 290200Z VRB01KT CAVOK 05/04 Q1019 NOSIG,41.661,-1.004,245,Zaragoza Arpt,CAVOK,[],VFR,,,,,,ES,Spain
3880,LEZL,2025-11-29 02:04:17.172000+00:00,1764381600,2025-11-29T02:00:00.000Z,7.0,6.0,0,0.0,4.97,1020.0,2,,,METAR,METAR LEZL 290200Z AUTO 00000KT 8000 NCD 07/06 Q1020,37.418,-5.893,26,Seville/San Pablo Arpt,CLR,[],MVFR,,,,,,ES,Spain
900,LFAC,2025-11-29 02:02:31.608000+00:00,1764381600,2025-11-29T02:00:00.000Z,10.0,9.0,200,10.0,6+,1010.0,2,,,METAR,METAR LFAC 290200Z AUTO 20010KT CAVOK 10/09 Q1010,50.962,1.955,3,Calais Arpt,CAVOK,[],VFR,,,,,,FR,France
637,LFAQ,2025-11-29 02:04:17.761000+00:00,1764381600,2025-11-29T02:00:00.000Z,6.0,6.0,170,8.0,0.31,1012.0,2,FG,,METAR,METAR LFAQ 290200Z AUTO 17008KT 0500 0450 R26/0650D FG VV/// 06/06 Q1012,49.972,2.704,107,Albert/Picardie Arpt,OVX,[],LIFR,,,,,,FR,France
2571,LFAT,2025-11-29 02:02:31.659000+00:00,1764381600,2025-11-29T02:00:00.000Z,10.0,8.0,190,7.0,6+,1010.0,2,,,METAR,METAR LFAT 290200Z AUTO 19007KT 9999 FEW043 BKN150 BKN180 10/08 Q1010,50.515,1.623,2,Le Touquet Arpt,BKN,"[{'cover': 'FEW', 'base': 4300}, {'cover': 'BKN', 'base': 15000}, {'cover': 'BKN', 'base': 18000}]",VFR,,,,,,FR,France
32,LFBA,2025-11-29 02:06:41.144000+00:00,1764381600,2025-11-29T02:00:00.000Z,1.0,1.0,110,5.0,0.31,1019.0,2,FG,,METAR,METAR LFBA 290200Z AUTO 11005KT 0500 0450 R29/0650D FG VV/// 01/01 Q1019,44.176,0.593,68,Agen/La Garenne Arpt,OVX,[],LIFR,,,,,,FR,France
356,LFBD,2025-11-29 02:06:42.253000+00:00,1764381600,2025-11-29T02:00:00.000Z,6.0,4.0,210,5.0,6+,1018.0,2,,,METAR,METAR LFBD 290200Z AUTO 21005KT CAVOK 06/04 Q1018 TEMPO 4000 BR BKN014,44.831,-0.691,48,Bordeaux/Mérignac Arpt,CAVOK,[],VFR,,,,,,FR,France
1133,LFBE,2025-11-29 02:02:26.171000+00:00,1764381600,2025-11-29T02:00:00.000Z,6.0,3.0,100,4.0,6+,1019.0,2,,,METAR,METAR LFBE 290200Z AUTO 10004KT 9999 OVC013 06/03 Q1019,44.826,0.516,49,Bergerac/Perigord Arpt,OVC,"[{'cover': 'OVC', 'base': 1300}]",MVFR,,,,,,FR,France
893,LFBG,2025-11-29 02:02:28.936000+00:00,1764381600,2025-11-29T02:00:00.000Z,9.0,7.0,VRB,3.0,6+,1017.0,2,,,METAR,METAR LFBG 290200Z AUTO VRB03KT 9999 OVC029 09/07 Q1017,45.665,-0.316,28,Cognac/Parvaud Arpt,OVC,"[{'cover': 'OVC', 'base': 2900}]",MVFR,,,,,,FR,France
2576,LFBH,2025-11-29 02:06:42.294000+00:00,1764381600,2025-11-29T02:00:00.000Z,13.0,12.0,210,12.0,6+,1015.0,2,,,METAR,METAR LFBH 290200Z AUTO 21012KT 9999 OVC020 13/12 Q1015 TEMPO 4000 SHRA BKN008 BKN017TCU,46.178,-1.193,18,La Rochelle–Île de Ré,OVC,"[{'cover': 'OVC', 'base': 2000}]",MVFR,,,,,,FR,France
3358,LFBI,2025-11-29 02:06:42.339000+00:00,1764381600,2025-11-29T02:00:00.000Z,9.0,9.0,190,10.0,4.97,1016.0,2,,,METAR,METAR LFBI 290200Z AUTO 19010KT 8000 OVC003 09/09 Q1016 TEMPO 2000 -DZRA,46.584,0.309,117,Poitiers/Biard Arpt,OVC,"[{'cover': 'OVC', 'base': 300}]",LIFR,,,,,,FR,France
2259,LFBL,2025-11-29 02:06:41.169000+00:00,1764381600,2025-11-29T02:00:00.000Z,6.0,6.0,130,4.0,0.56,1017.0,2,FG,,METAR,METAR LFBL 290200Z AUTO 13004KT 0900 0800 R21/1000N R03/1200N FG VV/// 06/06 Q1017 TEMPO 1500 DZ,45.863,1.179,402,Limoges/Bellegarde Arpt,OVX,[],LIFR,,,,,,FR,France
4278,LFBO,2025-11-29 02:06:42.383000+00:00,1764381600,2025-11-29T02:00:00.000Z,2.0,1.0,190,3.0,4.35,1020.0,2,,,METAR,METAR LFBO 290200Z AUTO 19003KT 7000 NSC 02/01 Q1020 TEMPO 4000 BR,43.621,1.379,150,Toulouse/Blagnac Arpt,CLR,[],MVFR,,,,,,FR,France
3307,LFBP,2025-11-29 02:02:27.001000+00:00,1764381600,2025-11-29T02:00:00.000Z,3.0,-1.0,120,4.0,6+,1018.0,18,,,METAR,METAR LFBP 290200Z AUTO 12004KT CAVOK 03/M01 Q1018 NOSIG,43.385,-0.416,182,Pau/Uzein Arpt,CAVOK,[],VFR,,,,,,FR,France
2279,LFBT,2025-11-29 02:04:18.224000+00:00,1764381600,2025-11-29T02:00:00.000Z,1.0,-1.0,180,5.0,6+,1018.0,18,,,METAR,METAR LFBT 290200Z AUTO 18005KT CAVOK 01/M01 Q1018 NOSIG,43.189,0.0,359,Tarbes/Ossun Arpt,CAVOK,[],VFR,,,,,,FR,France
17,LFBU,2025-11-29 02:04:17.806000+00:00,1764381600,2025-11-29T02:00:00.000Z,7.0,6.0,140,7.0,6+,1017.0,2,,,METAR,METAR LFBU 290200Z AUTO 14007KT 9999 BKN021 OVC030 07/06 Q1017,45.728,0.22,124,Angouleme/Champniers,OVC,"[{'cover': 'BKN', 'base': 2100}, {'cover': 'OVC', 'base': 3000}]",MVFR,,,,,,FR,France
3325,LFBX,2025-11-29 02:02:26.792000+00:00,1764381600,2025-11-29T02:00:00.000Z,7.0,4.0,VRB,2.0,6+,1018.0,2,,,METAR,METAR LFBX 290200Z AUTO VRB02KT 9999 OVC011 07/04 Q1018,45.196,0.815,97,Perigueux/Bassillac,OVC,"[{'cover': 'OVC', 'base': 1100}]",MVFR,,,,,,FR,France
351,LFBZ,2025-11-29 02:02:27.038000+00:00,1764381600,2025-11-29T02:00:00.000Z,5.0,4.0,150,4.0,6+,1018.0,18,,,METAR,METAR LFBZ 290200Z AUTO 15004KT 120V190 9999 SCT036 SCT042 05/04 Q1018 NOSIG,43.469,-1.534,70,Biarritz/Parme Arpt,SCT,"[{'cover': 'SCT', 'base': 3600}, {'cover': 'SCT', 'base': 4200}]",VFR,,,,,,FR,France
889,LFCK,2025-11-29 02:02:26.505000+00:00,1764381600,2025-11-29T02:00:00.000Z,7.0,6.0,VRB,2.0,6+,1020.0,2,,,METAR,METAR LFCK 290200Z AUTO VRB02KT 9999 OVC018 07/06 Q1020,43.556,2.289,223,Castres/Mazamet Arpt,OVC,"[{'cover': 'OVC', 'base': 1800}]",MVFR,,,,,,FR,France
3610,LFCR,2025-11-29 02:06:47.294000+00:00,1764381600,2025-11-29T02:00:00.000Z,5.0,5.0,230,1.0,0.87,1018.0,2,BR,,METAR,METAR LFCR 290200Z AUTO 23001KT 1400 1200 R31/1600D BR VV/// 05/05 Q1018 TEMPO 0400 FG,44.41,2.483,576,Rodez/Marcillac Arpt,OVX,[],LIFR,,,,,,FR,France
888,LFGJ,2025-11-29 02:02:26.208000+00:00,1764381600,2025-11-29T02:00:00.000Z,6.0,6.0,180,5.0,4.35,1017.0,2,,,METAR,METAR LFGJ 290200Z AUTO 18005KT 7000 OVC004 06/06 Q1017,47.044,5.427,191,Dole/Tavaux Arpt,OVC,"[{'cover': 'OVC', 'base': 400}]",LIFR,,,,,,FR,France
37,LFJR,2025-11-29 02:02:31.704000+00:00,1764381600,2025-11-29T02:00:00.000Z,10.0,10.0,180,3.0,3.73,1014.0,2,,,METAR,METAR LFJR 290200Z AUTO 18003KT 6000 OVC002 10/10 Q1014,47.562,-0.317,50,Anger/Loire Arpt,OVC,"[{'cover': 'OVC', 'base': 200}]",LIFR,,,,,,FR,France
353,LFKB,2025-11-29 02:02:27.073000+00:00,1764381600,2025-11-29T02:00:00.000Z,7.0,1.0,220,6.0,6+,1015.0,18,,,METAR,METAR LFKB 290200Z AUTO 22006KT CAVOK 07/01 Q1015 NOSIG,42.553,9.484,7,Bastia/Poretta Arpt,CAVOK,[],VFR,,,,,,FR,France
615,LFKC,2025-11-29 02:06:42.437000+00:00,1764381600,2025-11-29T02:00:00.000Z,5.0,2.0,190,5.0,6+,1015.0,2,,,METAR,METAR LFKC 290200Z AUTO 19005KT 9999 // NSC 05/02 Q1015,42.531,8.793,38,Calvi/St Catherine Arpt,CLR,[],VFR,,,,,,FR,France
1490,LFKF,2025-11-29 02:02:27.902000+00:00,1764381600,2025-11-29T02:00:00.000Z,0.0,0.0,VRB,3.0,6+,1015.0,2,,,METAR,METAR LFKF 290200Z AUTO VRB03KT CAVOK 00/M00 Q1015,41.501,9.098,15,Figari/Corse Arpt,CAVOK,[],VFR,,,,,,FR,France
30,LFKJ,2025-11-29 02:02:27.945000+00:00,1764381600,2025-11-29T02:00:00.000Z,5.0,2.0,40,7.0,6+,1016.0,18,,,METAR,METAR LFKJ 290200Z AUTO 04007KT 010V070 CAVOK 05/02 Q1016 NOSIG,41.924,8.803,9,Ajaccio/Oro Arpt,CAVOK,[],VFR,,,,,,FR,France
3871,LFKS,2025-11-29 02:04:16.726000+00:00,1764381600,2025-11-29T02:00:00.000Z,7.0,3.0,260,7.0,6+,1015.0,2,,,METAR,METAR LFKS 290200Z AUTO 26007KT CAVOK 07/03 Q1015,41.924,9.406,22,Solenzara,CAVOK,[],VFR,,,,,,FR,France
598,LFLB,2025-11-29 02:02:27.109000+00:00,1764381600,2025-11-29T02:00:00.000Z,1.0,0.0,150,5.0,6+,1019.0,2,,,METAR,METAR LFLB 290200Z AUTO 15005KT CAVOK 01/M00 Q1019,45.637,5.883,234,Chambery Arpt,CAVOK,[],VFR,,,,,,FR,France
622,LFLC,2025-11-29 02:06:42.481000+00:00,1764381600,2025-11-29T02:00:00.000Z,8.0,6.0,180,10.0,6+,1017.0,2,,,METAR,METAR LFLC 290200Z AUTO 18010KT 9999 BKN025 OVC088 08/06 Q1017 TEMPO BKN014,45.787,3.169,325,Clermont-Ferrand/Auvergne Arpt,OVC,"[{'cover': 'BKN', 'base': 2500}, {'cover': 'OVC', 'base': 8800}]",MVFR,,,,,,FR,France
2568,LFLL,2025-11-29 02:02:28.700000+00:00,1764381600,2025-11-29T02:00:00.000Z,4.0,2.0,VRB,2.0,6+,1018.0,16,-RA,,METAR,METAR LFLL 290200Z VRB02KT 9999 -RA SCT016 BKN030 BKN100 04/02 Q1018 NOSIG,45.726,5.078,234,Lyon/St-Exupéry Arpt,BKN,"[{'cover': 'SCT', 'base': 1600}, {'cover': 'BKN', 'base': 3000}, {'cover': 'BKN', 'base': 10000}]",MVFR,,,,,,FR,France
4270,LFLN,2025-11-29 02:03:26.022000+00:00,1764381600,2025-11-29T02:00:00.000Z,8.0,8.0,180,5.0,2.17,1017.0,2,-RA -DZ BR,,METAR,METAR LFLN 290200Z AUTO 18005KT 3500 -RADZ BR FEW007/// OVC016/// ///TCU 08/08 Q1017,46.412,4.025,238,Saint Yan Arpt,OVC,"[{'cover': 'FEW', 'base': 700}, {'cover': 'OVC', 'base': 1600}]",IFR,,,,,,FR,France
2858,LFLP,2025-11-29 02:02:26.541000+00:00,1764381600,2025-11-29T02:00:00.000Z,1.0,0.0,90,2.0,6+,1019.0,2,-RA,,METAR,METAR LFLP 290200Z AUTO 09002KT 9999 -RA SCT064 OVC088 01/M00 Q1019,45.93,6.106,460,Annecy/Meythet Arpt,OVC,"[{'cover': 'SCT', 'base': 6400}, {'cover': 'OVC', 'base': 8800}]",VFR,,,,,,FR,France
1492,LFLS,2025-11-29 02:02:28.021000+00:00,1764381600,2025-11-29T02:00:00.000Z,3.0,0.0,70,8.0,6+,1018.0,2,,,METAR,METAR LFLS 290200Z AUTO 07008KT 9999 FEW048 BKN100 03/M00 Q1018,45.363,5.329,386,Grenoble/Alpes–Isère Arpt,BKN,"[{'cover': 'FEW', 'base': 4800}, {'cover': 'BKN', 'base': 10000}]",VFR,,,,,,FR,France
23,LFLW,2025-11-29 02:02:26.576000+00:00,1764381600,2025-11-29T02:00:00.000Z,6.0,6.0,0,0.0,1.49,1018.0,2,BR,,METAR,METAR LFLW 290200Z AUTO 00000KT 2400 BR BKN003 OVC011 06/06 Q1018,44.899,2.421,638,Aurillac Arpt,OVC,"[{'cover': 'BKN', 'base': 300}, {'cover': 'OVC', 'base': 1100}]",LIFR,,,,,,FR,France
612,LFLX,2025-11-29 02:06:47.328000+00:00,1764381600,2025-11-29T02:00:00.000Z,9.0,9.0,210,9.0,2.67,1016.0,2,-DZ BR,,METAR,METAR LFLX 290200Z AUTO 21009KT 4300 -DZ BR OVC003 09/09 Q1016 TEMPO 2500 BR,46.87,1.741,157,Chateauroux/Deols Arpt,OVC,"[{'cover': 'OVC', 'base': 300}]",LIFR,,,,,,FR,France
2577,LFLY,2025-11-29 02:06:42.518000+00:00,1764381600,2025-11-29T02:00:00.000Z,5.0,3.0,0,0.0,6+,1018.0,2,,,METAR,METAR LFLY 290200Z AUTO 00000KT 9999 BKN019 OVC031 05/03 Q1018 TEMPO BKN014,45.726,4.938,197,Lyon/Bron Arpt,OVC,"[{'cover': 'BKN', 'base': 1900}, {'cover': 'OVC', 'base': 3100}]",MVFR,,,,,,FR,France
656,LFMD,2025-11-29 02:02:26.245000+00:00,1764381600,2025-11-29T02:00:00.000Z,2.0,-3.0,360,5.0,6+,1015.0,2,,,METAR,METAR LFMD 290200Z AUTO 36005KT 320V050 CAVOK 02/M03 Q1015,43.544,6.953,2,Cannes/Mandelieu Arpt,CAVOK,[],VFR,,,,,,FR,France
1134,LFMH,2025-11-29 02:06:42.557000+00:00,1764381600,2025-11-29T02:00:00.000Z,7.0,6.0,160,3.0,4.35,1017.0,2,-RA,,METAR,METAR LFMH 290200Z AUTO 16003KT 7000 -RA FEW017/// BKN028/// BKN035/// ///TCU 07/06 Q1017,45.533,4.293,400,St-Étienne/Bouthéon,BKN,"[{'cover': 'FEW', 'base': 1700}, {'cover': 'BKN', 'base': 2800}, {'cover': 'BKN', 'base': 3500}]",MVFR,,,,,,FR,France
601,LFMK,2025-11-29 02:02:28.196000+00:00,1764381600,2025-11-29T02:00:00.000Z,8.0,4.0,250,7.0,6+,1019.0,2,,,METAR,METAR LFMK 290200Z AUTO 25007KT 220V280 CAVOK 08/04 Q1019,43.214,2.31,124,Carcassonne/Salvaza Arpt,CAVOK,[],VFR,,,,,,FR,France
2883,LFML,2025-11-29 02:02:27.141000+00:00,1764381600,2025-11-29T02:00:00.000Z,0.0,-2.0,140,8.0,6+,1016.0,18,,,METAR,METAR LFML 290200Z AUTO 14008KT CAVOK M00/M02 Q1016 NOSIG,43.438,5.216,20,Marseille Arpt,CAVOK,[],VFR,,,,,,FR,France
2886,LFMN,2025-11-29 02:02:28.730000+00:00,1764381600,2025-11-29T02:00:00.000Z,8.0,-6.0,320,15.0,6+,1015.0,16,,,METAR,METAR LFMN 290200Z 32015KT CAVOK 08/M06 Q1015 NOSIG,43.658,7.216,4,Nice/Côte d'Azur Arpt,CAVOK,[],VFR,,,,,,FR,France
3310,LFMP,2025-11-29 02:02:28.059000+00:00,1764381600,2025-11-29T02:00:00.000Z,11.0,4.0,270,10.0,6+,1017.0,2,,,METAR,METAR LFMP 290200Z AUTO 27010KT CAVOK 11/04 Q1017,42.737,2.873,41,Perpignan/Rivesaltes Arpt,CAVOK,[],VFR,,,,,,FR,France
2885,LFMT,2025-11-29 02:02:28.240000+00:00,1764381600,2025-11-29T02:00:00.000Z,4.0,2.0,VRB,2.0,6+,1017.0,18,,,METAR,METAR LFMT 290200Z AUTO VRB02KT CAVOK 04/02 Q1017 NOSIG,43.577,3.963,1,Montpellier/Méditerranee Arpt,CAVOK,[],VFR,,,,,,FR,France
602,LFMU,2025-11-29 02:02:28.290000+00:00,1764381600,2025-11-29T02:00:00.000Z,7.0,5.0,290,7.0,6+,1017.0,2,,,METAR,METAR LFMU 290200Z AUTO 29007KT CAVOK 07/05 Q1017,43.322,3.353,14,Béziers/Cap d'Agde,CAVOK,[],VFR,,,,,,FR,France
624,LFOB,2025-11-29 02:06:41.821000+00:00,1764381600,2025-11-29T02:00:00.000Z,6.0,6.0,160,4.0,3.73,1013.0,2,,,METAR,METAR LFOB 290200Z AUTO 16004KT 6000 OVC003 06/06 Q1013 TEMPO 0300 FG VV///,49.454,2.113,99,Beauvais/Tille Arpt,OVC,"[{'cover': 'OVC', 'base': 300}]",LIFR,,,,,,FR,France
1151,LFOE,2025-11-29 02:06:41.211000+00:00,1764381600,2025-11-29T02:00:00.000Z,7.0,7.0,190,9.0,0.56,1013.0,2,FG,,METAR,METAR LFOE 290200Z AUTO 19009KT 0900 R22/1100U FG VV/// 07/07 Q1013 BECMG 0400 FG,49.025,1.222,132,Evreux/De LEure,OVX,[],LIFR,,,,,,FR,France
2261,LFOH,2025-11-29 02:02:26.641000+00:00,1764381600,2025-11-29T02:00:00.000Z,9.0,8.0,190,9.0,6+,1011.0,2,,,METAR,METAR LFOH 290200Z AUTO 19009KT CAVOK 09/08 Q1011,49.533,0.091,87,Le Havre/Octeville Arpt,CAVOK,[],VFR,,,,,,FR,France
4763,LFOK,2025-11-29 02:06:46.435000+00:00,1764381600,2025-11-29T02:00:00.000Z,9.0,9.0,240,6.0,2.61,1015.0,2,BR,,METAR,METAR LFOK 290200Z AUTO 24006KT 4200 1000 R10/3600D R28/4300D BR BKN002 OVC026 09/09 Q1015 TEMPO 0300 FG VV///,48.777,4.165,166,Châlons-Vatry Arpt,OVC,"[{'cover': 'BKN', 'base': 200}, {'cover': 'OVC', 'base': 2600}]",LIFR,,,,,,FR,France
4460,LFOP,2025-11-29 02:06:41.243000+00:00,1764381600,2025-11-29T02:00:00.000Z,6.0,6.0,160,6.0,0.5,1012.0,2,FG,,METAR,METAR LFOP 290200Z AUTO 16006KT 0800 0650 R22/1100D FG VV/// 06/06 Q1012,49.383,1.182,149,Rouen/Boos Arpt,OVX,[],LIFR,,,,,,FR,France
4522,LFOT,2025-11-29 02:06:41.852000+00:00,1764381600,2025-11-29T02:00:00.000Z,10.0,10.0,190,8.0,6+,1015.0,2,,,METAR,METAR LFOT 290200Z AUTO 19008KT 9999 OVC003 10/10 Q1015 TEMPO 0800 FG VV///,47.444,0.728,107,Tours/Val de Loire Arpt,OVC,"[{'cover': 'OVC', 'base': 300}]",LIFR,,,,,,FR,France
2544,LFOV,2025-11-29 02:04:18.570000+00:00,1764381600,2025-11-29T02:00:00.000Z,10.0,10.0,200,6.0,3.73,1013.0,2,,,METAR,METAR LFOV 290200Z AUTO 20006KT 170V230 6000 OVC003 10/10 Q1013,48.031,-0.746,99,Laval/Entrammes Arpt,OVC,"[{'cover': 'OVC', 'base': 300}]",LIFR,,,,,,FR,France
2307,LFPB,2025-11-29 02:06:41.885000+00:00,1764381600,2025-11-29T02:00:00.000Z,7.0,7.0,150,5.0,3.73,1014.0,2,,,METAR,METAR LFPB 290200Z AUTO 15005KT 6000 BKN006 07/07 Q1014 TEMPO 0500 VV///,48.967,2.428,50,Paris/Le Bourge Arpt,BKN,"[{'cover': 'BKN', 'base': 600}]",IFR,,,,,,FR,France
623,LFPG,2025-11-29 02:06:41.917000+00:00,1764381600,2025-11-29T02:00:00.000Z,8.0,8.0,180,9.0,3.73,1014.0,0,,,METAR,METAR LFPG 290200Z 18009KT 6000 OVC003 08/08 Q1014 TEMPO 0600 FG VV///,49.015,2.534,107,Paris/De Gaulle Arpt,OVC,"[{'cover': 'OVC', 'base': 300}]",LIFR,,,,,,FR,France
4289,LFPN,2025-11-29 02:02:31.752000+00:00,1764381600,2025-11-29T02:00:00.000Z,8.0,8.0,190,8.0,4.35,1014.0,2,,,METAR,METAR LFPN 290200Z AUTO 19008KT 7000 VV/// 08/08 Q1014,48.752,2.114,152,Toussus le Noble Arpt,OVX,[],MVFR,,,,,,FR,France
3093,LFPO,2025-11-29 02:06:41.954000+00:00,1764381600,2025-11-29T02:00:00.000Z,8.0,8.0,200,6.0,6+,1014.0,2,,,METAR,METAR LFPO 290200Z AUTO 20006KT 9999 OVC003 08/08 Q1014 TEMPO 0500 VV///,48.717,2.384,88,Paris/Orly Fld,OVC,"[{'cover': 'OVC', 'base': 300}]",LIFR,,,,,,FR,France
3315,LFPT,2025-11-29 02:04:17.588000+00:00,1764381600,2025-11-29T02:00:00.000Z,4.0,4.0,150,2.0,0.19,1013.0,2,FG,,METAR,METAR LFPT 290200Z AUTO 15002KT 0300 0250 R05/0375N FG VV/// 04/04 Q1013,49.097,2.041,91,Pontoise-Cormeilles,OVX,[],LIFR,,,,,,FR,France
4499,LFPV,2025-11-29 02:06:41.358000+00:00,1764381600,2025-11-29T02:00:00.000Z,7.0,7.0,190,5.0,0.43,1014.0,2,FG,,METAR,METAR LFPV 290200Z AUTO 19005KT 140V230 0700 0650 R27///// R09/0650D FG VV/// 07/07 Q1014 TEMPO 0400,48.77,2.205,171,Villacoublay,OVX,[],LIFR,,,,,,FR,France
2308,LFQQ,2025-11-29 02:06:41.979000+00:00,1764381600,2025-11-29T02:00:00.000Z,8.0,7.0,170,7.0,3.73,1011.0,2,,,METAR,METAR LFQQ 290200Z AUTO 17007KT 6000 OVC003 08/07 Q1011 TEMPO 0600 FG VV///,50.562,3.089,43,Lille/Lesquin Arpt,OVC,"[{'cover': 'OVC', 'base': 300}]",LIFR,,,,,,FR,France
302,LFRB,2025-11-29 02:06:42.025000+00:00,1764381600,2025-11-29T02:00:00.000Z,12.0,10.0,210,16.0,6+,1009.0,2,,,METAR,METAR LFRB 290200Z AUTO 21016KT 9999 FEW023 BKN047 BKN076 12/10 Q1009 TEMPO 22025G45KT 2000 RA BKN005 BKN020CB,48.444,-4.412,91,Brest/Guipavas Arpt,BKN,"[{'cover': 'FEW', 'base': 2300}, {'cover': 'BKN', 'base': 4700}, {'cover': 'BKN', 'base': 7600}]",VFR,,,,,,FR,France
638,LFRC,2025-11-29 02:04:17.843000+00:00,1764381600,2025-11-29T02:00:00.000Z,10.0,9.0,200,11.0,6+,1009.0,2,,,METAR,METAR LFRC 290200Z AUTO 20011KT 9999 BKN008 OVC012 10/09 Q1009,49.65,-1.47,137,Cherbourg/Manche Arpt,OVC,"[{'cover': 'BKN', 'base': 800}, {'cover': 'OVC', 'base': 1200}]",IFR,,,,,,FR,France
870,LFRD,2025-11-29 02:04:17.689000+00:00,1764381600,2025-11-29T02:00:00.000Z,9.0,8.0,190,10.0,6+,1011.0,18,,,METAR,METAR LFRD 290200Z AUTO 19010KT CAVOK 09/08 Q1011 NOSIG,48.589,-2.075,56,Dinard/Pleurtuit Arpt,CAVOK,[],VFR,,,,,,FR,France
873,LFRG,2025-11-29 02:04:19.158000+00:00,1764381600,2025-11-29T02:00:00.000Z,7.0,7.0,190,7.0,6+,1011.0,2,,,METAR,METAR LFRG 290200Z AUTO 19007KT 9999 FEW005 07/07 Q1011,49.365,0.154,146,Deauville/Saint Gati,FEW,"[{'cover': 'FEW', 'base': 500}]",VFR,,,,,,FR,France
2548,LFRH,2025-11-29 02:06:41.440000+00:00,1764381600,2025-11-29T02:00:00.000Z,12.0,8.0,220,14.0,6+,1011.0,2,,,METAR,METAR LFRH 290200Z AUTO 22014KT 9999 FEW028 BKN049 OVC160 12/08 Q1011 TEMPO BKN014TCU BECMG 22015G25KT,47.761,-3.44,46,Lorient/Bihoue Arpt,OVC,"[{'cover': 'FEW', 'base': 2800}, {'cover': 'BKN', 'base': 4900}, {'cover': 'OVC', 'base': 16000}]",VFR,,,,,,FR,France
1131,LFRI,2025-11-29 02:04:18.616000+00:00,1764381600,2025-11-29T02:00:00.000Z,11.0,10.0,200,4.0,2.36,1015.0,2,-DZ BR,,METAR,METAR LFRI 290200Z AUTO 20004KT 170V230 3800 -DZ BR FEW005 BKN024 OVC030 11/10 Q1015,46.702,-1.379,89,La Roche/Les Ajoncs,OVC,"[{'cover': 'FEW', 'base': 500}, {'cover': 'BKN', 'base': 2400}, {'cover': 'OVC', 'base': 3000}]",IFR,,,,,,FR,France
2278,LFRJ,2025-11-29 02:04:18.187000+00:00,1764381600,2025-11-29T02:00:00.000Z,11.0,10.0,220,11.0,6+,1009.0,2,,,METAR,METAR LFRJ 290200Z AUTO 22011KT 9999 BKN017 BKN034 BKN045 11/10 Q1009,48.527,-4.138,109,Landivisiau,BKN,"[{'cover': 'BKN', 'base': 1700}, {'cover': 'BKN', 'base': 3400}, {'cover': 'BKN', 'base': 4500}]",MVFR,,,,,,FR,France
640,LFRK,2025-11-29 02:04:17.880000+00:00,1764381600,2025-11-29T02:00:00.000Z,9.0,8.0,190,10.0,6+,1011.0,2,,,METAR,METAR LFRK 290200Z AUTO 19010KT CAVOK 09/08 Q1011,49.18,-0.456,66,Caen/Carpiquet Arpt,CAVOK,[],VFR,,,,,,FR,France
2281,LFRM,2025-11-29 02:04:18.649000+00:00,1764381600,2025-11-29T02:00:00.000Z,10.0,10.0,190,3.0,6+,1014.0,2,,,METAR,METAR LFRM 290200Z AUTO 19003KT 160V220 9999 OVC005 10/10 Q1014,47.949,0.202,51,Le Mans/Arnage Arpt,OVC,"[{'cover': 'OVC', 'base': 500}]",IFR,,,,,,FR,France
3647,LFRN,2025-11-29 02:06:42.070000+00:00,1764381600,2025-11-29T02:00:00.000Z,10.0,10.0,180,7.0,6+,1012.0,2,,,METAR,METAR LFRN 290200Z AUTO 18007KT 9999 BKN005 OVC049 10/10 Q1012 TEMPO 3000 BR VV///,48.069,-1.734,35,Rennes/St Jacques Arpt,OVC,"[{'cover': 'BKN', 'base': 500}, {'cover': 'OVC', 'base': 4900}]",IFR,,,,,,FR,France
4509,LFRQ,2025-11-29 02:04:17.658000+00:00,1764381600,2025-11-29T02:00:00.000Z,12.0,9.0,220,10.0,6+,1011.0,2,,,METAR,METAR LFRQ 290200Z AUTO 22010KT 190V250 9999 FEW029 BKN048 BKN054 12/09 Q1011,47.975,-4.168,94,Quimper/Pluguffan Arpt,BKN,"[{'cover': 'FEW', 'base': 2900}, {'cover': 'BKN', 'base': 4800}, {'cover': 'BKN', 'base': 5400}]",VFR,,,,,,FR,France
3095,LFRS,2025-11-29 02:06:42.106000+00:00,1764381600,2025-11-29T02:00:00.000Z,11.0,11.0,190,6.0,6+,1014.0,2,,,METAR,METAR LFRS 290200Z AUTO 19006KT 9999 BKN004 OVC029 11/11 Q1014 TEMPO 0600 FG VV///,47.15,-1.609,26,Nantes/Atlantique Arpt,OVC,"[{'cover': 'BKN', 'base': 400}, {'cover': 'OVC', 'base': 2900}]",LIFR,,,,,,FR,France
4507,LFRV,2025-11-29 02:04:18.684000+00:00,1764381600,2025-11-29T02:00:00.000Z,10.0,8.0,220,6.0,6+,1012.0,2,,,METAR,METAR LFRV 290200Z AUTO 22006KT 190V250 CAVOK 10/08 Q1012,47.722,-2.727,132,Vannes/Meucon Arpt,CAVOK,[],VFR,,,,,,FR,France
3883,LFRZ,2025-11-29 02:06:42.140000+00:00,1764381600,2025-11-29T02:00:00.000Z,12.0,11.0,200,9.0,6+,1013.0,2,,,METAR,METAR LFRZ 290200Z AUTO 20009KT 9999 FEW018 OVC047 12/11 Q1013 TEMPO 3000 -DZRA BKN006,47.312,-2.163,2,St Nazaire/Montoir Arpt,OVC,"[{'cover': 'FEW', 'base': 1800}, {'cover': 'OVC', 'base': 4700}]",VFR,,,,,,FR,France
603,LFSB,2025-11-29 02:06:42.176000+00:00,1764381600,2025-11-29T02:00:00.000Z,4.0,4.0,160,6.0,3.11,1017.0,2,-RA BR,,METAR,METAR LFSB 290200Z AUTO 16006KT 5000 -RA BR SCT011 OVC019 04/04 Q1017 TEMPO BKN010,47.614,7.51,262,Basel/Euro Arpt,OVC,"[{'cover': 'SCT', 'base': 1100}, {'cover': 'OVC', 'base': 1900}]",MVFR,,,,,,FR,France
600,LFSL,2025-11-29 02:02:28.100000+00:00,1764381600,2025-11-29T02:00:00.000Z,6.0,6.0,130,3.0,6+,1018.0,2,,,METAR,METAR LFSL 290200Z AUTO 13003KT 9999 OVC009 06/06 Q1018,45.04,1.486,300,Brive/Souillac Arpt,OVC,"[{'cover': 'OVC', 'base': 900}]",IFR,,,,,,FR,France
1137,LFSN,2025-11-29 02:02:26.709000+00:00,1764381600,2025-11-29T02:00:00.000Z,7.0,6.0,170,6.0,6+,1015.0,2,,,METAR,METAR LFSN 290200Z AUTO 17006KT 9999 OVC008 07/06 Q1015,48.692,6.231,214,Nancy/Essey Arpt,OVC,"[{'cover': 'OVC', 'base': 800}]",IFR,,,,,,FR,France
4295,LFST,2025-11-29 02:06:42.209000+00:00,1764381600,2025-11-29T02:00:00.000Z,6.0,6.0,170,5.0,3.73,1016.0,2,-RA,,METAR,METAR LFST 290200Z AUTO 17005KT 6000 -RA OVC005/// ///TCU 06/06 Q1016 TEMPO BKN006,48.549,7.64,149,Strasbourg/Entzheim Arpt,OVC,"[{'cover': 'OVC', 'base': 500}]",IFR,,,,,,FR,France
4246,LFTH,2025-11-29 02:02:26.411000+00:00,1764381600,2025-11-29T02:00:00.000Z,6.0,-3.0,320,7.0,6+,1015.0,18,,,METAR,METAR LFTH 290200Z AUTO 32007KT CAVOK 06/M03 Q1015 NOSIG,43.094,6.146,3,Toulon/Hyères Arpt,CAVOK,[],VFR,,,,,,FR,France
1136,LFTW,2025-11-29 02:02:26.448000+00:00,1764381600,2025-11-29T02:00:00.000Z,7.0,4.0,310,4.0,6+,1016.0,2,,,METAR,METAR LFTW 290200Z AUTO 31004KT CAVOK 07/04 Q1016,43.757,4.416,91,Nimes/Garons Arpt,CAVOK,[],VFR,,,,,,FR,France
1537,LFVP,2025-11-29 02:03:13.021000+00:00,1764381600,2025-11-29T02:00:00.000Z,6.0,6.0,220,16.0,6+,1000.0,2,,,METAR,METAR LFVP 290200Z AUTO 22016KT 9999 BKN006 OVC078 06/06 Q1000,46.764,-56.169,5,St Pierre Arpt,OVC,"[{'cover': 'BKN', 'base': 600}, {'cover': 'OVC', 'base': 7800}]",IFR,,,,,,PM,Saint Pierre and Miquelon
3754,LGAD,2025-11-29 01:55:50.606000+00:00,1764381000,2025-11-29T02:00:00.000Z,11.0,10.0,140,6.0,6+,1010.0,0,-RA,,METAR,METAR LGAD 290150Z 14006KT 9999 -RA FEW018TCU SCT025 BKN080 11/10 Q1010,37.923,21.287,8,Andravida Arpt,BKN,"[{'cover': 'FEW', 'base': 1800}, {'cover': 'SCT', 'base': 2500}, {'cover': 'BKN', 'base': 8000}]",VFR,,,,,,GR,Greece
183,LGAL,2025-11-29 01:56:02.605000+00:00,1764381000,2025-11-29T02:00:00.000Z,12.0,11.0,50,4.0,6+,1012.0,0,,,METAR,METAR LGAL 290150Z 05004KT 9999 FEW020 SCT035 12/11 Q1012,40.856,25.945,5,Alexandroupolis/Dimokritos Arpt,SCT,"[{'cover': 'FEW', 'base': 2000}, {'cover': 'SCT', 'base': 3500}]",VFR,,,,,,GR,Greece
258,LGAV,2025-11-29 01:24:57.740000+00:00,1764379200,2025-11-29T01:20:00.000Z,13.0,8.0,220,10.0,6+,1010.0,16,,,METAR,METAR LGAV 290120Z 22010KT 9999 FEW018TCU BKN030 13/08 Q1010 NOSIG,37.936,23.945,83,Athens/Venizelos Intl,BKN,"[{'cover': 'FEW', 'base': 1800}, {'cover': 'BKN', 'base': 3000}]",MVFR,,,,,,GR,Greece
4599,LGBL,2025-11-29 01:55:54.144000+00:00,1764381000,2025-11-29T02:00:00.000Z,10.0,8.0,270,5.0,6+,1010.0,0,,,METAR,METAR LGBL 290150Z 27005KT 9999 SCT020 SCT080 10/08 Q1010,39.22,22.794,13,Nea Anchialos Arpt,SCT,"[{'cover': 'SCT', 'base': 2000}, {'cover': 'SCT', 'base': 8000}]",VFR,,,,,,GR,Greece
2226,LGHI,2025-11-29 01:25:54.810000+00:00,1764379200,2025-11-29T01:20:00.000Z,14.0,14.0,230,2.0,4.35,1010.0,0,-TSRA,,METAR,METAR LGHI 290120Z 23002KT 7000 -TSRA FEW010 FEW018CB BKN025 14/14 Q1010,38.343,26.141,6,Chios Isl Arpt,BKN,"[{'cover': 'FEW', 'base': 1000}, {'cover': 'FEW', 'base': 1800}, {'cover': 'BKN', 'base': 2500}]",MVFR,,,,,,GR,Greece
1940,LGIO,2025-11-29 01:56:02.911000+00:00,1764381000,2025-11-29T02:00:00.000Z,7.0,7.0,VRB,1.0,,1009.0,2,,,METAR,METAR LGIO 290150Z AUTO VRB01KT //// // ////// 07/07 Q1009 RE//,39.696,20.823,476,Ioannina Arpt,,,,,,,,,GR,Greece
1949,LGIR,2025-11-29 01:58:04.098000+00:00,1764381000,2025-11-29T02:00:00.000Z,15.0,14.0,150,6.0,6+,1010.0,16,,,METAR,METAR LGIR 290150Z 15006KT 9999 FEW008 FEW018CB SCT025 15/14 Q1010 NOSIG,35.337,25.173,37,Iraklion Intl,SCT,"[{'cover': 'FEW', 'base': 800}, {'cover': 'FEW', 'base': 1800}, {'cover': 'SCT', 'base': 2500}]",VFR,,,,,,GR,Greece
2171,LGKL,2025-11-29 01:56:57.513000+00:00,1764381000,2025-11-29T02:00:00.000Z,9.0,8.0,VRB,3.0,,1010.0,2,,,METAR,METAR LGKL 290150Z AUTO VRB03KT //// // ////// 09/08 Q1010 RE//,37.068,22.026,4,Kalamata Arpt,,,,,,,,,GR,Greece
2166,LGKO,2025-11-29 01:55:50.897000+00:00,1764381000,2025-11-29T02:00:00.000Z,19.0,15.0,150,14.0,6+,1011.0,0,,,METAR,METAR LGKO 290150Z 15014KT 9999 FEW018TCU SCT020 19/15 Q1011,36.801,27.091,130,Kos Arpt,SCT,"[{'cover': 'FEW', 'base': 1800}, {'cover': 'SCT', 'base': 2000}]",VFR,,,,,,GR,Greece
738,LGKR,2025-11-29 01:54:45.654000+00:00,1764381000,2025-11-29T02:00:00.000Z,12.0,11.0,150,10.0,6+,1008.0,16,-RA,,METAR,METAR LGKR 290150Z 15010KT 9999 -RA FEW010 FEW016TCU SCT030 BKN080 12/11 Q1008 NOSIG,39.61,19.913,2,Corfu/Kapodistinas Arpt,BKN,"[{'cover': 'FEW', 'base': 1000}, {'cover': 'FEW', 'base': 1600}, {'cover': 'SCT', 'base': 3000}, {'cover': 'BKN', 'base': 8000}]",VFR,,,,,,GR,Greece
2407,LGKZ,2025-11-29 01:56:57.456000+00:00,1764381000,2025-11-29T02:00:00.000Z,5.0,4.0,330,6.0,,1011.0,2,,,METAR,METAR LGKZ 290150Z AUTO 33006KT 310V050 //// // ////// 05/04 Q1011 RE//,40.288,21.842,615,Kozani/Filippos Arpt,,,,,,,,,GR,Greece
2707,LGLM,2025-11-29 01:55:51.047000+00:00,1764381000,2025-11-29T02:00:00.000Z,16.0,12.0,140,7.0,6+,1010.0,0,TSRA,,METAR,METAR LGLM 290150Z 14007KT 9999 TSRA FEW010 FEW018CB SCT020 16/12 Q1010,39.917,25.236,4,Limnos Island Arpt,SCT,"[{'cover': 'FEW', 'base': 1000}, {'cover': 'FEW', 'base': 1800}, {'cover': 'SCT', 'base': 2000}]",VFR,,,,,,GR,Greece
2709,LGMT,2025-11-29 01:56:03.002000+00:00,1764381000,2025-11-29T02:00:00.000Z,13.0,11.0,190,4.0,6+,1012.0,0,-TSRA,,METAR,METAR LGMT 290150Z 19004KT 9999 -TSRA FEW010 FEW018CB BKN025 13/11 Q1012,39.054,26.604,4,Mitilini Arpt,BKN,"[{'cover': 'FEW', 'base': 1000}, {'cover': 'FEW', 'base': 1800}, {'cover': 'BKN', 'base': 2500}]",MVFR,,,,,,GR,Greece
3473,LGPA,2025-11-29 02:06:46.483000+00:00,1764381000,2025-11-29T02:00:00.000Z,17.0,15.0,200,6.0,,1009.0,2,,,METAR,METAR LGPA 290150Z AUTO 20006KT //// // ////// 17/15 Q1009 RE//,37.022,25.114,42,Paros/Kratikos Arpt,,,,,,,,,GR,Greece
3476,LGPZ,2025-11-29 01:56:57.482000+00:00,1764381000,2025-11-29T02:00:00.000Z,11.0,10.0,50,4.0,,1009.0,2,-RA,,METAR,METAR LGPZ 290150Z AUTO 05004KT 030V090 //// -RA ////// 11/10 Q1009 RE//,38.921,20.761,3,Preveza/Aktion Arpt,,,,,,,,,GR,Greece
3762,LGRP,2025-11-29 01:56:57.571000+00:00,1764381000,2025-11-29T02:00:00.000Z,19.0,14.0,VRB,7.0,6+,1012.0,16,DZ,,METAR,METAR LGRP 290150Z VRB07KT 9999 DZ FEW010 SCT018 19/14 Q1012 WS ALL RWY NOSIG,36.405,28.086,3,Rhodes/Diagoras Arpt,SCT,"[{'cover': 'FEW', 'base': 1000}, {'cover': 'SCT', 'base': 1800}]",VFR,,,,,,GR,Greece
1633,LGRX,2025-11-29 01:56:03.237000+00:00,1764381000,2025-11-29T02:00:00.000Z,10.0,10.0,0,0.0,6+,1010.0,0,,,METAR,METAR LGRX 290150Z 00000KT 9999 FEW018TCU SCT030 BKN080 10/10 Q1010,38.151,21.426,16,Araxos Arpt,BKN,"[{'cover': 'FEW', 'base': 1800}, {'cover': 'SCT', 'base': 3000}, {'cover': 'BKN', 'base': 8000}]",VFR,,,,,,GR,Greece
744,LGSA,2025-11-29 01:55:51.211000+00:00,1764381000,2025-11-29T02:00:00.000Z,14.0,12.0,290,8.0,6+,1010.0,0,,,METAR,METAR LGSA 290150Z 29008KT 9999 FEW018 SCT025 14/12 Q1010,35.54,24.141,122,Souda Bay/Chania Intl,SCT,"[{'cover': 'FEW', 'base': 1800}, {'cover': 'SCT', 'base': 2500}]",VFR,,,,,,GR,Greece
4060,LGSM,2025-11-29 01:55:51.343000+00:00,1764381000,2025-11-29T02:00:00.000Z,19.0,14.0,160,12.0,6+,1010.0,0,,,METAR,METAR LGSM 290150Z 16012KT 9999 FEW020 SCT025 19/14 Q1010,37.69,26.912,5,Samos Arpt,SCT,"[{'cover': 'FEW', 'base': 2000}, {'cover': 'SCT', 'base': 2500}]",VFR,,,,,,GR,Greece
2167,LGSO,2025-11-29 02:06:46.527000+00:00,1764381000,2025-11-29T02:00:00.000Z,15.0,12.0,280,15.0,,1009.0,2,,,METAR,METAR LGSO 290150Z AUTO 28015KT //// // ////// 15/12 Q1009 RE//,37.422,24.95,71,Syros Island Arpt,,,,,,,,,GR,Greece
4039,LGTS,2025-11-29 01:56:57.601000+00:00,1764381000,2025-11-29T02:00:00.000Z,10.0,10.0,VRB,3.0,0.31,1011.0,16,FG,,METAR,METAR LGTS 290150Z VRB03KT 0500 R10/0800 R28/0550 FG VV003 10/10 Q1011 NOSIG,40.52,22.971,4,Thessaloniki Intl,OVX,"[{'cover': 'OVX', 'base': 300}]",LIFR,3.0,,,,,GR,Greece
643,LHBP,2025-11-29 02:01:35.917000+00:00,1764381600,2025-11-29T02:00:00.000Z,2.0,-1.0,310,3.0,6+,1017.0,16,,,METAR,METAR LHBP 290200Z 31003KT CAVOK 02/M01 Q1017 NOSIG,47.437,19.256,141,Budapest/Liszt Intl,CAVOK,[],VFR,,,,,,HU,Hungary
1037,LHDC,2025-11-29 02:02:31.924000+00:00,1764380700,2025-11-29T02:00:00.000Z,3.0,2.0,VRB,1.0,2.8,1017.0,2,BR,,METAR,METAR LHDC 290145Z AUTO VRB01KT 4500 BR OVC012 03/02 Q1017,47.489,21.615,105,Debrecen Arpt,OVC,"[{'cover': 'OVC', 'base': 1200}]",IFR,,,,,,HU,Hungary
3490,LHPP,2025-11-29 02:02:32.062000+00:00,1764380700,2025-11-29T02:00:00.000Z,2.0,0.0,0,0.0,6+,1017.0,2,,,METAR,METAR LHPP 290145Z AUTO 00000KT 9999 BKN039 OVC064 02/00 Q1017,45.991,18.241,193,Pécs/Pogány Intl,OVC,"[{'cover': 'BKN', 'base': 3900}, {'cover': 'OVC', 'base': 6400}]",VFR,,,,,,HU,Hungary
4073,LHSM,2025-11-29 02:02:32.184000+00:00,1764380700,2025-11-29T02:00:00.000Z,0.0,-1.0,320,6.0,6+,1018.0,2,,,METAR,METAR LHSM 290145Z AUTO 32006KT CAVOK 00/M01 Q1018,46.689,17.161,119,Sármellék/Balaton Arpt,CAVOK,[],VFR,,,,,,HU,Hungary
451,LIBD,2025-11-29 01:57:44.622000+00:00,1764381000,2025-11-29T02:00:00.000Z,9.0,6.0,270,11.0,6+,1011.0,0,,,METAR,METAR LIBD 290150Z 27011KT 9999 FEW040 09/06 Q1011,41.138,16.765,42,Bari/Palese Arpt,FEW,"[{'cover': 'FEW', 'base': 4000}]",VFR,,,,,,IT,Italy
2351,LIBN,2025-11-29 02:08:24.853000+00:00,1764381300,2025-11-29T02:00:00.000Z,10.0,9.0,330,8.0,4.97,1010.0,0,-RA,,METAR,METAR LIBN 290155Z 33008KT 8000 -RA SCT025 BKN040 10/09 Q1010 RMK OVC VIS MIN 8000 WIND THR14 32008KT WIND THR32 33009KT BLU,40.238,18.138,46,Lecce,BKN,"[{'cover': 'SCT', 'base': 2500}, {'cover': 'BKN', 'base': 4000}]",MVFR,,,,,,IT,Italy
3477,LIBP,2025-11-29 01:58:03.893000+00:00,1764381000,2025-11-29T02:00:00.000Z,6.0,5.0,230,4.0,6+,1014.0,2,,,METAR,METAR LIBP 290150Z AUTO 23004KT 9999 OVC037/// 06/05 Q1014,42.432,14.181,10,Pescara/Abruzzo Arpt,OVC,"[{'cover': 'OVC', 'base': 3700}]",VFR,,,,,,IT,Italy
447,LIBR,2025-11-29 01:57:44.676000+00:00,1764381000,2025-11-29T02:00:00.000Z,12.0,9.0,350,10.0,5.59,1010.0,0,,,METAR,METAR LIBR 290150Z 35010KT 9000 FEW025 12/09 Q1010,40.658,17.951,5,Brindisi/Casale Arpt,FEW,"[{'cover': 'FEW', 'base': 2500}]",VFR,,,,,,IT,Italy
4040,LICA,2025-11-29 01:58:03.933000+00:00,1764381000,2025-11-29T02:00:00.000Z,5.0,5.0,80,6.0,6+,1011.0,2,,,METAR,METAR LICA 290150Z AUTO 08006KT 9999 FEW069/// 05/05 Q1011,38.908,16.242,7,Lamezia Terme Arpt,FEW,"[{'cover': 'FEW', 'base': 6900}]",VFR,,,,,,IT,Italy
752,LICB,2025-11-29 01:58:06.962000+00:00,1764381000,2025-11-29T02:00:00.000Z,4.0,3.0,40,3.0,6+,1012.0,2,,,METAR,METAR LICB 290150Z AUTO 04003KT 9999 NCD 04/03 Q1012,36.994,14.606,212,Comiso Arpt,CLR,[],VFR,,,,,,IT,Italy
1032,LICC,2025-11-29 01:57:44.730000+00:00,1764381000,2025-11-29T02:00:00.000Z,6.0,4.0,230,8.0,6+,1011.0,0,,,METAR,METAR LICC 290150Z 23008KT CAVOK 06/04 Q1011,37.467,15.064,6,Catania/Fontanarossa Arpt,CAVOK,[],VFR,,,,,,IT,Italy
2404,LICD,2025-11-29 01:58:07.004000+00:00,1764381000,2025-11-29T02:00:00.000Z,14.0,10.0,330,20.0,6+,1014.0,2,,,METAR,METAR LICD 290150Z AUTO 33020KT 9999 SCT031/// SCT059/// BKN220/// 14/10 Q1014,35.498,12.618,20,Lampedusa Island Arpt,BKN,"[{'cover': 'SCT', 'base': 3100}, {'cover': 'SCT', 'base': 5900}, {'cover': 'BKN', 'base': 22000}]",VFR,,,,,,IT,Italy
3474,LICG,2025-11-29 01:58:07.039000+00:00,1764381000,2025-11-29T02:00:00.000Z,12.0,9.0,330,14.0,6+,1014.0,2,-RA,,METAR,METAR LICG 290150Z AUTO 33014KT 9999 -RA BKN020/// 12/09 Q1014,36.814,11.971,192,Pantelleria Arpt,BKN,"[{'cover': 'BKN', 'base': 2000}]",MVFR,,,,,,IT,Italy
3469,LICJ,2025-11-29 01:57:44.782000+00:00,1764381000,2025-11-29T02:00:00.000Z,10.0,8.0,160,6.0,6+,1013.0,0,,,METAR,METAR LICJ 290150Z 16006KT 140V210 9999 FEW030 SCT065 10/08 Q1013,38.176,13.091,20,Palermo Arpt,SCT,"[{'cover': 'FEW', 'base': 3000}, {'cover': 'SCT', 'base': 6500}]",VFR,,,,,,IT,Italy
3761,LICR,2025-11-29 01:58:03.959000+00:00,1764381000,2025-11-29T02:00:00.000Z,13.0,8.0,50,9.0,6+,1011.0,2,,,METAR,METAR LICR 290150Z AUTO 05009KT 9999 SCT057/// BKN069/// 13/08 Q1011,38.072,15.654,16,Reggio Calabria Arpt,BKN,"[{'cover': 'SCT', 'base': 5700}, {'cover': 'BKN', 'base': 6900}]",VFR,,,,,,IT,Italy
4310,LICT,2025-11-29 02:08:24.040000+00:00,1764381300,2025-11-29T02:00:00.000Z,10.0,8.0,VRB,3.0,6+,1013.0,0,,,METAR,METAR LICT 290155Z VRB03KT 9999 SCT025 10/08 Q1013 RMK BKN SCT070 VIS MIN 9999 WIND THR13 05004KT BLU,37.911,12.488,4,Trapani/Birgi Arpt,SCT,"[{'cover': 'SCT', 'base': 2500}]",VFR,,,,,,IT,Italy
3139,LICZ,2025-11-29 02:08:25.025000+00:00,1764381300,2025-11-29T02:00:00.000Z,7.0,7.0,270,5.0,6+,1012.0,0,,,METAR,METAR LICZ 290155Z 27005KT CAVOK 07/07 Q1012 RMK SKC VIS MIN 9999 WIND THR28 /////KT WIND THR10 /////KT A2990 BLU,37.406,14.919,22,Sigonella,CAVOK,[],VFR,,,,,,IT,Italy
184,LIEA,2025-11-29 01:57:44.177000+00:00,1764381000,2025-11-29T02:00:00.000Z,7.0,6.0,VRB,1.0,6+,1016.0,0,,,METAR,METAR LIEA 290150Z VRB01KT 9999 FEW045 07/06 Q1016,40.631,8.289,22,Alghero/Fertilia Arpt,FEW,"[{'cover': 'FEW', 'base': 4500}]",VFR,,,,,,IT,Italy
950,LIED,2025-11-29 02:08:25.053000+00:00,1764381300,2025-11-29T02:00:00.000Z,6.0,5.0,280,4.0,6+,1016.0,0,,,METAR,METAR LIED 290155Z 28004KT 9999 FEW030 06/05 Q1016 RMK FEW VIS MIN 9999 WIND THR34 31004KT WIND THR16 29005KT BLU,39.354,8.973,26,Decimomannu,FEW,"[{'cover': 'FEW', 'base': 3000}]",VFR,,,,,,IT,Italy
750,LIEE,2025-11-29 01:57:44.226000+00:00,1764381000,2025-11-29T02:00:00.000Z,7.0,4.0,360,5.0,6+,1016.0,0,,,METAR,METAR LIEE 290150Z 36005KT 9999 SCT045 07/04 Q1016,39.243,9.06,1,Cagliari/Elmas Arpt,SCT,"[{'cover': 'SCT', 'base': 4500}]",VFR,,,,,,IT,Italy
3205,LIEO,2025-11-29 01:57:44.267000+00:00,1764381000,2025-11-29T02:00:00.000Z,6.0,4.0,VRB,2.0,6+,1015.0,2,,,METAR,METAR LIEO 290150Z AUTO VRB02KT 9999 NCD 06/04 Q1015,40.899,9.518,8,Olbia/Costa Smeralda Arpt,CLR,[],VFR,,,,,,IT,Italy
2958,LIMC,2025-11-29 01:57:44.311000+00:00,1764381000,2025-11-29T02:00:00.000Z,0.0,-3.0,30,4.0,6+,1015.0,16,,,METAR,METAR LIMC 290150Z 03004KT CAVOK 00/M03 Q1015 NOSIG,45.631,8.728,221,Milan/Malpensa Arpt,CAVOK,[],VFR,,,,,,IT,Italy
452,LIME,2025-11-29 01:57:44.359000+00:00,1764381000,2025-11-29T02:00:00.000Z,1.0,-2.0,10,4.0,6+,1015.0,16,,,METAR,METAR LIME 290150Z 01004KT CAVOK 01/M02 Q1015 NOSIG,45.674,9.704,239,Milan/Bergamo,CAVOK,[],VFR,,,,,,IT,Italy
4351,LIMF,2025-11-29 01:57:44.398000+00:00,1764381000,2025-11-29T02:00:00.000Z,2.0,-6.0,VRB,2.0,6+,1015.0,0,,,METAR,METAR LIMF 290150Z VRB02KT CAVOK 02/M06 Q1015,45.203,7.649,295,Torino/Caselle Arpt,CAVOK,[],VFR,,,,,,IT,Italy
1724,LIMJ,2025-11-29 01:26:03.825000+00:00,1764379200,2025-11-29T01:20:00.000Z,11.0,-6.0,30,10.0,6+,1015.0,0,,,METAR,METAR LIMJ 290120Z 03010KT CAVOK 11/M06 Q1015,44.413,8.838,3,Genoa/Colombo Arpt,CAVOK,[],VFR,,,,,,IT,Italy
2394,LIML,2025-11-29 01:57:44.437000+00:00,1764381000,2025-11-29T02:00:00.000Z,1.0,0.0,VRB,2.0,6+,1016.0,16,,,METAR,METAR LIML 290150Z VRB02KT 9999 FEW080 01/M00 Q1016 NOSIG,45.461,9.263,109,Milan/Linate Arpt,FEW,"[{'cover': 'FEW', 'base': 8000}]",VFR,,,,,,IT,Italy
1022,LIMZ,2025-11-29 01:58:03.991000+00:00,1764381000,2025-11-29T02:00:00.000Z,-1.0,-3.0,230,3.0,6+,1015.0,2,,,METAR,METAR LIMZ 290150Z AUTO 23003KT 9999 BKN200/// M01/M03 Q1015,44.547,7.623,377,Cuneo/Levaldigi Arpt,BKN,"[{'cover': 'BKN', 'base': 20000}]",VFR,,,,,,IT,Italy
462,LIPE,2025-11-29 01:57:44.828000+00:00,1764381000,2025-11-29T02:00:00.000Z,1.0,-1.0,220,6.0,6+,1016.0,0,,,METAR,METAR LIPE 290150Z 22006KT CAVOK 01/M01 Q1016,44.531,11.297,37,Bologna/Marconi Arpt,CAVOK,[],VFR,,,,,,IT,Italy
4352,LIPH,2025-11-29 01:57:44.873000+00:00,1764381000,2025-11-29T02:00:00.000Z,0.0,-3.0,320,2.0,6+,1016.0,2,,,METAR,METAR LIPH 290150Z AUTO 32002KT 9999 NCD 00/M03 Q1016,45.648,12.194,10,Treviso Arpt,CLR,[],VFR,,,,,,IT,Italy
4596,LIPO,2025-11-29 01:58:07.075000+00:00,1764381000,2025-11-29T02:00:00.000Z,0.0,0.0,VRB,1.0,6+,1016.0,2,,,METAR,METAR LIPO 290150Z AUTO VRB01KT 9999 FEW230/// M00/M00 Q1016,45.429,10.331,104,Brescia Arpt,FEW,"[{'cover': 'FEW', 'base': 23000}]",VFR,,,,,,IT,Italy
4353,LIPQ,2025-11-29 01:57:44.914000+00:00,1764381000,2025-11-29T02:00:00.000Z,0.0,-5.0,20,4.0,6+,1015.0,2,,,METAR,METAR LIPQ 290150Z AUTO 02004KT 9999 NCD M00/M05 Q1015,45.828,13.472,6,Trieste Airport,CLR,[],VFR,,,,,,IT,Italy
3749,LIPR,2025-11-29 01:57:44.952000+00:00,1764381000,2025-11-29T02:00:00.000Z,3.0,-3.0,290,5.0,6+,1015.0,2,,,METAR,METAR LIPR 290150Z AUTO 29005KT 9999 NCD 03/M03 Q1015,44.02,12.612,10,Rimini/Miramare Arpt,CLR,[],VFR,,,,,,IT,Italy
4607,LIPX,2025-11-29 01:57:44.994000+00:00,1764381000,2025-11-29T02:00:00.000Z,-1.0,-5.0,40,3.0,6+,1016.0,0,,,METAR,METAR LIPX 290150Z 04003KT CAVOK M01/M05 Q1016,45.387,10.872,67,Verona Arpt,CAVOK,[],VFR,,,,,,IT,Italy
180,LIPY,2025-11-29 01:58:04.027000+00:00,1764381000,2025-11-29T02:00:00.000Z,5.0,0.0,VRB,2.0,6+,1015.0,2,,,METAR,METAR LIPY 290150Z AUTO VRB02KT 9999 NCD 05/00 Q1015,43.617,13.36,11,Falconara/Ancona Arpt,CLR,[],VFR,,,,,,IT,Italy
4604,LIPZ,2025-11-29 01:57:45.032000+00:00,1764381000,2025-11-29T02:00:00.000Z,1.0,-3.0,30,6.0,6+,1015.0,16,,,METAR,METAR LIPZ 290150Z 03006KT CAVOK 01/M03 Q1015 NOSIG,45.505,12.352,3,Venice/Polo Arpt,CAVOK,[],VFR,,,,,,IT,Italy
3679,LIQW,2025-11-29 02:08:24.195000+00:00,1764381300,2025-11-29T02:00:00.000Z,2.0,0.0,350,6.0,,1015.0,2,,,METAR,METAR LIQW 290155Z AUTO 35006KT //// // ///////// 02/00 Q1015,44.088,9.987,6,Sarzana/Luni,,,,,,,,,IT,Italy
749,LIRA,2025-11-29 01:57:44.481000+00:00,1764381000,2025-11-29T02:00:00.000Z,4.0,2.0,40,5.0,6+,1013.0,0,,,METAR,METAR LIRA 290150Z 04005KT CAVOK 04/02 Q1013,41.808,12.585,101,Rome/Ciampino Arpt,CAVOK,[],VFR,,,,,,IT,Italy
1321,LIRF,2025-11-29 01:57:44.522000+00:00,1764381000,2025-11-29T02:00:00.000Z,5.0,1.0,60,5.0,6+,1013.0,16,,,METAR,METAR LIRF 290150Z 06005KT CAVOK 05/01 Q1013 NOSIG,41.8,12.239,2,Rome/Fiumicino,CAVOK,[],VFR,,,,,,IT,Italy
3022,LIRN,2025-11-29 01:26:04.005000+00:00,1764379200,2025-11-29T01:20:00.000Z,9.0,5.0,330,4.0,6+,1013.0,16,,,METAR,METAR LIRN 290120Z 33004KT CAVOK 09/05 Q1013 NOSIG,40.885,14.292,76,Naples Intl,CAVOK,[],VFR,,,,,,IT,Italy
3489,LIRP,2025-11-29 02:08:26.538000+00:00,1764380700,2025-11-29T02:00:00.000Z,1.0,0.0,110,1.0,6+,1015.0,16,,,METAR,METAR LIRP 290145Z 11001KT CAVOK 01/00 Q1015 NOSIG,43.684,10.393,1,Pisa/Galilei Arpt,CAVOK,[],VFR,,,,,,IT,Italy
1317,LIRQ,2025-11-29 01:57:44.568000+00:00,1764381000,2025-11-29T02:00:00.000Z,0.0,-3.0,VRB,2.0,6+,1015.0,0,,,METAR,METAR LIRQ 290150Z VRB02KT CAVOK 00/M03 Q1015,43.81,11.205,33,Florence/Peretola Arpt,CAVOK,[],VFR,,,,,,IT,Italy
1583,LIRS,2025-11-29 02:08:24.262000+00:00,1764381300,2025-11-29T02:00:00.000Z,3.0,0.0,280,3.0,6+,1014.0,0,,,METAR,METAR LIRS 290155Z 28003KT CAVOK 03/M00 Q1014 RMK SKC VIS MIN 9999 WIND THR03 03005KT WIND THR21 02003KT BLU,42.76,11.072,3,Grosseto,CAVOK,[],VFR,,,,,,IT,Italy
3475,LIRZ,2025-11-29 01:58:04.059000+00:00,1764381000,2025-11-29T02:00:00.000Z,1.0,-1.0,VRB,3.0,6+,1014.0,2,,,METAR,METAR LIRZ 290150Z AUTO VRB03KT 9999 NCD 01/M01 Q1014,43.097,12.51,206,Perugia/Egidio Arpt,CLR,[],VFR,,,,,,IT,Italy
2282,LJLJ,2025-11-29 02:04:18.760000+00:00,1764381600,2025-11-29T02:00:00.000Z,-4.0,-5.0,VRB,2.0,6+,1017.0,16,,,METAR,METAR LJLJ 290200Z VRB02KT CAVOK M04/M05 Q1017 NOSIG,46.218,14.477,363,Ljubljana/Pucnik Arpt,CAVOK,[],VFR,,,,,,SI,Slovenia
2542,LJMB,2025-11-29 02:04:18.815000+00:00,1764381600,2025-11-29T02:00:00.000Z,-3.0,-4.0,270,2.0,6+,1018.0,2,,,METAR,METAR LJMB 290200Z AUTO 27002KT 9999 NSC M03/M04 Q1018,46.48,15.682,263,Maribor/Rusjan Arpt,CLR,[],VFR,,,,,,SI,Slovenia
3323,LJPZ,2025-11-29 02:04:18.855000+00:00,1764381600,2025-11-29T02:00:00.000Z,1.0,-6.0,VRB,2.0,6+,1015.0,2,,,METAR,METAR LJPZ 290200Z AUTO VRB02KT 9999 NCD 01/M06 Q1015,45.473,13.615,2,Portorož Arpt,CLR,[],VFR,,,,,,SI,Slovenia
2064,LKKV,2025-11-29 02:02:28.469000+00:00,1764381600,2025-11-29T02:00:00.000Z,-1.0,-1.0,300,2.0,0.93,1014.0,0,-FZDZ BR,,METAR,METAR LKKV 290200Z 30002KT 1500 -FZDZ BR OVC003 M01/M01 Q1014,50.202,12.91,600,Karlovy Vary Intl,OVC,"[{'cover': 'OVC', 'base': 300}]",LIFR,,,,,,CZ,Czech Republic
3092,LKMT,2025-11-29 02:02:28.497000+00:00,1764381600,2025-11-29T02:00:00.000Z,-1.0,-2.0,230,12.0,4.97,1016.0,16,,,METAR,METAR LKMT 290200Z 23012KT 8000 BKN008 M01/M02 Q1016 NOSIG,49.696,18.111,251,Ostrava/Janáček Arpt,BKN,"[{'cover': 'BKN', 'base': 800}]",IFR,,,,,,CZ,Czech Republic
3376,LKPD,2025-11-29 02:06:03.549000+00:00,1764381600,2025-11-29T02:00:00.000Z,-5.0,-6.0,90,3.0,6+,1016.0,0,,,METAR,METAR LKPD 290200Z 09003KT 9999 OVC024 M05/M06 Q1016,50.016,15.74,226,Pardubice Arpt,OVC,"[{'cover': 'OVC', 'base': 2400}]",MVFR,,,,,,CZ,Czech Republic
3311,LKPR,2025-11-29 02:02:28.528000+00:00,1764381600,2025-11-29T02:00:00.000Z,2.0,-3.0,170,3.0,6+,1015.0,16,,,METAR,METAR LKPR 290200Z 17003KT 110V220 9999 FEW033 02/M03 Q1015 NOSIG,50.101,14.26,364,Prague/Havel Arpt,FEW,"[{'cover': 'FEW', 'base': 3300}]",VFR,,,,,,CZ,Czech Republic
355,LKTB,2025-11-29 02:02:28.575000+00:00,1764381600,2025-11-29T02:00:00.000Z,-5.0,-6.0,110,2.0,5.59,1017.0,16,,,METAR,METAR LKTB 290200Z 11002KT 9000 BKN029 M05/M06 Q1017 NOSIG,49.151,16.694,233,Brno/Tuřany Arpt,BKN,"[{'cover': 'BKN', 'base': 2900}]",MVFR,,,,,,CZ,Czech Republic
4349,LLBG,2025-11-29 01:50:43.165000+00:00,1764381000,2025-11-29T02:00:00.000Z,16.0,9.0,VRB,3.0,6+,1015.0,16,,,METAR,METAR LLBG 290150Z VRB03KT CAVOK 16/09 Q1015 NOSIG,32.011,34.887,35,Tel Aviv/Ben Gurion Arpt,CAVOK,[],VFR,,,,,,IL,Israel
2976,LMML,2025-11-29 01:46:05.307000+00:00,1764380700,2025-11-29T02:00:00.000Z,11.0,9.0,320,5.0,6+,1012.0,16,,,METAR,METAR LMML 290145Z 32005KT 9999 FEW028TCU 11/09 Q1012 NOSIG,35.858,14.477,78,Malta Intl,FEW,"[{'cover': 'FEW', 'base': 2800}]",VFR,,,,,,MT,Malta
1650,LOWG,2025-11-29 01:55:48.868000+00:00,1764381000,2025-11-29T02:00:00.000Z,-6.0,-7.0,VRB,2.0,6+,1017.0,2,,,METAR,METAR LOWG 290150Z AUTO VRB02KT 9999 FEW002 M06/M07 Q1017,46.997,15.447,337,Graz Arpt,FEW,"[{'cover': 'FEW', 'base': 200}]",VFR,,,,,,AT,Austria
1936,LOWI,2025-11-29 01:55:48.666000+00:00,1764381000,2025-11-29T02:00:00.000Z,-4.0,-5.0,240,3.0,6+,1020.0,2,,,METAR,METAR LOWI 290150Z AUTO 24003KT 150V270 9999 FEW060 M04/M05 Q1020,47.26,11.344,570,Innsbruck Arpt,FEW,"[{'cover': 'FEW', 'base': 6000}]",VFR,,,,,,AT,Austria
2173,LOWK,2025-11-29 01:56:58.160000+00:00,1764381000,2025-11-29T02:00:00.000Z,-3.0,-3.0,280,3.0,0.56,1019.0,2,BCFG,,METAR,METAR LOWK 290150Z AUTO 28003KT 240V310 0900 R10/1100U R28/0900U BCFG FEW001 BKN002 M03/M03 Q1019,46.648,14.318,450,Klagenfurt Arpt,BKN,"[{'cover': 'FEW', 'base': 100}, {'cover': 'BKN', 'base': 200}]",LIFR,,,,,,AT,Austria
2705,LOWL,2025-11-29 01:55:48.268000+00:00,1764381000,2025-11-29T02:00:00.000Z,-4.0,-4.0,VRB,1.0,0.25,1019.0,2,FZFG,,METAR,METAR LOWL 290150Z AUTO VRB01KT 0400 R26/0600N FZFG BKN001 M04/M04 Q1019,48.233,14.188,290,Linz Arpt,BKN,"[{'cover': 'BKN', 'base': 100}]",LIFR,,,,,,AT,Austria
4350,LOWS,2025-11-29 01:55:48.475000+00:00,1764381000,2025-11-29T02:00:00.000Z,-2.0,-6.0,150,10.0,6+,1018.0,2,,,METAR,METAR LOWS 290150Z AUTO 15010KT 9999 FEW060 M02/M06 Q1018,47.789,13.009,427,Salzburg/Mozart Arpt,FEW,"[{'cover': 'FEW', 'base': 6000}]",VFR,,,,,,AT,Austria
4597,LOWW,2025-11-29 01:55:48.048000+00:00,1764381000,2025-11-29T02:00:00.000Z,-4.0,-6.0,330,4.0,6+,1018.0,16,,,METAR,METAR LOWW 290150Z 33004KT CAVOK M04/M06 Q1018 NOSIG,48.117,16.582,179,Vienna Intl,CAVOK,[],VFR,,,,,,AT,Austria
3916,LPAZ,2025-11-29 02:04:34.599000+00:00,1764381600,2025-11-29T02:00:00.000Z,14.0,9.0,50,6.0,6+,1028.0,0,,,METAR,METAR LPAZ 290200Z 05006KT 9999 FEW020 BKN032 14/09 Q1028,36.971,-25.171,96,Santa Maria Island Arpt,BKN,"[{'cover': 'FEW', 'base': 2000}, {'cover': 'BKN', 'base': 3200}]",VFR,,,,,,PT,Portugal
653,LPBJ,2025-11-29 02:04:34.901000+00:00,1764381600,2025-11-29T02:00:00.000Z,6.0,6.0,260,1.0,2.49,1021.0,0,VCFG,,METAR,METAR LPBJ 290200Z 26001KT 4000 VCFG SCT005 06/06 Q1021,38.073,-7.931,196,Beja Arpt,SCT,"[{'cover': 'SCT', 'base': 500}]",IFR,,,,,,PT,Portugal
1174,LPFR,2025-11-29 02:04:26.225000+00:00,1764381600,2025-11-29T02:00:00.000Z,10.0,8.0,330,3.0,6+,1020.0,0,,,METAR,METAR LPFR 290200Z 33003KT 290V010 CAVOK 10/08 Q1020,37.014,-7.966,3,Faro Arpt,CAVOK,[],VFR,,,,,,PT,Portugal
4247,LPLA,2025-11-29 02:04:40.727000+00:00,1764381600,2025-11-29T02:00:00.000Z,12.0,9.0,130,3.0,6+,1028.0,0,,,METAR,METAR LPLA 290200Z 13003KT 9999 BKN030 12/09 Q1028,38.762,-27.091,60,Lajes Acores Arpt,BKN,"[{'cover': 'BKN', 'base': 3000}]",MVFR,,,,,,PT,Portugal
1173,LPMA,2025-11-29 02:04:26.266000+00:00,1764381600,2025-11-29T02:00:00.000Z,17.0,11.0,340,5.0,6+,1023.0,0,,,METAR,METAR LPMA 290200Z 34005KT 290V020 9999 BKN016 SCT030 17/11 Q1023,32.698,-16.774,54,Madeira Arpt,SCT,"[{'cover': 'BKN', 'base': 1600}, {'cover': 'SCT', 'base': 3000}]",MVFR,,,,,,PT,Portugal
3654,LPMR,2025-11-29 02:02:31.847000+00:00,1764381600,2025-11-29T02:00:00.000Z,10.0,10.0,VRB,1.0,3.73,1021.0,0,,,METAR,METAR LPMR 290200Z VRB01KT 6000 SCT020 BKN038 10/10 Q1021,39.831,-8.887,50,Monte Real,BKN,"[{'cover': 'SCT', 'base': 2000}, {'cover': 'BKN', 'base': 3800}]",MVFR,,,,,,PT,Portugal
3354,LPPD,2025-11-29 02:04:34.631000+00:00,1764381600,2025-11-29T02:00:00.000Z,11.0,7.0,320,6.0,6+,1028.0,0,,,METAR,METAR LPPD 290200Z 32006KT 9999 FEW020 11/07 Q1028,37.741,-25.698,62,Ponta Delgada/Paulo II Arpt,FEW,"[{'cover': 'FEW', 'base': 2000}]",VFR,,,,,,PT,Portugal
3101,LPPR,2025-11-29 02:04:26.302000+00:00,1764381600,2025-11-29T02:00:00.000Z,11.0,10.0,140,3.0,3.11,1020.0,0,BR,,METAR,METAR LPPR 290200Z 14003KT 5000 BR BKN012 BKN018 11/10 Q1020,41.235,-8.684,64,Porto/Cameriro Arpt,BKN,"[{'cover': 'BKN', 'base': 1200}, {'cover': 'BKN', 'base': 1800}]",MVFR,,,,,,PT,Portugal
3347,LPPS,2025-11-29 02:04:26.341000+00:00,1764381600,2025-11-29T02:00:00.000Z,16.0,12.0,20,5.0,6+,1023.0,0,,,METAR,METAR LPPS 290200Z 02005KT 9999 FEW015 16/12 Q1023,33.073,-16.35,89,Porto Santo Isl Arpt,FEW,"[{'cover': 'FEW', 'base': 1500}]",VFR,,,,,,PT,Portugal
2285,LPPT,2025-11-29 02:04:26.373000+00:00,1764381600,2025-11-29T02:00:00.000Z,11.0,10.0,280,4.0,6+,1021.0,0,,,METAR,METAR LPPT 290200Z 28004KT 9999 FEW030 11/10 Q1021,38.781,-9.136,98,Lisbon Arpt,FEW,"[{'cover': 'FEW', 'base': 3000}]",VFR,,,,,,PT,Portugal
320,LQBK,2025-11-29 02:03:36.887000+00:00,1764381600,2025-11-29T02:00:00.000Z,2.0,2.0,VRB,2.0,6+,1018.0,16,,,METAR,METAR LQBK 290200Z VRB02KT 9999 OVC017 02/02 Q1018 NOSIG,44.937,17.299,114,Banja Luka Intl,OVC,"[{'cover': 'OVC', 'base': 1700}]",MVFR,,,,,,BA,Bosnia and Herzegovina
3065,LQMO,2025-11-29 02:03:36.913000+00:00,1764381600,2025-11-29T02:00:00.000Z,3.0,1.0,VRB,2.0,6+,1012.0,0,,,METAR,METAR LQMO 290200Z VRB02KT 9999 FEW060 03/01 Q1012,43.285,17.84,49,Mostar Intl,FEW,"[{'cover': 'FEW', 'base': 6000}]",VFR,,,,,,BA,Bosnia and Herzegovina
3885,LQSA,2025-11-29 02:03:36.944000+00:00,1764381600,2025-11-29T02:00:00.000Z,1.0,0.0,330,4.0,6+,1015.0,0,,,METAR,METAR LQSA 290200Z 33004KT 9999 SCT012 OVC020 01/M00 Q1015,43.825,18.331,505,Sarajevo Intl,OVC,"[{'cover': 'SCT', 'base': 1200}, {'cover': 'OVC', 'base': 2000}]",MVFR,,,,,,BA,Bosnia and Herzegovina
4497,LQTZ,2025-11-29 02:03:36.969000+00:00,1764381600,2025-11-29T02:00:00.000Z,1.0,1.0,300,2.0,1.86,1017.0,0,-RA,,METAR,METAR LQTZ 290200Z 30002KT 3000 -RA BKN014 OVC018 01/01 Q1017,44.461,18.728,242,Tuzla Intl,OVC,"[{'cover': 'BKN', 'base': 1400}, {'cover': 'OVC', 'base': 1800}]",IFR,,,,,,BA,Bosnia and Herzegovina
73,LRAR,2025-11-29 02:04:24.184000+00:00,1764381600,2025-11-29T02:00:00.000Z,2.0,2.0,10,5.0,2.92,1017.0,2,-RA,,METAR,METAR LRAR 290200Z AUTO 01005KT 4700 -RA OVC003/// 02/02 Q1017,46.176,21.264,102,Arad Intl,OVC,"[{'cover': 'OVC', 'base': 300}]",LIFR,,,,,,RO,Romania
329,LRBC,2025-11-29 02:04:23.962000+00:00,1764381600,2025-11-29T02:00:00.000Z,4.0,4.0,340,3.0,1.43,1019.0,2,BR,,METAR,METAR LRBC 290200Z AUTO 34003KT 2300 BR OVC002/// 04/04 Q1019,46.522,26.91,183,Bacău Intl,OVC,"[{'cover': 'OVC', 'base': 200}]",LIFR,,,,,,RO,Romania
327,LRBM,2025-11-29 02:04:24.219000+00:00,1764381600,2025-11-29T02:00:00.000Z,3.0,3.0,280,3.0,3.11,1017.0,2,BR,,METAR,METAR LRBM 290200Z AUTO 28003KT 250V310 5000 BR BKN004/// OVC031/// 03/03 Q1017,47.658,23.47,180,Baia Mare Arpt,OVC,"[{'cover': 'BKN', 'base': 400}, {'cover': 'OVC', 'base': 3100}]",LIFR,,,,,,RO,Romania
326,LRBS,2025-11-29 02:04:24.422000+00:00,1764381600,2025-11-29T02:00:00.000Z,7.0,6.0,60,14.0,0.93,1015.0,16,BR,,METAR,METAR LRBS 290200Z 06014KT 1500 BR OVC001 07/06 Q1015 NOSIG,44.511,26.078,91,Bucharest/Băneasa Intl,OVC,"[{'cover': 'OVC', 'base': 100}]",LIFR,,,,,,RO,Romania
874,LRCK,2025-11-29 02:06:40.519000+00:00,1764381600,2025-11-29T02:00:00.000Z,12.0,12.0,80,9.0,1.86,1015.0,0,-RA BR,,METAR,METAR LRCK 290200Z 08009KT 3000 -RA BR BKN016 12/12 Q1015 TEMPO 5000,44.362,28.488,108,Constanta/Kogălniceanu Arpt,BKN,"[{'cover': 'BKN', 'base': 1600}]",IFR,,,,,,RO,Romania
647,LRCL,2025-11-29 02:04:24.255000+00:00,1764381600,2025-11-29T02:00:00.000Z,6.0,5.0,0,0.0,3.11,1016.0,0,BR,,METAR,METAR LRCL 290200Z 00000KT 5000 BR SCT004 BKN010 OVC014 06/05 Q1016,46.783,23.676,313,Cluj-Napoca Intl,OVC,"[{'cover': 'SCT', 'base': 400}, {'cover': 'BKN', 'base': 1000}, {'cover': 'OVC', 'base': 1400}]",MVFR,,,,,,RO,Romania
879,LRCV,2025-11-29 02:04:23.998000+00:00,1764381600,2025-11-29T02:00:00.000Z,6.0,5.0,0,0.0,3.11,1014.0,0,-RA BR,,METAR,METAR LRCV 290200Z 00000KT 5000 -RA BR OVC002 06/05 Q1014,44.31,23.867,192,Craiova Arpt,OVC,"[{'cover': 'OVC', 'base': 200}]",LIFR,,,,,,RO,Romania
1804,LRIA,2025-11-29 02:04:24.035000+00:00,1764381600,2025-11-29T02:00:00.000Z,4.0,4.0,280,3.0,0.31,1019.0,0,-RA FG,,METAR,METAR LRIA 290200Z 28003KT 220V320 0500 R14/1000D -RA FG OVC001 04/04 Q1019,47.164,27.627,71,Iaşi Intl,OVC,"[{'cover': 'OVC', 'base': 100}]",LIFR,,,,,,RO,Romania
3098,LROD,2025-11-29 02:04:24.292000+00:00,1764381600,2025-11-29T02:00:00.000Z,3.0,3.0,360,4.0,2.24,1016.0,0,BR,,METAR,METAR LROD 290200Z 36004KT 3600 BR SCT003 BKN008 03/03 Q1016,47.036,21.896,132,Oradea Intl,BKN,"[{'cover': 'SCT', 'base': 300}, {'cover': 'BKN', 'base': 800}]",IFR,,,,,,RO,Romania
3099,LROP,2025-11-29 02:04:24.496000+00:00,1764381600,2025-11-29T02:00:00.000Z,7.0,7.0,80,13.0,2.49,1015.0,16,BR,,METAR,METAR LROP 290200Z 08013KT 4000 BR OVC002 07/07 Q1015 NOSIG,44.572,26.102,92,Bucharest/Coandă Intl,OVC,"[{'cover': 'OVC', 'base': 200}]",LIFR,,,,,,RO,Romania
3621,LRSB,2025-11-29 02:04:24.527000+00:00,1764381600,2025-11-29T02:00:00.000Z,6.0,6.0,290,2.0,0.56,1014.0,0,FG,,METAR,METAR LRSB 290200Z 29002KT 0900 R27/0900N FG VV002 06/06 Q1014,45.789,24.091,442,Sibiu Intl,OVX,"[{'cover': 'OVX', 'base': 200}]",LIFR,2.0,,,,,RO,Romania
3881,LRSM,2025-11-29 02:04:24.319000+00:00,1764381600,2025-11-29T02:00:00.000Z,4.0,3.0,0,0.0,4.97,1017.0,2,,,METAR,METAR LRSM 290200Z AUTO 00000KT 8000 FEW012/// SCT021/// OVC043/// 04/03 Q1017,47.703,22.886,123,Satu Mare Arpt,OVC,"[{'cover': 'FEW', 'base': 1200}, {'cover': 'SCT', 'base': 2100}, {'cover': 'OVC', 'base': 4300}]",MVFR,,,,,,RO,Romania
3624,LRSV,2025-11-29 02:04:24.074000+00:00,1764381600,2025-11-29T02:00:00.000Z,2.0,2.0,150,4.0,0.31,1017.0,0,FG,,METAR,METAR LRSV 290200Z 15004KT 0500 R34/0650N FG VV001 02/02 Q1017,47.686,26.354,406,Suceava/Salcea Arpt,OVX,"[{'cover': 'OVX', 'base': 100}]",LIFR,1.0,,,,,RO,Romania
4258,LRTC,2025-11-29 02:04:24.112000+00:00,1764381600,2025-11-29T02:00:00.000Z,11.0,11.0,90,7.0,2.55,1017.0,2,BR,,METAR,METAR LRTC 290200Z AUTO 09007KT 4100 BR FEW008/// OVC018/// 11/11 Q1017,45.065,28.716,52,Tulcea Arpt,OVC,"[{'cover': 'FEW', 'base': 800}, {'cover': 'OVC', 'base': 1800}]",IFR,,,,,,RO,Romania
4256,LRTM,2025-11-29 02:04:24.347000+00:00,1764381600,2025-11-29T02:00:00.000Z,6.0,6.0,VRB,2.0,3.73,1015.0,2,,,METAR,METAR LRTM 290200Z AUTO VRB02KT 6000 OVC027/// 06/06 Q1015,46.468,24.421,289,Targu Mures Arpt,OVC,"[{'cover': 'OVC', 'base': 2700}]",MVFR,,,,,,RO,Romania
4255,LRTR,2025-11-29 02:04:24.554000+00:00,1764381600,2025-11-29T02:00:00.000Z,3.0,3.0,330,4.0,3.11,1016.0,0,-RA BR,,METAR,METAR LRTR 290200Z 33004KT 5000 -RA BR SCT006 OVC024 03/03 Q1016,45.811,21.333,104,Timişoara/Traian Vuia Arpt,OVC,"[{'cover': 'SCT', 'base': 600}, {'cover': 'OVC', 'base': 2400}]",MVFR,,,,,,RO,Romania
1644,LSGG,2025-11-29 01:52:11.620000+00:00,1764381000,2025-11-29T02:00:00.000Z,2.0,1.0,VRB,1.0,4.35,1019.0,18,-SHRA -SHSN,,METAR,METAR LSGG 290150Z AUTO VRB01KT 7000 -SHRASN FEW038 BKN048 02/01 Q1019 RERASN NOSIG,46.248,6.128,411,Geneva/Cointrin Arpt,BKN,"[{'cover': 'FEW', 'base': 3800}, {'cover': 'BKN', 'base': 4800}]",MVFR,,,,,,CH,Switzerland
4048,LSGS,2025-11-29 01:52:11.167000+00:00,1764381000,2025-11-29T02:00:00.000Z,0.0,-2.0,120,3.0,6+,1020.0,2,,,METAR,METAR LSGS 290150Z AUTO 12003KT 9999 BKN100 00/M02 Q1020,46.219,7.33,482,Sion Arpt,BKN,"[{'cover': 'BKN', 'base': 10000}]",VFR,,,,,,CH,Switzerland
1314,LSME,2025-11-29 01:53:18.214000+00:00,1764381000,2025-11-29T02:00:00.000Z,2.0,1.0,0,0.0,,1018.0,2,,,METAR,METAR LSME 290150Z AUTO 00000KT 9999NDV BKN055 BKN080 OVC099 02/01 Q1018 RMK,47.092,8.305,427,Emmen Arpt,OVC,"[{'cover': 'BKN', 'base': 5500}, {'cover': 'BKN', 'base': 8000}, {'cover': 'OVC', 'base': 9900}]",,,,,,,CH,Switzerland
4605,LSMP,2025-11-29 01:53:18.269000+00:00,1764381000,2025-11-29T02:00:00.000Z,2.0,1.0,0,0.0,,1018.0,2,-SHRA,,METAR,METAR LSMP 290150Z AUTO 00000KT 9999NDV -SHRA BKN047 OVC058 02/01 Q1018 RMK,46.844,6.916,490,Payerne Arpt,OVC,"[{'cover': 'BKN', 'base': 4700}, {'cover': 'OVC', 'base': 5800}]",,,,,,,CH,Switzerland
2701,LSZA,2025-11-29 01:52:11.731000+00:00,1764381000,2025-11-29T02:00:00.000Z,1.0,-3.0,VRB,2.0,6+,1016.0,2,,,METAR,METAR LSZA 290150Z AUTO VRB02KT 9999 FEW120 01/M03 Q1016,46.004,8.91,276,Lugano Arpt,FEW,"[{'cover': 'FEW', 'base': 12000}]",VFR,,,,,,CH,Switzerland
444,LSZB,2025-11-29 01:52:11.668000+00:00,1764381000,2025-11-29T02:00:00.000Z,0.0,0.0,140,2.0,6+,1018.0,2,,,METAR,METAR LSZB 290150Z AUTO 14002KT 9999 FEW070 BKN080 00/M00 Q1018,46.914,7.497,510,Bern Arpt,BKN,"[{'cover': 'FEW', 'base': 7000}, {'cover': 'BKN', 'base': 8000}]",VFR,,,,,,CH,Switzerland
739,LSZC,2025-11-29 01:52:11.308000+00:00,1764381000,2025-11-29T02:00:00.000Z,3.0,0.0,290,2.0,6+,1018.0,2,,,METAR,METAR LSZC 290150Z AUTO 29002KT 9999 SCT050 SCT065 BKN075 03/M00 Q1018,46.972,8.392,445,Buochs Arpt,BKN,"[{'cover': 'SCT', 'base': 5000}, {'cover': 'SCT', 'base': 6500}, {'cover': 'BKN', 'base': 7500}]",VFR,,,,,,CH,Switzerland
5077,LSZG,2025-11-29 01:52:11.202000+00:00,1764381000,2025-11-29T02:00:00.000Z,2.0,2.0,230,2.0,3.73,1018.0,2,-RA,,METAR,METAR LSZG 290150Z AUTO 23002KT 6000 -RA FEW042 SCT050 02/02 Q1018 RERASN,47.179,7.415,428,Grenchen Arpt,SCT,"[{'cover': 'FEW', 'base': 4200}, {'cover': 'SCT', 'base': 5000}]",MVFR,,,,,,CH,Switzerland
5075,LSZH,2025-11-29 01:52:11.566000+00:00,1764381000,2025-11-29T02:00:00.000Z,2.0,1.0,140,4.0,6+,1018.0,18,,,METAR,METAR LSZH 290150Z AUTO 14004KT 9999 FEW030 BKN055 02/01 Q1018 NOSIG,47.48,8.536,424,Zürich Intl Arpt,BKN,"[{'cover': 'FEW', 'base': 3000}, {'cover': 'BKN', 'base': 5500}]",VFR,,,,,,CH,Switzerland
177,LSZR,2025-11-29 01:52:11.233000+00:00,1764381000,2025-11-29T02:00:00.000Z,2.0,2.0,VRB,1.0,6+,1017.0,2,-RA,,METAR,METAR LSZR 290150Z AUTO VRB01KT 9999 -RA BKN049 BKN065 02/02 Q1017 RERASN,47.485,9.561,396,Rheineck/Altenrhein,BKN,"[{'cover': 'BKN', 'base': 4900}, {'cover': 'BKN', 'base': 6500}]",VFR,,,,,,CH,Switzerland
4047,LSZS,2025-11-29 01:52:11.269000+00:00,1764381000,2025-11-29T02:00:00.000Z,-11.0,-12.0,180,1.0,6+,1016.0,2,,,METAR,METAR LSZS 290150Z AUTO 18001KT 9999 BKN075 M11/M12 Q1016,46.526,9.879,1708,Samedan Arpt,BKN,"[{'cover': 'BKN', 'base': 7500}]",VFR,,,,,,CH,Switzerland
1327,LTAC,2025-11-29 02:06:49.055000+00:00,1764381000,2025-11-29T02:00:00.000Z,-1.0,-1.0,VRB,2.0,5.59,1020.0,16,,,METAR,METAR LTAC 290150Z VRB02KT 9000 NSC M01/M01 Q1020 NOSIG RMK RWY21C 00000KT RWY03L 00000KT RWY21R 00000KT RWY03R 00000KT RWY21L 00000KT,40.128,32.995,952,Ankara/Esenboğa Intl,CLR,[],VFR,,,,,,TR,Turkey
190,LTAF,2025-11-29 02:02:06.869000+00:00,1764381000,2025-11-29T02:00:00.000Z,12.0,4.0,30,2.0,6+,1017.0,16,,,METAR,METAR LTAF 290150Z 03002KT CAVOK 12/04 Q1017 NOSIG RMK RWY23 05005KT SKC,36.989,35.293,19,Adana Arpt,CAVOK,[],VFR,,,,,,TR,Turkey
4593,LTAG,2025-11-29 02:06:49.094000+00:00,1764381000,2025-11-29T02:00:00.000Z,13.0,3.0,VRB,2.0,6+,1017.0,16,,,METAR,METAR LTAG 290150Z VRB02KT CAVOK 13/03 Q1017 NOSIG RMK SKC,37.002,35.426,62,Adana/Incirlik,CAVOK,[],VFR,,,,,,TR,Turkey
442,LTAI,2025-11-29 02:02:06.907000+00:00,1764381000,2025-11-29T02:00:00.000Z,13.0,9.0,360,7.0,6+,1017.0,16,,,METAR,METAR LTAI 290150Z 36007KT 9999 SCT030 13/09 Q1017 NOSIG RMK RWY18C 36005KT RWY36R 35006KT RWY18L 01004KT,36.9,30.798,50,Antalya Arpt,SCT,"[{'cover': 'SCT', 'base': 3000}]",VFR,,,,,,TR,Turkey
1647,LTAJ,2025-11-29 02:02:06.536000+00:00,1764381000,2025-11-29T02:00:00.000Z,10.0,2.0,330,4.0,6+,1021.0,16,,,METAR,METAR LTAJ 290150Z 33004KT CAVOK 10/02 Q1021 NOSIG RMK RWY10 36004KT 6CI180,36.947,37.479,684,Gaziantep Arpt,CAVOK,[],VFR,,,,,,TR,Turkey
2410,LTAN,2025-11-29 01:59:49.429000+00:00,1764381000,2025-11-29T02:00:00.000Z,1.0,1.0,0,0.0,3.73,1020.0,16,,,METAR,METAR LTAN 290150Z 00000KT 6000 NSC 01/01 Q1020 NOSIG,37.979,32.562,1029,Konya Arpt,CLR,[],MVFR,,,,,,TR,Turkey
2969,LTAP,2025-11-29 01:59:49.460000+00:00,1764381000,2025-11-29T02:00:00.000Z,0.0,0.0,320,2.0,4.97,1020.0,16,,,METAR,METAR LTAP 290150Z 32002KT 8000 NSC M00/M00 Q1020 NOSIG,40.826,35.52,536,Merzifon Arpt,CLR,[],MVFR,,,,,,TR,Turkey
4608,LTAR,2025-11-29 01:59:49.487000+00:00,1764381000,2025-11-29T02:00:00.000Z,-1.0,-3.0,130,6.0,6+,1023.0,0,,,METAR,METAR LTAR 290150Z 13006KT CAVOK M01/M03 Q1023,39.798,36.894,1601,Sivas Arpt,CAVOK,[],VFR,,,,,,TR,Turkey
2957,LTAT,2025-11-29 02:02:06.566000+00:00,1764381000,2025-11-29T02:00:00.000Z,6.0,3.0,0,0.0,4.97,1025.0,16,,,METAR,METAR LTAT 290150Z 00000KT 8000 OVC015 06/03 Q1025 NOSIG RMK RWY03 00000KT,38.435,38.092,850,Malatya Arpt,OVC,"[{'cover': 'OVC', 'base': 1500}]",MVFR,,,,,,TR,Turkey
170,LTAU,2025-11-29 02:02:06.596000+00:00,1764381000,2025-11-29T02:00:00.000Z,-3.0,-5.0,0,0.0,3.73,1021.0,16,,,METAR,METAR LTAU 290150Z 00000KT 6000 NSC M03/M05 Q1021 NOSIG RMK RWY07 09002KT,38.77,35.495,1053,Kayseri Intl,CLR,[],MVFR,,,,,,TR,Turkey
1027,LTAY,2025-11-29 01:59:49.512000+00:00,1764381000,2025-11-29T02:00:00.000Z,10.0,5.0,120,12.0,6+,1016.0,16,,,METAR,METAR LTAY 290150Z 12012KT 080V140 CAVOK 10/05 Q1016 NOSIG,37.785,29.701,851,Çardak Arpt,CAVOK,[],VFR,,,,,,TR,Turkey
2965,LTAZ,2025-11-29 02:06:46.574000+00:00,1764381000,2025-11-29T02:00:00.000Z,1.0,-3.0,100,9.0,6+,1021.0,0,,,METAR,METAR LTAZ 290150Z 10009KT CAVOK 01/M03 Q1021 RMK RWY29 17005KT 150V220,38.771,34.521,944,Nevsehir Arpt,CAVOK,[],VFR,,,,,,TR,Turkey
2169,LTBA,2025-11-29 02:02:06.938000+00:00,1764381000,2025-11-29T02:00:00.000Z,14.0,13.0,280,6.0,6+,1015.0,0,,,METAR,METAR LTBA 290150Z 28006KT 9999 SCT035 BKN100 14/13 Q1015 RMK RWY23 28006KT,40.982,28.821,33,Istanbul/Ataturk Intl,BKN,"[{'cover': 'SCT', 'base': 3500}, {'cover': 'BKN', 'base': 10000}]",VFR,,,,,,TR,Turkey
747,LTBD,2025-11-29 01:59:49.538000+00:00,1764381000,2025-11-29T02:00:00.000Z,14.0,10.0,80,7.0,6+,1012.0,0,,,METAR,METAR LTBD 290150Z 08007KT 050V110 9999 SCT040 BKN090 14/10 Q1012,37.816,27.886,29,Aydin/Çıldır Arpt,BKN,"[{'cover': 'SCT', 'base': 4000}, {'cover': 'BKN', 'base': 9000}]",VFR,,,,,,TR,Turkey
741,LTBF,2025-11-29 02:01:05.941000+00:00,1764381000,2025-11-29T02:00:00.000Z,10.0,10.0,90,5.0,6+,1014.0,0,,,METAR,METAR LTBF 290150Z 09005KT 9999 SCT035 BKN100 10/10 Q1014 TEMPO -TSRA,39.619,27.926,95,Balikesir Arpt,BKN,"[{'cover': 'SCT', 'base': 3500}, {'cover': 'BKN', 'base': 10000}]",VFR,,,,,,TR,Turkey
748,LTBH,2025-11-29 01:59:49.596000+00:00,1764381000,2025-11-29T02:00:00.000Z,14.0,9.0,70,6.0,6+,1011.0,0,-SHRA,,METAR,METAR LTBH 290150Z 07006KT 9999 -SHRA FEW025TCU BKN030 BKN080 14/09 Q1011,40.14,26.425,8,Çanakkale Arpt,BKN,"[{'cover': 'FEW', 'base': 2500}, {'cover': 'BKN', 'base': 3000}, {'cover': 'BKN', 'base': 8000}]",MVFR,,,,,,TR,Turkey
188,LTBJ,2025-11-29 02:02:06.970000+00:00,1764381000,2025-11-29T02:00:00.000Z,16.0,11.0,150,9.0,6+,1010.0,16,,,METAR,METAR LTBJ 290150Z 15009KT 9999 SCT030 BKN100 16/11 Q1010 NOSIG RMK RWY16 18007KT,38.285,27.155,123,Izmir/Menderes Arpt,BKN,"[{'cover': 'SCT', 'base': 3000}, {'cover': 'BKN', 'base': 10000}]",VFR,,,,,,TR,Turkey
4850,LTBR,2025-11-29 02:06:46.633000+00:00,1764381000,2025-11-29T02:00:00.000Z,6.0,6.0,330,3.0,2.17,1014.0,0,BR,,METAR,METAR LTBR 290150Z 33003KT 240V020 3500 BR FEW040 SCT100 06/06 Q1014 BECMG 9999 NSW,40.255,29.562,233,Bursa/Yenisehir Arpt,SCT,"[{'cover': 'FEW', 'base': 4000}, {'cover': 'SCT', 'base': 10000}]",IFR,,,,,,TR,Turkey
1023,LTBS,2025-11-29 02:02:06.996000+00:00,1764381000,2025-11-29T02:00:00.000Z,13.0,11.0,70,4.0,6+,1014.0,16,,,METAR,METAR LTBS 290150Z 07004KT 9999 FEW018CB SCT025 BKN080 13/11 Q1014 NOSIG RMK RWY19 02004KT 1CB018 3CU025 5AC080,36.713,28.793,2,Dalaman Arpt,BKN,"[{'cover': 'FEW', 'base': 1800}, {'cover': 'SCT', 'base': 2500}, {'cover': 'BKN', 'base': 8000}]",VFR,,,,,,TR,Turkey
4355,LTBU,2025-11-29 02:06:46.673000+00:00,1764381000,2025-11-29T02:00:00.000Z,12.0,11.0,230,4.0,3.73,1015.0,0,-SHRA,,METAR,METAR LTBU 290150Z 23004KT 6000 -SHRA SCT005 BKN025 BKN070 12/11 Q1015 RMK RWY22 24005KT,41.139,27.919,165,Corlu Arpt,BKN,"[{'cover': 'SCT', 'base': 500}, {'cover': 'BKN', 'base': 2500}, {'cover': 'BKN', 'base': 7000}]",MVFR,,,,,,TR,Turkey
169,LTBY,2025-11-29 01:59:49.625000+00:00,1764381000,2025-11-29T02:00:00.000Z,6.0,3.0,110,4.0,6+,1017.0,0,,,METAR,METAR LTBY 290150Z 11004KT 050V150 CAVOK 06/03 Q1017,39.81,30.519,788,Eskisehir/Polatkan Arpt,CAVOK,[],VFR,,,,,,TR,Turkey
1337,LTCA,2025-11-29 01:59:49.652000+00:00,1764381000,2025-11-29T02:00:00.000Z,3.0,3.0,240,4.0,2.17,1024.0,16,BR,,METAR,METAR LTCA 290150Z 24004KT 3500 BR BKN016 03/03 Q1024 NOSIG,38.607,39.291,887,Elazığ Arpt,BKN,"[{'cover': 'BKN', 'base': 1600}]",IFR,,,,,,TR,Turkey
3203,LTCB,2025-11-29 01:59:49.680000+00:00,1764381000,2025-11-29T02:00:00.000Z,9.0,3.0,VRB,1.0,6+,1018.0,16,,,METAR,METAR LTCB 290150Z VRB01KT CAVOK 09/03 Q1018 NOSIG,40.967,38.081,5,Ordu/Giresun Arpt,CAVOK,[],VFR,,,,,,TR,Turkey
1021,LTCC,2025-11-29 02:02:06.635000+00:00,1764381000,2025-11-29T02:00:00.000Z,3.0,1.0,250,2.0,6+,1023.0,16,,,METAR,METAR LTCC 290150Z 25002KT CAVOK 03/01 Q1023 NOSIG RMK RWY16 00000KT 5CI200,37.894,40.201,676,Diyarbakır,CAVOK,[],VFR,,,,,,TR,Turkey
1311,LTCD,2025-11-29 02:06:46.712000+00:00,1764381000,2025-11-29T02:00:00.000Z,-3.0,-3.0,0,0.0,0.19,1025.0,16,FZFG,,METAR,METAR LTCD 290150Z 00000KT 0300 R28/0375N R10/0325N FZFG VV001 M03/M03 Q1025 NOSIG,39.71,39.527,1146,Erzincan Arpt,OVX,"[{'cover': 'OVX', 'base': 100}]",LIFR,1.0,,,,,TR,Turkey
1329,LTCE,2025-11-29 02:02:06.674000+00:00,1764381000,2025-11-29T02:00:00.000Z,-6.0,-8.0,VRB,1.0,6+,1025.0,16,,,METAR,METAR LTCE 290150Z VRB01KT CAVOK M06/M08 Q1025 NOSIG RMK RWY08R VRB02KT RWY26R 00000KT RWY08L VRB02KT 2CI180,39.956,41.17,1758,Erzurum Intl,CAVOK,[],VFR,,,,,,TR,Turkey
2388,LTCF,2025-11-29 01:59:49.732000+00:00,1764381000,2025-11-29T02:00:00.000Z,-8.0,-10.0,VRB,2.0,6+,1025.0,16,,,METAR,METAR LTCF 290150Z VRB02KT 9999 FEW040 BKN100 M08/M10 Q1025 NOSIG,40.562,43.115,1794,Kars/Harakani Arpt,BKN,"[{'cover': 'FEW', 'base': 4000}, {'cover': 'BKN', 'base': 10000}]",VFR,,,,,,TR,Turkey
4611,LTCG,2025-11-29 02:02:06.711000+00:00,1764381000,2025-11-29T02:00:00.000Z,13.0,5.0,180,5.0,6+,1018.0,16,,,METAR,METAR LTCG 290150Z 18005KT CAVOK 13/05 Q1018 NOSIG RMK RWY29 19003KT,40.995,39.782,28,Trabzon Arpt,CAVOK,[],VFR,,,,,,TR,Turkey
4609,LTCI,2025-11-29 01:59:49.758000+00:00,1764381000,2025-11-29T02:00:00.000Z,1.0,-3.0,70,3.0,6+,1025.0,16,,,METAR,METAR LTCI 290150Z 07003KT 9999 FEW040 BKN180 01/M03 Q1025 NOSIG,38.469,43.337,1654,Van Arpt,BKN,"[{'cover': 'FEW', 'base': 4000}, {'cover': 'BKN', 'base': 18000}]",VFR,,,,,,TR,Turkey
464,LTCJ,2025-11-29 02:02:06.750000+00:00,1764381000,2025-11-29T02:00:00.000Z,3.0,3.0,0,0.0,2.17,1023.0,16,BR,,METAR,METAR LTCJ 290150Z 00000KT 3500 BR FEW012 BKN180 03/03 Q1023 NOSIG RMK RWY20 00000KT 2ST012 5CI180,37.93,41.117,559,Batman Arpt,BKN,"[{'cover': 'FEW', 'base': 1200}, {'cover': 'BKN', 'base': 18000}]",IFR,,,,,,TR,Turkey
2174,LTCN,2025-11-29 01:59:49.781000+00:00,1764381000,2025-11-29T02:00:00.000Z,5.0,1.0,70,4.0,6+,1022.0,0,,,METAR,METAR LTCN 290150Z 07004KT CAVOK 05/01 Q1022,37.539,36.953,505,Kahramanmaraş Arpt,CAVOK,[],VFR,,,,,,TR,Turkey
2970,LTCR,2025-11-29 01:59:50.441000+00:00,1764381000,2025-11-29T02:00:00.000Z,10.0,2.0,360,3.0,6+,1021.0,0,,,METAR,METAR LTCR 290150Z 36003KT 320V060 CAVOK 10/02 Q1021,37.232,40.638,529,Mardin Arpt,CAVOK,[],VFR,,,,,,TR,Turkey
1651,LTCS,2025-11-29 02:01:45.635000+00:00,1764381000,2025-11-29T02:00:00.000Z,9.0,1.0,40,8.0,6+,1022.0,0,,,METAR,METAR LTCS 290150Z 04008KT CAVOK 09/01 Q1022 RMK RWY22 07008KT 4CI200,37.445,38.904,825,Şanlıurfa GAP Arpt,CAVOK,[],VFR,,,,,,TR,Turkey
1945,LTCT,2025-11-29 01:59:49.820000+00:00,1764381000,2025-11-29T02:00:00.000Z,0.0,-6.0,VRB,2.0,6+,1025.0,0,,,METAR,METAR LTCT 290150Z VRB02KT 9999 FEW080 BKN150 00/M06 Q1025,39.977,43.878,936,Iğdır Arpt,BKN,"[{'cover': 'FEW', 'base': 8000}, {'cover': 'BKN', 'base': 15000}]",VFR,,,,,,TR,Turkey
3204,LTCV,2025-11-29 01:59:49.844000+00:00,1764381000,2025-11-29T02:00:00.000Z,9.0,3.0,300,6.0,6+,1022.0,0,,,METAR,METAR LTCV 290150Z 30006KT CAVOK 09/03 Q1022,37.365,42.06,620,Sirnak Arpt,CAVOK,[],VFR,,,,,,TR,Turkey
4853,LTCW,2025-11-29 01:59:50.481000+00:00,1764381000,2025-11-29T02:00:00.000Z,-6.0,-7.0,310,3.0,2.49,1026.0,0,BR,,METAR,METAR LTCW 290150Z 31003KT 4000 BR SCT008 BKN180 M06/M07 Q1026,37.55,44.238,1852,Yüksekova Arpt,BKN,"[{'cover': 'SCT', 'base': 800}, {'cover': 'BKN', 'base': 18000}]",IFR,,,,,,TR,Turkey
1946,LTDA,2025-11-29 01:59:54.861000+00:00,1764381000,2025-11-29T02:00:00.000Z,11.0,6.0,30,4.0,6+,1020.0,16,,,METAR,METAR LTDA 290150Z 03004KT CAVOK 11/06 Q1020 NOSIG 4AC100,36.361,36.283,80,Hatay Arpt,CAVOK,[],VFR,,,,,,TR,Turkey
2178,LTFC,2025-11-29 02:06:46.744000+00:00,1764381000,2025-11-29T02:00:00.000Z,2.0,0.0,VRB,1.0,6+,1018.0,0,,,METAR,METAR LTFC 290150Z VRB01KT 9999 FEW035 SCT070 02/00 Q1018 RMK RWY23 VRB01KT 2CU035 4AC070,37.855,30.368,862,Isparta/Demirel Arpt,SCT,"[{'cover': 'FEW', 'base': 3500}, {'cover': 'SCT', 'base': 7000}]",VFR,,,,,,TR,Turkey
1336,LTFD,2025-11-29 01:59:49.901000+00:00,1764381000,2025-11-29T02:00:00.000Z,12.0,11.0,60,10.0,4.35,1013.0,0,TSRA,,METAR,METAR LTFD 290150Z 06010KT 010V080 7000 TSRA SCT020CB SCT030 12/11 Q1013,39.559,27.025,15,Balikesir/Seyit Arpt,SCT,"[{'cover': 'SCT', 'base': 2000}, {'cover': 'SCT', 'base': 3000}]",MVFR,,,,,,TR,Turkey
448,LTFE,2025-11-29 02:02:06.787000+00:00,1764381000,2025-11-29T02:00:00.000Z,17.0,15.0,60,6.0,6+,1012.0,0,,,METAR,METAR LTFE 290150Z 06006KT 9999 FEW020CB SCT030 17/15 Q1012 BECMG TL0300 15017KT RMK RWY10 06008KT,37.245,27.673,6,Milas-Bodrun Arpt,SCT,"[{'cover': 'FEW', 'base': 2000}, {'cover': 'SCT', 'base': 3000}]",VFR,,,,,,TR,Turkey
1649,LTFG,2025-11-29 01:59:49.929000+00:00,1764381000,2025-11-29T02:00:00.000Z,13.0,7.0,120,7.0,6+,1017.0,0,,,METAR,METAR LTFG 290150Z 12007KT CAVOK 13/07 Q1017,36.299,32.3,26,Gazipasa Arpt,CAVOK,[],VFR,,,,,,TR,Turkey
4354,LTFH,2025-11-29 01:59:49.967000+00:00,1764381000,2025-11-29T02:00:00.000Z,5.0,3.0,VRB,3.0,6+,1017.0,16,,,METAR,METAR LTFH 290150Z VRB03KT CAVOK 05/03 Q1017 NOSIG,41.255,36.567,7,Samsun-Çarşamba Arpt,CAVOK,[],VFR,,,,,,TR,Turkey
3750,LTFJ,2025-11-29 02:06:46.783000+00:00,1764381000,2025-11-29T02:00:00.000Z,13.0,11.0,330,4.0,6+,1014.0,16,,,METAR,METAR LTFJ 290150Z 33004KT 260V360 9999 SCT040 BKN100 13/11 Q1014 NOSIG RMK RWY24R 32004KT RWY06R 31004KT 280V010 RWY24L VRB02KT,40.899,29.309,83,Istanbul/Gokcen Intl,BKN,"[{'cover': 'SCT', 'base': 4000}, {'cover': 'BKN', 'base': 10000}]",VFR,,,,,,TR,Turkey
2170,LTFM,2025-11-29 02:01:45.767000+00:00,1764381000,2025-11-29T02:00:00.000Z,13.0,11.0,VRB,5.0,6+,1015.0,16,-SHRA,,METAR,METAR LTFM 290150Z VRB05G15KT 9999 -SHRA SCT032 BKN090 13/11 Q1015 NOSIG RMK RWY17L 25006KT RWY34L 23005KT RWY16R 25005KT RWY36 22006KT RWY18 24006G16KT 190V250,41.262,28.74,99,Istanbul Arpt,BKN,"[{'cover': 'SCT', 'base': 3200}, {'cover': 'BKN', 'base': 9000}]",VFR,,15.0,,,,TR,Turkey
3648,LUKK,2025-11-29 02:06:40.550000+00:00,1764381600,2025-11-29T02:00:00.000Z,7.0,7.0,30,2.0,0.75,1018.0,0,PRFG BR,,METAR,METAR LUKK 290200Z 03002KT 1200 0900SW R08/1000N BR PRFG OVC002 07/07 Q1018 TEMPO 0800 FG VV001,46.928,28.931,102,Chişinău Arpt,OVC,"[{'cover': 'OVC', 'base': 200}]",LIFR,,,,,,MD,"Moldova, Republic of"
4043,LWSK,2025-11-29 01:46:27.178000+00:00,1764381000,2025-11-29T02:00:00.000Z,4.0,2.0,40,5.0,6+,1014.0,16,,,METAR,METAR LWSK 290150Z 04005KT 9999 BKN010 OVC033 04/02 Q1014 NOSIG,41.952,21.627,232,Skopje Intl,OVC,"[{'cover': 'BKN', 'base': 1000}, {'cover': 'OVC', 'base': 3300}]",MVFR,,,,,,MK,"Macedonia, the former Yugoslav Republic of"
1646,LXGB,2025-11-29 02:02:30.839000+00:00,1764381000,2025-11-29T02:00:00.000Z,12.0,10.0,240,5.0,6+,1020.0,2,,,METAR,METAR LXGB 290150Z AUTO 24005KT 9999 NCD 12/10 Q1020,36.151,-5.35,5,Gibraltar Arpt,CLR,[],VFR,,,,,,GI,Gibraltar
314,LYBE,2025-11-29 02:03:25.084000+00:00,1764381600,2025-11-29T02:00:00.000Z,0.0,0.0,270,6.0,1.55,1017.0,16,-SN BR,,METAR,METAR LYBE 290200Z 27006KT 2500 -SN BR BKN002 00/M00 Q1017 NOSIG,44.824,20.291,93,Belgrade/Tesla Arpt,BKN,"[{'cover': 'BKN', 'base': 200}]",LIFR,,,,,,RS,Serbia
315,LYBT,2025-11-29 02:03:25.123000+00:00,1764381600,2025-11-29T02:00:00.000Z,1.0,1.0,250,4.0,1.24,1018.0,16,-RA BR,,METAR,METAR LYBT 290200Z 25004KT 2000 -RA BR BKN003 01/01 Q1018 NOSIG,44.935,20.258,78,Batajnica,BKN,"[{'cover': 'BKN', 'base': 300}]",LIFR,,,,,,RS,Serbia
2268,LYKV,2025-11-29 02:03:25.161000+00:00,1764381600,2025-11-29T02:00:00.000Z,0.0,0.0,0,0.0,0.62,1017.0,16,SN BR,,METAR,METAR LYKV 290200Z 00000KT 1000 R31/1600D R13/1600D SN BR BKN005 BKN021 00/00 Q1017 NOSIG,43.818,20.587,209,Kraljevo/Ladevci Arpt,BKN,"[{'cover': 'BKN', 'base': 500}, {'cover': 'BKN', 'base': 2100}]",LIFR,,,,,,RS,Serbia
1818,LYNI,2025-11-29 02:03:25.211000+00:00,1764381600,2025-11-29T02:00:00.000Z,2.0,1.0,330,10.0,6+,1016.0,16,,,METAR,METAR LYNI 290200Z 33010KT 9999 FEW008 SCT013 BKN023 02/01 Q1016 NOSIG,43.338,21.863,197,Niš Arpt,BKN,"[{'cover': 'FEW', 'base': 800}, {'cover': 'SCT', 'base': 1300}, {'cover': 'BKN', 'base': 2300}]",MVFR,,,,,,RS,Serbia
4250,LYPG,2025-11-29 02:03:25.249000+00:00,1764381600,2025-11-29T02:00:00.000Z,7.0,3.0,300,4.0,6+,1011.0,16,,,METAR,METAR LYPG 290200Z 30004KT 9999 FEW053 BKN083 07/03 Q1011 NOSIG,42.359,19.252,32,Podgorica Arpt,BKN,"[{'cover': 'FEW', 'base': 5300}, {'cover': 'BKN', 'base': 8300}]",VFR,,,,,,ME,Montenegro
4252,LYTV,2025-11-29 02:03:25.294000+00:00,1764381600,2025-11-29T02:00:00.000Z,8.0,6.0,0,0.0,6+,1010.0,2,,,METAR,METAR LYTV 290200Z AUTO 00000KT CAVOK 08/06 Q1010,42.405,18.723,3,Tivat Arpt,CAVOK,[],VFR,,,,,,ME,Montenegro
660,LZIB,2025-11-29 02:01:35.203000+00:00,1764381600,2025-11-29T02:00:00.000Z,-2.0,-3.0,10,3.0,6+,1018.0,16,,,METAR,METAR LZIB 290200Z 01003KT 9999 FEW003 BKN030 M02/M03 Q1018 NOSIG,48.17,17.207,129,Bratislava/Ivanka Arpt,BKN,"[{'cover': 'FEW', 'base': 300}, {'cover': 'BKN', 'base': 3000}]",MVFR,,,,,,SK,Slovakia
2288,LZKZ,2025-11-29 02:01:35.257000+00:00,1764381600,2025-11-29T02:00:00.000Z,2.0,-1.0,10,1.0,6+,1016.0,16,,,METAR,METAR LZKZ 290200Z 01001KT 9999 BKN034 02/M01 Q1016 NOSIG,48.661,21.24,227,Košice Intl,BKN,"[{'cover': 'BKN', 'base': 3400}]",VFR,,,,,,SK,Slovakia
3605,LZPP,2025-11-29 02:06:46.824000+00:00,1764381600,2025-11-29T02:00:00.000Z,-3.0,-4.0,20,7.0,1.06,1018.0,2,,,METAR,METAR LZPP 290200Z AUTO 02007KT 1700 // VV002 M03/M04 Q1018,48.613,17.832,160,Piešťany Arpt,OVX,"[{'cover': 'OVX', 'base': 200}]",LIFR,2.0,,,,,SK,Slovakia
4241,LZTT,2025-11-29 02:01:35.309000+00:00,1764381600,2025-11-29T02:00:00.000Z,-2.0,-3.0,250,4.0,6+,1014.0,0,,,METAR,METAR LZTT 290200Z 25004KT CAVOK M02/M03 Q1014,49.068,20.25,693,Poprad/Tatry Arpt,CAVOK,[],VFR,,,,,,SK,Slovakia
1815,LZZI,2025-11-29 02:06:46.871000+00:00,1764381600,2025-11-29T02:00:00.000Z,-6.0,-6.0,VRB,1.0,3.11,1018.0,2,,,METAR,METAR LZZI 290200Z AUTO VRB01KT 5000 // OVC002/// M06/M06 Q1018,49.231,18.613,311,Žilina Arpt,OVC,"[{'cover': 'OVC', 'base': 200}]",LIFR,,,,,,SK,Slovakia
2088,MDJB,2025-11-29 02:01:21.249000+00:00,1764381600,2025-11-29T02:00:00.000Z,24.0,23.0,0,0.0,6+,1016.0,0,,,METAR,METAR MDJB 290200Z 00000KT 9999 FEW014CB BKN016 24/23 Q1016 CB/SW/W,18.577,-69.984,24,La Isabela Intl,BKN,"[{'cover': 'FEW', 'base': 1400}, {'cover': 'BKN', 'base': 1600}]",MVFR,,,,,,DO,Dominican Republic
2596,MDLR,2025-11-29 02:01:21.288000+00:00,1764381600,2025-11-29T02:00:00.000Z,22.0,22.0,0,0.0,6+,1016.0,0,,,METAR,METAR MDLR 290200Z 00000KT 9999 FEW016 22/22 Q1016,18.451,-68.921,66,La Romana Intl,FEW,"[{'cover': 'FEW', 'base': 1600}]",VFR,,,,,,DO,Dominican Republic
3348,MDPC,2025-11-29 02:06:40.063000+00:00,1764381600,2025-11-29T02:00:00.000Z,24.0,23.0,0,0.0,6+,1016.0,0,TS,,METAR,METAR MDPC 290200Z 00000KT 9999 TS FEW014CB FEW016 SCT300 24/23 Q1016 CB/N,18.566,-68.356,10,Punta Cana Intl,SCT,"[{'cover': 'FEW', 'base': 1400}, {'cover': 'FEW', 'base': 1600}, {'cover': 'SCT', 'base': 30000}]",VFR,,,,,,DO,Dominican Republic
3317,MDPP,2025-11-29 02:01:21.178000+00:00,1764381600,2025-11-29T02:00:00.000Z,24.0,23.0,0,0.0,6+,1015.0,0,,,METAR,METAR MDPP 290200Z 00000KT 9999 SCT017 24/23 Q1015,19.759,-70.571,9,Puerto Plata Arpt,SCT,"[{'cover': 'SCT', 'base': 1700}]",VFR,,,,,,DO,Dominican Republic
3914,MDSD,2025-11-29 02:06:40.098000+00:00,1764381600,2025-11-29T02:00:00.000Z,23.0,22.0,10,4.0,6+,1016.0,0,,,METAR,METAR MDSD 290200Z 01004KT 9999 FEW015CB SCT016 23/22 Q1016 CB/SW/W,18.433,-69.667,18,Santo Domingo/Améric,SCT,"[{'cover': 'FEW', 'base': 1500}, {'cover': 'SCT', 'base': 1600}]",VFR,,,,,,DO,Dominican Republic
3886,MDST,2025-11-29 02:06:40.128000+00:00,1764381600,2025-11-29T02:00:00.000Z,21.0,21.0,0,0.0,6+,1016.0,0,,,METAR,METAR MDST 290200Z 00000KT 9999 FEW015CB SCT016 21/21 Q1016 CB/SW,19.407,-70.614,175,Santiago/Cibao Intl,SCT,"[{'cover': 'FEW', 'base': 1500}, {'cover': 'SCT', 'base': 1600}]",VFR,,,,,,DO,Dominican Republic
1511,MGGT,2025-11-29 01:59:28.852000+00:00,1764381600,2025-11-29T02:00:00.000Z,17.0,13.0,20,12.0,6+,1023.0,0,,,METAR,METAR MGGT 290200Z 02012KT 9999 BKN016 17/13 Q1023 A3021,14.585,-90.526,1497,Guatemala/Aurora Arpt,BKN,"[{'cover': 'BKN', 'base': 1600}]",MVFR,,,,,,GT,Guatemala
1777,MGHT,2025-11-29 01:59:34.132000+00:00,1764381600,2025-11-29T02:00:00.000Z,14.0,11.0,50,4.0,6+,,0,,,METAR,METAR MGHT 290200Z 05004KT CAVOK 14/11,15.317,-91.503,1875,Huehuetenango Arpt,CAVOK,[],VFR,,,,,,GT,Guatemala
3306,MGPB,2025-11-29 01:59:34.159000+00:00,1764381600,2025-11-29T02:00:00.000Z,23.0,23.0,0,0.0,4.97,1015.0,0,RA,,METAR,METAR MGPB 290200Z 00000KT 8000 RA SCT014 OVC070 23/23 Q1015 A2997,15.737,-88.589,6,Puerto Barrios Arpt,OVC,"[{'cover': 'SCT', 'base': 1400}, {'cover': 'OVC', 'base': 7000}]",MVFR,,,,,,GT,Guatemala
2306,MHLC,2025-11-29 02:06:40.749000+00:00,1764381600,2025-11-29T02:00:00.000Z,23.0,22.0,140,5.0,6+,1016.0,16,,,METAR,METAR MHLC 290200Z 14005KT 9999 SCT030CB BKN070 23/22 Q1016 A3000 RESH NOSIG RMK CB N SE SW,15.737,-86.864,13,La Ceiba/Goloson Intl,BKN,"[{'cover': 'SCT', 'base': 3000}, {'cover': 'BKN', 'base': 7000}]",VFR,,,,,,HN,Honduras
3633,MHLM,2025-11-29 01:54:21.262000+00:00,1764381600,2025-11-29T02:00:00.000Z,23.0,23.0,20,8.0,1.24,1017.0,16,-RA,,METAR,METAR MHLM 290200Z 02008KT 2000 -RA FEW008 BKN018TCU 23/23 Q1017 A3003 NOSIG,15.442,-87.934,32,San Pedro Sula/Moral,BKN,"[{'cover': 'FEW', 'base': 800}, {'cover': 'BKN', 'base': 1800}]",IFR,,,,,,HN,Honduras
3634,MHRO,2025-11-29 01:54:21.108000+00:00,1764381600,2025-11-29T02:00:00.000Z,26.0,23.0,40,12.0,6+,1016.0,16,,,METAR,METAR MHRO 290200Z 04012KT 9999 FEW022TCU 26/23 Q1016 A3000 NOSIG,16.316,-86.523,6,Roatan/Galvez Intl,FEW,"[{'cover': 'FEW', 'base': 2200}]",VFR,,,,,,HN,Honduras
4218,MHTE,2025-11-29 01:54:58.210000+00:00,1764381600,2025-11-29T02:00:00.000Z,23.0,22.0,0,0.0,4.97,1017.0,0,,,METAR,METAR MHTE 290200Z 00000KT 8000 SCT020 SCT022TCU BKN070 23/22 Q1017 A3003 RESH,15.776,-87.473,7,Tela Arpt,BKN,"[{'cover': 'SCT', 'base': 2000}, {'cover': 'SCT', 'base': 2200}, {'cover': 'BKN', 'base': 7000}]",MVFR,,,,,,HN,Honduras
4212,MHTG,2025-11-29 02:06:56.724000+00:00,1764382080,2025-11-29T02:08:00.000Z,21.0,17.0,340,3.0,6+,1021.0,16,,,SPECI,SPECI MHTG 290208Z 34003G13KT 9999 FEW012 BKN036 21/17 Q1021 A3015 NOSIG,14.06,-87.216,1001,Tegucigalpa/Toncontín Intl,BKN,"[{'cover': 'FEW', 'base': 1200}, {'cover': 'BKN', 'base': 3600}]",VFR,,13.0,,,,HN,Honduras
2591,MKJS,2025-11-29 02:03:25.386000+00:00,1764381600,2025-11-29T02:00:00.000Z,27.0,22.0,140,3.0,6+,1014.0,0,,,METAR,METAR MKJS 290200Z 14003KT 9999 FEW022 27/22 Q1014,18.502,-77.915,3,Montego Bay/Sangster,FEW,"[{'cover': 'FEW', 'base': 2200}]",VFR,,,,,,JM,Jamaica
198,MMAA,2025-11-29 02:02:09.490000+00:00,1764380400,2025-11-29T01:40:00.000Z,28.0,24.0,270,3.0,6,1011.3,0,,,METAR,METAR MMAA 290140Z 27003KT 6SM FEW015TCU SCT300 28/24 A2986 RMK 8/202 HZY ISOL AC,16.758,-99.754,5,Acapulco/Alvarez Intl,SCT,"[{'cover': 'FEW', 'base': 1500}, {'cover': 'SCT', 'base': 30000}]",VFR,,,,,,MX,Mexico
3212,MMAN,2025-11-29 02:02:09.506000+00:00,1764380580,2025-11-29T01:43:00.000Z,19.0,18.0,120,5.0,8,1019.7,0,-DZ,,METAR,METAR MMAN 290143Z 12005KT 8SM -DZ BKN013 OVC015 19/18 A3011 RMK 8/7// DZB20 TOPS 030 VIS TWR 10 SM,25.865,-100.239,447,Monterrey/Del Norte Intl,OVC,"[{'cover': 'BKN', 'base': 1300}, {'cover': 'OVC', 'base': 1500}]",MVFR,,,,,,MX,Mexico
1031,MMCB,2025-11-29 02:06:46.892000+00:00,1764381000,2025-11-29T02:00:00.000Z,21.0,11.0,340,10.0,10+,1020.7,0,,,METAR,METAR MMCB 290150Z 34010KT 10SM SCT080 BKN200 21/11 A3014 RMK 8/031 ISOL SC,18.83,-99.265,1281,Cuernavaca Intl,BKN,"[{'cover': 'SCT', 'base': 8000}, {'cover': 'BKN', 'base': 20000}]",VFR,,,,,,MX,Mexico
760,MMCE,2025-11-29 01:58:24.412000+00:00,1764380400,2025-11-29T01:40:00.000Z,26.0,20.0,70,7.0,7,1018.7,0,,,METAR,METAR MMCE 290140Z 07007KT 7SM SKC 26/20 A3008,18.651,-91.8,5,Ciudad Del Carmen Arpt,SKC,[],VFR,,,,,,MX,Mexico
1045,MMCL,2025-11-29 02:05:54.614000+00:00,1764380400,2025-11-29T01:40:00.000Z,25.0,17.0,270,8.0,10+,1014.3,0,,,METAR,METAR MMCL 290140Z 27008KT 10SM FEW150 SCT250 25/17 A2995 RMK 8/032,24.766,-107.476,35,Culiacan Intl,SCT,"[{'cover': 'FEW', 'base': 15000}, {'cover': 'SCT', 'base': 25000}]",VFR,,,,,,MX,Mexico
758,MMCN,2025-11-29 02:05:54.696000+00:00,1764380400,2025-11-29T01:40:00.000Z,16.0,10.0,280,4.0,10+,1014.6,0,,,METAR,METAR MMCN 290140Z 28004KT 10SM SCT100 16/10 A2996 RMK 8/030 HZY ISOL CI,27.395,-109.837,57,Ciudad Obregón Intl,SCT,"[{'cover': 'SCT', 'base': 10000}]",VFR,,,,,,MX,Mexico
1044,MMCP,2025-11-29 02:01:25.560000+00:00,1764380400,2025-11-29T01:40:00.000Z,24.0,17.0,30,7.0,7,1019.0,0,,,METAR,METAR MMCP 290140Z 03007KT 7SM SCT080 24/17 A3009 RMK 8/030,19.817,-90.502,9,Campeche/Ongay Intl,SCT,"[{'cover': 'SCT', 'base': 8000}]",VFR,,,,,,MX,Mexico
759,MMCS,2025-11-29 01:59:50.532000+00:00,1764380400,2025-11-29T01:40:00.000Z,14.0,2.0,180,4.0,10+,1017.4,0,,,METAR,METAR MMCS 290140Z 18004KT 10SM SKC 14/02 A3004,31.636,-106.427,1194,Ciudad Juarez/Gonzales Intl,SKC,[],VFR,,,,,,MX,Mexico
935,MMCU,2025-11-29 02:01:43.192000+00:00,1764381360,2025-11-29T02:00:00.000Z,14.0,3.0,0,0.0,10+,1018.4,0,,,METAR,METAR MMCU 290156Z 00000KT 10SM SCT090 SCT200 14/03 A3007 RMK 8/038 ISOL SC,28.701,-105.965,1349,Chihuahua Intl,SCT,"[{'cover': 'SCT', 'base': 9000}, {'cover': 'SCT', 'base': 20000}]",VFR,,,,,,MX,Mexico
1035,MMCV,2025-11-29 01:59:50.573000+00:00,1764380820,2025-11-29T02:00:00.000Z,20.0,18.0,180,7.0,10+,1020.7,0,,,METAR,METAR MMCV 290147Z 18007KT 10SM SCT020 BKN070 20/18 A3014 RMK 8/570,23.706,-98.959,230,Ciudad Victoria Intl,BKN,"[{'cover': 'SCT', 'base': 2000}, {'cover': 'BKN', 'base': 7000}]",VFR,,,,,,MX,Mexico
1038,MMCZ,2025-11-29 02:01:25.578000+00:00,1764380580,2025-11-29T01:43:00.000Z,25.0,18.0,50,7.0,7,1018.4,0,,,METAR,METAR MMCZ 290143Z 05007KT 7SM SCT015 25/18 A3007 RMK 8/500,20.516,-86.932,7,Cozumel Intl,SCT,"[{'cover': 'SCT', 'base': 1500}]",VFR,,,,,,MX,Mexico
1042,MMDO,2025-11-29 02:01:25.593000+00:00,1764380460,2025-11-29T01:41:00.000Z,16.0,0.0,240,8.0,7,1025.1,0,,,METAR,METAR MMDO 290141Z 24008KT 7SM SCT200 16/00 A3027 RMK 8/002,24.124,-104.532,1863,Durango/Victoria Intl,SCT,"[{'cover': 'SCT', 'base': 20000}]",VFR,,,,,,MX,Mexico
4366,MMEP,2025-11-29 02:05:54.818000+00:00,1764380520,2025-11-29T01:42:00.000Z,19.0,17.0,190,4.0,7,1018.7,0,,,METAR,METAR MMEP 290142Z 19004KT 7SM SCT220 19/17 A3008 RMK 8/008,21.418,-104.842,921,Tepic/Nervo Intl,SCT,"[{'cover': 'SCT', 'base': 22000}]",VFR,,,,,,MX,Mexico
1671,MMGL,2025-11-29 02:01:25.614000+00:00,1764380400,2025-11-29T01:40:00.000Z,16.0,8.0,200,3.0,6,1022.8,0,,,METAR,METAR MMGL 290140Z 20003KT 6SM SCT300 16/08 A3020 RMK 8/008 HZY,20.523,-103.312,1531,Guadalajara Arpt,SCT,"[{'cover': 'SCT', 'base': 30000}]",VFR,,,,,,MX,Mexico
1668,MMGM,2025-11-29 01:59:51.705000+00:00,1764380460,2025-11-29T01:41:00.000Z,23.0,15.0,0,0.0,10+,1014.6,0,,,METAR,METAR MMGM 290141Z 00000KT 10SM SKC 23/15 A2996,27.964,-110.928,13,Guaymas/Yáñez Intl,SKC,[],VFR,,,,,,MX,Mexico
1958,MMHO,2025-11-29 02:05:54.912000+00:00,1764380400,2025-11-29T01:40:00.000Z,23.0,8.0,230,5.0,10+,1015.0,0,,,METAR,METAR MMHO 290140Z 23005KT 10SM SKC 23/08 A2997 RMK ISOL CI HZY,29.097,-111.051,186,Hermosillo/Garcia Intl,SKC,[],VFR,,,,,,MX,Mexico
4084,MMIO,2025-11-29 02:01:25.638000+00:00,1764380400,2025-11-29T01:40:00.000Z,15.0,14.0,0,0.0,0.63,1022.4,0,BR,,METAR,METAR MMIO 290140Z 00000KT 5/8SM BR VV002 15/14 A3019 RMK 8//// BCFG N NE LWR VSBY N NE,25.544,-100.928,1430,Saltillo/Guadalupe Intl,OVX,"[{'cover': 'OVX', 'base': 200}]",LIFR,2.0,,,,,MX,Mexico
2425,MMLM,2025-11-29 02:01:25.655000+00:00,1764380460,2025-11-29T01:41:00.000Z,23.0,16.0,290,8.0,10+,1015.0,0,,,METAR,METAR MMLM 290141Z 29008KT 10SM BKN080 BKN220 23/16 A2997 RMK 8/028 HZY,25.688,-109.085,6,Los Mochis Arpt,BKN,"[{'cover': 'BKN', 'base': 8000}, {'cover': 'BKN', 'base': 22000}]",VFR,,,,,,MX,Mexico
467,MMLO,2025-11-29 02:01:43.209000+00:00,1764380820,2025-11-29T02:00:00.000Z,18.0,9.0,40,10.0,8,1025.5,0,,,METAR,METAR MMLO 290147Z 04010KT 8SM FEW030 SCT250 18/09 A3028 RMK 8/501,20.997,-101.481,1805,Leon/Del Bajío Arpt,SCT,"[{'cover': 'FEW', 'base': 3000}, {'cover': 'SCT', 'base': 25000}]",VFR,,,,,,MX,Mexico
2429,MMLP,2025-11-29 02:05:54.978000+00:00,1764380400,2025-11-29T01:40:00.000Z,26.0,18.0,170,7.0,8,1016.3,0,,,METAR,METAR MMLP 290140Z 17007KT 8SM FEW100 SCT200 26/18 A3001 RMK 8/038,24.077,-110.364,16,La Paz/de León Intl,SCT,"[{'cover': 'FEW', 'base': 10000}, {'cover': 'SCT', 'base': 20000}]",VFR,,,,,,MX,Mexico
2717,MMLT,2025-11-29 02:01:43.229000+00:00,1764380760,2025-11-29T02:00:00.000Z,24.0,18.0,0,0.0,9,1016.0,0,,,METAR,METAR MMLT 290146Z 00000KT 9SM SCT200 BKN240 24/18 A3000 RMK 8/036 HZY,25.993,-111.35,4,Loreto Intl,BKN,"[{'cover': 'SCT', 'base': 20000}, {'cover': 'BKN', 'base': 24000}]",VFR,,,,,,MX,Mexico
2720,MMMA,2025-11-29 02:05:55.038000+00:00,1764380520,2025-11-29T01:42:00.000Z,23.0,17.0,120,7.0,7,1021.1,0,,,METAR,METAR MMMA 290142Z 12007KT 7SM OVC040 23/17 A3015 RMK 8/5// OCNL DROPS,25.77,-97.523,7,Matamoros/Canales Intl,OVC,"[{'cover': 'OVC', 'base': 4000}]",VFR,,,,,,MX,Mexico
2721,MMMD,2025-11-29 01:58:24.492000+00:00,1764380400,2025-11-29T01:40:00.000Z,22.0,16.0,90,4.0,6,1020.1,0,,,METAR,METAR MMMD 290140Z 09004KT 6SM SKC 22/16 A3012,20.936,-89.659,10,Mérida Intl,SKC,[],VFR,,,,,,MX,Mexico
2944,MMML,2025-11-29 02:01:43.249000+00:00,1764381180,2025-11-29T02:00:00.000Z,20.0,6.0,100,4.0,10+,1014.0,0,,,METAR,METAR MMML 290153Z 10004KT 10SM SKC 20/06 A2994 RMK ISOL CI,32.631,-115.238,21,Mexicali Intl,SKC,[],VFR,,,,,,MX,Mexico
2981,MMMM,2025-11-29 02:05:55.131000+00:00,1764380400,2025-11-29T01:40:00.000Z,17.0,9.0,250,5.0,7,1024.8,0,,,METAR,METAR MMMM 290140Z 25005KT 7SM SCT030 17/09 A3026 RMK 8/500 AC,19.844,-101.037,1840,Morelia/Mujica Intl,SCT,"[{'cover': 'SCT', 'base': 3000}]",VFR,,,,,,MX,Mexico
2982,MMMT,2025-11-29 02:01:25.674000+00:00,1764380400,2025-11-29T01:40:00.000Z,24.0,21.0,20,7.0,6,1018.7,0,,,METAR,METAR MMMT 290140Z 02007KT 6SM OVC060 24/21 A3008 RMK 8/8// HZY,18.098,-94.583,15,Minatitlán Arpt,OVC,"[{'cover': 'OVC', 'base': 6000}]",VFR,,,,,,MX,Mexico
2716,MMMX,2025-11-29 02:01:43.269000+00:00,1764380880,2025-11-29T02:00:00.000Z,15.0,8.0,360,5.0,9,1028.2,16,,,METAR,METAR MMMX 290148Z 36005KT 9SM FEW020 15/08 A3036 NOSIG RMK 8/500 HZY ISOL AC,19.436,-99.072,2224,Mexico City Intl,FEW,"[{'cover': 'FEW', 'base': 2000}]",VFR,,,,,,MX,Mexico
2983,MMMY,2025-11-29 02:01:25.693000+00:00,1764380400,2025-11-29T01:40:00.000Z,20.0,19.0,90,8.0,6,1019.7,0,,,METAR,METAR MMMY 290140Z 09008KT 6SM BKN015 OVC020 20/19 A3011 RMK 8/5// HZY OCNL DROPS,25.774,-100.104,382,Monterrey Intl,OVC,"[{'cover': 'BKN', 'base': 1500}, {'cover': 'OVC', 'base': 2000}]",MVFR,,,,,,MX,Mexico
2979,MMMZ,2025-11-29 02:01:25.716000+00:00,1764380520,2025-11-29T01:42:00.000Z,23.0,19.0,0,0.0,10+,1013.3,0,,,METAR,METAR MMMZ 290142Z 00000KT 10SM SCT240 23/19 A2992 RMK 8/002,23.161,-106.271,7,Mazatlàn/Buelna Intl,SCT,"[{'cover': 'SCT', 'base': 24000}]",VFR,,,,,,MX,Mexico
3216,MMNL,2025-11-29 02:05:55.188000+00:00,1764380400,2025-11-29T01:40:00.000Z,21.0,16.0,120,15.0,6,1018.4,0,,,METAR,METAR MMNL 290140Z 12015KT 6SM OVC030 21/16 A3007 RMK 8/5// HZY,27.448,-99.574,146,Nuevo Laredo Intl,OVC,"[{'cover': 'OVC', 'base': 3000}]",MVFR,,,,,,MX,Mexico
3215,MMOX,2025-11-29 02:05:55.268000+00:00,1764380400,2025-11-29T01:40:00.000Z,18.0,11.0,330,11.0,8,1021.4,0,,,METAR,METAR MMOX 290140Z 33011KT 8SM BKN025 18/11 A3016 RMK 8/500,17.002,-96.724,1528,Oaxaca/Xoxocotlán Intl,BKN,"[{'cover': 'BKN', 'base': 2500}]",MVFR,,,,,,MX,Mexico
3483,MMPB,2025-11-29 02:01:43.288000+00:00,1764380820,2025-11-29T02:00:00.000Z,14.0,9.0,210,2.0,8,1028.9,0,,,METAR,METAR MMPB 290147Z 21002KT 8SM BKN020 OVC090 14/09 A3038 RMK 8/57/ HZY,19.17,-98.371,2250,Puebla/Serdan Intl,OVC,"[{'cover': 'BKN', 'base': 2000}, {'cover': 'OVC', 'base': 9000}]",MVFR,,,,,,MX,Mexico
3493,MMPR,2025-11-29 02:01:25.738000+00:00,1764380400,2025-11-29T01:40:00.000Z,27.0,23.0,180,4.0,10+,1013.6,0,,,METAR,METAR MMPR 290140Z 18004KT 10SM SCT200 27/23 A2993 RMK 8/008 HZY,20.68,-105.25,6,Puerto Vallarta Intl,SCT,"[{'cover': 'SCT', 'base': 20000}]",VFR,,,,,,MX,Mexico
3487,MMPS,2025-11-29 02:01:43.307000+00:00,1764380760,2025-11-29T02:00:00.000Z,27.0,25.0,0,0.0,12,1015.3,0,,,METAR,METAR MMPS 290146Z 00000KT 12SM SKC 27/25 A2998 RMK AC HZY,15.876,-97.093,65,Puerto Escondido Arpt,SKC,[],VFR,,,,,,MX,Mexico
3700,MMQT,2025-11-29 02:06:46.914000+00:00,1764381240,2025-11-29T02:00:00.000Z,12.0,10.0,120,7.0,7,1028.5,0,,,METAR,METAR MMQT 290154Z 12007KT 7SM SCT250 12/10 A3037 RMK 8/005 SC AC,20.617,-100.194,1909,Querétaro Intl,SCT,"[{'cover': 'SCT', 'base': 25000}]",VFR,,,,,,MX,Mexico
3771,MMRX,2025-11-29 02:05:55.325000+00:00,1764380400,2025-11-29T01:40:00.000Z,22.0,18.0,140,5.0,7,1018.0,0,,,METAR,METAR MMRX 290140Z 14005KT 7SM BKN040 OVC080 22/18 A3006 RMK 8/57/,26.01,-98.232,45,Reynosa/Blanco Intl,OVC,"[{'cover': 'BKN', 'base': 4000}, {'cover': 'OVC', 'base': 8000}]",VFR,,,,,,MX,Mexico
4082,MMSD,2025-11-29 02:01:25.758000+00:00,1764380400,2025-11-29T01:40:00.000Z,24.0,19.0,180,4.0,10+,1016.3,0,,,METAR,METAR MMSD 290140Z 18004KT 10SM SCT160 SCT250 24/19 A3001 RMK 8/038,23.157,-109.72,107,San Jose Del Cabo Intl,SCT,"[{'cover': 'SCT', 'base': 16000}, {'cover': 'SCT', 'base': 25000}]",VFR,,,,,,MX,Mexico
3214,MMSM,2025-11-29 01:59:50.283000+00:00,1764380460,2025-11-29T01:41:00.000Z,12.0,8.0,10,9.0,9,1028.5,0,,,METAR,METAR MMSM 290141Z 01009KT 9SM FEW020 12/08 A3037 RMK 8/500 HZY AC,19.763,-99.002,2250,Santa Lucia,FEW,"[{'cover': 'FEW', 'base': 2000}]",VFR,,,,,,MX,Mexico
4081,MMSP,2025-11-29 02:01:25.781000+00:00,1764380400,2025-11-29T01:40:00.000Z,12.0,9.0,70,5.0,8,1026.8,0,,,METAR,METAR MMSP 290140Z 07005KT 8SM FEW020 12/09 A3032 RMK 8/500 HZY S,22.256,-100.93,1841,San Luis Potosi Intl,FEW,"[{'cover': 'FEW', 'base': 2000}]",VFR,,,,,,MX,Mexico
4367,MMTC,2025-11-29 02:01:25.800000+00:00,1764380520,2025-11-29T01:42:00.000Z,23.0,8.0,120,4.0,8,1017.4,0,,,METAR,METAR MMTC 290142Z 12004KT 8SM BKN110 23/08 A3004 RMK 8/070,25.564,-103.408,1128,Torreón Intl,BKN,"[{'cover': 'BKN', 'base': 11000}]",VFR,,,,,,MX,Mexico
4362,MMTG,2025-11-29 01:58:24.548000+00:00,1764380760,2025-11-29T02:00:00.000Z,23.0,17.0,300,8.0,8,1017.4,0,,,METAR,METAR MMTG 290146Z 30008KT 8SM SKC 23/17 A3004,16.571,-93.03,463,Tuxtla Gutierre Intl,SKC,[],VFR,,,,,,MX,Mexico
4365,MMTJ,2025-11-29 02:05:55.409000+00:00,1764380580,2025-11-29T01:43:00.000Z,16.0,11.0,300,4.0,10+,1017.0,0,,,METAR,METAR MMTJ 290143Z 30004KT 10SM SKC 16/11 A3003 RMK HZY,32.544,-116.982,150,Tijuana Intl,SKC,[],VFR,,,,,,MX,Mexico
4296,MMTL,2025-11-29 02:01:43.343000+00:00,1764381540,2025-11-29T02:00:00.000Z,20.0,18.0,0,0.0,6,1019.7,0,,,METAR,METAR MMTL 290159Z RTD 00000KT 6SM SKC 20/18 A3011,20.1725,-87.6622,20,Tulum Intl,SKC,[],VFR,,,,,,MX,Mexico
4364,MMTM,2025-11-29 02:05:55.487000+00:00,1764380580,2025-11-29T01:43:00.000Z,24.0,19.0,120,6.0,8,1020.4,0,,,METAR,METAR MMTM 290143Z 12006KT 8SM SCT015 BKN070 24/19 A3013 RMK 8/570,22.29,-97.863,21,Tampico/Mina Intl,BKN,"[{'cover': 'SCT', 'base': 1500}, {'cover': 'BKN', 'base': 7000}]",VFR,,,,,,MX,Mexico
4361,MMTO,2025-11-29 02:01:43.361000+00:00,1764380760,2025-11-29T02:00:00.000Z,12.0,8.0,120,5.0,6,1030.2,0,,,METAR,METAR MMTO 290146Z 12005KT 6SM SCT030 BKN070 12/08 A3042 RMK 8/130 HZY,19.343,-99.568,2582,Toluca Arpt,BKN,"[{'cover': 'SCT', 'base': 3000}, {'cover': 'BKN', 'base': 7000}]",VFR,,,,,,MX,Mexico
4369,MMTP,2025-11-29 02:01:25.819000+00:00,1764380400,2025-11-29T01:40:00.000Z,24.0,22.0,0,0.0,8,1013.0,0,,,METAR,METAR MMTP 290140Z 00000KT 8SM FEW080 24/22 A2991 RMK 8/050 TWR HZY,14.795,-92.371,27,Tapachula Intl,FEW,"[{'cover': 'FEW', 'base': 8000}]",VFR,,,,,,MX,Mexico
1041,MMUN,2025-11-29 02:01:25.842000+00:00,1764380460,2025-11-29T01:41:00.000Z,23.0,17.0,30,6.0,7,1019.4,0,,,METAR,METAR MMUN 290141Z 03006KT 7SM SCT020 23/17 A3010 RMK 8/500 AC,21.038,-86.855,13,Cancún Intl,SCT,"[{'cover': 'SCT', 'base': 2000}]",VFR,,,,,,MX,Mexico
4620,MMVA,2025-11-29 02:01:25.860000+00:00,1764380460,2025-11-29T01:41:00.000Z,24.0,22.0,0,0.0,6,1018.0,0,,,METAR,METAR MMVA 290141Z 00000KT 6SM BKN017 24/22 A3006 RMK 8/500 HZY,17.998,-92.817,13,Villahermosa/Perez Intl,BKN,"[{'cover': 'BKN', 'base': 1700}]",MVFR,,,,,,MX,Mexico
4621,MMVR,2025-11-29 02:05:56.561000+00:00,1764380400,2025-11-29T01:40:00.000Z,23.0,20.0,30,5.0,6,1020.1,0,,,METAR,METAR MMVR 290140Z 03005KT 6SM SCT012 SCT060 23/20 A3012 RMK 8/430 HZY RWY WET,19.144,-96.189,26,Veracruz/Jara Intl,SCT,"[{'cover': 'SCT', 'base': 1200}, {'cover': 'SCT', 'base': 6000}]",VFR,,,,,,MX,Mexico
5096,MMZC,2025-11-29 02:01:25.907000+00:00,1764380460,2025-11-29T01:41:00.000Z,17.0,7.0,0,0.0,8,1025.5,0,,,METAR,METAR MMZC 290141Z E00000KT 8SM BKN060 17/07 A3028 RMK 8/1//,22.904,-102.68,2175,Zacatecas/Ruiz Intl,BKN,"[{'cover': 'BKN', 'base': 6000}]",VFR,,,,,,MX,Mexico
5086,MMZH,2025-11-29 02:05:55.553000+00:00,1764380580,2025-11-29T01:43:00.000Z,28.0,23.0,0,0.0,7,1012.3,0,,,METAR,METAR MMZH 290143Z 00000KT 7SM SCT100 BKN250 28/23 A2989 RMK 8/038 HZY,17.605,-101.464,9,Ixtapa-Zihuatanejo Intl,BKN,"[{'cover': 'SCT', 'base': 10000}, {'cover': 'BKN', 'base': 25000}]",VFR,,,,,,MX,Mexico
5095,MMZO,2025-11-29 02:05:55.592000+00:00,1764380460,2025-11-29T01:41:00.000Z,28.0,25.0,0,0.0,8,1010.9,0,,,METAR,METAR MMZO 290141Z 00000KT 8SM BKN200 28/25 A2985 RMK 8/005,19.147,-104.565,11,Manzanillo/Oro Intl,BKN,"[{'cover': 'BKN', 'base': 20000}]",VFR,,,,,,MX,Mexico
2552,MNMG,2025-11-29 02:03:54.738000+00:00,1764381600,2025-11-29T02:00:00.000Z,27.0,21.0,60,10.0,6+,1012.0,16,,,METAR,METAR MNMG 290200Z 06010KT 9999 FEW025 BKN090 27/21 Q1012 A2990 NOSIG,12.141,-86.177,59,Managua Intl,BKN,"[{'cover': 'FEW', 'base': 2500}, {'cover': 'BKN', 'base': 9000}]",VFR,,,,,,NI,Nicaragua
927,MPDA,2025-11-29 01:59:34.111000+00:00,1764381600,2025-11-29T02:00:00.000Z,26.0,23.0,30,3.0,6+,1010.0,16,,,METAR,METAR MPDA 290200Z 03003KT 9999 SCT015 BKN100 26/23 Q1010 NOSIG,8.391,-82.434,15,David/Malek Intl,BKN,"[{'cover': 'SCT', 'base': 1500}, {'cover': 'BKN', 'base': 10000}]",VFR,,,,,,PA,Panama
3359,MPMG,2025-11-29 01:55:53.640000+00:00,1764381600,2025-11-29T02:00:00.000Z,25.0,23.0,310,7.0,6+,1011.0,16,,,METAR,METAR MPMG 290200Z 31007KT 280V340 9999 SCT016 SCT080 25/23 Q1011 NOSIG,8.967,-79.555,6,Panama/Gelabert Intl,SCT,"[{'cover': 'SCT', 'base': 1600}, {'cover': 'SCT', 'base': 8000}]",VFR,,,,,,PA,Panama
3318,MPTO,2025-11-29 01:54:41.590000+00:00,1764381600,2025-11-29T02:00:00.000Z,25.0,24.0,290,5.0,6+,1011.0,16,,,METAR,METAR MPTO 290200Z 29005KT 9999 SCT016 SCT090 25/24 Q1011 RERA NOSIG,9.056,-79.391,7,Tocumen Intl,SCT,"[{'cover': 'SCT', 'base': 1600}, {'cover': 'SCT', 'base': 9000}]",VFR,,,,,,PA,Panama
2290,MRLB,2025-11-29 01:56:41.725000+00:00,1764381600,2025-11-29T02:00:00.000Z,25.0,20.0,120,3.0,6+,1011.9,0,,,METAR,METAR MRLB 290200Z 12003KT CAVOK 25/20 A2988,10.589,-85.552,79,Liberia/Oduber Intl,CAVOK,[],VFR,,,,,,CR,Costa Rica
3910,MROC,2025-11-29 01:58:07.116000+00:00,1764381600,2025-11-29T02:00:00.000Z,21.0,17.0,110,8.0,6+,1016.7,16,,,METAR,METAR MROC 290200Z 11008KT 9999 FEW035 BKN130 21/17 A3002 NOSIG,9.991,-84.218,900,San José/Santamaria Arpt,BKN,"[{'cover': 'FEW', 'base': 3500}, {'cover': 'BKN', 'base': 13000}]",VFR,,,,,,CR,Costa Rica
3657,MSLP,2025-11-29 01:59:56.427000+00:00,1764381600,2025-11-29T02:00:00.000Z,27.0,19.0,10,7.0,6+,1012.0,16,,,METAR,METAR MSLP 290200Z 01007KT 350V050 CAVOK 27/19 Q1012 A2990 NOSIG,13.438,-89.056,25,El Salvador Intl,CAVOK,[],VFR,,,,,,SV,El Salvador
743,MUCC,2025-11-29 02:01:24.949000+00:00,1764381000,2025-11-29T02:00:00.000Z,26.0,23.0,60,12.0,5.59,1017.0,0,,,METAR,METAR MUCC 290150Z 06012KT 9000 BKN020 26/23 Q1017,22.456,-78.339,7,Cayo Coco/Rey Arpt,BKN,"[{'cover': 'BKN', 'base': 2000}]",MVFR,,,,,,CU,Cuba
742,MUCM,2025-11-29 02:01:24.913000+00:00,1764381000,2025-11-29T02:00:00.000Z,23.0,22.0,40,7.0,5.59,1017.0,0,,,METAR,METAR MUCM 290150Z 04007KT 9000 FEW025 23/22 Q1017,21.42,-77.85,125,Camaguey/Agramonte Intl,FEW,"[{'cover': 'FEW', 'base': 2500}]",VFR,,,,,,CU,Cuba
3751,MUCU,2025-11-29 02:01:24.881000+00:00,1764381000,2025-11-29T02:00:00.000Z,25.0,21.0,20,4.0,5.59,1015.0,0,,,METAR,METAR MUCU 290150Z 02004KT 350V050 9000 FEW020 25/21 Q1015,19.971,-75.837,70,Santiago de Cuba Arpt,FEW,"[{'cover': 'FEW', 'base': 2000}]",VFR,,,,,,CU,Cuba
2956,MUGM,2025-11-29 02:06:40.687000+00:00,1764381060,2025-11-29T02:00:00.000Z,23.9,22.2,330,5.0,9,1016.0,12,,,METAR,METAR MUGM 290151Z 33005KT 9SM FEW025 BKN250 24/22 A3000 RMK AO2 SLP157 T02390222 $,19.909,-75.206,21,Guantanamo Bayi/Point Arpt,BKN,"[{'cover': 'FEW', 'base': 2500}, {'cover': 'BKN', 'base': 25000}]",VFR,,,1015.7,,,CU,Cuba
1643,MUHA,2025-11-29 02:01:24.854000+00:00,1764381000,2025-11-29T02:00:00.000Z,22.0,19.0,30,12.0,3.73,1019.0,0,-DZ,,METAR,METAR MUHA 290150Z 03012KT 6000 -DZ BKN025 22/19 Q1019,22.991,-82.41,61,Havana/Martí Intl,BKN,"[{'cover': 'BKN', 'base': 2500}]",MVFR,,,,,,CU,Cuba
1935,MUHG,2025-11-29 02:01:24.826000+00:00,1764381000,2025-11-29T02:00:00.000Z,24.0,24.0,60,5.0,5.59,1016.0,0,,,METAR,METAR MUHG 290150Z 06005KT 9000 FEW030 BKN160 24/24 Q1016,20.786,-76.316,100,Holguin/Pais Intl,BKN,"[{'cover': 'FEW', 'base': 3000}, {'cover': 'BKN', 'base': 16000}]",VFR,,,,,,CU,Cuba
4056,MUSC,2025-11-29 02:01:24.788000+00:00,1764381000,2025-11-29T02:00:00.000Z,22.0,22.0,50,10.0,4.97,1018.0,0,,,METAR,METAR MUSC 290150Z 05010KT 8000 FEW020 BKN050 22/22 Q1018,22.494,-79.931,97,Santa Clara/Santamaria Intl,BKN,"[{'cover': 'FEW', 'base': 2000}, {'cover': 'BKN', 'base': 5000}]",MVFR,,,,,,CU,Cuba
4606,MUVR,2025-11-29 02:06:40.713000+00:00,1764381000,2025-11-29T02:00:00.000Z,22.0,21.0,70,10.0,5.59,1018.0,0,,,METAR,METAR MUVR 290150Z 07010KT 9000 SCT020CB BKN025 22/21 Q1018 RMK CB AT III AND IV QUAD AD,23.033,-81.435,65,Varadero/Gomez Arpt,BKN,"[{'cover': 'SCT', 'base': 2000}, {'cover': 'BKN', 'base': 2500}]",MVFR,,,,,,CU,Cuba
1505,MWCR,2025-11-29 01:46:50.569000+00:00,1764381600,2025-11-29T02:00:00.000Z,27.0,22.0,40,11.0,6+,1015.0,0,,,METAR,METAR MWCR 290200Z 04011KT 9999 FEW018 27/22 Q1015,19.294,-81.357,4,Grand Cayman/Roberts Intl,FEW,"[{'cover': 'FEW', 'base': 1800}]",VFR,,,,,,KY,Cayman Islands
22,MYAF,2025-11-29 02:06:50.707000+00:00,1764381600,2025-11-29T02:00:00.000Z,,,VRB,9.0,,,2,,,METAR,METAR MYAF 290200Z AUTO VRB09G21KT //// // ///////// ///// A////,24.689,-77.796,2,Andros Town Intl,,,,,21.0,,,,BS,Bahamas
4272,MYCB,2025-11-29 02:06:50.676000+00:00,1764381600,2025-11-29T02:00:00.000Z,25.0,21.0,50,10.0,,1018.7,2,,,METAR,METAR MYCB 290200Z AUTO 05010KT //// R09///// // SCT019 //////TCU 25/21 A3008,24.315,-75.452,2,New Bight Arpt,SCT,"[{'cover': 'SCT', 'base': 1900}]",,,,,,,BS,Bahamas
1166,MYGF,2025-11-29 02:06:41.554000+00:00,1764381600,2025-11-29T02:00:00.000Z,20.0,14.0,50,11.0,,1022.1,2,,,METAR,METAR MYGF 290200Z AUTO 05011KT //// R06///// // FEW055/// 20/14 A3018,26.555,-78.698,2,Freeport Intl,FEW,"[{'cover': 'FEW', 'base': 5500}]",,,,,,,BS,Bahamas
2838,MYNN,2025-11-29 02:01:25.372000+00:00,1764381600,2025-11-29T02:00:00.000Z,24.0,18.0,60,14.0,6+,1020.4,0,,,METAR,METAR MYNN 290200Z 06014KT 9999 SCT025 BKN035 BKN080 24/18 A3013,25.04,-77.467,5,Nassau Intl,BKN,"[{'cover': 'SCT', 'base': 2500}, {'cover': 'BKN', 'base': 3500}, {'cover': 'BKN', 'base': 8000}]",VFR,,,,,,BS,Bahamas
4999,MYSM,2025-11-29 02:01:21.557000+00:00,1764381600,2025-11-29T02:00:00.000Z,25.0,24.0,50,6.0,6+,1018.7,2,,,METAR,METAR MYSM 290200Z AUTO 05006KT 9999 // FEW016/// BKN220/// 25/24 A3008,24.064,-74.529,5,Cockburn Town Arpt,BKN,"[{'cover': 'FEW', 'base': 1600}, {'cover': 'BKN', 'base': 22000}]",VFR,,,,,,BS,Bahamas
39,NCAI,2025-11-29 02:02:32.429000+00:00,1764381600,2025-11-29T02:00:00.000Z,29.0,26.0,310,8.0,,1008.0,2,,,METAR,METAR NCAI 290200Z AUTO 31008KT //// ////// 29/26 Q1008,-18.829,-159.766,7,Cook Isl/Aitutaki Arpt,,,,,,,,,CK,Cook Islands
40,NCAT,2025-11-29 02:02:32.456000+00:00,1764381600,2025-11-29T02:00:00.000Z,27.0,24.0,350,4.0,,1009.0,2,,,METAR,METAR NCAT 290200Z AUTO 35004KT //// ////// 27/24 Q1009,-19.968,-158.119,11,Cook Isl/Atui Enua,,,,,,,,,CK,Cook Islands
2578,NCMG,2025-11-29 02:02:32.483000+00:00,1764381600,2025-11-29T02:00:00.000Z,29.0,24.0,340,4.0,,1009.0,2,,,METAR,METAR NCMG 290200Z AUTO 34004KT //// ////// 29/24 Q1009,-21.896,-157.907,14,Cook Isl/Mangaia Arpt,,,,,,,,,CK,Cook Islands
2570,NCMH,2025-11-29 02:02:32.515000+00:00,1764381600,2025-11-29T02:00:00.000Z,31.0,24.0,360,3.0,,1009.0,2,,,METAR,METAR NCMH 290200Z AUTO 36003KT //// ////// 31/24 Q1009,-10.374,-161.004,1,Cook Isl/Manihiki Arpt,,,,,,,,,CK,Cook Islands
2843,NCMK,2025-11-29 02:02:32.551000+00:00,1764381600,2025-11-29T02:00:00.000Z,30.0,23.0,40,4.0,,1010.0,2,,,METAR,METAR NCMK 290200Z AUTO 04004KT //// ////// 30/23 Q1010,-20.137,-157.344,13,Cook Isl/Mauke Arpt,,,,,,,,,CK,Cook Islands
2844,NCMR,2025-11-29 02:02:32.582000+00:00,1764381600,2025-11-29T02:00:00.000Z,28.0,23.0,290,2.0,,1009.0,2,,,METAR,METAR NCMR 290200Z AUTO 29002KT //// ////// 28/23 Q1009,-19.842,-157.703,8,Cook Isl/Mitiaro Arpt,,,,,,,,,CK,Cook Islands
3656,NCPK,2025-11-29 02:02:32.636000+00:00,1764381600,2025-11-29T02:00:00.000Z,,,,,,,2,,,METAR,METAR NCPK 290200Z AUTO NIL,-10.915,-165.839,5,Cook Isl/Pukapuka Arpt,,,,,,,,,CK,Cook Islands
3327,NCPY,2025-11-29 02:02:32.699000+00:00,1764381600,2025-11-29T02:00:00.000Z,29.0,22.0,50,5.0,,1008.0,2,,,METAR,METAR NCPY 290200Z AUTO 05005KT //// ////// 29/22 Q1008,-9.01,-158.034,2,Cook Isl/Penrhyn Arpt,,,,,,,,,CK,Cook Islands
3655,NCRG,2025-11-29 02:02:32.405000+00:00,1764381600,2025-11-29T02:00:00.000Z,27.0,25.0,310,20.0,0.31,1009.0,0,+RA,,SPECI,SPECI NCRG 290200Z 31020KT 0500 +RA BKN016 OVC090 27/25 Q1009,-21.203,-159.806,7,Cook Isl/Rarotonga Arpt,OVC,"[{'cover': 'BKN', 'base': 1600}, {'cover': 'OVC', 'base': 9000}]",LIFR,,,,,,CK,Cook Islands
2856,NFFN,2025-11-29 02:00:24.030000+00:00,1764381600,2025-11-29T02:00:00.000Z,30.0,23.0,230,9.0,6+,1009.0,16,,,METAR,METAR NFFN 290200Z 23009KT 9999 SCT026TCU 30/23 Q1009 NOSIG,-17.755,177.443,14,Nadi Intl,SCT,"[{'cover': 'SCT', 'base': 2600}]",VFR,,,,,,FJ,Fiji
3931,NFNA,2025-11-29 01:57:08.487000+00:00,1764381600,2025-11-29T02:00:00.000Z,26.0,24.0,120,3.0,6+,1009.0,0,,,METAR,METAR NFNA 290200Z 12003KT 9999 BKN020 BKN045 26/24 Q1009,-18.043,178.559,6,Fiji/Nausori Intl,BKN,"[{'cover': 'BKN', 'base': 2000}, {'cover': 'BKN', 'base': 4500}]",MVFR,,,,,,FJ,Fiji
2316,NFNL,2025-11-29 01:57:53.335000+00:00,1764381600,2025-11-29T02:00:00.000Z,26.0,25.0,300,10.0,4.97,1009.0,0,RA,,METAR,METAR NFNL 290200Z 30010KT 8000 RA FEW020CB SCT024TCU BKN100 26/25 Q1009 RETS,-16.467,179.339,17,Lambasa Arpt,BKN,"[{'cover': 'FEW', 'base': 2000}, {'cover': 'SCT', 'base': 2400}, {'cover': 'BKN', 'base': 10000}]",MVFR,,,,,,FJ,Fiji
4478,NFNM,2025-11-29 01:57:08.513000+00:00,1764381600,2025-11-29T02:00:00.000Z,28.0,25.0,140,13.0,6+,1008.0,0,VCSH,,METAR,METAR NFNM 290200Z 14013KT 9999 VCSH BKN017TCU SCT046 28/25 Q1008,-16.691,-179.877,21,Matei Taveuni Isl,SCT,"[{'cover': 'BKN', 'base': 1700}, {'cover': 'SCT', 'base': 4600}]",MVFR,,,,,,FJ,Fiji
3925,NFNS,2025-11-29 01:57:51.404000+00:00,1764381600,2025-11-29T02:00:00.000Z,29.0,23.0,140,7.0,6+,1009.0,0,,,METAR,METAR NFNS 290200Z 14007KT 9999 SCT020TCU SCT045 29/23 Q1009,-16.803,179.341,4,Sususavu Arpt,SCT,"[{'cover': 'SCT', 'base': 2000}, {'cover': 'SCT', 'base': 4500}]",VFR,,,,,,FJ,Fiji
4243,NFTF,2025-11-29 01:59:28.821000+00:00,1764381600,2025-11-29T02:00:00.000Z,28.0,20.0,200,6.0,6+,1010.0,0,,,METAR,METAR NFTF 290200Z 20006KT 9999 FEW018 28/20 Q1010,-21.241,-175.15,38,Tonga/Fua Amotu Intl,FEW,"[{'cover': 'FEW', 'base': 1800}]",VFR,,,,,,TO,Tonga
1780,NFTL,2025-11-29 01:59:28.785000+00:00,1764381600,2025-11-29T02:00:00.000Z,29.0,22.0,240,5.0,6+,1009.0,0,,,METAR,METAR NFTL 290200Z 24005KT 9999 FEW018TCU 29/22 Q1009,-19.777,-174.34,10,Tonga/Lifuka Island/Ha'apai Arpt,FEW,"[{'cover': 'FEW', 'base': 1800}]",VFR,,,,,,TO,Tonga
4462,NFTV,2025-11-29 01:59:28.756000+00:00,1764381600,2025-11-29T02:00:00.000Z,29.0,24.0,350,6.0,6+,1009.0,0,,,METAR,METAR NFTV 290200Z 35006KT 9999 FEW016TCU SCT300 29/24 Q1009,-18.585,-173.9628,71,Vavau Isl/Lupepau Arpt,SCT,"[{'cover': 'FEW', 'base': 1600}, {'cover': 'SCT', 'base': 30000}]",VFR,,,,,,TO,Tonga
1507,NGFU,2025-11-29 02:02:33.891000+00:00,1764381600,2025-11-29T02:00:00.000Z,31.0,25.0,40,6.0,6+,1008.0,0,,,METAR,METAR NGFU 290200Z 04006KT 9999 FEW018TCU BKN310 31/25 Q1008,-8.523,179.198,2,Funafuti Intl,BKN,"[{'cover': 'FEW', 'base': 1800}, {'cover': 'BKN', 'base': 31000}]",VFR,,,,,,TV,Tuvalu
4236,NGTA,2025-11-29 02:01:51.276000+00:00,1764381600,2025-11-29T02:00:00.000Z,31.0,25.0,100,8.0,6+,1007.0,0,,,METAR,METAR NGTA 290200Z 10008KT 9999 FEW018TCU BKN040 31/25 Q1007,1.381,173.147,8,Kiribati/Tarawa Intl,BKN,"[{'cover': 'FEW', 'base': 1800}, {'cover': 'BKN', 'base': 4000}]",VFR,,,,,,KI,Kiribati
2082,NIUE,2025-11-29 02:04:28.771000+00:00,1764381600,2025-11-29T02:00:00.000Z,28.0,23.0,240,9.0,6+,1009.0,2,,,METAR,METAR NIUE 290200Z AUTO 24009KT 210V270 9999 NCD 28/23 Q1009,-19.079,-169.926,22,Niue/Hanan Intl,CLR,[],VFR,,,,,,NU,Niue
53,NSFA,2025-11-29 02:02:51.237000+00:00,1764381600,2025-11-29T02:00:00.000Z,30.0,25.0,220,9.0,6+,1009.0,0,,,METAR,METAR NSFA 290200Z 22009KT 9999 FEW023 SCT052 BKN160 30/25 Q1009,-13.829,-171.993,6,Apia/Faleolo Intl,BKN,"[{'cover': 'FEW', 'base': 2300}, {'cover': 'SCT', 'base': 5200}, {'cover': 'BKN', 'base': 16000}]",VFR,,,,,,WS,Samoa
3479,NSTU,2025-11-29 02:06:45.961000+00:00,1764381000,2025-11-29T02:00:00.000Z,28.6,24.8,VRB,3.0,12,1008.9,0,,,METAR,METAR NSTU 290150Z VRB03KT 12SM SCT022 SCT040 BKN100 OVC220 29/25 A2979 RMK SLP088 T02860248,-14.337,-170.721,8,Pago Pago/Tafuna Intl,OVC,"[{'cover': 'SCT', 'base': 2200}, {'cover': 'SCT', 'base': 4000}, {'cover': 'BKN', 'base': 10000}, {'cover': 'OVC', 'base': 22000}]",VFR,,,1008.8,,,AS,American Samoa
3350,NTAA,2025-11-29 02:06:53.879000+00:00,1764381600,2025-11-29T02:00:00.000Z,27.0,22.0,240,3.0,6+,1009.0,2,,,METAR,METAR NTAA 290200Z AUTO 24003KT 210V270 9999 FEW022 SCT046 BKN098 27/22 Q1009 TEMPO 05012KT 2000 SHRA FEW018TCU BKN030,-17.554,-149.607,2,Tahiti Island/Faaa Intl,BKN,"[{'cover': 'FEW', 'base': 2200}, {'cover': 'SCT', 'base': 4600}, {'cover': 'BKN', 'base': 9800}]",VFR,,,,,,PF,French Polynesia
322,NTTB,2025-11-29 02:01:26.835000+00:00,1764381600,2025-11-29T02:00:00.000Z,28.0,24.0,240,9.0,,1009.0,2,,,METAR,METAR NTTB 290200Z AUTO 24009KT //// R29///// // BKN020/// BKN029/// 28/24 Q1009,-16.445,-151.752,6,Bora-Bora,BKN,"[{'cover': 'BKN', 'base': 2000}, {'cover': 'BKN', 'base': 2900}]",,,,,,,PF,French Polynesia
1778,NTTO,2025-11-29 02:01:35.636000+00:00,1764381600,2025-11-29T02:00:00.000Z,27.0,20.0,120,10.0,6+,1011.0,2,,,METAR,METAR NTTO 290200Z AUTO 12010KT 9999 FEW027/// SCT036/// BKN130/// 27/20 Q1011,-18.075,-140.946,3,Hao/Tuamoto,BKN,"[{'cover': 'FEW', 'base': 2700}, {'cover': 'SCT', 'base': 3600}, {'cover': 'BKN', 'base': 13000}]",VFR,,,,,,PF,French Polynesia
3911,NVSS,2025-11-29 01:59:25.622000+00:00,1764381600,2025-11-29T02:00:00.000Z,30.0,23.0,120,7.0,6+,1010.0,0,,,METAR,METAR NVSS 290200Z 12007KT 080V150 9999 FEW025 30/23 Q1010,-15.505,167.22,47,Santo/Pekoa Intl,FEW,"[{'cover': 'FEW', 'base': 2500}]",VFR,,,,,,VU,Vanuatu
4473,NVVV,2025-11-29 01:59:25.643000+00:00,1764381600,2025-11-29T02:00:00.000Z,31.0,21.0,120,14.0,6+,1010.0,0,,,METAR,METAR NVVV 290200Z 12014KT 080V150 9999 SCT020 31/21 Q1010,-17.695,168.313,23,Efate/Bauerfield Intl,SCT,"[{'cover': 'SCT', 'base': 2000}]",VFR,,,,,,VU,Vanuatu
4217,NVVW,2025-11-29 02:01:20.952000+00:00,1764381600,2025-11-29T02:00:00.000Z,29.0,20.0,360,6.0,6+,1011.0,0,,,METAR,METAR NVVW 290200Z 36006KT 9999 BKN020 29/20 Q1011,-19.455,169.224,5,Tanna Arpt,BKN,"[{'cover': 'BKN', 'base': 2000}]",MVFR,,,,,,VU,Vanuatu
3056,NWWW,2025-11-29 02:06:53.903000+00:00,1764381600,2025-11-29T02:00:00.000Z,35.0,20.0,190,12.0,6+,1010.0,2,,,METAR,METAR NWWW 290200Z AUTO 19012KT CAVOK 35/20 Q1010 TEMPO SHRA FEW020TCU,-22.015,166.213,16,La Tontouta Arpt,CAVOK,[],VFR,,,,,,NC,New Caledonia
13,NZAA,2025-11-29 02:04:19.196000+00:00,1764381600,2025-11-29T02:00:00.000Z,23.0,15.0,220,11.0,6+,1009.0,2,,,METAR,METAR NZAA 290200Z AUTO 22011KT 9999 NCD 23/15 Q1009,-37.008,174.792,7,Auckland Intl,CLR,[],VFR,,,,,,NZ,New Zealand
641,NZCH,2025-11-29 02:04:19.297000+00:00,1764381600,2025-11-29T02:00:00.000Z,25.0,6.0,320,19.0,6+,1002.0,2,,,METAR,METAR NZCH 290200Z AUTO 32019KT 290V350 9999 NCD 25/06 Q1002,-43.489,172.528,36,Christchurch Intl,CLR,[],VFR,,,,,,NZ,New Zealand
1172,NZDN,2025-11-29 02:04:26.731000+00:00,1764381600,2025-11-29T02:00:00.000Z,23.0,8.0,160,9.0,6+,998.0,2,,,METAR,METAR NZDN 290200Z AUTO 16009KT 100V300 9999 FEW090/// 23/08 Q0998,-45.928,170.198,2,Dunedin Arpt,FEW,"[{'cover': 'FEW', 'base': 9000}]",VFR,,,,,,NZ,New Zealand
3102,NZOH,2025-11-29 02:04:26.691000+00:00,1764381600,2025-11-29T02:00:00.000Z,21.0,8.0,280,13.0,6+,1008.0,2,,,METAR,METAR NZOH 290200Z AUTO 28013KT 240V310 9999 FEW230/// 21/08 Q1008,-40.196,175.381,45,Ohakea Arpt,FEW,"[{'cover': 'FEW', 'base': 23000}]",VFR,,,,,,NZ,New Zealand
4973,NZQN,2025-11-29 02:04:26.768000+00:00,1764381600,2025-11-29T02:00:00.000Z,16.0,9.0,240,12.0,6+,1001.0,2,,,METAR,METAR NZQN 290200Z AUTO 24012KT 9999 SCT070/// 16/09 Q1001,-45.021,168.739,356,Queenstown Arpt,SCT,"[{'cover': 'SCT', 'base': 7000}]",VFR,,,,,,NZ,New Zealand
4792,NZWN,2025-11-29 02:04:19.247000+00:00,1764381600,2025-11-29T02:00:00.000Z,20.0,12.0,360,22.0,6+,1005.0,2,,,METAR,METAR NZWN 290200Z AUTO 36022KT 9999 NCD 20/12 Q1005,-41.331,174.806,12,Wellington Intl,CLR,[],VFR,,,,,,NZ,New Zealand
507,OBBI,2025-11-29 01:33:15.793000+00:00,1764379800,2025-11-29T01:30:00.000Z,22.0,18.0,300,8.0,6+,1018.0,16,,,METAR,METAR OBBI 290130Z 30008KT CAVOK 22/18 Q1018 NOSIG,26.271,50.634,6,Bahrain Intl,CAVOK,[],VFR,,,,,,BH,Bahrain
72,OEAB,2025-11-29 02:01:24.320000+00:00,1764381600,2025-11-29T02:00:00.000Z,10.0,-6.0,310,4.0,6+,1026.0,16,,,METAR,METAR OEAB 290200Z 31004KT CAVOK 10/M06 Q1026 NOSIG,18.24,42.657,2092,Abha Intl,CAVOK,[],VFR,,,,,,SA,Saudi Arabia
1803,OEAH,2025-11-29 02:01:24.425000+00:00,1764381600,2025-11-29T02:00:00.000Z,16.0,4.0,0,0.0,6+,1019.0,16,,,METAR,METAR OEAH 290200Z 00000KT CAVOK 16/04 Q1019 NOSIG,25.285,49.485,180,Al Ahsa Arpt,CAVOK,[],VFR,,,,,,SA,Saudi Arabia
71,OEBA,2025-11-29 02:01:24.480000+00:00,1764381600,2025-11-29T02:00:00.000Z,12.0,-5.0,110,3.0,6+,1024.0,16,,,METAR,METAR OEBA 290200Z 11003KT CAVOK 12/M05 Q1024 NOSIG,20.296,41.634,1659,Al Baha Arpt,CAVOK,[],VFR,,,,,,SA,Saudi Arabia
324,OEBH,2025-11-29 02:01:24.511000+00:00,1764381600,2025-11-29T02:00:00.000Z,13.0,-4.0,230,2.0,6+,1022.0,16,,,METAR,METAR OEBH 290200Z 23002KT CAVOK 13/M04 Q1022 NOSIG,19.984,42.621,1167,Bisha Arpt,CAVOK,[],VFR,,,,,,SA,Saudi Arabia
878,OEDF,2025-11-29 02:01:24.159000+00:00,1764381600,2025-11-29T02:00:00.000Z,14.0,13.0,290,5.0,4.97,1018.0,16,,,METAR,METAR OEDF 290200Z 29005KT 8000 NSC 14/13 Q1018 NOSIG,26.45,49.817,15,Dammam/King Fahd Intl,CLR,[],MVFR,,,,,,SA,Saudi Arabia
1185,OEDM,2025-11-29 02:01:24.547000+00:00,1764381600,2025-11-29T02:00:00.000Z,13.0,-6.0,140,8.0,6+,1022.0,16,,,METAR,METAR OEDM 290200Z 14008KT CAVOK 13/M06 Q1022 NOSIG,24.45,44.121,922,Dawadmi Arpt,CAVOK,[],VFR,,,,,,SA,Saudi Arabia
876,OEDR,2025-11-29 02:01:24.192000+00:00,1764381600,2025-11-29T02:00:00.000Z,15.0,15.0,VRB,3.0,3.73,1017.0,0,,,METAR,METAR OEDR 290200Z VRB03KT 6000 NSC 15/15 Q1017,26.265,50.152,17,Dhahran,CLR,[],MVFR,,,,,,SA,Saudi Arabia
1517,OEGN,2025-11-29 02:01:24.578000+00:00,1764381600,2025-11-29T02:00:00.000Z,25.0,20.0,140,4.0,6+,1014.0,16,,,METAR,METAR OEGN 290200Z 14004KT CAVOK 25/20 Q1014 NOSIG,16.901,42.586,5,Jazan/King Abdulaziz Arpt,CAVOK,[],VFR,,,,,,SA,Saudi Arabia
1184,OEGS,2025-11-29 02:01:24.610000+00:00,1764381600,2025-11-29T02:00:00.000Z,12.0,-2.0,0,0.0,6+,1021.0,16,,,METAR,METAR OEGS 290200Z 00000KT CAVOK 12/M02 Q1021 NOSIG,26.303,43.774,647,Qassim Arpt,CAVOK,[],VFR,,,,,,SA,Saudi Arabia
4488,OEGT,2025-11-29 02:01:24.644000+00:00,1764381600,2025-11-29T02:00:00.000Z,10.0,-2.0,290,3.0,6+,1018.0,16,,,METAR,METAR OEGT 290200Z 29003KT CAVOK 10/M02 Q1018 NOSIG,31.412,37.279,512,Guriat Arpt,CAVOK,[],VFR,,,,,,SA,Saudi Arabia
1516,OEHL,2025-11-29 02:01:24.669000+00:00,1764381600,2025-11-29T02:00:00.000Z,13.0,-3.0,180,4.0,6+,1022.0,16,,,METAR,METAR OEHL 290200Z 18004KT CAVOK 13/M03 Q1022 NOSIG,27.438,41.686,1002,Hail Arpt,CAVOK,[],VFR,,,,,,SA,Saudi Arabia
2085,OEJN,2025-11-29 02:01:24.227000+00:00,1764381600,2025-11-29T02:00:00.000Z,25.0,23.0,330,3.0,6+,1012.0,16,,,METAR,METAR OEJN 290200Z 33003KT CAVOK 25/23 Q1012 NOSIG,21.685,39.166,8,Jeddah/King Abdulaziz Intl,CAVOK,[],VFR,,,,,,SA,Saudi Arabia
2287,OEKM,2025-11-29 02:01:30.106000+00:00,1764381600,2025-11-29T02:00:00.000Z,10.0,-7.0,0,0.0,6+,1026.0,16,,,METAR,METAR OEKM 290200Z 00000KT CAVOK 10/M07 Q1026 NOSIG,18.301,42.798,2038,Khamis Mushait Arpt,CAVOK,[],VFR,,,,,,SA,Saudi Arabia
2589,OEMA,2025-11-29 02:01:24.251000+00:00,1764381600,2025-11-29T02:00:00.000Z,20.0,-1.0,50,9.0,6+,1020.0,16,,,METAR,METAR OEMA 290200Z 05009KT CAVOK 20/M01 Q1020 NOSIG,24.553,39.705,639,Madinah/Abdulaziz Intl,CAVOK,[],VFR,,,,,,SA,Saudi Arabia
1169,OENG,2025-11-29 02:01:30.161000+00:00,1764381600,2025-11-29T02:00:00.000Z,12.0,-3.0,300,2.0,6+,1023.0,16,,,METAR,METAR OENG 290200Z 30002KT CAVOK 12/M03 Q1023 NOSIG,17.611,44.419,1210,Nejran Arpt,CAVOK,[],VFR,,,,,,SA,Saudi Arabia
62,OEPA,2025-11-29 02:01:30.184000+00:00,1764381600,2025-11-29T02:00:00.000Z,13.0,-2.0,0,0.0,6+,1021.0,16,,,METAR,METAR OEPA 290200Z 00000KT CAVOK 13/M02 Q1021 NOSIG,28.335,46.125,361,Al Qaisumah/Hafr Al-Batin Arpt,CAVOK,[],VFR,,,,,,SA,Saudi Arabia
101,OEPS,2025-11-29 02:06:38.436000+00:00,1764381300,2025-11-29T02:00:00.000Z,14.7,-4.2,0,0.0,6+,1023.1,4,,,METAR,METAR OEPS 290155Z 00000KT 9999 SKC 15/M04 A3021 RMK AO2A SLP212 WND DATA ESTMD ALSTG/SLP ESTMD T01471042,24.063,47.581,503,Al-Kharj/Sultan Arpt,SKC,[],VFR,,,1021.2,,,SA,Saudi Arabia
3615,OERF,2025-11-29 02:01:30.207000+00:00,1764381600,2025-11-29T02:00:00.000Z,12.0,-1.0,130,3.0,6+,1021.0,16,,,METAR,METAR OERF 290200Z 13003KT CAVOK 12/M01 Q1021 NOSIG,29.626,43.491,441,Rafha Arpt,CAVOK,[],VFR,,,,,,SA,Saudi Arabia
3622,OERK,2025-11-29 02:01:24.280000+00:00,1764381600,2025-11-29T02:00:00.000Z,12.0,-3.0,280,3.0,6+,1022.0,16,,,METAR,METAR OERK 290200Z 28003KT CAVOK 12/M03 Q1022 NOSIG,24.945,46.702,618,Riyadh/King Khaled Intl,CAVOK,[],VFR,,,,,,SA,Saudi Arabia
3614,OERR,2025-11-29 02:01:30.228000+00:00,1764381600,2025-11-29T02:00:00.000Z,11.0,-1.0,70,7.0,6+,1020.0,16,,,METAR,METAR OERR 290200Z 07007KT CAVOK 11/M01 Q1020 NOSIG,30.907,41.138,554,Arar Arpt,CAVOK,[],VFR,,,,,,SA,Saudi Arabia
3870,OESH,2025-11-29 02:01:30.272000+00:00,1764381600,2025-11-29T02:00:00.000Z,14.0,-2.0,0,0.0,6+,1021.0,16,,,METAR,METAR OESH 290200Z 00000KT CAVOK 14/M02 Q1021 NOSIG,17.467,47.121,720,Sharurah Arpt,CAVOK,[],VFR,,,,,,SA,Saudi Arabia
60,OESK,2025-11-29 02:01:30.294000+00:00,1764381600,2025-11-29T02:00:00.000Z,13.0,-1.0,50,5.0,6+,1021.0,16,,,METAR,METAR OESK 290200Z 05005KT CAVOK 13/M01 Q1021 NOSIG,29.785,40.1,671,Al-Jouf Arpt,CAVOK,[],VFR,,,,,,SA,Saudi Arabia
4469,OETB,2025-11-29 02:01:30.319000+00:00,1764381600,2025-11-29T02:00:00.000Z,14.0,1.0,90,3.0,6+,1017.0,16,,,METAR,METAR OETB 290200Z 09003KT CAVOK 14/01 Q1017 NOSIG,28.366,36.619,770,Tabuk Arpt,CAVOK,[],VFR,,,,,,SA,Saudi Arabia
4245,OETF,2025-11-29 02:01:30.349000+00:00,1764381600,2025-11-29T02:00:00.000Z,12.0,-3.0,190,5.0,6+,1022.0,16,,,METAR,METAR OETF 290200Z 19005KT CAVOK 12/M03 Q1022 NOSIG,21.483,40.544,1460,Taif Arpt,CAVOK,[],VFR,,,,,,SA,Saudi Arabia
4467,OETR,2025-11-29 02:01:30.376000+00:00,1764381600,2025-11-29T02:00:00.000Z,11.0,-1.0,110,10.0,6+,1019.0,16,,,METAR,METAR OETR 290200Z 11010KT CAVOK 11/M01 Q1019 NOSIG,31.693,38.731,854,Turaif Arpt,CAVOK,[],VFR,,,,,,SA,Saudi Arabia
4465,OEWD,2025-11-29 02:01:30.397000+00:00,1764381600,2025-11-29T02:00:00.000Z,13.0,-4.0,140,3.0,6+,1020.0,16,,,METAR,METAR OEWD 290200Z 14003KT CAVOK 13/M04 Q1020 NOSIG,20.504,45.197,629,Wadi/Al Dawasir Arpt,CAVOK,[],VFR,,,,,,SA,Saudi Arabia
1168,OEWJ,2025-11-29 02:01:30.420000+00:00,1764381600,2025-11-29T02:00:00.000Z,23.0,7.0,350,4.0,6+,1013.0,16,,,METAR,METAR OEWJ 290200Z 35004KT CAVOK 23/07 Q1013 NOSIG,26.199,36.476,8,Al Wejh Arpt,CAVOK,[],VFR,,,,,,SA,Saudi Arabia
4969,OEYN,2025-11-29 02:01:30.442000+00:00,1764381600,2025-11-29T02:00:00.000Z,22.0,17.0,60,3.0,6+,1011.0,16,,,METAR,METAR OEYN 290200Z 06003KT CAVOK 22/17 Q1011 NOSIG,24.144,38.063,20,Yenbo/Moshin Bin Arpt,CAVOK,[],VFR,,,,,,SA,Saudi Arabia
77,OIAA,2025-11-29 02:03:51.685000+00:00,1764381600,2025-11-29T02:00:00.000Z,9.0,2.0,240,4.0,3.73,1020.0,0,,,METAR,METAR OIAA 290200Z 24004KT 6000 NSC 09/02 Q1020,30.366,48.23,4,Abadan Intl,CLR,[],MVFR,,,,,,IR,"Iran, Islamic Republic of"
5,OIAG,2025-11-29 02:04:02.877000+00:00,1764381600,2025-11-29T02:00:00.000Z,9.0,1.0,170,2.0,3.11,1019.0,0,HZ,,METAR,METAR OIAG 290200Z 17002KT 5000 HZ NSC 09/01 Q1019,30.74,49.684,17,Omidieh/Aghajan Arpt,CLR,[],MVFR,,,,,,IR,"Iran, Islamic Republic of"
1523,OIAH,2025-11-29 02:04:04.112000+00:00,1764381600,2025-11-29T02:00:00.000Z,7.0,-1.0,0,0.0,4.35,1021.0,0,,,METAR,METAR OIAH 290200Z 00000KT 7000 NSC 07/M01 Q1021,30.336,50.83,730,Gachsaran Arpt,CLR,[],MVFR,,,,,,IR,"Iran, Islamic Republic of"
2862,OIAM,2025-11-29 02:04:02.899000+00:00,1764381600,2025-11-29T02:00:00.000Z,8.0,4.0,0,0.0,3.11,1019.0,0,HZ,,METAR,METAR OIAM 290200Z 00000KT 5000 HZ NSC 08/04 Q1019,30.556,49.152,7,Bandar Mahshahr Arpt,CLR,[],MVFR,,,,,,IR,"Iran, Islamic Republic of"
4,OIAW,2025-11-29 02:03:52.874000+00:00,1764381600,2025-11-29T02:00:00.000Z,12.0,5.0,290,4.0,2.49,1018.0,0,HZ,,METAR,METAR OIAW 290200Z 29004KT 4000 HZ NSC 12/05 Q1018,31.343,48.751,25,Ahwaz Arpt,CLR,[],IFR,,,,,,IR,"Iran, Islamic Republic of"
619,OIBB,2025-11-29 02:04:03.110000+00:00,1764381600,2025-11-29T02:00:00.000Z,17.0,11.0,50,4.0,1.55,1017.0,0,HZ,,METAR,METAR OIBB 290200Z 05004KT 2500 HZ NSC 17/11 Q1017 A3005,28.947,50.834,15,Bushehr Arpt,CLR,[],IFR,,,,,,IR,"Iran, Islamic Republic of"
2108,OIBK,2025-11-29 02:03:51.712000+00:00,1764381600,2025-11-29T02:00:00.000Z,22.0,14.0,0,0.0,4.97,1017.0,0,,,METAR,METAR OIBK 290200Z 00000KT 8000 NSC 22/14 Q1017,26.526,53.98,27,Kish Island Arpt,CLR,[],MVFR,,,,,,IR,"Iran, Islamic Republic of"
328,OIBL,2025-11-29 02:04:03.881000+00:00,1764381600,2025-11-29T02:00:00.000Z,19.0,11.0,360,4.0,4.35,1017.0,0,,,METAR,METAR OIBL 290200Z 36004KT 7000 NSC 19/11 Q1017,26.532,54.825,25,Bandar Lengeh Arpt,CLR,[],MVFR,,,,,,IR,"Iran, Islamic Republic of"
3362,OIBP,2025-11-29 02:04:03.134000+00:00,1764381600,2025-11-29T02:00:00.000Z,15.0,11.0,120,6.0,4.97,1016.0,0,,,METAR,METAR OIBP 290200Z 12006KT 8000 NSC 15/11 Q1016 A3002,27.38,52.738,13,Persian Gulf Intl,CLR,[],MVFR,,,,,,IR,"Iran, Islamic Republic of"
2111,OIBQ,2025-11-29 02:04:03.988000+00:00,1764381600,2025-11-29T02:00:00.000Z,22.0,11.0,340,11.0,6+,1018.0,0,,,METAR,METAR OIBQ 290200Z 34011KT CAVOK 22/11 Q1018,29.259,50.324,3,Khark Isl Arpt,CAVOK,[],VFR,,,,,,IR,"Iran, Islamic Republic of"
2269,OICC,2025-11-29 02:03:51.745000+00:00,1764381600,2025-11-29T02:00:00.000Z,1.0,-7.0,110,4.0,6+,1025.0,0,,,METAR,METAR OICC 290200Z 11004KT CAVOK 01/M07 Q1025 A3028,34.346,47.158,1310,Kermanshah Intl,CAVOK,[],VFR,,,,,,IR,"Iran, Islamic Republic of"
1828,OICI,2025-11-29 02:04:02.925000+00:00,1764381600,2025-11-29T02:00:00.000Z,4.0,-1.0,110,4.0,6+,1025.0,0,,,METAR,METAR OICI 290200Z 11004KT CAVOK 04/M01 Q1025 A3027,33.588,46.397,1323,Ilan Arpt,CAVOK,[],VFR,,,,,,IR,"Iran, Islamic Republic of"
2110,OICK,2025-11-29 02:04:03.156000+00:00,1764381600,2025-11-29T02:00:00.000Z,2.0,-2.0,110,4.0,6+,1023.0,0,,,METAR,METAR OICK 290200Z 11004KT CAVOK 02/M02 Q1023 A3022,33.435,48.283,1156,Khorram Abad Arpt,CAVOK,[],VFR,,,,,,IR,"Iran, Islamic Republic of"
3895,OICS,2025-11-29 02:04:03.187000+00:00,1764381600,2025-11-29T02:00:00.000Z,-3.0,-6.0,0,0.0,6+,1025.0,0,,,METAR,METAR OICS 290200Z 00000KT CAVOK M03/M06 Q1025 A3029,35.245,47.009,1369,Sanandaj Arpt,CAVOK,[],VFR,,,,,,IR,"Iran, Islamic Republic of"
1827,OIFM,2025-11-29 02:03:52.900000+00:00,1764381600,2025-11-29T02:00:00.000Z,-4.0,-12.0,290,6.0,6+,1026.0,0,,,METAR,METAR OIFM 290200Z 29006KT CAVOK M04/M12 Q1026 A3030,32.752,51.866,1539,Esfahan Intl,CAVOK,[],VFR,,,,,,IR,"Iran, Islamic Republic of"
875,OIFS,2025-11-29 02:04:06.041000+00:00,1764381600,2025-11-29T02:00:00.000Z,-8.0,-17.0,320,2.0,6+,1026.0,0,,,METAR,METAR OIFS 290200Z 32002KT CAVOK M08/M17 Q1026,32.297,50.842,2042,Shahre Kord Arpt,CAVOK,[],VFR,,,,,,IR,"Iran, Islamic Republic of"
1830,OIHH,2025-11-29 02:04:03.208000+00:00,1764381600,2025-11-29T02:00:00.000Z,-4.0,-8.0,0,0.0,6+,1024.0,0,,,METAR,METAR OIHH 290200Z 00000KT CAVOK M04/M08 Q1024 A3026,34.869,48.553,1742,Hamadan Arpt,CAVOK,[],VFR,,,,,,IR,"Iran, Islamic Republic of"
1826,OIIE,2025-11-29 02:03:51.772000+00:00,1764381600,2025-11-29T02:00:00.000Z,4.0,-7.0,270,7.0,4.35,1024.0,0,,,METAR,METAR OIIE 290200Z 27007KT 7000 NSC 04/M07 Q1024,35.416,51.152,993,Tehran/Khomeini Intl,CLR,[],MVFR,,,,,,IR,"Iran, Islamic Republic of"
4281,OIII,2025-11-29 02:03:52.922000+00:00,1764381600,2025-11-29T02:00:00.000Z,8.0,-5.0,340,4.0,4.97,1024.0,16,,,METAR,METAR OIII 290200Z 34004KT 8000 NSC 08/M05 Q1024 A3024 NOSIG,35.686,51.304,1182,Tehran/Mehrabad Intl,CLR,[],MVFR,,,,,,IR,"Iran, Islamic Republic of"
1522,OIIK,2025-11-29 02:04:04.027000+00:00,1764381600,2025-11-29T02:00:00.000Z,3.0,-3.0,VRB,3.0,6+,1024.0,0,,,METAR,METAR OIIK 290200Z VRB03KT CAVOK 03/M03 Q1024,36.243,50.045,1278,Qazvin Arpt,CAVOK,[],VFR,,,,,,IR,"Iran, Islamic Republic of"
3369,OIIP,2025-11-29 02:04:06.070000+00:00,1764381600,2025-11-29T02:00:00.000Z,5.0,-5.0,320,4.0,6+,1023.0,0,,,METAR,METAR OIIP 290200Z 32004KT CAVOK 05/M05 Q1023 A3021,35.776,50.827,1270,Karaj/Payam Arpt,CAVOK,[],VFR,,,,,,IR,"Iran, Islamic Republic of"
325,OIKB,2025-11-29 02:03:52.952000+00:00,1764381600,2025-11-29T02:00:00.000Z,16.0,13.0,360,4.0,3.11,1017.0,0,BR,,METAR,METAR OIKB 290200Z 36004KT 5000 BR NSC 16/13 Q1017 A3004,27.218,56.378,6,Bandarabbass Intl,CLR,[],MVFR,,,,,,IR,"Iran, Islamic Republic of"
2109,OIKK,2025-11-29 02:03:52.977000+00:00,1764381600,2025-11-29T02:00:00.000Z,-4.0,-22.0,120,4.0,6+,1024.0,0,,,METAR,METAR OIKK 290200Z 12004KT CAVOK M04/M22 Q1024 A3027,30.251,56.964,1749,Kerman Arpt,CAVOK,[],VFR,,,,,,IR,"Iran, Islamic Republic of"
620,OIKM,2025-11-29 02:04:03.772000+00:00,1764381600,2025-11-29T02:00:00.000Z,9.0,-17.0,280,12.0,6+,1021.0,0,,,METAR,METAR OIKM 290200Z 28012KT CAVOK 09/M17 Q1021,29.084,58.45,974,Bam Arpt,CAVOK,[],VFR,,,,,,IR,"Iran, Islamic Republic of"
1518,OIKQ,2025-11-29 02:04:02.959000+00:00,1764381600,2025-11-29T02:00:00.000Z,16.0,12.0,330,4.0,1.86,1017.0,0,HZ,,METAR,METAR OIKQ 290200Z 33004KT 3000 HZ NSC 16/12 Q1017,26.755,55.902,9,Qeshm Island Intl,CLR,[],IFR,,,,,,IR,"Iran, Islamic Republic of"
4773,OIMB,2025-11-29 02:04:06.097000+00:00,1764381600,2025-11-29T02:00:00.000Z,-2.0,-16.0,120,6.0,6+,1024.0,0,,,METAR,METAR OIMB 290200Z 12006KT CAVOK M02/M16 Q1024 A3026,32.894,59.29,1512,Birjand Intl,CAVOK,[],VFR,,,,,,IR,"Iran, Islamic Republic of"
2551,OIMM,2025-11-29 02:03:53.002000+00:00,1764381600,2025-11-29T02:00:00.000Z,2.0,-3.0,190,4.0,6+,1023.0,0,,,METAR,METAR OIMM 290200Z 19004KT CAVOK 02/M03 Q1023 A3022,36.236,59.639,995,Mashhad Intl,CAVOK,[],VFR,,,,,,IR,"Iran, Islamic Republic of"
333,OIMN,2025-11-29 02:04:06.126000+00:00,1764381600,2025-11-29T02:00:00.000Z,6.0,1.0,0,0.0,6+,1024.0,0,,,METAR,METAR OIMN 290200Z 00000KT 9999 BKN040 06/01 Q1024,37.488,57.303,1065,Bojnord Arpt,BKN,"[{'cover': 'BKN', 'base': 4000}]",VFR,,,,,,IR,"Iran, Islamic Republic of"
2112,OINE,2025-11-29 02:04:04.062000+00:00,1764381600,2025-11-29T02:00:00.000Z,11.0,7.0,0,0.0,6+,1023.0,0,,,METAR,METAR OINE 290200Z 00000KT CAVOK 11/07 Q1023,37.383,55.452,125,Kalaleh Arpt,CAVOK,[],VFR,,,,,,IR,"Iran, Islamic Republic of"
1521,OING,2025-11-29 02:04:03.796000+00:00,1764381600,2025-11-29T02:00:00.000Z,7.0,6.0,160,4.0,6+,1025.0,0,,,METAR,METAR OING 290200Z 16004KT CAVOK 07/06 Q1025,36.908,54.404,0,Gorgan Arpt,CAVOK,[],VFR,,,,,,IR,"Iran, Islamic Republic of"
3072,OINN,2025-11-29 02:04:02.989000+00:00,1764381600,2025-11-29T02:00:00.000Z,12.0,9.0,160,2.0,6+,1022.0,0,,,METAR,METAR OINN 290200Z 16002KT 9999 FEW030 12/09 Q1022,36.663,51.465,-25,Noshahr Arpt,FEW,"[{'cover': 'FEW', 'base': 3000}]",VFR,,,,,,IR,"Iran, Islamic Republic of"
3618,OINR,2025-11-29 02:04:03.013000+00:00,1764381600,2025-11-29T02:00:00.000Z,11.0,9.0,0,0.0,6+,1022.0,0,,,METAR,METAR OINR 290200Z 00000KT CAVOK 11/09 Q1022,36.91,50.68,-19,Ramsar Arpt,CAVOK,[],VFR,,,,,,IR,"Iran, Islamic Republic of"
3894,OINZ,2025-11-29 02:03:51.792000+00:00,1764381600,2025-11-29T02:00:00.000Z,8.0,7.0,130,2.0,2.49,1023.0,0,BR,,METAR,METAR OINZ 290200Z 13002KT 4000 BR NSC 08/07 Q1023,36.636,53.194,8,Sari/Dasht E Naz Arpt,CLR,[],IFR,,,,,,IR,"Iran, Islamic Republic of"
1165,OISF,2025-11-29 02:04:04.138000+00:00,1764381600,2025-11-29T02:00:00.000Z,2.0,-11.0,340,4.0,6+,1023.0,0,,,METAR,METAR OISF 290200Z 34004KT CAVOK 02/M11 Q1023 A3022,28.895,53.72,1305,Fasa Arpt,CAVOK,[],VFR,,,,,,IR,"Iran, Islamic Republic of"
2541,OISL,2025-11-29 02:04:03.042000+00:00,1764381600,2025-11-29T02:00:00.000Z,5.0,-4.0,0,0.0,6+,1019.0,0,,,METAR,METAR OISL 290200Z 00000KT CAVOK 05/M04 Q1019 A3011,27.67,54.375,804,Lar Intl,CAVOK,[],VFR,,,,,,IR,"Iran, Islamic Republic of"
4282,OISS,2025-11-29 02:03:53.032000+00:00,1764381600,2025-11-29T02:00:00.000Z,1.0,-8.0,0,0.0,6+,1023.0,0,,,METAR,METAR OISS 290200Z 00000KT CAVOK 01/M08 Q1023 A3023,29.539,52.59,1484,Shiraz Intl,CAVOK,[],VFR,,,,,,IR,"Iran, Islamic Republic of"
4772,OISY,2025-11-29 02:04:03.075000+00:00,1764381600,2025-11-29T02:00:00.000Z,1.0,-7.0,0,0.0,6+,1025.0,0,,,METAR,METAR OISY 290200Z 00000KT CAVOK 01/M07 Q1025,30.701,51.545,1800,Yasouj Arpt,CAVOK,[],VFR,,,,,,IR,"Iran, Islamic Republic of"
6,OITL,2025-11-29 02:04:03.237000+00:00,1764381600,2025-11-29T02:00:00.000Z,0.0,0.0,0,0.0,0.12,1024.0,0,FG,,METAR,METAR OITL 290200Z 00000KT 0200 R15/0310N FG VV002 M00/M00 Q1024,38.326,48.424,1314,Ardabil Intl,OVX,"[{'cover': 'OVX', 'base': 200}]",LIFR,2.0,,,,,IR,"Iran, Islamic Republic of"
8,OITM,2025-11-29 02:04:04.090000+00:00,1764381600,2025-11-29T02:00:00.000Z,0.0,-5.0,350,2.0,1.55,1023.0,0,HZ,,METAR,METAR OITM 290200Z 35002KT 2500 HZ NSC 00/M05 Q1023,37.348,46.146,1340,Maragheh/Sahand Arpt,CLR,[],IFR,,,,,,IR,"Iran, Islamic Republic of"
3070,OITR,2025-11-29 02:03:51.819000+00:00,1764381600,2025-11-29T02:00:00.000Z,0.0,-3.0,250,6.0,2.49,1023.0,0,BR,,METAR,METAR OITR 290200Z 25006KT 4000 BR NSC M00/M03 Q1023 A3024,37.665,45.066,1312,Orumieh Arpt,CLR,[],IFR,,,,,,IR,"Iran, Islamic Republic of"
4284,OITT,2025-11-29 02:03:53.057000+00:00,1764381600,2025-11-29T02:00:00.000Z,1.0,-4.0,40,4.0,2.49,1025.0,0,HZ,,METAR,METAR OITT 290200Z 04004KT 4000 HZ NSC 01/M04 Q1025 A3028,38.13,46.24,1353,Tabriz Intl,CLR,[],IFR,,,,,,IR,"Iran, Islamic Republic of"
321,OIYY,2025-11-29 02:03:51.843000+00:00,1764381600,2025-11-29T02:00:00.000Z,5.0,-16.0,130,5.0,6+,1025.0,0,,,METAR,METAR OIYY 290200Z 13005KT CAVOK 05/M16 Q1025,31.905,54.276,1226,Yazd/Sadooghi Intl,CAVOK,[],VFR,,,,,,IR,"Iran, Islamic Republic of"
7,OIZB,2025-11-29 02:04:03.824000+00:00,1764381600,2025-11-29T02:00:00.000Z,0.0,-14.0,170,4.0,6+,1023.0,0,,,METAR,METAR OIZB 290200Z 17004KT CAVOK 00/M14 Q1023,31.094,61.546,483,Zabol Arpt,CAVOK,[],VFR,,,,,,IR,"Iran, Islamic Republic of"
5029,OIZH,2025-11-29 02:03:53.086000+00:00,1764381600,2025-11-29T02:00:00.000Z,-2.0,-20.0,210,4.0,6+,1024.0,0,,,METAR,METAR OIZH 290200Z 21004KT CAVOK M02/M20 Q1024 A3025,29.472,60.901,1378,Zahedan Intl,CAVOK,[],VFR,,,,,,IR,"Iran, Islamic Republic of"
1831,OIZI,2025-11-29 02:04:03.852000+00:00,1764381600,2025-11-29T02:00:00.000Z,7.0,-16.0,60,4.0,6+,1021.0,0,,,METAR,METAR OIZI 290200Z 06004KT CAVOK 07/M16 Q1021,27.236,60.72,622,Iran-Shahr Arpt,CAVOK,[],VFR,,,,,,IR,"Iran, Islamic Republic of"
2115,OIZJ,2025-11-29 02:04:06.160000+00:00,1764381600,2025-11-29T02:00:00.000Z,21.0,14.0,30,3.0,6+,1016.0,0,,,METAR,METAR OIZJ 290200Z 03003KT CAVOK 21/14 Q1016,25.653,57.798,6,Jask Arpt,CAVOK,[],VFR,,,,,,IR,"Iran, Islamic Republic of"
25,OJAI,2025-11-29 02:07:28.574000+00:00,1764381600,2025-11-29T02:00:00.000Z,11.0,0.0,50,5.0,3.11,1019.0,16,HZ,,METAR,METAR OJAI 290200Z 05005KT 5000 HZ NSC 11/M00 Q1019 NOSIG,31.723,35.993,723,Amman/Alia Intl,CLR,[],MVFR,,,,,,JO,Jordan
52,OJAM,2025-11-29 02:07:28.603000+00:00,1764381600,2025-11-29T02:00:00.000Z,11.0,3.0,90,2.0,3.11,1019.0,16,HZ,,METAR,METAR OJAM 290200Z 09002KT 5000 HZ NSC 11/03 Q1019 NOSIG,31.973,35.992,765,Amman Arpt,CLR,[],MVFR,,,,,,JO,Jordan
61,OJAQ,2025-11-29 02:07:28.627000+00:00,1764381600,2025-11-29T02:00:00.000Z,18.0,4.0,340,6.0,3.73,1016.0,16,,,METAR,METAR OJAQ 290200Z 34006KT 6000 NSC 18/04 Q1016 NOSIG,29.612,35.018,45,Aqaba/Hussein Intl,CLR,[],MVFR,,,,,,JO,Jordan
74,OMAA,2025-11-29 02:01:25.056000+00:00,1764381600,2025-11-29T02:00:00.000Z,19.0,14.0,210,1.0,6+,1017.0,16,,,METAR,METAR OMAA 290200Z 21001KT CAVOK 19/14 Q1017 NOSIG,24.433,54.651,13,Abu Dhabi Intl,CAVOK,[],VFR,,,,,,AE,United Arab Emirates
331,OMAD,2025-11-29 02:01:25.019000+00:00,1764381600,2025-11-29T02:00:00.000Z,20.0,15.0,0,0.0,6+,1017.0,16,,,METAR,METAR OMAD 290200Z 00000KT CAVOK 20/15 Q1017 NOSIG,24.428,54.458,9,Abu Dhabi/Bateen Arpt,CAVOK,[],VFR,,,,,,AE,United Arab Emirates
70,OMAL,2025-11-29 02:01:24.979000+00:00,1764381600,2025-11-29T02:00:00.000Z,17.0,13.0,30,6.0,4.35,1018.0,16,,,METAR,METAR OMAL 290200Z 03006KT 7000 NSC 17/13 Q1018 NOSIG,24.262,55.609,247,Al Ain Intl,CLR,[],MVFR,,,,,,AE,United Arab Emirates
1183,OMDB,2025-11-29 02:01:25.088000+00:00,1764381600,2025-11-29T02:00:00.000Z,22.0,15.0,VRB,2.0,6+,1017.0,16,,,METAR,METAR OMDB 290200Z VRB02KT CAVOK 22/15 Q1017 NOSIG,25.254,55.366,5,Dubai Intl,CAVOK,[],VFR,,,,,,AE,United Arab Emirates
1182,OMDW,2025-11-29 02:01:25.119000+00:00,1764381600,2025-11-29T02:00:00.000Z,17.0,13.0,130,6.0,4.35,1018.0,16,,,METAR,METAR OMDW 290200Z 13006KT 7000 NSC 17/13 Q1018 NOSIG,24.897,55.161,34,Dubai/Al Maktoum Intl,CLR,[],MVFR,,,,,,AE,United Arab Emirates
1181,OMFJ,2025-11-29 02:01:25.143000+00:00,1764381600,2025-11-29T02:00:00.000Z,21.0,13.0,290,5.0,6+,1017.0,0,,,METAR,METAR OMFJ 290200Z 29005KT CAVOK 21/13 Q1017 A3004,25.112,56.324,27,Fujairah Intl,CAVOK,[],VFR,,,,,,AE,United Arab Emirates
3617,OMRK,2025-11-29 02:04:28.832000+00:00,1764381600,2025-11-29T02:00:00.000Z,15.0,11.0,210,2.0,6+,1018.0,0,,,METAR,METAR OMRK 290200Z 21002KT CAVOK 15/11 Q1018 A3008,25.613,55.939,18,Ras Al Khaimah Intl,CAVOK,[],VFR,,,,,,AE,United Arab Emirates
3926,OMSJ,2025-11-29 02:01:25.180000+00:00,1764381600,2025-11-29T02:00:00.000Z,17.0,13.0,110,3.0,6+,1018.0,16,,,METAR,METAR OMSJ 290200Z 11003KT CAVOK 17/13 Q1018 NOSIG,25.329,55.517,33,Sharjah Intl,CAVOK,[],VFR,,,,,,AE,United Arab Emirates
2163,OOKB,2025-11-29 02:01:25.301000+00:00,1764381000,2025-11-29T02:00:00.000Z,21.0,14.0,170,6.0,,1017.0,18,,,METAR,METAR OOKB 290150Z AUTO 17006KT //// // NCD 21/14 Q1017 NOSIG,26.168,56.239,30,Khassab Arpt,CLR,[],,,,,,,OM,Oman
2704,OOMS,2025-11-29 02:01:25.215000+00:00,1764381000,2025-11-29T02:00:00.000Z,18.0,6.0,220,3.0,6+,1017.0,16,,,METAR,METAR OOMS 290150Z 22003KT CAVOK 18/06 Q1017 NOSIG,23.595,58.298,8,Muscat/Seeb Intl,CAVOK,[],VFR,,,,,,OM,Oman
4049,OOSA,2025-11-29 02:01:25.247000+00:00,1764381000,2025-11-29T02:00:00.000Z,23.0,11.0,350,6.0,6+,1017.0,16,,,METAR,METAR OOSA 290150Z 35006KT CAVOK 23/11 Q1017 NOSIG,17.044,54.102,20,Salalah Arpt,CAVOK,[],VFR,,,,,,OM,Oman
3183,OOSH,2025-11-29 02:02:32.951000+00:00,1764381000,2025-11-29T02:00:00.000Z,19.0,12.0,240,3.0,6+,1017.0,2,,,METAR,METAR OOSH 290150Z AUTO 24003KT CAVOK ////// 19/12 Q1017,24.388,56.624,35,Suhar Intl,CAVOK,[],VFR,,,,,,OM,Oman
2572,OPFA,2025-11-29 02:02:05.422000+00:00,1764381600,2025-11-29T02:00:00.000Z,6.0,4.0,0,0.0,1.24,1019.0,0,BR,,METAR,METAR OPFA 290200Z 00000KT 2000 BR NSC 06/04 Q1019 BECMG 1500,31.365,72.995,180,Faisalabad Intl,CLR,[],IFR,,,,,,PK,Pakistan
1779,OPIS,2025-11-29 02:01:35.479000+00:00,1764381600,2025-11-29T02:00:00.000Z,5.0,4.0,310,4.0,1.24,1018.0,0,BR,,METAR,METAR OPIS 290200Z 31004KT 2000 BR NSC 05/04 Q1018 TEMPO 1000,33.551,72.827,542,Islamabad/Gandhara Intl,CLR,[],IFR,,,,,,PK,Pakistan
2093,OPKC,2025-11-29 01:50:05.799000+00:00,1764381600,2025-11-29T02:00:00.000Z,16.0,0.0,360,4.0,2.49,1017.0,16,HZ,,METAR,METAR OPKC 290200Z 36004KT 4000 HZ NSC 16/M00 Q1017 NOSIG,24.902,67.139,20,Karachi/Jinnah Intl,CLR,[],IFR,,,,,,PK,Pakistan
2289,OPLA,2025-11-29 02:01:35.509000+00:00,1764381600,2025-11-29T02:00:00.000Z,9.0,7.0,360,4.0,0.93,1018.0,0,BR,,METAR,METAR OPLA 290200Z 36004KT 1500 R36/0900 R18/P2000 BR NSC 09/07 Q1018 BECMG 0800 BR RMK RMID/1300 QFE992 A30.08,31.522,74.404,217,Lahore/Iqbal Intl,CLR,[],LIFR,,,,,,PK,Pakistan
2881,OPMT,2025-11-29 02:06:39.502000+00:00,1764381600,2025-11-29T02:00:00.000Z,8.0,6.0,0,0.0,0.75,1018.0,0,BR,,METAR,METAR OPMT 290200Z 00000KT 1200 BR NSC 08/06 Q1018 TEMPO 1000,30.203,71.419,122,Multan Intl,CLR,[],LIFR,,,,,,PK,Pakistan
3377,OPPS,2025-11-29 02:01:35.577000+00:00,1764381600,2025-11-29T02:00:00.000Z,7.0,-4.0,0,0.0,2.49,1019.0,0,HZ,,METAR,METAR OPPS 290200Z 00000KT 4000 HZ NSC 07/M04 Q1019,33.996,71.515,356,Peshawar/Khan Intl,CLR,[],IFR,,,,,,PK,Pakistan
3882,OPST,2025-11-29 02:01:35.604000+00:00,1764381600,2025-11-29T02:00:00.000Z,9.0,7.0,0,0.0,0.5,1018.0,0,FG,,METAR,METAR OPST 290200Z 00000KT 0800 FG NSC 09/07 Q1018 BECMG 0600 RH93,32.536,74.364,234,Sailkot Arpt,CLR,[],LIFR,,,,,,PK,Pakistan
340,ORBI,2025-11-29 02:01:21.328000+00:00,1764381600,2025-11-29T02:00:00.000Z,11.0,4.0,350,4.0,6+,1020.0,0,,,METAR,METAR ORBI 290200Z 35004KT CAVOK 11/04 Q1020,33.263,44.235,37,Baghdad Intl,CAVOK,[],VFR,,,,,,IQ,Iraq
1167,ORER,2025-11-29 01:54:03.830000+00:00,1764381600,2025-11-29T02:00:00.000Z,8.0,-1.0,0,0.0,5.59,1021.0,0,,,METAR,METAR ORER 290200Z 00000KT 9000 NSC 08/M01 Q1021,36.232,43.951,399,Erbil Intl,CLR,[],VFR,,,,,,IQ,Iraq
613,ORMM,2025-11-29 01:51:01.265000+00:00,1764381600,2025-11-29T02:00:00.000Z,7.0,-2.0,250,2.0,6+,1020.0,0,,,METAR,METAR ORMM 290200Z 25002KT CAVOK 07/M02 Q1020,30.549,47.662,2,Basrah Intl,CAVOK,[],VFR,,,,,,IQ,Iraq
3063,ORNI,2025-11-29 01:49:09.217000+00:00,1764381600,2025-11-29T02:00:00.000Z,11.0,4.0,0,0.0,3.73,1020.0,0,,,METAR,METAR ORNI 290200Z 00000KT 6000 NSC 11/04 Q1020,31.99,44.405,33,Al Najaf Intl,CLR,[],MVFR,,,,,,IQ,Iraq
2078,ORSU,2025-11-29 01:59:34.465000+00:00,1764381600,2025-11-29T02:00:00.000Z,3.0,1.0,280,5.0,6+,1022.0,0,,,METAR,METAR ORSU 290200Z 28005KT CAVOK 03/01 Q1022,35.56,45.318,760,Sulaymaniyah Intl,CAVOK,[],VFR,,,,,,IQ,Iraq
41,OSAP,2025-11-29 01:47:03.093000+00:00,1764381600,2025-11-29T02:00:00.000Z,9.0,4.0,130,4.0,6+,1021.0,0,,,METAR,METAR OSAP 290200Z 13004KT CAVOK 09/04 Q1021,36.183,37.218,390,Aleppo Intl,CAVOK,[],VFR,,,,,,SY,Syrian Arab Republic
904,OSDI,2025-11-29 01:47:03.051000+00:00,1764381600,2025-11-29T02:00:00.000Z,11.0,1.0,50,10.0,6+,1020.0,0,,,METAR,METAR OSDI 290200Z 05010KT CAVOK 11/01 Q1020,33.411,36.516,614,Damascus Intl,CAVOK,[],VFR,,,,,,SY,Syrian Arab Republic
1080,OTBD,2025-11-29 01:34:22.980000+00:00,1764379800,2025-11-29T01:30:00.000Z,22.0,17.0,310,4.0,4.35,1018.0,16,,,METAR,METAR OTBD 290130Z 31004KT 250V360 7000 NSC 22/17 Q1018 NOSIG,25.261,51.565,13,Doha Intl,CLR,[],MVFR,,,,,,QA,Qatar
4821,OTBH,2025-11-29 02:06:39.592000+00:00,1764381300,2025-11-29T02:00:00.000Z,16.8,13.9,270,6.0,2.73,1019.0,76,BR,,METAR,METAR OTBH 290155Z 27006KT 4400 BR CLR 17/14 A3009 Q1019 RMK AO2A SLP174 T01680139 FZRANO $,25.117,51.315,40,Doha/Al Udeid AB,CLR,[],IFR,,,1017.4,,,QA,Qatar
38,OYAA,2025-11-29 01:57:42.936000+00:00,1764381600,2025-11-29T02:00:00.000Z,26.0,19.0,100,14.0,4.97,1015.0,16,,,METAR,METAR OYAA 290200Z 10014KT 8000 SCT020 26/19 Q1015 NOSIG,12.829,45.029,3,Aden Intl,SCT,"[{'cover': 'SCT', 'base': 2000}]",MVFR,,,,,,YE,Yemen
1515,OYSY,2025-11-29 02:01:24.737000+00:00,1764381600,2025-11-29T02:00:00.000Z,13.0,3.0,0,0.0,6+,1019.0,0,,,METAR,METAR OYSY 290200Z 00000KT CAVOK 13/03 Q1019,15.966,48.788,701,Sayun Arpt,CAVOK,[],VFR,,,,,,YE,Yemen
78,PAAK,2025-11-29 01:59:18.399000+00:00,1764381360,2025-11-29T02:00:00.000Z,5.6,1.7,60,30.0,,992.3,174,,,METAR,METAR PAAK 290156Z AUTO 06030G45KT SCT027 BKN034 OVC060 06/02 A2930 RMK AO2 PK WND 05045/0156 PRESFR SLP923 T00560017 PWINO TSNO $,52.219,-174.208,11,Atka Arpt,OVC,"[{'cover': 'SCT', 'base': 2700}, {'cover': 'BKN', 'base': 3400}, {'cover': 'OVC', 'base': 6000}]",,,45.0,992.3,,,US,United States
3446,PAAQ,2025-11-29 01:57:23.882000+00:00,1764381180,2025-11-29T02:00:00.000Z,-5.0,-5.6,110,4.0,10+,1018.7,12,,,METAR,METAR PAAQ 290153Z 11004KT 10SM FEW110 M05/M06 A3008 RMK AO2 SLP190 T10501056 $,61.5951,-149.0917,68,Palmer Muni,FEW,"[{'cover': 'FEW', 'base': 11000}]",VFR,,,1019.0,,,US,United States
422,PABE,2025-11-29 01:57:32.670000+00:00,1764381180,2025-11-29T02:00:00.000Z,-6.7,-7.2,360,6.0,10+,1019.4,12,,,METAR,METAR PABE 290153Z 36006KT 10SM OVC041 M07/M07 A3010 RMK AO2 SLP197 I1000 T10671072 $,60.785,-161.8293,28,Bethel Arpt,OVC,"[{'cover': 'OVC', 'base': 4100}]",VFR,,,1019.7,,,US,United States
411,PABI,2025-11-29 01:59:01.687000+00:00,1764381180,2025-11-29T02:00:00.000Z,-11.7,-16.7,120,13.0,10+,1021.1,12,,,METAR,METAR PABI 290153Z 12013KT 10SM FEW060 SCT120 BKN150 M12/M17 A3015 RMK AO2 SLP252 T11171167 $,63.9931,-145.7214,388,Ft Greely/Allen Fld,BKN,"[{'cover': 'FEW', 'base': 6000}, {'cover': 'SCT', 'base': 12000}, {'cover': 'BKN', 'base': 15000}]",VFR,,,1025.2,,,US,United States
363,PABL,2025-11-29 01:59:18.418000+00:00,1764381360,2025-11-29T02:00:00.000Z,-5.0,-6.7,130,6.0,9,1019.0,70,-SN,0.005,METAR,METAR PABL 290156Z AUTO 13006KT 9SM -SN BKN055 M05/M07 A3009 RMK AO2 SLP190 P0000 T10501067 FZRANO,65.979,-161.146,7,Buckland Arpt,BKN,"[{'cover': 'BKN', 'base': 5500}]",VFR,,,1019.0,,,US,United States
408,PABR,2025-11-29 01:57:18.257000+00:00,1764381180,2025-11-29T02:00:00.000Z,-18.3,-20.6,80,10.0,10+,1015.3,12,,,METAR,METAR PABR 290153Z 08010KT 10SM CLR M18/M21 A2998 RMK AO2 SLP155 I1001 T11831206 $,71.2837,-156.7843,6,Utqiaġvik,CLR,[],VFR,,,1015.5,,,US,United States
723,PACD,2025-11-29 01:57:32.692000+00:00,1764381180,2025-11-29T02:00:00.000Z,3.9,1.7,80,12.0,10+,1009.9,12,,0.005,METAR,METAR PACD 290153Z 08012G19KT 10SM BKN031 BKN040 OVC095 04/02 A2982 RMK AO2 RAB17E39 SLP098 P0000 T00390017 $,55.2207,-162.7323,23,Cold Bay Arpt,OVC,"[{'cover': 'BKN', 'base': 3100}, {'cover': 'BKN', 'base': 4000}, {'cover': 'OVC', 'base': 9500}]",VFR,,19.0,1009.8,,,US,United States
720,PACV,2025-11-29 01:57:18.284000+00:00,1764381180,2025-11-29T02:00:00.000Z,3.9,2.8,0,0.0,9,1018.0,4,-RA,0.03,METAR,METAR PACV 290153Z 00000KT 9SM -RA OVC033 04/03 A3006 RMK AO2 RAB15 SLP180 P0003 T00390028,60.486,-145.4445,15,Cordova/Smith Arpt,OVC,"[{'cover': 'OVC', 'base': 3300}]",VFR,,,1018.0,,,US,United States
931,PACX,2025-11-29 01:59:20.180000+00:00,1764381360,2025-11-29T02:00:00.000Z,-13.3,-16.7,230,3.0,10+,1021.1,70,,,METAR,METAR PACX 290156Z AUTO 23003KT 10SM CLR M13/M17 A3015 RMK AO2 SLP835 T11331167 FZRANO,67.252,-150.204,319,Coldfoot Arpt,CLR,[],VFR,,,983.5,,,US,United States
942,PACZ,2025-11-29 01:58:43.551000+00:00,1764381300,2025-11-29T02:00:00.000Z,-4.6,-7.2,30,7.0,,1018.0,206,,,METAR,METAR PACZ 290155Z AUTO 03007KT OVC036 M05/M07 A3006 RMK AO2 SLP189 T10461072 PWINO FZRANO $,61.776,-166.043,129,Cape Romanzof Arpt,OVC,"[{'cover': 'OVC', 'base': 3600}]",,,,1018.9,,,US,United States
987,PADE,2025-11-29 01:57:18.301000+00:00,1764381180,2025-11-29T02:00:00.000Z,-6.7,-8.3,0,0.0,10+,1017.4,38,,,METAR,METAR PADE 290153Z AUTO 00000KT 10SM OVC049 M07/M08 A3004 RMK AO2 SLP172 T10671083 TSNO,66.0696,-162.7613,5,Deering Arpt,OVC,"[{'cover': 'OVC', 'base': 4900}]",VFR,,,1017.2,,,US,United States
933,PADL,2025-11-29 01:59:18.478000+00:00,1764381360,2025-11-29T02:00:00.000Z,-3.9,-3.9,30,5.0,8,1018.7,12,,,METAR,METAR PADL 290156Z 03005KT 8SM BKN010 M04/M04 A3008 RMK AO2 SLP188 RGD BASES T10391039 $,59.04,-158.507,20,Dillingham Arpt,BKN,"[{'cover': 'BKN', 'base': 1000}]",MVFR,,,1018.8,,,US,United States
149,PADQ,2025-11-29 01:57:32.723000+00:00,1764381180,2025-11-29T02:00:00.000Z,2.2,0.0,0,0.0,10+,1018.0,12,,,METAR,METAR PADQ 290153Z 00000KT 10SM CLR 02/00 A3006 RMK AO2 SLP179 T00220000 $,57.7507,-152.4881,5,Kodiak Arpt,CLR,[],VFR,,,1017.9,,,US,United States
1208,PADU,2025-11-29 01:59:18.494000+00:00,1764381360,2025-11-29T02:00:00.000Z,5.6,2.2,100,26.0,5,1002.8,4,-RA,0.09,METAR,METAR PADU 290156Z 10026G33KT 5SM -RA BKN021 OVC027 06/02 A2961 RMK AO2 PK WND 10036/0111 SLP025 BLK WTR NE-E NW P0009 T00560022,53.896,-166.543,4,Dutch Harbor/Unalaska Arpt,OVC,"[{'cover': 'BKN', 'base': 2100}, {'cover': 'OVC', 'base': 2700}]",MVFR,,33.0,1002.5,,,US,United States
1222,PAED,2025-11-29 02:02:05.452000+00:00,1764381300,2025-11-29T02:00:00.000Z,-1.5,-5.7,0,0.0,10+,1018.7,12,,,METAR,METAR PAED 290155Z 00000KT 10SM FEW070 M01/M06 A3008 RMK AO2A SLP185 T10151057 $,61.25,-149.837,54,Anchorage/Elmendorf AFB,FEW,"[{'cover': 'FEW', 'base': 7000}]",VFR,,,1018.5,,,US,United States
1278,PAEG,2025-11-29 01:57:18.328000+00:00,1764381180,2025-11-29T02:00:00.000Z,-12.2,-16.7,120,9.0,10+,1024.1,46,,,METAR,METAR PAEG 290153Z AUTO 12009G18KT 10SM CLR M12/M17 A3024 RMK AO2 SLP262 T11221167 TSNO $,64.7761,-141.1635,273,Eagle Arpt,CLR,[],VFR,,18.0,1026.2,,,US,United States
1236,PAEH,2025-11-29 02:01:06.839000+00:00,1764381300,2025-11-29T02:00:00.000Z,-2.7,-4.0,0,0.0,10+,1017.0,14,,,METAR,METAR PAEH 290155Z AUTO 00000KT 10SM CLR M03/M04 A3003 RMK AO2 SLP181 T10271040 $,58.652,-162.062,101,Cape Newenham Arpt,CLR,[],VFR,,,1018.1,,,US,United States
1243,PAEI,2025-11-29 01:58:43.567000+00:00,1764381300,2025-11-29T02:00:00.000Z,-14.8,-16.9,0,0.0,10+,1020.7,14,,,METAR,METAR PAEI 290155Z AUTO 00000KT 10SM CLR M15/M17 A3014 RMK AO2 SLP225 T11481169 $,64.654,-147.094,166,Fairbanks/Eielson AFB,CLR,[],VFR,,,1022.5,,,US,United States
1207,PAEM,2025-11-29 01:59:18.512000+00:00,1764381360,2025-11-29T02:00:00.000Z,-5.0,-6.1,210,6.0,10+,1019.0,70,,,METAR,METAR PAEM 290156Z AUTO 21006KT 10SM FEW011 M05/M06 A3009 RMK AO2 SLP189 T10501061 FZRANO,62.785,-164.488,2,Emmonak Arpt,FEW,"[{'cover': 'FEW', 'base': 1100}]",VFR,,,1018.9,,,US,United States
1286,PAEN,2025-11-29 01:57:18.352000+00:00,1764381180,2025-11-29T02:00:00.000Z,-2.8,-3.9,60,3.0,10+,1018.7,4,,,METAR,METAR PAEN 290153Z 06003KT 10SM CLR M03/M04 A3008 RMK AO2 SLP189 T10281039,60.579,-151.242,30,Kenai Muni,CLR,[],VFR,,,1018.9,,,US,United States
1279,PAFA,2025-11-29 01:57:32.742000+00:00,1764381180,2025-11-29T02:00:00.000Z,-13.3,-15.0,20,3.0,10+,1021.8,12,,,METAR,METAR PAFA 290153Z 02003KT 10SM FEW080 BKN200 M13/M15 A3017 RMK AO2 SLP228 T11331150 VISNO NE $,64.8031,-147.8761,130,Fairbanks Intl,BKN,"[{'cover': 'FEW', 'base': 8000}, {'cover': 'BKN', 'base': 20000}]",VFR,,,1022.8,,,US,United States
1223,PAFB,2025-11-29 02:02:05.579000+00:00,1764381300,2025-11-29T02:00:00.000Z,-12.3,-14.3,0,0.0,10+,1021.1,6,,,METAR,METAR PAFB 290155Z AUTO 00000KT 10SM CLR M12/M14 A3015 RMK AO2 SLP227 T11231143,64.836,-147.614,137,Fairbanks/Ladd AAF,CLR,[],VFR,,,1022.7,,,US,United States
2835,PAFS,2025-11-29 02:04:06.183000+00:00,1764381660,2025-11-29T02:01:00.000Z,-7.0,-8.0,0,0.0,5,1020.7,70,-SN BR,0.005,SPECI,SPECI PAFS 290201Z AUTO 00000KT 5SM -SN BR SCT014 BKN021 OVC050 M07/M08 A3014 RMK AO2 P0000 FZRANO,63.015,-154.367,131,Nikolai Arpt,OVC,"[{'cover': 'SCT', 'base': 1400}, {'cover': 'BKN', 'base': 2100}, {'cover': 'OVC', 'base': 5000}]",MVFR,,,,,,US,United States
1548,PAGA,2025-11-29 02:01:05.093000+00:00,1764381360,2025-11-29T02:00:00.000Z,-7.8,-10.0,120,7.0,9,1021.1,110,-SN,0.005,METAR,METAR PAGA 290156Z AUTO 12007KT 9SM -SN OVC033 M08/M10 A3015 RMK AO2 SLP214 P0000 T10781100 FZRANO TSNO $,64.738,-156.92,39,Galena Arpt,OVC,"[{'cover': 'OVC', 'base': 3300}]",VFR,,,1021.4,,,US,United States
3948,PAGH,2025-11-29 01:59:18.566000+00:00,1764381360,2025-11-29T02:00:00.000Z,-6.7,-8.3,100,14.0,3,1021.1,70,-SN BR,0.005,METAR,METAR PAGH 290156Z AUTO 10014KT 3SM -SN BR FEW020 BKN026 OVC032 M07/M08 A3015 RMK AO2 SLP215 P0000 T10671083 FZRANO,66.886,-157.159,56,Shungnak Arpt,OVC,"[{'cover': 'FEW', 'base': 2000}, {'cover': 'BKN', 'base': 2600}, {'cover': 'OVC', 'base': 3200}]",MVFR,,,1021.5,,,US,United States
1553,PAGL,2025-11-29 01:59:20.223000+00:00,1764381360,2025-11-29T02:00:00.000Z,-2.8,-3.3,160,10.0,7,1019.0,78,-SN,0.005,METAR,METAR PAGL 290156Z AUTO 16010KT 7SM -SN BKN005 BKN010 OVC014 M03/M03 A3009 RMK AO2 SLP184 P0000 T10281033 FZRANO $,64.548,-163.013,20,Golovin Arpt,OVC,"[{'cover': 'BKN', 'base': 500}, {'cover': 'BKN', 'base': 1000}, {'cover': 'OVC', 'base': 1400}]",IFR,,,1018.4,,,US,United States
1552,PAGM,2025-11-29 01:59:18.606000+00:00,1764381360,2025-11-29T02:00:00.000Z,-3.9,-7.8,310,15.0,10+,1018.7,70,,,METAR,METAR PAGM 290156Z AUTO 31015KT 10SM OVC021 M04/M08 A3008 RMK AO2 SLP192 T10391078 FZRANO,63.777,-171.735,6,Gambell Arpt,OVC,"[{'cover': 'OVC', 'base': 2100}]",MVFR,,,1019.2,,,US,United States
1550,PAGS,2025-11-29 01:59:18.636000+00:00,1764381360,2025-11-29T02:00:00.000Z,-1.1,-1.7,340,3.0,10+,1025.1,78,,,METAR,METAR PAGS 290156Z AUTO 34003KT 10SM FEW080 SCT110 M01/M02 A3027 RMK AO2 SLP248 T10111017 FZRANO PNO $,58.425,-135.707,9,Gustavus Arpt,SCT,"[{'cover': 'FEW', 'base': 8000}, {'cover': 'SCT', 'base': 11000}]",VFR,,,1024.8,,,US,United States
3997,PAGY,2025-11-29 01:57:18.373000+00:00,1764381180,2025-11-29T02:00:00.000Z,0.6,-3.3,310,3.0,10+,1025.5,38,,,METAR,METAR PAGY 290153Z AUTO 31003KT 10SM OVC041 01/M03 A3028 RMK AO2 SLP253 T00061033 TSNO,59.457,-135.322,7,Skagway Arpt,OVC,"[{'cover': 'OVC', 'base': 4100}]",VFR,,,1025.3,,,US,United States
1545,PAHC,2025-11-29 01:59:18.659000+00:00,1764381360,2025-11-29T02:00:00.000Z,-6.7,-8.3,30,3.0,10+,1020.1,70,,,METAR,METAR PAHC 290156Z AUTO 03003KT 10SM OVC046 M07/M08 A3012 RMK AO2 SLP204 T10671083 FZRANO,62.191,-159.773,21,Holy Cross Arpt,OVC,"[{'cover': 'OVC', 'base': 4600}]",VFR,,,1020.4,,,US,United States
1834,PAHL,2025-11-29 01:59:18.677000+00:00,1764381360,2025-11-29T02:00:00.000Z,-6.7,-9.4,60,3.0,10+,1021.1,102,,0.005,METAR,METAR PAHL 290156Z AUTO 06003KT 10SM OVC017 M07/M09 A3015 RMK AO2 SNB06E28 SLP213 P0000 T10671094 FZRANO TSNO,65.699,-156.353,49,Huslia Arpt,OVC,"[{'cover': 'OVC', 'base': 1700}]",MVFR,,,1021.3,,,US,United States
1880,PAHN,2025-11-29 01:58:53.535000+00:00,1764381240,2025-11-29T02:00:00.000Z,-2.2,-4.4,290,11.0,10+,1025.1,46,,,METAR,METAR PAHN 290154Z AUTO 29011KT 10SM OVC070 M02/M04 A3027 RMK AO2 SLP253 T10221044 TSNO $,59.243,-135.511,15,Haines Arpt,OVC,"[{'cover': 'OVC', 'base': 7000}]",VFR,,,1025.3,,,US,United States
1897,PAHO,2025-11-29 01:57:32.764000+00:00,1764381180,2025-11-29T02:00:00.000Z,1.7,1.7,20,3.0,0.25,1018.7,4,FG,,METAR,METAR PAHO 290153Z 02003KT 1/4SM FG VV002 02/02 A3008 RMK AO2 SLP187 T00170017,59.642,-151.491,6,Homer Arpt,OVX,"[{'cover': 'OVX', 'base': 200}]",LIFR,2.0,,1018.7,,,US,United States
1839,PAHP,2025-11-29 01:59:18.693000+00:00,1764381360,2025-11-29T02:00:00.000Z,-3.9,-5.0,20,5.0,10+,1019.0,70,UP,0.005,METAR,METAR PAHP 290156Z AUTO 02005KT 10SM UP OVC035 M04/M05 A3009 RMK AO2 UPB16SNE16 SLP189 P0000 T10391050 FZRANO,61.519,-166.138,8,Hooper Bay Arpt,OVC,"[{'cover': 'OVC', 'base': 3500}]",VFR,,,1018.9,,,US,United States
1770,PAIG,2025-11-29 02:08:26.968000+00:00,1764381960,2025-11-29T02:06:00.000Z,-2.0,-2.0,0,0.0,1.25,1019.0,70,BR,,SPECI,SPECI PAIG 290206Z AUTO 00000KT 1 1/4SM BR SCT002 M02/M02 A3009 RMK AO2 FZRANO,59.325,-155.897,24,Igiugig Arpt,SCT,"[{'cover': 'SCT', 'base': 200}]",IFR,,,,,,US,United States
1201,PAII,2025-11-29 01:59:20.271000+00:00,1764381360,2025-11-29T02:00:00.000Z,-2.2,-2.2,70,3.0,10+,1012.6,70,,,METAR,METAR PAII 290156Z AUTO 07003KT 10SM CLR M02/M02 A2990 RMK AO2 SLP124 T10221022 FZRANO,58.186,-157.375,31,Egegik Arpt,CLR,[],VFR,,,1012.4,,,US,United States
1833,PAIK,2025-11-29 01:59:18.760000+00:00,1764381360,2025-11-29T02:00:00.000Z,-6.7,-8.3,100,6.0,6,1020.1,70,-SN BR,0.005,METAR,METAR PAIK 290156Z AUTO 10006KT 6SM -SN BR OVC023 M07/M08 A3012 RMK AO2 SLP202 P0000 T10671083 FZRANO,66.975,-160.439,49,Kiana/Baker Mem Arpt,OVC,"[{'cover': 'OVC', 'base': 2300}]",MVFR,,,1020.2,,,US,United States
1893,PAIL,2025-11-29 01:57:18.393000+00:00,1764381180,2025-11-29T02:00:00.000Z,1.1,0.6,0,0.0,10+,1019.4,4,,,METAR,METAR PAIL 290153Z 00000KT 10SM OVC008 01/01 A3010 RMK AO2 CIG 005V012 SLP194 T00110006,59.7492,-154.9091,44,Iliamna Arpt,OVC,"[{'cover': 'OVC', 'base': 800}]",IFR,,,1019.4,,,US,United States
4529,PAIM,2025-11-29 01:59:05.999000+00:00,1764381420,2025-11-29T01:57:00.000Z,-9.0,-11.0,0,0.0,7,1019.4,6,-SN,,SPECI,SPECI PAIM 290157Z AUTO 00000KT 7SM -SN OVC030 M09/M11 A3010 RMK AO2 SLP226,65.994,-153.695,309,Indian Mtn Arpt,OVC,"[{'cover': 'OVC', 'base': 3000}]",MVFR,,,1022.6,,,US,United States
2602,PAIN,2025-11-29 01:59:18.777000+00:00,1764381360,2025-11-29T02:00:00.000Z,-7.8,-10.6,0,0.0,10+,1017.4,110,,,METAR,METAR PAIN 290156Z AUTO 00000KT 10SM M08/M11 A3004 RMK AO2 SLP204 T10781106 FZRANO TSNO $,63.733,-148.912,525,McKinley Park Arpt,,,,,,1020.4,,,US,United States
4453,PAIW,2025-11-29 02:08:26.985000+00:00,1764381960,2025-11-29T02:06:00.000Z,-4.0,-4.0,70,8.0,3,1017.7,70,-SN BR,0.005,SPECI,SPECI PAIW 290206Z AUTO 07008KT 3SM -SN BR SCT013 OVC028 M04/M04 A3005 RMK AO2 P0000 FZRANO,65.621,-168.093,6,Wales Arpt,OVC,"[{'cover': 'SCT', 'base': 1300}, {'cover': 'OVC', 'base': 2800}]",MVFR,,,,,,US,United States
2121,PAJC,2025-11-29 01:59:20.296000+00:00,1764381360,2025-11-29T02:00:00.000Z,3.3,1.7,60,4.0,10+,1016.0,6,,0.01,METAR,METAR PAJC 290156Z AUTO 06004KT 10SM BKN023 OVC030 03/02 A3000 RMK AO2 UPE27RAB27E36 SLP162 P0001 T00330017,56.312,-158.374,10,Chignik Arpt,OVC,"[{'cover': 'BKN', 'base': 2300}, {'cover': 'OVC', 'base': 3000}]",MVFR,,,1016.2,,,US,United States
2148,PAJN,2025-11-29 01:57:32.792000+00:00,1764381180,2025-11-29T02:00:00.000Z,-2.2,-2.8,280,3.0,10+,1025.1,12,,,METAR,METAR PAJN 290153Z 28003KT 10SM FEW080 BKN120 OVC180 M02/M03 A3027 RMK AO2 SLP250 T10221028 $,58.354,-134.5561,6,Juneau Intl,OVC,"[{'cover': 'FEW', 'base': 8000}, {'cover': 'BKN', 'base': 12000}, {'cover': 'OVC', 'base': 18000}]",VFR,,,1025.0,,,US,United States
2135,PAJZ,2025-11-29 01:59:17.390000+00:00,1764381360,2025-11-29T02:00:00.000Z,-5.6,-6.1,30,4.0,1,1020.4,70,BR,,METAR,METAR PAJZ 290156Z AUTO 03004KT 1SM BR OVC003 M06/M06 A3013 RMK AO2 CIG 001V006 SLP204 T10561061 FZRANO,59.727,-157.267,80,Koliganek Arpt,OVC,"[{'cover': 'OVC', 'base': 300}]",LIFR,,,1020.4,,,US,United States
2061,PAKF,2025-11-29 02:08:33.157000+00:00,1764382020,2025-11-29T02:07:00.000Z,5.0,2.0,110,19.0,10+,1009.6,14,,,SPECI,SPECI PAKF 290207Z AUTO 11019G27KT 10SM BKN024 OVC033 05/02 A2981 RMK AO2 PK WND 09027/0201 PNO $,54.85,-163.409,2,False Pass Arpt,OVC,"[{'cover': 'BKN', 'base': 2400}, {'cover': 'OVC', 'base': 3300}]",MVFR,,27.0,,,,US,United States
85,PAKH,2025-11-29 01:59:17.430000+00:00,1764381360,2025-11-29T02:00:00.000Z,2.8,1.1,0,0.0,10+,1018.4,6,,,METAR,METAR PAKH 290156Z AUTO 00000KT 10SM OVC020 03/01 A3007 RMK AO2 SLP181 T00280011,56.94,-154.181,15,Akhiok Arpt,OVC,"[{'cover': 'OVC', 'base': 2000}]",MVFR,,,1018.1,,,US,United States
2326,PAKI,2025-11-29 01:59:17.447000+00:00,1764381360,2025-11-29T02:00:00.000Z,-6.7,-6.7,360,6.0,4,1019.4,70,BR,,METAR,METAR PAKI 290156Z AUTO 36006KT 4SM BR SCT002 SCT030 OVC035 M07/M07 A3010 RMK AO2 SLP195 T10671067 FZRANO,59.935,-164.033,4,Kipnuk Arpt,OVC,"[{'cover': 'SCT', 'base': 200}, {'cover': 'SCT', 'base': 3000}, {'cover': 'OVC', 'base': 3500}]",MVFR,,,1019.5,,,US,United States
2126,PAKK,2025-11-29 01:59:20.322000+00:00,1764381360,2025-11-29T02:00:00.000Z,-3.9,-4.4,190,5.0,4,1018.0,78,-SN BR,0.005,METAR,METAR PAKK 290156Z AUTO 19005KT 4SM -SN BR OVC004 M04/M04 A3006 RMK AO2 SLP189 P0000 T10391044 FZRANO $,64.939,-161.156,56,Koyuk Arpt,OVC,"[{'cover': 'OVC', 'base': 400}]",LIFR,,,1018.9,,,US,United States
121,PAKN,2025-11-29 01:58:53.576000+00:00,1764381240,2025-11-29T02:00:00.000Z,-1.1,-1.1,40,5.0,10+,1017.4,4,,,METAR,METAR PAKN 290154Z 04005KT 10SM CLR M01/M01 A3004 RMK AO2 SLP173 T10111011,58.683,-156.656,20,King Salmon Arpt,CLR,[],VFR,,,1017.3,,,US,United States
88,PAKP,2025-11-29 01:59:20.350000+00:00,1764381360,2025-11-29T02:00:00.000Z,-9.4,-15.0,230,12.0,10+,1015.7,70,,,METAR,METAR PAKP 290156Z AUTO 23012G20KT 10SM CLR M09/M15 A2999 RMK AO2 SLP220 T10941150 FZRANO,68.136,-151.74,649,Anaktuvuk Pass Arpt,CLR,[],VFR,,20.0,1022.0,,,US,United States
4616,PAKU,2025-11-29 01:47:08.331000+00:00,1764380700,2025-11-29T02:00:00.000Z,-20.0,-22.0,190,6.0,10+,1016.0,0,,,METAR,METAR PAKU 290145Z 19006KT 10SM R06/P6000FT SKC M20/M22 A3000,70.331,-149.613,23,Kuparuk Arpt,SKC,[],VFR,,,,,,US,United States
2062,PAKV,2025-11-29 02:04:11.282000+00:00,1764381660,2025-11-29T02:01:00.000Z,-8.3,-8.9,0,0.0,2.5,1021.8,110,BR,,SPECI,SPECI PAKV 290201Z AUTO 00000KT 2 1/2SM BR OVC017 M08/M09 A3017 RMK AO2 T10831089 FZRANO TSNO $,64.321,-158.732,53,Kaltag Arpt,OVC,"[{'cover': 'OVC', 'base': 1700}]",IFR,,,,,,US,United States
2123,PALG,2025-11-29 01:59:17.503000+00:00,1764381360,2025-11-29T02:00:00.000Z,-4.4,-5.6,VRB,3.0,10+,1019.7,70,,,METAR,METAR PALG 290156Z AUTO VRB03KT 10SM BKN004 OVC038 M04/M06 A3011 RMK AO2 SLP197 T10441056 FZRANO,61.538,-160.34,13,Kalskag Arpt,OVC,"[{'cover': 'BKN', 'base': 400}, {'cover': 'OVC', 'base': 3800}]",LIFR,,,1019.7,,,US,United States
2625,PALU,2025-11-29 02:01:06.958000+00:00,1764381300,2025-11-29T02:00:00.000Z,-0.5,-2.3,190,34.0,1.75,1013.3,6,-SN BR,0.005,METAR,METAR PALU 290155Z AUTO 19034G41KT 150V210 1 3/4SM -SN BR BKN005 BKN075 00/M02 A2992 RMK AO2 SHSNB0126E0128 SLP131 P0000 T10051023,68.873,-166.101,8,Cape Lisburne Arpt,BKN,"[{'cover': 'BKN', 'base': 500}, {'cover': 'BKN', 'base': 7500}]",IFR,,41.0,1013.1,,,US,United States
2336,PAMB,2025-11-29 01:59:17.523000+00:00,1764381360,2025-11-29T02:00:00.000Z,-3.3,-3.3,40,6.0,0.75,1018.7,70,-SN BR,0.005,METAR,METAR PAMB 290156Z AUTO 04006KT 3/4SM -SN BR OVC004 M03/M03 A3008 RMK AO2 SNB00 CIG 004V008 SLP190 P0000 T10331033 FZRANO,58.986,-159.05,28,Manokotak Arpt,OVC,"[{'cover': 'OVC', 'base': 400}]",LIFR,,,1019.0,,,US,United States
2667,PAMC,2025-11-29 01:57:32.816000+00:00,1764381180,2025-11-29T02:00:00.000Z,-6.7,-8.3,0,0.0,10+,1020.7,38,,0.005,METAR,METAR PAMC 290153Z AUTO 00000KT 10SM OVC013 M07/M08 A3014 RMK AO2 SNB10E26 SLP216 P0000 T10671083 TSNO,62.957,-155.61,101,McGrath Arpt,OVC,"[{'cover': 'OVC', 'base': 1300}]",MVFR,,,1021.6,,,US,United States
2608,PAMD,2025-11-29 01:59:17.540000+00:00,1764381360,2025-11-29T02:00:00.000Z,5.6,5.6,170,5.0,10+,1016.3,6,,,METAR,METAR PAMD 290156Z AUTO 17005KT 10SM BKN009 OVC012 06/06 A3001 RMK AO2 CIG 006V010 SLP161 T00560056,59.442,-146.317,20,Middleton Isl Arpt,OVC,"[{'cover': 'BKN', 'base': 900}, {'cover': 'OVC', 'base': 1200}]",IFR,,,1016.1,,,US,United States
2258,PAMH,2025-11-29 02:06:35.354000+00:00,1764381780,2025-11-29T02:03:00.000Z,-9.0,-12.0,0,0.0,9,1020.7,78,-SN,0.005,SPECI,SPECI PAMH 290203Z AUTO 00000KT 9SM -SN SCT027 BKN033 OVC055 M09/M12 A3014 RMK AO2 P0000 FZRANO $,63.889,-152.292,200,Minchumina Arpt,OVC,"[{'cover': 'SCT', 'base': 2700}, {'cover': 'BKN', 'base': 3300}, {'cover': 'OVC', 'base': 5500}]",VFR,,,,,,US,United States
3953,PAMK,2025-11-29 01:59:17.580000+00:00,1764381360,2025-11-29T02:00:00.000Z,-3.9,-4.4,150,3.0,9,1019.7,70,-SN,0.005,METAR,METAR PAMK 290156Z AUTO 15003KT 9SM -SN BKN013 BKN020 OVC029 M04/M04 A3011 RMK AO2 SNB09 SLP197 P0000 T10391044 FZRANO,63.484,-162.115,31,St Michael Arpt,OVC,"[{'cover': 'BKN', 'base': 1300}, {'cover': 'BKN', 'base': 2000}, {'cover': 'OVC', 'base': 2900}]",MVFR,,,1019.7,,,US,United States
2893,PAMO,2025-11-29 01:59:17.619000+00:00,1764381360,2025-11-29T02:00:00.000Z,-6.1,-6.7,80,3.0,0.5,1019.4,70,FZFG,,METAR,METAR PAMO 290156Z AUTO 08003KT 1/2SM FZFG OVC005 M06/M07 A3010 RMK AO2 CIG 003V009 SLP201 T10611067 FZRANO,62.095,-163.686,93,Mountain Village Arpt,OVC,"[{'cover': 'OVC', 'base': 500}]",LIFR,,,1020.1,,,US,United States
2949,PAMR,2025-11-29 01:57:18.460000+00:00,1764381180,2025-11-29T02:00:00.000Z,-3.3,-4.4,0,0.0,10+,1019.0,4,,,METAR,METAR PAMR 290153Z 00000KT 10SM CLR M03/M04 A3009 RMK AO2 SLP192 T10331044,61.215,-149.85,43,Anchorage/Merrill Fld,CLR,[],VFR,,,1019.2,,,US,United States
2898,PAMY,2025-11-29 01:59:17.633000+00:00,1764381360,2025-11-29T02:00:00.000Z,-2.2,-5.6,360,7.0,,1019.4,206,,,METAR,METAR PAMY 290156Z AUTO 36007KT OVC032 M02/M06 A3010 RMK AO2 SLP192 T10221056 PWINO FZRANO $,60.376,-166.262,14,Mekoryuk Arpt,OVC,"[{'cover': 'OVC', 'base': 3200}]",,,,1019.2,,,US,United States
4812,PANA,2025-11-29 01:59:20.376000+00:00,1764381360,2025-11-29T02:00:00.000Z,-5.6,-6.1,20,3.0,10+,1019.7,102,,0.005,METAR,METAR PANA 290156Z AUTO 02003KT 10SM OVC043 M06/M06 A3011 RMK AO2 SNB05E47 SLP195 P0000 T10561061 FZRANO TSNO,60.694,-161.978,7,Napakiak Arpt,OVC,"[{'cover': 'OVC', 'base': 4300}]",VFR,,,1019.5,,,US,United States
89,PANC,2025-11-29 02:00:25.513000+00:00,1764381360,2025-11-29T01:56:00.000Z,-3.9,-6.1,0,0.0,10+,1019.0,4,,,SPECI,SPECI PANC 290156Z 00000KT 10SM FEW070 FEW130 FEW200 M04/M06 A3009 RMK AO2 T10391061,61.1691,-150.0277,39,Anchorage Intl,FEW,"[{'cover': 'FEW', 'base': 7000}, {'cover': 'FEW', 'base': 13000}, {'cover': 'FEW', 'base': 20000}]",VFR,,,,,,US,United States
83,PANI,2025-11-29 01:59:20.404000+00:00,1764381360,2025-11-29T02:00:00.000Z,-3.9,-5.0,0,0.0,10+,1019.4,78,,,METAR,METAR PANI 290156Z AUTO 00000KT 10SM FEW008 BKN013 OVC045 M04/M05 A3010 RMK AO2 SLP195 T10391050 FZRANO $,61.578,-159.539,21,Aniak Arpt,OVC,"[{'cover': 'FEW', 'base': 800}, {'cover': 'BKN', 'base': 1300}, {'cover': 'OVC', 'base': 4500}]",MVFR,,,1019.5,,,US,United States
1268,PANN,2025-11-29 01:57:32.872000+00:00,1764381180,2025-11-29T02:00:00.000Z,-14.4,-16.1,0,0.0,10+,1021.1,46,,,METAR,METAR PANN 290153Z AUTO 00000KT 10SM CLR M14/M16 A3015 RMK AO2 SLP224 T11441161 TSNO $,64.547,-149.087,110,Nenana Muni,CLR,[],VFR,,,1022.4,,,US,United States
3114,PANU,2025-11-29 01:59:27.980000+00:00,1764381360,2025-11-29T02:00:00.000Z,-8.3,-10.0,0,0.0,9,1021.4,70,-SN,0.005,METAR,METAR PANU 290156Z AUTO 00000KT 9SM -SN OVC010 M08/M10 A3016 RMK AO2 SNB03E15B39 SLP123 P0000 T10831100 FZRANO,64.7304,-158.0752,117,Nulato Arpt,OVC,"[{'cover': 'OVC', 'base': 1000}]",MVFR,,,1012.3,,,US,United States
79,PANV,2025-11-29 01:59:20.474000+00:00,1764381360,2025-11-29T02:00:00.000Z,-7.8,-8.9,60,7.0,10+,1019.4,102,,,METAR,METAR PANV 290156Z AUTO 06007KT 10SM OVC042 M08/M09 A3010 RMK AO2 SLP320 T10781089 FZRANO TSNO,62.647,-160.191,91,Anvik Arpt,OVC,"[{'cover': 'OVC', 'base': 4200}]",VFR,,,1032.0,,,US,United States
2329,PANW,2025-11-29 01:59:17.728000+00:00,1764381360,2025-11-29T02:00:00.000Z,-5.6,-6.1,20,5.0,7,1019.0,70,,,METAR,METAR PANW 290156Z AUTO 02005KT 7SM SCT003 M06/M06 A3009 RMK AO2 SLP198 T10561061 FZRANO,59.451,-157.325,100,New Stuyahok Arpt,SCT,"[{'cover': 'SCT', 'base': 300}]",VFR,,,1019.8,,,US,United States
1835,PAOH,2025-11-29 01:59:20.506000+00:00,1764381360,2025-11-29T02:00:00.000Z,-1.1,-2.2,0,0.0,10+,1025.1,70,,,METAR,METAR PAOH 290156Z AUTO 00000KT 10SM BKN120 M01/M02 A3027 RMK AO2 SLP250 T10111022 FZRANO,58.108,-135.448,0,Hoonah,BKN,"[{'cover': 'BKN', 'base': 12000}]",VFR,,,1025.0,,,US,United States
3162,PAOM,2025-11-29 01:57:24.223000+00:00,1764381180,2025-11-29T02:00:00.000Z,-2.8,-3.9,70,5.0,6,1017.7,4,BR,0.005,METAR,METAR PAOM 290153Z 07005KT 6SM BR OVC012 M03/M04 A3005 RMK AO2 SNB37E51 SLP175 P0000 T10281039,64.5111,-165.4401,6,Nome Arpt,OVC,"[{'cover': 'OVC', 'base': 1200}]",MVFR,,,1017.5,,,US,United States
3112,PAOO,2025-11-29 01:59:17.771000+00:00,1764381360,2025-11-29T02:00:00.000Z,-5.0,-5.6,310,4.0,10+,1020.1,110,,,METAR,METAR PAOO 290156Z AUTO 31004KT 10SM OVC020 M05/M06 A3012 RMK AO2 SLP204 T10501056 FZRANO TSNO $,60.537,-165.089,15,Tooksok Bay Arpt,OVC,"[{'cover': 'OVC', 'base': 2000}]",MVFR,,,1020.4,,,US,United States
3163,PAOR,2025-11-29 01:57:24.239000+00:00,1764381180,2025-11-29T02:00:00.000Z,-20.6,-23.3,0,0.0,10+,1023.1,12,,,METAR,METAR PAOR 290153Z 00000KT 10SM OVC100 M21/M23 A3021 RMK AO2 SLP305 T12061233 $,62.962,-141.938,524,Northway Arpt,OVC,"[{'cover': 'OVC', 'base': 10000}]",VFR,,,1030.5,,,US,United States
3051,PAOT,2025-11-29 02:08:33.195000+00:00,1764381960,2025-11-29T02:06:00.000Z,-6.7,-8.3,110,14.0,2,1018.0,4,-SN BR,0.005,SPECI,SPECI PAOT 290206Z 11014KT 2SM -SN BR OVC049 M07/M08 A3006 RMK AO2 P0000 T10671083,66.886,-162.607,3,Kotzebue/Wien Mem,OVC,"[{'cover': 'OVC', 'base': 4900}]",IFR,,,,,,US,United States
3116,PAOU,2025-11-29 01:59:17.790000+00:00,1764381360,2025-11-29T02:00:00.000Z,1.1,0.0,50,12.0,10+,1013.0,70,,,METAR,METAR PAOU 290156Z AUTO 05012KT 10SM CLR 01/00 A2991 RMK AO2 SLP129 T00110000 FZRANO,56.006,-161.162,3,Nelson Lagoon Arpt,CLR,[],VFR,,,1012.9,,,US,United States
4008,PAPB,2025-11-29 01:57:41.041000+00:00,1764381180,2025-11-29T02:00:00.000Z,2.2,-1.1,70,31.0,10+,1011.3,46,,,METAR,METAR PAPB 290153Z AUTO 07031G45KT 10SM BKN024 02/M01 A2986 RMK AO2 PK WND 08046/0139 SLP099 T00221011 TSNO PNO $,56.576,-169.663,33,St George Arpt,BKN,"[{'cover': 'BKN', 'base': 2400}]",MVFR,,45.0,1009.9,,,US,United States
2334,PAPE,2025-11-29 01:59:28.005000+00:00,1764381360,2025-11-29T02:00:00.000Z,3.9,1.1,60,8.0,9,998.7,6,,,METAR,METAR PAPE 290156Z AUTO 06008KT 9SM BKN027 OVC034 04/01 A2949 RMK AO2 SLP985 T00390011,55.9096,-159.1595,15,Perryville Arpt,OVC,"[{'cover': 'BKN', 'base': 2700}, {'cover': 'OVC', 'base': 3400}]",MVFR,,,998.5,,,US,United States
3380,PAPG,2025-11-29 01:59:17.832000+00:00,1764381360,2025-11-29T02:00:00.000Z,0.0,-2.2,240,4.0,10+,1025.1,4,,,METAR,METAR PAPG 290156Z 24004KT 10SM OVC110 00/M02 A3027 RMK AO2 SLP253 T00001022,56.805,-132.935,24,Petersburg Arpt,OVC,"[{'cover': 'OVC', 'base': 11000}]",VFR,,,1025.3,,,US,United States
3379,PAPH,2025-11-29 01:59:17.850000+00:00,1764381360,2025-11-29T02:00:00.000Z,-0.6,,90,4.0,10+,1016.0,70,,,METAR,METAR PAPH 290156Z AUTO 09004KT 10SM CLR M01/ A3000 RMK AO2 SLP159 T1006 FZRANO,56.959,-158.631,29,Port Heiden Arpt,CLR,[],VFR,,,1015.9,,,US,United States
3388,PAPM,2025-11-29 01:59:17.871000+00:00,1764381360,2025-11-29T02:00:00.000Z,-6.1,,70,8.0,10+,1018.0,102,,,METAR,METAR PAPM 290156Z AUTO 07008KT 10SM CLR M06/ A3006 RMK AO2 SLP181 T1061 FZRANO TSNO,59.011,-161.82,4,Platinum Arpt,CLR,[],VFR,,,1018.1,,,US,United States
3390,PAPN,2025-11-29 01:59:20.572000+00:00,1764381360,2025-11-29T02:00:00.000Z,-1.7,-1.7,70,3.0,10+,1017.0,70,,,METAR,METAR PAPN 290156Z AUTO 07003KT 10SM CLR M02/M02 A3003 RMK AO2 SLP171 T10171017 FZRANO,57.578,-157.569,19,Pilot Point Arpt,CLR,[],VFR,,,1017.1,,,US,United States
3298,PAPO,2025-11-29 02:06:35.408000+00:00,1764381780,2025-11-29T02:03:00.000Z,-3.0,-4.0,220,14.0,10+,1015.3,70,,,SPECI,SPECI PAPO 290203Z AUTO 22014KT 10SM BKN013 OVC030 M03/M04 A2998 RMK AO2 FZRANO,68.345,-166.807,4,Point Hope Arpt,OVC,"[{'cover': 'BKN', 'base': 1300}, {'cover': 'OVC', 'base': 3000}]",MVFR,,,,,,US,United States
3156,PAQT,2025-11-29 01:57:24.278000+00:00,1764381180,2025-11-29T02:00:00.000Z,-20.6,-24.4,200,9.0,5,1017.0,46,HZ,,METAR,METAR PAQT 290153Z AUTO 20009KT 5SM HZ CLR M21/M24 A3003 RMK AO2 SLP171 I1001 T12061244 TSNO $,70.213,-150.994,11,Nuiqsut Arpt,CLR,[],MVFR,,,1017.1,,,US,United States
80,PARC,2025-11-29 01:59:17.945000+00:00,1764381360,2025-11-29T02:00:00.000Z,-22.8,-25.0,0,0.0,9,1018.0,102,,,METAR,METAR PARC 290156Z AUTO 00000KT 9SM CLR M23/M25 A3006 RMK AO2 SLP275 T12281250 FZRANO TSNO,68.113,-145.576,626,Arctic Village Arpt,CLR,[],VFR,,,1027.5,,,US,United States
3672,PARS,2025-11-29 01:59:17.964000+00:00,1764381360,2025-11-29T02:00:00.000Z,-6.7,-7.8,0,0.0,10+,1020.1,78,,,METAR,METAR PARS 290156Z AUTO 00000KT 10SM OVC006 M07/M08 A3012 RMK AO2 SLP201 T10671078 FZRANO $,61.78,-161.321,15,Russian Mission Arpt,OVC,"[{'cover': 'OVC', 'base': 600}]",IFR,,,1020.1,,,US,United States
3670,PARY,2025-11-29 01:59:17.985000+00:00,1764381360,2025-11-29T02:00:00.000Z,-10.6,-13.9,80,9.0,9,1020.4,102,-SN,0.005,METAR,METAR PARY 290156Z AUTO 08009KT 9SM -SN OVC030 M11/M14 A3013 RMK AO2 SLP221 P0000 T11061139 FZRANO TSNO,64.731,-155.463,185,Ruby Arpt,OVC,"[{'cover': 'OVC', 'base': 3000}]",MVFR,,,1022.1,,,US,United States
3954,PASA,2025-11-29 01:59:18.002000+00:00,1764381360,2025-11-29T02:00:00.000Z,-3.9,-6.1,280,7.0,10+,1018.4,70,,,METAR,METAR PASA 290156Z AUTO 28007KT 10SM OVC018 M04/M06 A3007 RMK AO2 SLP185 T10391061 FZRANO,63.689,-170.49,9,Savoonga Arpt,OVC,"[{'cover': 'OVC', 'base': 1800}]",MVFR,,,1018.5,,,US,United States
3735,PASC,2025-11-29 01:58:57.456000+00:00,1764381180,2025-11-29T02:00:00.000Z,-21.7,-23.9,270,4.0,10+,1016.0,12,,,METAR,METAR PASC 290153Z 27004KT 10SM CLR M22/M24 A3000 RMK AO2 SLP162 T12171239 $,70.191,-148.48,17,Deadhorse Arpt,CLR,[],VFR,,,1016.2,,,US,United States
3868,PASD,2025-11-29 02:04:11.322000+00:00,1764381720,2025-11-29T02:02:00.000Z,4.0,2.0,120,10.0,10+,,12,-RA,,SPECI,SPECI PASD 290202Z 12010KT 10SM -RA BKN016 BKN024 OVC035 04/02 RMK AO2 PNO $,55.318,-160.525,6,Sand Point Arpt,OVC,"[{'cover': 'BKN', 'base': 1600}, {'cover': 'BKN', 'base': 2400}, {'cover': 'OVC', 'base': 3500}]",MVFR,,,,,,US,United States
4004,PASI,2025-11-29 01:57:18.532000+00:00,1764381180,2025-11-29T02:00:00.000Z,5.6,2.2,0,0.0,10+,1022.8,12,,,METAR,METAR PASI 290153Z 00000KT 10SM OVC100 06/02 A3020 RMK AO2 SLP228 T00560022 $,57.047,-135.364,2,Sitka/Gutierrez Arpt,OVC,"[{'cover': 'OVC', 'base': 10000}]",VFR,,,1022.8,,,US,United States
4813,PASK,2025-11-29 01:59:18.046000+00:00,1764381360,2025-11-29T02:00:00.000Z,-6.7,-7.8,90,8.0,9,1020.4,70,-SN,0.005,METAR,METAR PASK 290156Z AUTO 09008KT 9SM -SN OVC016 M07/M08 A3013 RMK AO2 SLP198 P0000 T10671078 FZRANO,66.599,-159.991,3,Selawik Arpt,OVC,"[{'cover': 'OVC', 'base': 1600}]",MVFR,,,1019.8,,,US,United States
3947,PASL,2025-11-29 01:59:20.602000+00:00,1764381360,2025-11-29T02:00:00.000Z,-4.4,-5.6,0,0.0,10+,1021.4,70,,,METAR,METAR PASL 290156Z AUTO 00000KT 10SM OVC012 M04/M06 A3016 RMK AO2 SLP206 T10441056 FZRANO,61.697,-157.167,64,Sleetmute Arpt,OVC,"[{'cover': 'OVC', 'base': 1200}]",MVFR,,,1020.6,,,US,United States
2257,PASM,2025-11-29 02:08:33.228000+00:00,1764382020,2025-11-29T02:07:00.000Z,-6.0,-6.0,120,3.0,3,1019.7,70,BR,,SPECI,SPECI PASM 290207Z AUTO 12003KT 3SM BR OVC003 M06/M06 A3011 RMK AO2 CIG 002V006 FZRANO,62.057,-163.298,108,St Marys Arpt,OVC,"[{'cover': 'OVC', 'base': 300}]",LIFR,,,,,,US,United States
3993,PASN,2025-11-29 01:57:24.299000+00:00,1764381180,2025-11-29T02:00:00.000Z,1.7,-1.1,60,18.0,10+,1013.3,110,,,METAR,METAR PASN 290153Z AUTO 06018G31KT 10SM BKN018 02/M01 A2992 RMK AO2 PK WND 07031/0135 SLP134 T00171011 FZRANO TSNO $,57.155,-170.223,8,St Paul Island Arpt,BKN,"[{'cover': 'BKN', 'base': 1800}]",MVFR,,31.0,1013.4,,,US,United States
3867,PASO,2025-11-29 02:08:26.901000+00:00,1764381840,2025-11-29T02:04:00.000Z,1.7,1.7,0,0.0,1.75,1018.7,38,BR,,SPECI,SPECI PASO 290204Z AUTO 00000KT 1 3/4SM BR OVC012 02/02 A3008 RMK AO2 T00170017 TSNO,59.443,-151.702,20,Seldovia Arpt,OVC,"[{'cover': 'OVC', 'base': 1200}]",IFR,,,,,,US,United States
3957,PASV,2025-11-29 01:58:43.583000+00:00,1764381300,2025-11-29T02:00:00.000Z,-0.5,-0.6,0,0.0,0.25,1017.0,6,FG,,METAR,METAR PASV 290155Z AUTO 00000KT 1/4SM FG VV003 00/M01 A3003 RMK AO2 SLP191 T10051006,61.101,-155.577,462,Sparrevohn Arpt,OVX,"[{'cover': 'OVX', 'base': 300}]",LIFR,3.0,,1019.1,,,US,United States
4299,PASX,2025-11-29 01:59:16.742000+00:00,1764381360,2025-11-29T02:00:00.000Z,-2.2,-2.8,0,0.0,0.5,1019.0,102,FZFG,,METAR,METAR PASX 290156Z AUTO 00000KT 1/2SM FZFG OVC002 M02/M03 A3009 RMK AO2 SLP198 T10221028 FZRANO TSNO,60.476,-151.053,28,Soldotna Arpt,OVC,"[{'cover': 'OVC', 'base': 200}]",LIFR,,,1019.8,,,US,United States
4297,PASY,2025-11-29 02:08:27.166000+00:00,1764381540,2025-11-29T02:00:00.000Z,3.5,-0.7,10,28.0,10+,1011.6,76,,,METAR,METAR PASY 290159Z 01028G35KT 10SM FEW016 SCT024 BKN030 04/M01 A2987 RMK AO2A SLP119 T00351007 PNO FZRANO $,52.711,174.107,6,Shemya/Eareckson Arpt,BKN,"[{'cover': 'FEW', 'base': 1600}, {'cover': 'SCT', 'base': 2400}, {'cover': 'BKN', 'base': 3000}]",MVFR,,35.0,1011.9,,,US,United States
4339,PATA,2025-11-29 01:57:41.068000+00:00,1764381120,2025-11-29T02:00:00.000Z,-11.7,-17.2,80,5.0,10+,1022.8,12,,,METAR,METAR PATA 290152Z 08005KT 10SM BKN110 M12/M17 A3020 RMK AO2 SLP233 T11171172 $,65.173,-152.107,62,Tanana/Calhoun Mem,BKN,"[{'cover': 'BKN', 'base': 11000}]",VFR,,,1023.3,,,US,United States
4302,PATE,2025-11-29 01:59:16.755000+00:00,1764381360,2025-11-29T02:00:00.000Z,-3.9,-5.0,180,9.0,9,1016.7,70,-SN,0.005,METAR,METAR PATE 290156Z AUTO 18009KT 9SM -SN OVC021 M04/M05 A3002 RMK AO2 SLP173 P0000 T10391050 FZRANO,65.242,-166.328,93,Teller Arpt,OVC,"[{'cover': 'OVC', 'base': 2100}]",MVFR,,,1017.3,,,US,United States
4298,PATG,2025-11-29 01:59:16.771000+00:00,1764381360,2025-11-29T02:00:00.000Z,-4.4,-5.0,350,4.0,10+,1001.4,78,,,METAR,METAR PATG 290156Z AUTO 35004KT 10SM CLR M04/M05 A2957 RMK AO2 SLP015 T10441050 FZRANO PNO $,59.051,-160.398,1,Togiak Arpt,CLR,[],VFR,,,1001.5,,,US,United States
4332,PATK,2025-11-29 01:57:24.321000+00:00,1764381180,2025-11-29T02:00:00.000Z,-4.4,-8.3,0,0.0,10+,1018.4,12,,,METAR,METAR PATK 290153Z 00000KT 10SM CLR M04/M08 A3007 RMK AO2 SLP189 T10441083 $,62.319,-150.097,107,Talkeetna Arpt,CLR,[],VFR,,,1018.9,,,US,United States
4312,PATL,2025-11-29 02:01:06.984000+00:00,1764381300,2025-11-29T02:00:00.000Z,-7.8,-8.1,0,0.0,5,1020.1,6,-SHSN,0.005,METAR,METAR PATL 290155Z AUTO 00000KT 5SM -SHSN OVC013 M08/M08 A3012 RMK AO2 SNB0118E0128SHSNB0128 SLP227 P0000 T10781081,62.893,-155.977,261,Tatalina Arpt,OVC,"[{'cover': 'OVC', 'base': 1300}]",MVFR,,,1022.7,,,US,United States
82,PATQ,2025-11-29 01:59:17.255000+00:00,1764381360,2025-11-29T02:00:00.000Z,-21.1,-22.8,0,0.0,8,1014.6,102,,0.005,METAR,METAR PATQ 290156Z AUTO 00000KT 8SM CLR M21/M23 A2996 RMK AO2 SNB0059E09 SLP151 P0000 T12111228 FZRANO TSNO,70.469,-157.428,28,Atqasuk/Burnell Mem,CLR,[],VFR,,,1015.1,,,US,United States
4536,PAUN,2025-11-29 01:59:16.807000+00:00,1764381360,2025-11-29T02:00:00.000Z,-6.1,-7.2,70,9.0,10+,1020.4,70,,,METAR,METAR PAUN 290156Z AUTO 07009KT 10SM OVC021 M06/M07 A3013 RMK AO2 SLP208 T10611072 FZRANO,63.885,-160.794,4,Unalakleet Arpt,OVC,"[{'cover': 'OVC', 'base': 2100}]",MVFR,,,1020.8,,,US,United States
4538,PAVA,2025-11-29 01:59:16.824000+00:00,1764381360,2025-11-29T02:00:00.000Z,-5.6,-6.7,0,0.0,10+,1020.1,70,,,METAR,METAR PAVA 290156Z AUTO 00000KT 10SM FEW036 M06/M07 A3012 RMK AO2 SLP198 T10561067 FZRANO,61.537,-165.604,14,Chevak Arpt,FEW,"[{'cover': 'FEW', 'base': 3600}]",VFR,,,1019.8,,,US,United States
2330,PAVC,2025-11-29 01:59:28.473000+00:00,1764381360,2025-11-29T02:00:00.000Z,4.4,1.7,90,15.0,,1010.9,142,,,METAR,METAR PAVC 290156Z AUTO 09015KT OVC024 04/02 A2985 RMK AO2 SLP110 T00440017 PWINO $,55.115,-162.271,48,King Cove Arpt,OVC,"[{'cover': 'OVC', 'base': 2400}]",,,,1011.0,,,US,United States
4533,PAVD,2025-11-29 01:59:16.855000+00:00,1764381360,2025-11-29T02:00:00.000Z,1.1,1.1,0,0.0,8,1021.4,12,-RA,0.005,METAR,METAR PAVD 290156Z 00000KT 8SM -RA FEW016 BKN028 OVC040 01/01 A3016 RMK AO2 SLP211 P0000 T00110011 $,61.133,-146.251,21,Valdez Arpt,OVC,"[{'cover': 'FEW', 'base': 1600}, {'cover': 'BKN', 'base': 2800}, {'cover': 'OVC', 'base': 4000}]",MVFR,,,1021.1,,,US,United States
2364,PAVL,2025-11-29 01:57:18.161000+00:00,1764381180,2025-11-29T02:00:00.000Z,-4.4,-6.1,,,10+,1016.7,238,,,METAR,METAR PAVL 290153Z AUTO 10SM BKN009 BKN018 OVC039 M04/M06 A3002 RMK AO2 SLP166 T10441061 PWINO FZRANO TSNO $,67.731,-164.548,6,Kivalina Arpt,OVC,"[{'cover': 'BKN', 'base': 900}, {'cover': 'BKN', 'base': 1800}, {'cover': 'OVC', 'base': 3900}]",IFR,,,1016.6,,,US,United States
4001,PAWD,2025-11-29 01:57:18.185000+00:00,1764381180,2025-11-29T02:00:00.000Z,2.2,0.6,10,8.0,10+,1017.7,6,,,METAR,METAR PAWD 290153Z AUTO 01008KT 10SM CLR 02/01 A3005 RMK AO2 SLP176 T00220006,60.129,-149.418,3,Seward Arpt,CLR,[],VFR,,,1017.6,,,US,United States
4820,PAWG,2025-11-29 01:59:16.871000+00:00,1764381360,2025-11-29T02:00:00.000Z,0.6,-5.0,0,0.0,10+,1025.1,12,,,METAR,METAR PAWG 290156Z 00000KT 10SM SCT100 OVC110 01/M05 A3027 RMK AO2 SLP251 T00061050 $,56.486,-132.377,6,Wrangell Arpt,OVC,"[{'cover': 'SCT', 'base': 10000}, {'cover': 'OVC', 'base': 11000}]",VFR,,,1025.1,,,US,United States
4811,PAWM,2025-11-29 01:59:16.891000+00:00,1764381360,2025-11-29T02:00:00.000Z,-3.3,-3.9,140,5.0,6,1018.0,70,-SN BR,0.005,METAR,METAR PAWM 290156Z AUTO 14005KT 6SM -SN BR OVC006 M03/M04 A3006 RMK AO2 CIG 004V012 SLP184 P0000 T10331039 FZRANO,64.688,-163.41,80,White Mouintain Arpt,OVC,"[{'cover': 'OVC', 'base': 600}]",IFR,,,1018.4,,,US,United States
4818,PAWN,2025-11-29 01:59:16.913000+00:00,1764381360,2025-11-29T02:00:00.000Z,-6.1,-7.2,140,5.0,4,1018.4,70,-SN BR,0.005,METAR,METAR PAWN 290156Z AUTO 14005KT 4SM -SN BR OVC021 M06/M07 A3007 RMK AO2 SLP197 P0000 T10611072 FZRANO,67.567,-162.977,26,Noatak Arpt,OVC,"[{'cover': 'OVC', 'base': 2100}]",MVFR,,,1019.7,,,US,United States
4819,PAWS,2025-11-29 01:59:16.929000+00:00,1764381360,2025-11-29T02:00:00.000Z,-3.3,-5.6,240,3.0,10+,1019.4,70,,,METAR,METAR PAWS 290156Z AUTO 24003KT 10SM CLR M03/M06 A3010 RMK AO2 SLP168 T10331056 FZRANO,61.571,-149.538,102,Wasilla Arpt,CLR,[],VFR,,,1016.8,,,US,United States
4723,PAYA,2025-11-29 02:08:27.063000+00:00,1764381900,2025-11-29T02:05:00.000Z,2.2,1.7,90,4.0,10+,1021.4,46,-RA,0.01,SPECI,SPECI PAYA 290205Z AUTO 09004KT 10SM -RA BKN014 OVC024 02/02 A3016 RMK AO2 P0001 T00220017 TSNO $,59.512,-139.671,9,Yakutat Arpt,OVC,"[{'cover': 'BKN', 'base': 1400}, {'cover': 'OVC', 'base': 2400}]",MVFR,,,,,,US,United States
2963,PFCB,2025-11-29 02:06:39.847000+00:00,1764381000,2025-11-29T02:00:00.000Z,6.2,5.5,20,3.0,10+,1018.0,6,,,METAR,METAR PFCB 290150Z AUTO 02003KT 10SM OVC007 06/06 A3006 RMK AO2 T00620055,60.0785,-147.9947,22,Chenega Bay Arpt,OVC,"[{'cover': 'OVC', 'base': 700}]",IFR,,,,,,US,United States
664,PFCL,2025-11-29 01:59:20.671000+00:00,1764381360,2025-11-29T02:00:00.000Z,-5.0,-5.0,,,8,1018.7,78,,,METAR,METAR PFCL 290156Z AUTO 8SM BKN006 M05/M05 A3008 RMK AO2 CIG 004V008 SLP179 T10501050 FZRANO $,58.837,-158.526,23,Clarks Point Arpt,BKN,"[{'cover': 'BKN', 'base': 600}]",IFR,,,1017.9,,,US,United States
1129,PFEL,2025-11-29 02:06:39.987000+00:00,1764381840,2025-11-29T02:04:00.000Z,-3.0,-4.0,190,5.0,2.5,1018.7,102,-SN BR,0.005,SPECI,SPECI PFEL 290204Z AUTO 19005KT 2 1/2SM -SN BR OVC004 M03/M04 A3008 RMK AO2 VIS 1 1/4V5 CIG 003V009 P0000 FZRANO TSNO,64.616,-162.272,50,Elim Arpt,OVC,"[{'cover': 'OVC', 'base': 400}]",LIFR,,,,,,US,United States
2335,PFKO,2025-11-29 01:59:28.033000+00:00,1764381360,2025-11-29T02:00:00.000Z,-3.9,-4.4,180,9.0,10+,1018.7,78,UP,0.005,METAR,METAR PFKO 290156Z AUTO 18009KT 10SM UP OVC005 M04/M04 A3008 RMK AO2 CIG 004V007 SLP187 P0000 T10391044 FZRANO $,63.0334,-163.5323,13,Kotlik Arpt,OVC,"[{'cover': 'OVC', 'base': 500}]",IFR,,,1018.7,,,US,United States
2325,PFKT,2025-11-29 01:59:17.016000+00:00,1764381360,2025-11-29T02:00:00.000Z,-3.9,-4.4,90,7.0,10+,1017.7,70,,0.005,METAR,METAR PFKT 290156Z AUTO 09007KT 10SM OVC015 M04/M04 A3005 RMK AO2 SNB0058E41 SLP177 P0000 T10391044 FZRANO,65.33,-166.479,8,Brevig Mission Arpt,OVC,"[{'cover': 'OVC', 'base': 1500}]",MVFR,,,1017.7,,,US,United States
2333,PFKW,2025-11-29 01:59:20.761000+00:00,1764381360,2025-11-29T02:00:00.000Z,-5.0,-5.0,20,3.0,10+,1019.7,78,,,METAR,METAR PFKW 290156Z AUTO 02003KT 10SM OVC036 M05/M05 A3011 RMK AO2 SLP195 T10501050 FZRANO $,60.793,-161.44,4,Kwethluk Arpt,OVC,"[{'cover': 'OVC', 'base': 3600}]",VFR,,,1019.5,,,US,United States
3107,PFNO,2025-11-29 01:59:20.785000+00:00,1764381360,2025-11-29T02:00:00.000Z,-6.7,-8.3,100,6.0,4,1019.4,78,-SN BR,0.005,METAR,METAR PFNO 290156Z AUTO 10006KT 4SM -SN BR OVC021 M07/M08 A3010 RMK AO2 SLP193 P0000 T10671083 FZRANO $,66.819,-161.024,14,Noorvik/Curtis Mem,OVC,"[{'cover': 'OVC', 'base': 2100}]",MVFR,,,1019.3,,,US,United States
3944,PFSH,2025-11-29 01:59:20.811000+00:00,1764381360,2025-11-29T02:00:00.000Z,-3.9,-4.4,160,10.0,10+,1020.1,78,,0.005,METAR,METAR PFSH 290156Z AUTO 16010KT 10SM BKN006 OVC020 M04/M04 A3012 RMK AO2 SNB36E49 SLP200 P0000 T10391044 FZRANO $,64.367,-161.217,6,Shaktoolik Arpt,OVC,"[{'cover': 'BKN', 'base': 600}, {'cover': 'OVC', 'base': 2000}]",IFR,,,1020.0,,,US,United States
4300,PFTO,2025-11-29 01:59:20.841000+00:00,1764381360,2025-11-29T02:00:00.000Z,-21.7,-24.4,0,0.0,10+,1023.5,70,,,METAR,METAR PFTO 290156Z AUTO 00000KT 10SM CLR M22/M24 A3022 RMK AO2 SLP745 T12171244 FZRANO,63.329,-142.954,500,Tok Junction Arpt,CLR,[],VFR,,,974.5,,,US,United States
4727,PFWS,2025-11-29 02:04:11.262000+00:00,1764381720,2025-11-29T02:02:00.000Z,-2.0,-3.0,60,4.0,1,1018.4,70,BR,,SPECI,SPECI PFWS 290202Z AUTO 06004KT 1SM BR CLR M02/M03 A3007 RMK AO2 VIS 3/4V4 FZRANO,58.704,-157.005,40,South Naknek Arpt,CLR,[],IFR,,,,,,US,United States
1543,PFYU,2025-11-29 01:59:17.064000+00:00,1764381360,2025-11-29T02:00:00.000Z,-25.6,-27.8,0,0.0,9,1023.5,4,,,METAR,METAR PFYU 290156Z 00000KT 9SM CLR M26/M28 A3022 RMK AO2 SLP259 T12561278,66.572,-145.243,130,Fort Yukon Arpt,CLR,[],VFR,,,1025.9,,,US,United States
4546,PGUA,2025-11-29 02:06:43.014000+00:00,1764381300,2025-11-29T02:00:00.000Z,27.6,24.6,70,14.0,10+,1010.6,14,,0.005,METAR,METAR PGUA 290155Z AUTO 07014KT 10SM FEW008 BKN034 OVC044 28/25 A2984 RMK AO2 LTG DSNT SW-W RAB19E29RAB36E45 SLP095 P0000 T02760246 $,13.583,144.918,159,Guam/Andersen AFB,OVC,"[{'cover': 'FEW', 'base': 800}, {'cover': 'BKN', 'base': 3400}, {'cover': 'OVC', 'base': 4400}]",VFR,,,1009.5,,,GU,Guam
1587,PGUM,2025-11-29 02:06:43.062000+00:00,1764381240,2025-11-29T02:00:00.000Z,29.4,26.7,90,15.0,10+,1010.2,4,,0.02,METAR,METAR PGUM 290154Z 09015G20KT 10SM FEW019 SCT027 BKN045 29/27 A2983 RMK AO2 RAE05B31E48 SLP092 P0002 T02940267,13.4796,144.7958,74,Guam/Pat Intl,BKN,"[{'cover': 'FEW', 'base': 1900}, {'cover': 'SCT', 'base': 2700}, {'cover': 'BKN', 'base': 4500}]",VFR,,20.0,1009.2,,,GU,Guam
4318,PGWT,2025-11-29 01:57:48.668000+00:00,1764381300,2025-11-29T02:00:00.000Z,29.0,25.0,90,10.0,7,1010.9,0,,,METAR,METAR PGWT 290155Z 09010KT 7SM SCT018 SCT140 29/25 A2985,14.997,145.624,84,Tinian/San Jose Arpt,SCT,"[{'cover': 'SCT', 'base': 1800}, {'cover': 'SCT', 'base': 14000}]",VFR,,,,,,MP,Northern Mariana Islands
434,PHBK,2025-11-29 02:06:48.347000+00:00,1764381060,2025-11-29T02:00:00.000Z,28.3,19.4,170,9.0,10+,1015.0,14,,,METAR,METAR PHBK 290151Z AUTO 17009G16KT 10SM CLR 28/19 A2997 RMK AO2 SLP149 T02830194 $,22.034,-159.783,5,Kekaha/Barking Sands Arpt,CLR,[],VFR,,16.0,1014.9,,,US,United States
1859,PHHI,2025-11-29 02:06:48.395000+00:00,1764381300,2025-11-29T02:00:00.000Z,25.3,18.5,360,5.0,10+,1017.0,14,,,METAR,METAR PHHI 290155Z AUTO 36005KT 10SM CLR 25/19 A3003 RMK AO2 SLP160 T02530185 $,21.478,-158.044,246,Wheeler,CLR,[],VFR,,,1016.0,,,US,United States
2147,PHJR,2025-11-29 02:06:43.106000+00:00,1764381180,2025-11-29T02:00:00.000Z,26.7,18.3,190,5.0,10+,1016.7,4,,,METAR,METAR PHJR 290153Z 19005KT 10SM CLR 27/18 A3002 RMK AO2 SLP170 T02670183,21.312,-158.07,9,Kalaeloa Arpt,CLR,[],VFR,,,1017.0,,,US,United States
2369,PHKO,2025-11-29 02:04:05.733000+00:00,1764381180,2025-11-29T02:00:00.000Z,28.3,19.4,290,8.0,10+,1016.0,5,,,METAR,METAR PHKO 290153Z COR 29008KT 10SM FEW050 28/19 A3000 RMK AO2 SLP156 T02830194,19.7378,-156.048,11,Keahole Point/Kona Intl,FEW,"[{'cover': 'FEW', 'base': 5000}]",VFR,,,1015.6,,,US,United States
2374,PHLI,2025-11-29 01:57:24.405000+00:00,1764381180,2025-11-29T02:00:00.000Z,26.7,20.0,140,8.0,10+,1016.0,12,,,METAR,METAR PHLI 290153Z 14008KT 10SM OVC065 27/20 A3000 RMK AO2 SLP155 T02670200 $,21.9805,-159.3386,32,Lihue Arpt,OVC,"[{'cover': 'OVC', 'base': 6500}]",VFR,,,1015.5,,,US,United States
2920,PHMK,2025-11-29 02:06:43.130000+00:00,1764381240,2025-11-29T02:00:00.000Z,27.2,15.6,VRB,6.0,10+,1016.7,4,,,METAR,METAR PHMK 290154Z VRB06KT 10SM CLR 27/16 A3002 RMK AO2 SLP170 T02720156,21.1545,-157.0961,135,Molokai Arpt,CLR,[],VFR,,,1017.0,,,US,United States
2892,PHNG,2025-11-29 02:06:48.426000+00:00,1764381420,2025-11-29T02:00:00.000Z,26.7,17.2,120,5.0,10+,1015.3,14,,,METAR,METAR PHNG 290157Z AUTO 12005KT 10SM BKN048 27/17 A2998 RMK AO2 SLP147 T02670172 $,21.45,-157.763,1,Kaneohe Bay,BKN,"[{'cover': 'BKN', 'base': 4800}]",VFR,,,1014.7,,,US,United States
1892,PHNL,2025-11-29 02:00:58.675000+00:00,1764381180,2025-11-29T02:00:00.000Z,27.2,17.2,170,6.0,10+,1016.3,12,,,METAR,METAR PHNL 290153Z 17006KT 10SM FEW030 FEW045 27/17 A3001 RMK AO2 SLP161 T02720172 $,21.315,-157.924,2,Honolulu Intl,FEW,"[{'cover': 'FEW', 'base': 3000}, {'cover': 'FEW', 'base': 4500}]",VFR,,,1016.1,,,US,United States
2606,PHNY,2025-11-29 02:04:05.769000+00:00,1764381360,2025-11-29T02:00:00.000Z,24.4,17.8,300,9.0,10+,1018.7,14,,,METAR,METAR PHNY 290156Z AUTO 30009KT 10SM CLR 24/18 A3008 RMK AO2 SLP165 T02440178 $,20.783,-156.955,395,Lanai Arpt,CLR,[],VFR,,,1016.5,,,US,United States
3142,PHOG,2025-11-29 02:00:58.695000+00:00,1764381240,2025-11-29T02:00:00.000Z,28.3,15.6,10,7.0,10+,1015.7,4,,,METAR,METAR PHOG 290154Z 01007KT 10SM FEW040 28/16 A2999 RMK AO2 SLP162 T02830156,20.8887,-156.4345,14,Kahului Arpt,FEW,"[{'cover': 'FEW', 'base': 4000}]",VFR,,,1016.2,,,US,United States
2154,PHTO,2025-11-29 02:00:58.719000+00:00,1764381180,2025-11-29T02:00:00.000Z,25.6,20.0,120,10.0,10+,1016.7,4,,,METAR,METAR PHTO 290153Z 12010KT 10SM BKN055 26/20 A3002 RMK AO2 SLP163 T02560200,19.7191,-155.049,9,Hilo Intl,BKN,"[{'cover': 'BKN', 'base': 5500}]",VFR,,,1016.3,,,US,United States
2270,PKWA,2025-11-29 02:06:48.463000+00:00,1764381600,2025-11-29T02:00:00.000Z,28.7,24.7,50,16.0,10+,1009.9,6,,,METAR,METAR PKWA 290200Z AUTO 05016KT 10SM CLR 29/25 A2982 RMK AO2 T02870247,8.72,167.724,6,Kwajalein/Bucholz AA,CLR,[],VFR,,,,,,MH,Marshall Islands
915,PLCH,2025-11-29 01:58:24.008000+00:00,1764381600,2025-11-29T02:00:00.000Z,30.0,23.0,100,7.0,6+,1007.0,0,,,METAR,METAR PLCH 290200Z 10007G17KT 9999 FEW020 30/23 Q1007,1.988,-157.349,5,Christmas Isl/Cassidy Intl,FEW,"[{'cover': 'FEW', 'base': 2000}]",VFR,,17.0,,,,KI,Kiribati
2601,PMDY,2025-11-29 02:06:48.488000+00:00,1764381360,2025-11-29T02:00:00.000Z,22.8,13.3,280,17.0,10+,1010.2,14,,0.005,METAR,METAR PMDY 290156Z AUTO 28017G23KT 10SM BKN041 BKN049 23/13 A2983 RMK AO2 RAB02E12 SLP103 P0000 T02280133 $,28.206,-177.382,6,Midway Island Arpt,BKN,"[{'cover': 'BKN', 'base': 4100}, {'cover': 'BKN', 'base': 4900}]",VFR,,23.0,1010.3,,,UM,United States Minor Outlying Islands
4321,PTKK,2025-11-29 02:06:43.314000+00:00,1764381240,2025-11-29T02:00:00.000Z,26.7,24.8,VRB,5.0,15,1008.2,0,,,METAR,METAR PTKK 290154Z VRB05KT 15SM SCT014 BKN120 OVC280 27/25 A2977 RMK CB ALQDS SLP084 T02670248,7.462,151.843,3,Meno Isl/Chuuk Intl,OVC,"[{'cover': 'SCT', 'base': 1400}, {'cover': 'BKN', 'base': 12000}, {'cover': 'OVC', 'base': 28000}]",VFR,,,1008.4,,,FM,"Micronesia, Federated States of"
3433,PTPN,2025-11-29 01:53:59.908000+00:00,1764381180,2025-11-29T02:00:00.000Z,31.0,25.0,60,8.0,15,1009.2,0,,,METAR,METAR PTPN 290153Z 06008KT 15SM SCT018 SCT130 BKN300 31/25 A2980 ,6.986,158.21,3,Pohnpeo Intl,BKN,"[{'cover': 'SCT', 'base': 1800}, {'cover': 'SCT', 'base': 13000}, {'cover': 'BKN', 'base': 30000}]",VFR,,,,,,FM,"Micronesia, Federated States of"
3759,PTRO,2025-11-29 02:06:43.349000+00:00,1764381000,2025-11-29T02:00:00.000Z,30.0,26.0,40,5.0,13,1009.6,0,,,METAR,METAR PTRO 290150Z 04005KT 13SM BKN015TCU BKN120 BKN300 30/26 A2981 RMK TCU OHD AND ALQDS,7.367,134.544,30,Palau/Tmetochl Intl,BKN,"[{'cover': 'BKN', 'base': 1500}, {'cover': 'BKN', 'base': 12000}, {'cover': 'BKN', 'base': 30000}]",MVFR,,,,,,PW,Palau
4846,PTYA,2025-11-29 02:06:43.429000+00:00,1764381180,2025-11-29T02:00:00.000Z,30.7,27.4,120,8.0,12,1008.9,0,,,METAR,METAR PTYA 290153Z 12008KT 12SM FEW016 BKN300 31/27 A2979 RMK SLP090 T03070274,9.487,138.077,4,Yap Island Intl,BKN,"[{'cover': 'FEW', 'base': 1600}, {'cover': 'BKN', 'base': 30000}]",VFR,,,1009.0,,,FM,"Micronesia, Federated States of"
116,PWAK,2025-11-29 02:06:48.515000+00:00,1764381300,2025-11-29T02:00:00.000Z,28.4,23.5,50,5.0,9,1013.0,6,,,METAR,METAR PWAK 290155Z AUTO 05005KT 9SM OVC019 28/24 A2991 RMK AO2 SLP131 T02840235,19.287,166.623,7,Wake Island Arpt,OVC,"[{'cover': 'OVC', 'base': 1900}]",MVFR,,,1013.1,,,UM,United States Minor Outlying Islands
4476,RCFN,2025-11-29 02:06:54.253000+00:00,1764381600,2025-11-29T02:00:00.000Z,24.0,17.0,20,6.0,6+,1017.0,16,,,METAR,METAR RCFN 290200Z 02006KT 330V100 9999 FEW020 SCT040 BKN060 24/17 Q1017 NOSIG RMK A3004,22.755,121.102,42,Feng Nin Arpt,BKN,"[{'cover': 'FEW', 'base': 2000}, {'cover': 'SCT', 'base': 4000}, {'cover': 'BKN', 'base': 6000}]",VFR,,,,,,TW,"Taiwan, Province of China"
2098,RCKH,2025-11-29 02:06:55.225000+00:00,1764381600,2025-11-29T02:00:00.000Z,25.0,17.0,VRB,1.0,5.59,1015.0,16,,,METAR,METAR RCKH 290200Z VRB01KT 9000 FEW015 SCT025 BKN070 25/17 Q1015 NOSIG RMK A3000,22.577,120.35,6,Kaohsiung Intl,BKN,"[{'cover': 'FEW', 'base': 1500}, {'cover': 'SCT', 'base': 2500}, {'cover': 'BKN', 'base': 7000}]",VFR,,,,,,TW,"Taiwan, Province of China"
3639,RCMQ,2025-11-29 02:06:54.200000+00:00,1764381600,2025-11-29T02:00:00.000Z,25.0,16.0,360,4.0,6+,1017.0,16,,,METAR,METAR RCMQ 290200Z 36004KT 9999 FEW012 SCT100 25/16 Q1017 NOSIG RMK A3004,24.265,120.621,202,Cingcyuangang Arpt,SCT,"[{'cover': 'FEW', 'base': 1200}, {'cover': 'SCT', 'base': 10000}]",VFR,,,,,,TW,"Taiwan, Province of China"
4214,RCNN,2025-11-29 02:06:54.230000+00:00,1764381600,2025-11-29T02:00:00.000Z,25.0,16.0,10,2.0,6+,1016.0,16,,,METAR,METAR RCNN 290200Z 01002KT 9999 FEW012 SCT040 BKN060 25/16 Q1016 NOSIG RMK A3003,22.95,120.206,15,Tainan,BKN,"[{'cover': 'FEW', 'base': 1200}, {'cover': 'SCT', 'base': 4000}, {'cover': 'BKN', 'base': 6000}]",VFR,,,,,,TW,"Taiwan, Province of China"
2846,RCQC,2025-11-29 02:06:54.282000+00:00,1764381600,2025-11-29T02:00:00.000Z,22.0,17.0,360,12.0,6+,1016.0,20,,,METAR,METAR RCQC 290200Z 36012KT 9999 FEW010 SCT020 BKN040 22/17 Q1016 NOSIG RMK A3001 AWOS R02 WIND N/A,23.569,119.628,26,Makung,BKN,"[{'cover': 'FEW', 'base': 1000}, {'cover': 'SCT', 'base': 2000}, {'cover': 'BKN', 'base': 4000}]",VFR,,,,,,TW,"Taiwan, Province of China"
4216,RCSS,2025-11-29 02:06:54.159000+00:00,1764381600,2025-11-29T02:00:00.000Z,25.0,17.0,100,11.0,6+,1017.0,16,,,METAR,METAR RCSS 290200Z 10011KT 9999 FEW025 25/17 Q1017 NOSIG RMK A3004,25.069,121.552,8,Taipei/Songshan Arpt,FEW,"[{'cover': 'FEW', 'base': 2500}]",VFR,,,,,,TW,"Taiwan, Province of China"
4260,RCTP,2025-11-29 02:06:55.192000+00:00,1764381600,2025-11-29T02:00:00.000Z,23.0,17.0,20,10.0,6+,1017.0,16,,,METAR,METAR RCTP 290200Z 02010KT 330V050 9999 FEW030 23/17 Q1017 NOSIG RMK A3004,25.078,121.233,33,Taipei/Taoyuan Arpt,FEW,"[{'cover': 'FEW', 'base': 3000}]",VFR,,,,,,TW,"Taiwan, Province of China"
3073,RJAA,2025-11-29 02:07:41.725000+00:00,1764381600,2025-11-29T02:00:00.000Z,12.0,0.0,50,5.0,6+,1017.0,0,,,METAR,METAR RJAA 290200Z 05005KT 9999 FEW030 12/M00 Q1017 BECMG 08006KT,35.765,140.386,36,Narita Intl,FEW,"[{'cover': 'FEW', 'base': 3000}]",VFR,,,,,,JP,Japan
2842,RJAF,2025-11-29 02:06:15.437000+00:00,1764381600,2025-11-29T02:00:00.000Z,5.0,-1.0,260,3.0,6+,1018.0,0,,,METAR,METAR RJAF 290200Z 26003KT 170V330 9999 FEW020 SCT025 05/M01 Q1018,36.167,137.923,652,Matsumoto Arpt,SCT,"[{'cover': 'FEW', 'base': 2000}, {'cover': 'SCT', 'base': 2500}]",VFR,,,,,,JP,Japan
1824,RJAH,2025-11-29 02:06:15.487000+00:00,1764381600,2025-11-29T02:00:00.000Z,13.0,-2.0,40,5.0,6+,1017.0,0,,,METAR,METAR RJAH 290200Z 04005KT 360V070 9999 FEW030 13/M02 Q1017,36.182,140.415,31,Ibaraki Arpt,FEW,"[{'cover': 'FEW', 'base': 3000}]",VFR,,,,,,JP,Japan
2119,RJAW,2025-11-29 02:08:25.074000+00:00,1764381600,2025-11-29T02:00:00.000Z,24.0,20.0,30,14.0,6+,1014.0,0,,,METAR,METAR RJAW 290200Z 03014KT 9999 BKN020 BKN080 24/20 Q1014 RMK 5CU020 7AC080 A2995,24.784,141.322,116,Iwo Jima/Iwoto Arpt,BKN,"[{'cover': 'BKN', 'base': 2000}, {'cover': 'BKN', 'base': 8000}]",MVFR,,,,,,JP,Japan
2072,RJBB,2025-11-29 02:06:15.569000+00:00,1764381600,2025-11-29T02:00:00.000Z,13.0,6.0,10,6.0,6+,1019.0,16,,,METAR,METAR RJBB 290200Z 01006KT 9999 FEW025 13/06 Q1019 NOSIG,34.434,135.233,8,Osaka/Kansai Intl,FEW,"[{'cover': 'FEW', 'base': 2500}]",VFR,,,,,,JP,Japan
3874,RJBD,2025-11-29 02:06:15.615000+00:00,1764381600,2025-11-29T02:00:00.000Z,14.0,4.0,360,4.0,6+,1018.0,0,,,METAR,METAR RJBD 290200Z 36004KT 310V040 CAVOK 14/04 Q1018,33.662,135.364,91,Nanki-Shirahama Arpt,CAVOK,[],VFR,,,,,,JP,Japan
4527,RJBE,2025-11-29 02:06:15.654000+00:00,1764381600,2025-11-29T02:00:00.000Z,13.0,6.0,110,5.0,6+,1019.0,0,,,METAR,METAR RJBE 290200Z 11005KT 080V150 9999 FEW025 SCT040 13/06 Q1019,34.633,135.224,5,Kobe Arpt,SCT,"[{'cover': 'FEW', 'base': 2500}, {'cover': 'SCT', 'base': 4000}]",VFR,,,,,,JP,Japan
4222,RJBT,2025-11-29 02:06:15.687000+00:00,1764381600,2025-11-29T02:00:00.000Z,10.0,8.0,100,3.0,6+,1019.0,0,,,METAR,METAR RJBT 290200Z 10003KT 050V150 9999 FEW001 SCT045 10/08 Q1019,35.513,134.787,172,Tajima Arpt,SCT,"[{'cover': 'FEW', 'base': 100}, {'cover': 'SCT', 'base': 4500}]",VFR,,,,,,JP,Japan
3054,RJCB,2025-11-29 02:06:15.725000+00:00,1764381600,2025-11-29T02:00:00.000Z,3.0,-7.0,340,15.0,6+,1008.0,0,,,METAR,METAR RJCB 290200Z 34015KT 9999 FEW030 03/M07 Q1008,42.733,143.217,149,Obihiro Arpt,FEW,"[{'cover': 'FEW', 'base': 3000}]",VFR,,,,,,JP,Japan
912,RJCC,2025-11-29 02:06:15.805000+00:00,1764381600,2025-11-29T02:00:00.000Z,3.0,-7.0,290,8.0,6+,1014.0,0,,,METAR,METAR RJCC 290200Z 29008KT 9999 FEW015 SCT045 03/M07 Q1014,42.774,141.693,19,Sapporo/Chitose Arpt,SCT,"[{'cover': 'FEW', 'base': 1500}, {'cover': 'SCT', 'base': 4500}]",VFR,,,,,,JP,Japan
1823,RJCH,2025-11-29 02:06:15.845000+00:00,1764381600,2025-11-29T02:00:00.000Z,5.0,-4.0,290,18.0,6+,1015.0,0,,,METAR,METAR RJCH 290200Z 29018KT 9999 FEW030 BKN040 05/M04 Q1015,41.77,140.822,36,Hakodate Arpt,BKN,"[{'cover': 'FEW', 'base': 3000}, {'cover': 'BKN', 'base': 4000}]",VFR,,,,,,JP,Japan
2298,RJCK,2025-11-29 02:06:15.884000+00:00,1764381600,2025-11-29T02:00:00.000Z,5.0,-7.0,300,11.0,6+,1007.0,0,,,METAR,METAR RJCK 290200Z 30011KT 260V330 9999 FEW040 SCT050 05/M07 Q1007,43.041,144.193,94,Kushiro Arpt,SCT,"[{'cover': 'FEW', 'base': 4000}, {'cover': 'SCT', 'base': 5000}]",VFR,,,,,,JP,Japan
2887,RJCM,2025-11-29 02:06:15.912000+00:00,1764381600,2025-11-29T02:00:00.000Z,3.0,-10.0,300,9.0,6+,1008.0,0,,,METAR,METAR RJCM 290200Z 30009G21KT 250V360 9999 FEW030 03/M10 Q1008,43.881,144.164,30,Memambetsu Arpt,FEW,"[{'cover': 'FEW', 'base': 3000}]",VFR,,21.0,,,,JP,Japan
3875,RJCN,2025-11-29 02:06:15.935000+00:00,1764381600,2025-11-29T02:00:00.000Z,2.0,-7.0,270,11.0,6+,1007.0,0,,,METAR,METAR RJCN 290200Z 27011KT 240V300 9999 FEW040 SCT050 02/M07 Q1007,43.578,144.96,62,Nakashibetsu Arpt,SCT,"[{'cover': 'FEW', 'base': 4000}, {'cover': 'SCT', 'base': 5000}]",VFR,,,,,,JP,Japan
3090,RJCO,2025-11-29 02:06:15.977000+00:00,1764381600,2025-11-29T02:00:00.000Z,3.0,-5.0,300,16.0,6+,1015.0,0,,,METAR,METAR RJCO 290200Z 30016KT 9999 FEW020 BKN050 03/M05 Q1015,43.117,141.381,7,Sapporo,BKN,"[{'cover': 'FEW', 'base': 2000}, {'cover': 'BKN', 'base': 5000}]",VFR,,,,,,JP,Japan
4798,RJCW,2025-11-29 02:06:16.002000+00:00,1764381600,2025-11-29T02:00:00.000Z,-1.0,-7.0,280,24.0,6+,1009.0,0,,,METAR,METAR RJCW 290200Z 28024KT 9999 FEW030 BKN040 M01/M07 Q1009,45.404,141.802,11,Wakkanai Arpt,BKN,"[{'cover': 'FEW', 'base': 3000}, {'cover': 'BKN', 'base': 4000}]",VFR,,,,,,JP,Japan
1822,RJDB,2025-11-29 02:06:16.035000+00:00,1764381600,2025-11-29T02:00:00.000Z,14.0,6.0,210,4.0,6+,1019.0,2,,,METAR,METAR RJDB 290200Z AUTO 21004KT 150V270 9999 FEW030 SCT033 BKN034 14/06 Q1019,33.749,129.785,13,Iki Airport,BKN,"[{'cover': 'FEW', 'base': 3000}, {'cover': 'SCT', 'base': 3300}, {'cover': 'BKN', 'base': 3400}]",VFR,,,,,,JP,Japan
4528,RJDC,2025-11-29 02:06:16.070000+00:00,1764381600,2025-11-29T02:00:00.000Z,12.0,6.0,160,3.0,6+,1020.0,0,,,METAR,METAR RJDC 290200Z 16003KT 110V220 9999 FEW030 12/06 Q1020,33.93,131.279,5,Yamaguchi/Ube Arpt,FEW,"[{'cover': 'FEW', 'base': 3000}]",VFR,,,,,,JP,Japan
4223,RJDT,2025-11-29 02:06:16.098000+00:00,1764381600,2025-11-29T02:00:00.000Z,14.0,5.0,VRB,3.0,6+,1019.0,0,,,METAR,METAR RJDT 290200Z VRB03KT 9999 FEW035 SCT040 14/05 Q1019,34.288,129.325,61,Tsushima Arpt,SCT,"[{'cover': 'FEW', 'base': 3500}, {'cover': 'SCT', 'base': 4000}]",VFR,,,,,,JP,Japan
2575,RJEB,2025-11-29 02:06:16.127000+00:00,1764381600,2025-11-29T02:00:00.000Z,2.0,-7.0,290,25.0,6+,1008.0,0,,,METAR,METAR RJEB 290200Z 29025G35KT 9999 FEW030 BKN050 02/M07 Q1008,44.304,143.404,24,Monbetsu Arpt,BKN,"[{'cover': 'FEW', 'base': 3000}, {'cover': 'BKN', 'base': 5000}]",VFR,,35.0,,,,JP,Japan
45,RJEC,2025-11-29 02:06:16.187000+00:00,1764381600,2025-11-29T02:00:00.000Z,-1.0,-5.0,230,7.0,6+,1012.0,0,-SHSN,,METAR,METAR RJEC 290200Z 23007KT 210V270 9999 -SHSN FEW002 SCT015 BKN040 M01/M05 Q1012,43.671,142.447,209,Asahikawa Arpt,BKN,"[{'cover': 'FEW', 'base': 200}, {'cover': 'SCT', 'base': 1500}, {'cover': 'BKN', 'base': 4000}]",VFR,,,,,,JP,Japan
1504,RJFE,2025-11-29 02:06:16.217000+00:00,1764381600,2025-11-29T02:00:00.000Z,15.0,8.0,200,5.0,6+,1019.0,0,,,METAR,METAR RJFE 290200Z 20005KT 160V250 9999 FEW025 15/08 Q1019,32.666,128.833,80,Fukue Arpt,FEW,"[{'cover': 'FEW', 'base': 2500}]",VFR,,,,,,JP,Japan
1503,RJFF,2025-11-29 02:06:16.311000+00:00,1764381600,2025-11-29T02:00:00.000Z,14.0,4.0,170,7.0,6+,1020.0,16,,,METAR,METAR RJFF 290200Z 17007KT 9999 FEW030 14/04 Q1020 NOSIG,33.584,130.452,7,Fukuoka Arpt,FEW,"[{'cover': 'FEW', 'base': 3000}]",VFR,,,,,,JP,Japan
4224,RJFG,2025-11-29 02:06:16.356000+00:00,1764381600,2025-11-29T02:00:00.000Z,16.0,9.0,280,6.0,6+,1019.0,0,,,METAR,METAR RJFG 290200Z 28006KT 9999 FEW020 16/09 Q1019,30.605,130.992,234,Tanegashima Arpt,FEW,"[{'cover': 'FEW', 'base': 2000}]",VFR,,,,,,JP,Japan
2299,RJFK,2025-11-29 02:06:16.443000+00:00,1764381600,2025-11-29T02:00:00.000Z,13.0,5.0,VRB,2.0,6+,1019.0,0,VA,,METAR,METAR RJFK 290200Z VRB02KT 9999 VA NSC 13/05 Q1019,31.803,130.719,271,Kagoshima Arpt,CLR,[],VFR,,,,,,JP,Japan
2070,RJFM,2025-11-29 02:06:16.520000+00:00,1764381600,2025-11-29T02:00:00.000Z,15.0,8.0,VRB,2.0,6+,1019.0,0,,,METAR,METAR RJFM 290200Z VRB02KT 9999 FEW030 15/08 Q1019,31.877,131.449,10,Miyazaki Arpt,FEW,"[{'cover': 'FEW', 'base': 3000}]",VFR,,,,,,JP,Japan
3089,RJFO,2025-11-29 02:06:16.586000+00:00,1764381600,2025-11-29T02:00:00.000Z,13.0,5.0,VRB,3.0,6+,1019.0,0,,,METAR,METAR RJFO 290200Z VRB03KT 9999 FEW020 13/05 Q1019,33.479,131.737,3,Oita Arpt,FEW,"[{'cover': 'FEW', 'base': 2000}]",VFR,,,,,,JP,Japan
2069,RJFR,2025-11-29 02:06:16.622000+00:00,1764381600,2025-11-29T02:00:00.000Z,12.0,5.0,150,4.0,6+,1020.0,0,,,METAR,METAR RJFR 290200Z 15004KT 120V200 9999 FEW030 12/05 Q1020,33.846,131.035,9,Kitakyushu Arpt,FEW,"[{'cover': 'FEW', 'base': 3000}]",VFR,,,,,,JP,Japan
1821,RJFS,2025-11-29 02:06:16.656000+00:00,1764381600,2025-11-29T02:00:00.000Z,12.0,4.0,VRB,2.0,6+,1020.0,0,,,METAR,METAR RJFS 290200Z VRB02KT CAVOK 12/04 Q1020,33.15,130.302,2,Saga Arpt,CAVOK,[],VFR,,,,,,JP,Japan
2120,RJFT,2025-11-29 02:06:16.696000+00:00,1764381600,2025-11-29T02:00:00.000Z,12.0,4.0,260,4.0,6+,1020.0,0,,,METAR,METAR RJFT 290200Z 26004KT 220V300 CAVOK 12/04 Q1020,32.837,130.855,188,Kumamoto Arpt,CAVOK,[],VFR,,,,,,JP,Japan
2837,RJFU,2025-11-29 02:06:16.732000+00:00,1764381600,2025-11-29T02:00:00.000Z,13.0,6.0,160,4.0,6+,1020.0,0,,,METAR,METAR RJFU 290200Z 16004KT 110V240 CAVOK 13/06 Q1020,32.917,129.914,2,Nagasaki Arpt,CAVOK,[],VFR,,,,,,JP,Japan
2868,RJGG,2025-11-29 02:06:16.804000+00:00,1764381600,2025-11-29T02:00:00.000Z,14.0,4.0,330,9.0,6+,1018.0,16,,,METAR,METAR RJGG 290200Z 33009KT 9999 FEW020 14/04 Q1018 NOSIG,34.858,136.805,5,Nagoya/Chubu Intl,FEW,"[{'cover': 'FEW', 'base': 2000}]",VFR,,,,,,JP,Japan
44,RJKA,2025-11-29 02:06:16.842000+00:00,1764381600,2025-11-29T02:00:00.000Z,23.0,11.0,360,6.0,6+,1018.0,0,,,METAR,METAR RJKA 290200Z 36006KT 290V050 9999 FEW040 23/11 Q1018,28.431,129.713,7,Amami Arpt,FEW,"[{'cover': 'FEW', 'base': 4000}]",VFR,,,,,,JP,Japan
3088,RJKB,2025-11-29 02:06:16.881000+00:00,1764381600,2025-11-29T02:00:00.000Z,23.0,14.0,80,5.0,6+,1018.0,2,,,METAR,METAR RJKB 290200Z AUTO 08005KT 040V100 9999 FEW044 23/14 Q1018,27.4322,128.7058,27,Okinoerabu Arpt,FEW,"[{'cover': 'FEW', 'base': 4400}]",VFR,,,,,,JP,Japan
2118,RJKI,2025-11-29 02:06:16.920000+00:00,1764381600,2025-11-29T02:00:00.000Z,21.0,10.0,10,7.0,6+,1018.0,2,,,METAR,METAR RJKI 290200Z AUTO 01007KT 9999 NSC 21/10 Q1018,28.321,129.928,6,Kikai Island Arpt,CLR,[],VFR,,,,,,JP,Japan
2300,RJNK,2025-11-29 02:06:16.963000+00:00,1764381600,2025-11-29T02:00:00.000Z,11.0,3.0,VRB,2.0,6+,1020.0,0,,,METAR,METAR RJNK 290200Z VRB02KT 9999 FEW030 11/03 Q1020,36.394,136.407,7,Komatsu Arpt,FEW,"[{'cover': 'FEW', 'base': 3000}]",VFR,,,,,,JP,Japan
1502,RJNS,2025-11-29 02:06:17.001000+00:00,1764381600,2025-11-29T02:00:00.000Z,14.0,6.0,70,3.0,6+,1016.0,0,,,METAR,METAR RJNS 290200Z 07003KT 350V120 9999 FEW025 BKN030 14/06 Q1016,34.796,138.189,133,Shizouka Arpt,BKN,"[{'cover': 'FEW', 'base': 2500}, {'cover': 'BKN', 'base': 3000}]",MVFR,,,,,,JP,Japan
4225,RJNT,2025-11-29 02:06:17.031000+00:00,1764381600,2025-11-29T02:00:00.000Z,10.0,2.0,360,3.0,6+,1020.0,0,,,METAR,METAR RJNT 290200Z 36003KT 300V050 9999 FEW020 10/02 Q1020,36.641,137.187,30,Toyama Arpt,FEW,"[{'cover': 'FEW', 'base': 2000}]",VFR,,,,,,JP,Japan
3087,RJNW,2025-11-29 02:06:17.058000+00:00,1764381600,2025-11-29T02:00:00.000Z,8.0,-1.0,VRB,4.0,6+,1020.0,0,,,METAR,METAR RJNW 290200Z VRB04KT 9999 FEW035 08/M01 Q1020,37.293,136.962,222,Noto Arpt,FEW,"[{'cover': 'FEW', 'base': 3500}]",VFR,,,,,,JP,Japan
1819,RJOA,2025-11-29 02:06:17.097000+00:00,1764381600,2025-11-29T02:00:00.000Z,11.0,1.0,VRB,2.0,6+,1019.0,0,,,METAR,METAR RJOA 290200Z VRB02KT 9999 FEW030 11/01 Q1019,34.436,132.919,318,Hiroshima Arpt,FEW,"[{'cover': 'FEW', 'base': 3000}]",VFR,,,,,,JP,Japan
3086,RJOB,2025-11-29 02:06:17.131000+00:00,1764381600,2025-11-29T02:00:00.000Z,11.0,3.0,VRB,3.0,6+,1019.0,0,,,METAR,METAR RJOB 290200Z VRB03KT 9999 FEW030 11/03 Q1019,34.757,133.855,242,Okayama Arpt,FEW,"[{'cover': 'FEW', 'base': 3000}]",VFR,,,,,,JP,Japan
2117,RJOC,2025-11-29 02:06:17.162000+00:00,1764381600,2025-11-29T02:00:00.000Z,13.0,4.0,VRB,1.0,6+,1019.0,0,,,METAR,METAR RJOC 290200Z VRB01KT 9999 FEW030 13/04 Q1019,35.414,132.89,2,Izumo Arpt,FEW,"[{'cover': 'FEW', 'base': 3000}]",VFR,,,,,,JP,Japan
4799,RJOH,2025-11-29 02:06:17.198000+00:00,1764381600,2025-11-29T02:00:00.000Z,13.0,5.0,240,3.0,6+,1019.0,0,,,METAR,METAR RJOH 290200Z 24003KT 190V300 9999 FEW050 13/05 Q1019,35.493,133.239,6,Miho/Yonago Arpt,FEW,"[{'cover': 'FEW', 'base': 5000}]",VFR,,,,,,JP,Japan
2122,RJOI,2025-11-29 02:06:48.538000+00:00,1764381360,2025-11-29T02:00:00.000Z,11.7,6.1,20,4.0,6+,1020.4,0,,,METAR,METAR RJOI 290156Z E02004KT 9999 FEW020 12/06 A3013 RMK WND ESTMD SLP203 T01170061,34.144,132.236,2,Iwakuni Arpt,FEW,"[{'cover': 'FEW', 'base': 2000}]",VFR,,,1020.3,,,JP,Japan
2116,RJOK,2025-11-29 02:06:17.229000+00:00,1764381600,2025-11-29T02:00:00.000Z,16.0,2.0,320,4.0,6+,1018.0,0,,,METAR,METAR RJOK 290200Z 32004KT 270V350 9999 FEW035 16/02 Q1018,33.546,133.669,7,Kochi Arpt,FEW,"[{'cover': 'FEW', 'base': 3500}]",VFR,,,,,,JP,Japan
2879,RJOM,2025-11-29 02:06:17.260000+00:00,1764381600,2025-11-29T02:00:00.000Z,13.0,5.0,310,3.0,6+,1019.0,0,,,METAR,METAR RJOM 290200Z 31003KT 250V350 9999 FEW025 13/05 Q1019,33.83,132.698,3,Matsuyama Arpt,FEW,"[{'cover': 'FEW', 'base': 2500}]",VFR,,,,,,JP,Japan
2114,RJOO,2025-11-29 02:06:17.296000+00:00,1764381600,2025-11-29T02:00:00.000Z,14.0,4.0,VRB,2.0,6+,1019.0,0,,,METAR,METAR RJOO 290200Z VRB02KT 9999 FEW025 14/04 Q1019,34.784,135.439,11,Osaka Intl,FEW,"[{'cover': 'FEW', 'base': 2500}]",VFR,,,,,,JP,Japan
4515,RJOR,2025-11-29 02:06:17.334000+00:00,1764381600,2025-11-29T02:00:00.000Z,13.0,6.0,VRB,2.0,6+,1019.0,0,,,METAR,METAR RJOR 290200Z VRB02KT 9999 FEW020 SCT050 13/06 Q1019,35.53,134.165,11,Tottori Arpt,SCT,"[{'cover': 'FEW', 'base': 2000}, {'cover': 'SCT', 'base': 5000}]",VFR,,,,,,JP,Japan
4226,RJOS,2025-11-29 02:06:17.369000+00:00,1764381600,2025-11-29T02:00:00.000Z,13.0,3.0,350,5.0,6+,1019.0,0,,,METAR,METAR RJOS 290200Z 35005KT 9999 FEW030 13/03 Q1019,34.132,134.609,3,Tokushima,FEW,"[{'cover': 'FEW', 'base': 3000}]",VFR,,,,,,JP,Japan
4227,RJOT,2025-11-29 02:06:17.399000+00:00,1764381600,2025-11-29T02:00:00.000Z,11.0,2.0,350,4.0,6+,1019.0,0,,,METAR,METAR RJOT 290200Z 35004KT 290V060 9999 FEW030 11/02 Q1019,34.214,134.016,181,Takamatsu Arpt,FEW,"[{'cover': 'FEW', 'base': 3000}]",VFR,,,,,,JP,Japan
2113,RJOW,2025-11-29 02:06:17.423000+00:00,1764381600,2025-11-29T02:00:00.000Z,13.0,3.0,150,6.0,6+,1019.0,0,,,METAR,METAR RJOW 290200Z 15006KT 120V190 9999 FEW025 13/03 Q1019,34.676,131.79,54,Iwami Arpt,FEW,"[{'cover': 'FEW', 'base': 2500}]",VFR,,,,,,JP,Japan
43,RJSA,2025-11-29 02:06:17.484000+00:00,1764381600,2025-11-29T02:00:00.000Z,4.0,-4.0,270,14.0,6+,1016.0,0,,,METAR,METAR RJSA 290200Z 27014KT 240V320 9999 FEW030 BKN045 04/M04 Q1016,40.733,140.689,196,Aomori Arpt,BKN,"[{'cover': 'FEW', 'base': 3000}, {'cover': 'BKN', 'base': 4500}]",VFR,,,,,,JP,Japan
1501,RJSC,2025-11-29 02:06:17.513000+00:00,1764381600,2025-11-29T02:00:00.000Z,10.0,-1.0,260,11.0,6+,1018.0,0,,,METAR,METAR RJSC 290200Z 26011KT 230V300 9999 FEW035 SCT050 10/M01 Q1018,38.412,140.371,104,Yamagata Arpt,SCT,"[{'cover': 'FEW', 'base': 3500}, {'cover': 'SCT', 'base': 5000}]",VFR,,,,,,JP,Japan
1155,RJSF,2025-11-29 02:06:17.551000+00:00,1764381600,2025-11-29T02:00:00.000Z,9.0,-3.0,310,9.0,6+,1017.0,0,,,METAR,METAR RJSF 290200Z 31009KT 260V350 9999 FEW040 09/M03 Q1017,37.227,140.428,373,Tamakawa/Fukushima Arpt,FEW,"[{'cover': 'FEW', 'base': 4000}]",VFR,,,,,,JP,Japan
2059,RJSH,2025-11-29 01:17:16.900000+00:00,1764378540,2025-11-29T01:09:00.000Z,7.0,-5.0,270,19.0,6+,1015.0,0,,,SPECI,SPECI RJSH 290109Z 27019G29KT 9999 FEW035 SCT050 07/M05 Q1015 RMK 1CU035 3SC050 A2999,40.552,141.467,46,Hachinohe,SCT,"[{'cover': 'FEW', 'base': 3500}, {'cover': 'SCT', 'base': 5000}]",VFR,,29.0,,,,JP,Japan
1817,RJSI,2025-11-29 02:06:17.580000+00:00,1764381600,2025-11-29T02:00:00.000Z,8.0,-3.0,270,9.0,6+,1016.0,0,,,METAR,METAR RJSI 290200Z 27009KT 230V320 9999 FEW030 SCT050 08/M03 Q1016,39.429,141.135,89,Hanamaki Arpt,SCT,"[{'cover': 'FEW', 'base': 3000}, {'cover': 'SCT', 'base': 5000}]",VFR,,,,,,JP,Japan
307,RJSK,2025-11-29 02:06:17.625000+00:00,1764381600,2025-11-29T02:00:00.000Z,7.0,-1.0,320,9.0,6+,1018.0,0,,,METAR,METAR RJSK 290200Z 32009KT 290V360 9999 FEW030 SCT040 BKN050 07/M01 Q1018,39.616,140.219,95,Akita Arpt,BKN,"[{'cover': 'FEW', 'base': 3000}, {'cover': 'SCT', 'base': 4000}, {'cover': 'BKN', 'base': 5000}]",VFR,,,,,,JP,Japan
2854,RJSM,2025-11-29 02:06:17.656000+00:00,1764381600,2025-11-29T02:00:00.000Z,6.0,-3.0,290,17.0,6+,1015.0,1,,,METAR,METAR RJSM 290200Z COR 29017KT 9999 FEW020 BKN040 06/M03 Q1015,40.705,141.372,31,Misawa,BKN,"[{'cover': 'FEW', 'base': 2000}, {'cover': 'BKN', 'base': 4000}]",VFR,,,,,,JP,Japan
2107,RJSN,2025-11-29 02:06:17.695000+00:00,1764381600,2025-11-29T02:00:00.000Z,9.0,0.0,320,5.0,6+,1020.0,0,,,METAR,METAR RJSN 290200Z 32005KT 9999 FEW020 BKN040 09/00 Q1020,37.956,139.121,4,Niigata Arpt,BKN,"[{'cover': 'FEW', 'base': 2000}, {'cover': 'BKN', 'base': 4000}]",VFR,,,,,,JP,Japan
3085,RJSR,2025-11-29 02:06:17.724000+00:00,1764381600,2025-11-29T02:00:00.000Z,7.0,-1.0,270,11.0,6+,1018.0,0,,,METAR,METAR RJSR 290200Z 27011KT 240V310 9999 FEW030 SCT040 07/M01 Q1018,40.192,140.372,83,Odate Noshiro Arpt,SCT,"[{'cover': 'FEW', 'base': 3000}, {'cover': 'SCT', 'base': 4000}]",VFR,,,,,,JP,Japan
3876,RJSS,2025-11-29 02:06:17.754000+00:00,1764381600,2025-11-29T02:00:00.000Z,11.0,-4.0,300,12.0,6+,1017.0,0,,,METAR,METAR RJSS 290200Z 30012KT 250V340 9999 FEW030 11/M04 Q1017,38.14,140.917,5,Sendai Arpt,FEW,"[{'cover': 'FEW', 'base': 3000}]",VFR,,,,,,JP,Japan
4228,RJSY,2025-11-29 02:06:17.781000+00:00,1764381600,2025-11-29T02:00:00.000Z,9.0,0.0,280,8.0,6+,1019.0,0,,,METAR,METAR RJSY 290200Z 28008KT 260V340 9999 FEW035 SCT040 BKN045 09/M00 Q1019,38.812,139.787,17,Shonai Arpt,BKN,"[{'cover': 'FEW', 'base': 3500}, {'cover': 'SCT', 'base': 4000}, {'cover': 'BKN', 'base': 4500}]",VFR,,,,,,JP,Japan
3084,RJTO,2025-11-29 02:06:17.850000+00:00,1764381600,2025-11-29T02:00:00.000Z,14.0,7.0,40,10.0,6+,1017.0,0,,,METAR,METAR RJTO 290200Z 04010KT 9999 FEW030 BKN040 14/07 Q1017,34.782,139.36,37,Oshima Arpt,BKN,"[{'cover': 'FEW', 'base': 3000}, {'cover': 'BKN', 'base': 4000}]",VFR,,,,,,JP,Japan
1816,RJTT,2025-11-29 02:06:17.907000+00:00,1764381600,2025-11-29T02:00:00.000Z,13.0,-1.0,10,8.0,6+,1017.0,16,,,METAR,METAR RJTT 290200Z 01008KT 9999 FEW040 BKN060 13/M01 Q1017 NOSIG,35.553,139.781,5,Tokyo/Haneda Intl,BKN,"[{'cover': 'FEW', 'base': 4000}, {'cover': 'BKN', 'base': 6000}]",VFR,,,,,,JP,Japan
2878,RKJB,2025-11-29 02:04:34.843000+00:00,1764381600,2025-11-29T02:00:00.000Z,12.0,4.0,170,11.0,6+,1018.0,16,,,METAR,METAR RKJB 290200Z 17011KT 140V200 CAVOK 12/04 Q1018 NOSIG,34.991,126.383,16,Muan Intl,CAVOK,[],VFR,,,,,,KR,"Korea, Republic of"
2343,RKJK,2025-11-29 02:06:48.566000+00:00,1764381300,2025-11-29T02:00:00.000Z,8.8,-0.3,130,8.0,10+,1018.0,12,,,METAR,METAR RKJK 290155Z 13008KT 10SM FEW030 09/M00 A3006 RMK AO2A SLP184 WND DATA ESTMD T00881003 $,35.9,126.618,8,Kunsan,FEW,"[{'cover': 'FEW', 'base': 3000}]",VFR,,,1018.4,,,KR,"Korea, Republic of"
4972,RKNY,2025-11-29 02:04:34.870000+00:00,1764381600,2025-11-29T02:00:00.000Z,11.0,-10.0,180,3.0,6+,1015.0,16,,,METAR,METAR RKNY 290200Z 18003KT 130V220 CAVOK 11/M10 Q1015 NOSIG,38.061,128.669,76,Yangyang Intl,CAVOK,[],VFR,,,,,,KR,"Korea, Republic of"
651,RKPC,2025-11-29 02:04:34.726000+00:00,1764381600,2025-11-29T02:00:00.000Z,15.0,2.0,120,5.0,6+,1019.0,16,,,METAR,METAR RKPC 290200Z 12005KT 070V180 9999 FEW035 15/02 Q1019 NOSIG,33.511,126.493,23,Jeju Intl,FEW,"[{'cover': 'FEW', 'base': 3500}]",VFR,,,,,,KR,"Korea, Republic of"
3355,RKPK,2025-11-29 02:04:34.755000+00:00,1764381600,2025-11-29T02:00:00.000Z,8.0,-6.0,50,2.0,6+,1020.0,0,,,METAR,METAR RKPK 290200Z 05002KT CAVOK 08/M06 Q1020,35.179,128.938,3,Busan/Gimhae Intl,CAVOK,[],VFR,,,,,,KR,"Korea, Republic of"
1800,RKSI,2025-11-29 02:04:34.667000+00:00,1764381600,2025-11-29T02:00:00.000Z,8.0,-3.0,130,12.0,6+,1017.0,16,,,METAR,METAR RKSI 290200Z 13012KT 9999 FEW035 08/M03 Q1017 NOSIG,37.469,126.451,7,Seoul/Incheon Intl,FEW,"[{'cover': 'FEW', 'base': 3500}]",VFR,,,,,,KR,"Korea, Republic of"
3140,RKSO,2025-11-29 02:06:48.623000+00:00,1764381300,2025-11-29T02:00:00.000Z,8.7,-3.2,0,0.0,10+,1018.0,78,,,METAR,METAR RKSO 290155Z AUTO 00000KT 10SM CLR 09/M03 A3006 RMK AO2 SLP183 T00871032 FZRANO $,37.091,127.03,10,Osan Arpt,CLR,[],VFR,,,1018.3,,,KR,"Korea, Republic of"
1512,RKSS,2025-11-29 02:04:34.697000+00:00,1764381600,2025-11-29T02:00:00.000Z,6.0,-5.0,110,11.0,6+,1017.0,16,,,METAR,METAR RKSS 290200Z 11011KT 9999 BKN030 06/M05 Q1017 NOSIG,37.558,126.791,18,Seoul/Gimpo Intl,BKN,"[{'cover': 'BKN', 'base': 3000}]",MVFR,,,,,,KR,"Korea, Republic of"
4254,RKTN,2025-11-29 02:04:34.815000+00:00,1764381600,2025-11-29T02:00:00.000Z,5.0,-6.0,280,1.0,6+,1020.0,0,,,METAR,METAR RKTN 290200Z 28001KT CAVOK 05/M06 Q1020,35.894,128.659,25,Daegu,CAVOK,[],VFR,,,,,,KR,"Korea, Republic of"
652,RKTU,2025-11-29 02:04:34.784000+00:00,1764381600,2025-11-29T02:00:00.000Z,4.0,-3.0,160,1.0,6+,1019.0,0,,,METAR,METAR RKTU 290200Z 16001KT CAVOK 04/M03 Q1019,36.717,127.499,46,Cheonju Intl,CAVOK,[],VFR,,,,,,KR,"Korea, Republic of"
3082,ROAH,2025-11-29 02:06:17.981000+00:00,1764381600,2025-11-29T02:00:00.000Z,23.0,13.0,50,10.0,6+,1018.0,0,,,METAR,METAR ROAH 290200Z 05010KT 020V080 9999 FEW047 23/13 Q1018,26.196,127.646,6,Naha Arpt,FEW,"[{'cover': 'FEW', 'base': 4700}]",VFR,,,,,,JP,Japan
956,RODN,2025-11-29 02:06:48.656000+00:00,1764381300,2025-11-29T02:00:00.000Z,23.0,12.3,40,8.0,10+,1018.7,76,,,METAR,METAR RODN 290155Z 04008KT 10SM FEW050 23/12 A3008 RMK AO2A LTG DSNT S SLP188 T02300123 FZRANO $,26.356,127.768,38,Kadena,FEW,"[{'cover': 'FEW', 'base': 5000}]",VFR,,,1018.8,,,JP,Japan
2855,ROMD,2025-11-29 02:06:18.058000+00:00,1764381600,2025-11-29T02:00:00.000Z,24.0,14.0,50,7.0,6+,1017.0,2,,,METAR,METAR ROMD 290200Z AUTO 05007KT 010V090 9999 SCT040 24/14 Q1017,25.847,131.264,45,Minamidaito Arpt,SCT,"[{'cover': 'SCT', 'base': 4000}]",VFR,,,,,,JP,Japan
2857,ROMY,2025-11-29 02:06:18.087000+00:00,1764381600,2025-11-29T02:00:00.000Z,23.0,17.0,50,11.0,6+,1017.0,0,,,METAR,METAR ROMY 290200Z 05011KT 9999 FEW029 BKN090 23/17 Q1017,24.782,125.295,42,Miyakojima/Miyako Arpt,BKN,"[{'cover': 'FEW', 'base': 2900}, {'cover': 'BKN', 'base': 9000}]",VFR,,,,,,JP,Japan
2301,RORK,2025-11-29 02:06:18.122000+00:00,1764381600,2025-11-29T02:00:00.000Z,24.0,14.0,50,7.0,6+,1017.0,2,,,METAR,METAR RORK 290200Z AUTO 05007KT 010V080 9999 FEW044 24/14 Q1017,25.944,131.326,11,Kitadaito Island Arpt,FEW,"[{'cover': 'FEW', 'base': 4400}]",VFR,,,,,,JP,Japan
3908,RORS,2025-11-29 02:06:18.157000+00:00,1764381600,2025-11-29T02:00:00.000Z,24.0,16.0,50,10.0,6+,1017.0,0,,,METAR,METAR RORS 290200Z 05010KT 9999 FEW032 SCT090 24/16 Q1017,24.827,125.145,13,Shimojishima Arpt,SCT,"[{'cover': 'FEW', 'base': 3200}, {'cover': 'SCT', 'base': 9000}]",VFR,,,,,,JP,Japan
4229,RORT,2025-11-29 02:06:18.303000+00:00,1764381600,2025-11-29T02:00:00.000Z,23.0,16.0,50,6.0,6+,1017.0,2,,,METAR,METAR RORT 290200Z AUTO 05006KT 350V090 9999 NSC 23/16 Q1017,24.653,124.674,9,Tarama Arpt,CLR,[],VFR,,,,,,JP,Japan
3662,RORY,2025-11-29 02:06:18.201000+00:00,1764381600,2025-11-29T02:00:00.000Z,22.0,12.0,60,6.0,6+,1018.0,2,,,METAR,METAR RORY 290200Z AUTO 06006KT 010V110 9999 FEW044 22/12 Q1018,27.044,128.4,13,Yoron Island,FEW,"[{'cover': 'FEW', 'base': 4400}]",VFR,,,,,,JP,Japan
3081,ROYN,2025-11-29 02:06:18.257000+00:00,1764381600,2025-11-29T02:00:00.000Z,24.0,15.0,70,10.0,6+,1017.0,2,,,METAR,METAR ROYN 290200Z AUTO 07010KT 9999 NSC 24/15 Q1017,24.467,122.978,21,Yonaguni Arpt,CLR,[],VFR,,,,,,JP,Japan
3923,RPLB,2025-11-29 02:06:54.325000+00:00,1764381600,2025-11-29T02:00:00.000Z,30.0,24.0,50,9.0,6+,1012.0,16,,,METAR,METAR RPLB 290200Z 05009KT 9999 FEW020 SCT080 BKN300 30/24 Q1012 NOSIG RMK A2988,14.794,120.271,19,Olongapo/Subic Bay Intl,BKN,"[{'cover': 'FEW', 'base': 2000}, {'cover': 'SCT', 'base': 8000}, {'cover': 'BKN', 'base': 30000}]",VFR,,,,,,PH,Philippines
897,RPLC,2025-11-29 02:06:55.309000+00:00,1764381600,2025-11-29T02:00:00.000Z,29.0,24.0,20,2.0,6+,1012.0,16,,,METAR,METAR RPLC 290200Z 02002KT 9999 SCT020 BKN100 29/24 Q1012 NOSIG RMK A2988,15.186,120.56,138,Angeles City/Clark Intl,BKN,"[{'cover': 'SCT', 'base': 2000}, {'cover': 'BKN', 'base': 10000}]",VFR,,,,,,PH,Philippines
2320,RPLI,2025-11-29 02:06:54.344000+00:00,1764381600,2025-11-29T02:00:00.000Z,27.0,24.0,340,7.0,6+,1010.0,16,,,METAR,METAR RPLI 290200Z 34007KT 9999 SCT018 OVC210 27/24 Q1010 NOSIG RMK A2983,18.178,120.532,5,Laoag Intl,OVC,"[{'cover': 'SCT', 'base': 1800}, {'cover': 'OVC', 'base': 21000}]",VFR,,,,,,PH,Philippines
2845,RPLL,2025-11-29 02:06:55.259000+00:00,1764381600,2025-11-29T02:00:00.000Z,31.0,24.0,120,8.0,6+,1011.0,16,,,METAR,METAR RPLL 290200Z 12008KT 080V160 9999 FEW025 31/24 Q1011 NOSIG RMK A2985,14.507,121.004,15,Manila/Aquino Intl,FEW,"[{'cover': 'FEW', 'base': 2500}]",VFR,,,,,,PH,Philippines
1145,RPMD,2025-11-29 02:06:54.304000+00:00,1764381600,2025-11-29T02:00:00.000Z,30.0,25.0,80,4.0,6+,1010.0,0,,,METAR,METAR RPMD 290200Z 08004KT 9999 FEW018 30/25 Q1010 RMK A2983,7.125,125.646,19,Davao/Bangoy Intl,FEW,"[{'cover': 'FEW', 'base': 1800}]",VFR,,,,,,PH,Philippines
1494,RPMR,2025-11-29 02:06:54.358000+00:00,1764381600,2025-11-29T02:00:00.000Z,30.0,24.0,120,6.0,6+,1011.0,0,,,METAR,METAR RPMR 290200Z 12006KT 9999 FEW018 SCT250 30/24 Q1011 RMK A2985,6.058,125.096,47,Tambler/Santos Intl,SCT,"[{'cover': 'FEW', 'base': 1800}, {'cover': 'SCT', 'base': 25000}]",VFR,,,,,,PH,Philippines
4946,RPMZ,2025-11-29 02:06:54.377000+00:00,1764381600,2025-11-29T02:00:00.000Z,31.0,25.0,210,4.0,6+,1011.0,0,,,METAR,METAR RPMZ 290200Z 21004KT 130V260 9999 SCT017 BKN300 31/25 Q1011 RMK A2985,6.92,122.063,8,Zamboanga Intl,BKN,"[{'cover': 'SCT', 'base': 1700}, {'cover': 'BKN', 'base': 30000}]",VFR,,,,,,PH,Philippines
911,RPVD,2025-11-29 02:02:54.195000+00:00,1764381600,2025-11-29T02:00:00.000Z,30.0,26.0,40,4.0,6+,1010.0,0,,,METAR,METAR RPVD 290200Z 04004KT 9999 FEW015 BKN070 30/26 Q1010 RMK A2983,9.334,123.297,11,Dumaguete Arpt,BKN,"[{'cover': 'FEW', 'base': 1500}, {'cover': 'BKN', 'base': 7000}]",VFR,,,,,,PH,Philippines
2097,RPVK,2025-11-29 02:06:54.397000+00:00,1764381600,2025-11-29T02:00:00.000Z,30.0,26.0,90,5.0,6+,1011.0,0,,,METAR,METAR RPVK 290200Z 09005KT 060V130 9999 FEW016 SCT240 30/26 Q1011 RMK A2985,11.683,122.383,6,Kalibo Arpt,SCT,"[{'cover': 'FEW', 'base': 1600}, {'cover': 'SCT', 'base': 24000}]",VFR,,,,,,PH,Philippines
609,RPVM,2025-11-29 02:06:55.284000+00:00,1764381600,2025-11-29T02:00:00.000Z,31.0,25.0,VRB,3.0,6+,1011.0,16,,,METAR,METAR RPVM 290200Z VRB03KT 9999 FEW018CB BKN300 31/25 Q1011 NOSIG RMK A2985 CB S,10.308,123.978,9,Mactan-Cebu Intl,BKN,"[{'cover': 'FEW', 'base': 1800}, {'cover': 'BKN', 'base': 30000}]",VFR,,,,,,PH,Philippines
3329,RPVP,2025-11-29 02:06:54.415000+00:00,1764381600,2025-11-29T02:00:00.000Z,30.0,25.0,220,6.0,6+,1011.0,0,,,METAR,METAR RPVP 290200Z 22006KT 9999 FEW019 BKN240 30/25 Q1011 RMK A2985,9.742,118.759,15,Puerto Princesa Intl,BKN,"[{'cover': 'FEW', 'base': 1900}, {'cover': 'BKN', 'base': 24000}]",VFR,,,,,,PH,Philippines
871,SAAC,2025-11-29 02:04:09.982000+00:00,1764381600,2025-11-29T02:00:00.000Z,26.0,18.0,140,10.0,6+,1009.0,0,,,METAR,METAR SAAC 290200Z 14010KT CAVOK 26/18 Q1009,-31.308,-58.016,50,Concordia/Pierreste,CAVOK,[],VFR,,,,,,AR,Argentina
3632,SAAR,2025-11-29 02:04:10.013000+00:00,1764381600,2025-11-29T02:00:00.000Z,22.0,17.0,70,12.0,6+,1010.0,0,,,METAR,METAR SAAR 290200Z 07012KT CAVOK 22/17 Q1010,-32.918,-60.782,24,Rosario Intl,CAVOK,[],VFR,,,,,,AR,Argentina
21,SABE,2025-11-29 02:04:10.047000+00:00,1764381600,2025-11-29T02:00:00.000Z,18.0,14.0,130,14.0,6+,1014.0,16,,,METAR,METAR SABE 290200Z 13014KT 9999 BKN016 18/14 Q1014 NOSIG,-34.559,-58.416,3,Buenos Aires/Newbery Arpt,BKN,"[{'cover': 'BKN', 'base': 1600}]",MVFR,,,,,,AR,Argentina
872,SACO,2025-11-29 02:08:26.425000+00:00,1764381600,2025-11-29T02:00:00.000Z,21.0,17.0,290,3.0,6+,1012.0,0,,,METAR,METAR SACO 290200Z 29003KT 9999 FEW045 FEW050CB 21/17 Q1012 BECMG 5000 -TSRA FEW050CB,-31.324,-64.208,474,Cordoba/Taravella Intl,FEW,"[{'cover': 'FEW', 'base': 4500}, {'cover': 'FEW', 'base': 5000}]",VFR,,,,,,AR,Argentina
1176,SADF,2025-11-29 02:04:10.106000+00:00,1764381600,2025-11-29T02:00:00.000Z,18.0,14.0,130,14.0,6+,1013.0,0,,,METAR,METAR SADF 290200Z 13014KT 9999 BKN021 18/14 Q1013,-34.457,-58.593,4,San Fernando Intl,BKN,"[{'cover': 'BKN', 'base': 2100}]",MVFR,,,,,,AR,Argentina
2558,SADL,2025-11-29 02:04:10.141000+00:00,1764381600,2025-11-29T02:00:00.000Z,14.0,12.0,140,5.0,6+,1015.0,0,,,METAR,METAR SADL 290200Z 14005KT 9999 SCT018 14/12 Q1015,-34.972,-57.895,18,La Plata Arpt,SCT,"[{'cover': 'SCT', 'base': 1800}]",VFR,,,,,,AR,Argentina
1175,SADP,2025-11-29 02:04:10.216000+00:00,1764381600,2025-11-29T02:00:00.000Z,17.0,13.0,110,11.0,6+,1013.0,0,,,METAR,METAR SADP 290200Z 11011KT 9999 FEW025 17/13 Q1013,-34.61,-58.613,19,El Palomar Arpt,FEW,"[{'cover': 'FEW', 'base': 2500}]",VFR,,,,,,AR,Argentina
1177,SAEZ,2025-11-29 02:04:10.246000+00:00,1764381600,2025-11-29T02:00:00.000Z,16.0,13.0,120,9.0,6+,1014.0,16,,,METAR,METAR SAEZ 290200Z 12009KT 9999 FEW017 16/13 Q1014 NOSIG,-34.822,-58.536,16,Buenos Aires/Pistarini Arpt,FEW,"[{'cover': 'FEW', 'base': 1700}]",VFR,,,,,,AR,Argentina
2557,SAME,2025-11-29 02:04:10.285000+00:00,1764381600,2025-11-29T02:00:00.000Z,25.0,16.0,160,5.0,6+,1009.0,0,,,METAR,METAR SAME 290200Z 16005KT 100V210 9999 BKN045 25/16 Q1009,-32.832,-68.793,709,Mendoza/Plumerillo Arpt,BKN,"[{'cover': 'BKN', 'base': 4500}]",VFR,,,,,,AR,Argentina
2291,SAMM,2025-11-29 02:05:06.247000+00:00,1764381600,2025-11-29T02:00:00.000Z,16.0,14.0,360,3.0,6+,1015.0,0,,,METAR,METAR SAMM 290200Z 36003KT 9999 FEW020 16/14 Q1015,-35.481,-69.583,1428,Malargue Arpt,FEW,"[{'cover': 'FEW', 'base': 2000}]",VFR,,,,,,AR,Argentina
20,SAMR,2025-11-29 02:04:10.321000+00:00,1764381600,2025-11-29T02:00:00.000Z,19.0,15.0,160,7.0,6+,1012.0,0,,,METAR,METAR SAMR 290200Z 16007KT CAVOK 19/15 Q1012,-34.585,-68.414,756,San Rafael Arpt,CAVOK,[],VFR,,,,,,AR,Argentina
885,SANC,2025-11-29 02:04:10.353000+00:00,1764381600,2025-11-29T02:00:00.000Z,32.0,14.0,30,20.0,6+,1005.0,0,,,METAR,METAR SANC 290200Z 03020G30KT 9999 FEW050TCU 32/14 Q1005,-28.593,-65.754,468,Catamarca Arpt,FEW,"[{'cover': 'FEW', 'base': 5000}]",VFR,,30.0,,,,AR,Argentina
3877,SANE,2025-11-29 02:04:10.388000+00:00,1764381600,2025-11-29T02:00:00.000Z,32.0,20.0,20,3.0,6+,1005.0,0,,,METAR,METAR SANE 290200Z 02003KT CAVOK 32/20 Q1005,-27.755,-64.3,198,Santiago Del Estero,CAVOK,[],VFR,,,,,,AR,Argentina
1774,SANL,2025-11-29 02:05:06.464000+00:00,1764381600,2025-11-29T02:00:00.000Z,28.0,15.0,230,5.0,6+,1004.0,0,,,METAR,METAR SANL 290200Z 23005KT 9999 FEW040CB SCT045 SCT100 28/15 Q1004,-29.383,-66.795,438,La Rioja/Capt Vincen,SCT,"[{'cover': 'FEW', 'base': 4000}, {'cover': 'SCT', 'base': 4500}, {'cover': 'SCT', 'base': 10000}]",VFR,,,,,,AR,Argentina
4458,SANT,2025-11-29 02:04:10.420000+00:00,1764381600,2025-11-29T02:00:00.000Z,30.0,18.0,80,3.0,4.97,1008.0,0,,,METAR,METAR SANT 290200Z 08003KT 030V120 8000 SCT070 BKN200 30/18 Q1008,-26.841,-65.105,446,Tucuman/Matlenzo Intl,BKN,"[{'cover': 'SCT', 'base': 7000}, {'cover': 'BKN', 'base': 20000}]",MVFR,,,,,,AR,Argentina
4500,SANU,2025-11-29 02:06:40.950000+00:00,1764381600,2025-11-29T02:00:00.000Z,27.0,15.0,180,8.0,6+,1008.0,0,,,METAR,METAR SANU 290200Z 18008KT 9999 FEW045CB 27/15 Q1008,-31.572,-68.418,596,San Juan Arpt,FEW,"[{'cover': 'FEW', 'base': 4500}]",VFR,,,,,,AR,Argentina
4526,SAOR,2025-11-29 02:08:26.455000+00:00,1764381600,2025-11-29T02:00:00.000Z,20.0,19.0,90,8.0,2.49,,0,TSRA,,METAR,METAR SAOR 290200Z 09008KT 4000 TSRA SCT035 FEW040CB SCT050 20/19 Q1009RMK CB OBS TO N AD,-33.73,-65.387,489,Villa Reynolds Arpt,SCT,"[{'cover': 'SCT', 'base': 3500}, {'cover': 'FEW', 'base': 4000}, {'cover': 'SCT', 'base': 5000}]",IFR,,,,,,AR,Argentina
2581,SAOU,2025-11-29 02:07:04.277000+00:00,1764381600,2025-11-29T02:00:00.000Z,24.0,20.0,180,3.0,6+,1007.0,0,,,METAR,METAR SAOU 290200Z 18003KT 9999 BKN040 FEW045 24/20 Q1007,-33.273,-66.356,704,San Luis Arpt,FEW,"[{'cover': 'BKN', 'base': 4000}, {'cover': 'FEW', 'base': 4500}]",VFR,,,,,,AR,Argentina
886,SARC,2025-11-29 02:04:10.477000+00:00,1764381600,2025-11-29T02:00:00.000Z,24.0,21.0,110,6.0,6+,1008.0,0,,,METAR,METAR SARC 290200Z 11006KT CAVOK 24/21 Q1008,-27.445,-58.762,60,Corrientes Arpt,CAVOK,[],VFR,,,,,,AR,Argentina
3636,SARE,2025-11-29 02:04:10.507000+00:00,1764381600,2025-11-29T02:00:00.000Z,25.0,19.0,90,5.0,6+,1008.0,0,,,METAR,METAR SARE 290200Z 09005KT 060V130 CAVOK 25/19 Q1008,-27.45,-59.056,52,Resistencia Arpt,CAVOK,[],VFR,,,,,,AR,Argentina
1178,SARF,2025-11-29 02:04:10.535000+00:00,1764381600,2025-11-29T02:00:00.000Z,23.0,21.0,360,2.0,6+,1009.0,0,,,METAR,METAR SARF 290200Z 36002KT CAVOK 23/21 Q1009,-26.213,-58.228,65,Formosa Intl,CAVOK,[],VFR,,,,,,AR,Argentina
1776,SARI,2025-11-29 02:04:10.565000+00:00,1764381600,2025-11-29T02:00:00.000Z,25.0,23.0,100,3.0,6+,1010.0,0,,,METAR,METAR SARI 290200Z 10003KT CAVOK 25/23 Q1010,-25.737,-54.473,268,Puerto Iguazú Intl,CAVOK,[],VFR,,,,,,AR,Argentina
3365,SARP,2025-11-29 02:04:10.590000+00:00,1764381600,2025-11-29T02:00:00.000Z,26.0,23.0,290,3.0,6+,1010.0,0,,,METAR,METAR SARP 290200Z 29003KT CAVOK 26/23 Q1010,-27.386,-55.969,123,Posadas Arpt,CAVOK,[],VFR,,,,,,AR,Argentina
3909,SASA,2025-11-29 02:04:10.619000+00:00,1764381600,2025-11-29T02:00:00.000Z,25.0,17.0,VRB,2.0,6+,1014.0,0,,,METAR,METAR SASA 290200Z VRB02KT 9999 SCT060 25/17 Q1014,-24.856,-65.486,1235,Salta/Guemes Arpt,SCT,"[{'cover': 'SCT', 'base': 6000}]",VFR,,,,,,AR,Argentina
2079,SASJ,2025-11-29 02:04:10.648000+00:00,1764381600,2025-11-29T02:00:00.000Z,26.0,18.0,VRB,2.0,6+,1011.0,0,,,METAR,METAR SASJ 290200Z VRB02KT CAVOK 26/18 Q1011,-24.387,-65.098,913,Jujuy/El Cadilal Arpt,CAVOK,[],VFR,,,,,,AR,Argentina
887,SAVC,2025-11-29 02:04:10.712000+00:00,1764381600,2025-11-29T02:00:00.000Z,14.0,9.0,150,4.0,6+,1012.0,0,,,METAR,METAR SAVC 290200Z 15004KT CAVOK 14/09 Q1012,-45.79,-67.471,58,Comodoro Rivadavia Arpt,CAVOK,[],VFR,,,,,,AR,Argentina
1179,SAVE,2025-11-29 02:04:10.738000+00:00,1764381600,2025-11-29T02:00:00.000Z,19.0,7.0,210,8.0,6+,1010.0,0,VCTS,,METAR,METAR SAVE 290200Z 21008KT 180V260 9999 VCTS SCT060TCU FEW070CB 19/07 Q1010,-42.906,-71.147,799,Esquel Arpt,FEW,"[{'cover': 'SCT', 'base': 6000}, {'cover': 'FEW', 'base': 7000}]",VFR,,,,,,AR,Argentina
3601,SAVT,2025-11-29 02:04:10.767000+00:00,1764381600,2025-11-29T02:00:00.000Z,12.0,7.0,30,12.0,6+,1017.0,0,,,METAR,METAR SAVT 290200Z 03012KT CAVOK 12/07 Q1017,-43.209,-65.282,37,Trelew/Almirante Zar Intl,CAVOK,[],VFR,,,,,,AR,Argentina
4456,SAVV,2025-11-29 02:04:10.795000+00:00,1764381600,2025-11-29T02:00:00.000Z,14.0,8.0,60,6.0,6+,1018.0,0,,,METAR,METAR SAVV 290200Z 06006KT 010V110 CAVOK 14/08 Q1018,-40.867,-63.001,4,Viedma/Castello,CAVOK,[],VFR,,,,,,AR,Argentina
1487,SAWC,2025-11-29 02:04:10.874000+00:00,1764381600,2025-11-29T02:00:00.000Z,12.0,6.0,VRB,3.0,6+,1016.0,0,,,METAR,METAR SAWC 290200Z VRB03KT CAVOK 12/06 Q1016,-50.284,-72.052,204,El Calafate Arpt,CAVOK,[],VFR,,,,,,AR,Argentina
3602,SAWE,2025-11-29 02:04:10.903000+00:00,1764381600,2025-11-29T02:00:00.000Z,6.0,-1.0,260,14.0,6+,1011.0,0,,,METAR,METAR SAWE 290200Z 26014KT CAVOK 06/M01 Q1011,-53.781,-67.754,22,Rio Grande/Quijada Intl,CAVOK,[],VFR,,,,,,AR,Argentina
3603,SAWG,2025-11-29 02:04:10.927000+00:00,1764381600,2025-11-29T02:00:00.000Z,10.0,0.0,200,19.0,6+,1015.0,0,,,METAR,METAR SAWG 290200Z 20019KT CAVOK 10/M00 Q1015,-51.609,-69.306,18,Rio Gallegos Intl,CAVOK,[],VFR,,,,,,AR,Argentina
4516,SAWH,2025-11-29 02:04:10.957000+00:00,1764381600,2025-11-29T02:00:00.000Z,5.0,1.0,240,30.0,6+,1011.0,0,-RA,,METAR,METAR SAWH 290200Z 24030G42KT 9999 -RA SCT020 BKN040 05/01 Q1011,-54.844,-68.308,22,Ushuaia/Malvinas Arpt,BKN,"[{'cover': 'SCT', 'base': 2000}, {'cover': 'BKN', 'base': 4000}]",VFR,,42.0,,,,AR,Argentina
345,SAZB,2025-11-29 02:04:10.988000+00:00,1764381600,2025-11-29T02:00:00.000Z,14.0,9.0,70,15.0,6+,1015.0,0,,,METAR,METAR SAZB 290200Z 07015KT CAVOK 14/09 Q1015,-38.725,-62.169,77,Bahia Blanca/Espora Arpt,CAVOK,[],VFR,,,,,,AR,Argentina
2556,SAZM,2025-11-29 02:04:11.017000+00:00,1764381600,2025-11-29T02:00:00.000Z,12.0,9.0,120,8.0,6+,1017.0,0,,,METAR,METAR SAZM 290200Z 12008KT 9999 FEW030 12/09 Q1017,-37.932,-57.581,17,Mar del Plata Arpt,FEW,"[{'cover': 'FEW', 'base': 3000}]",VFR,,,,,,AR,Argentina
3077,SAZN,2025-11-29 02:04:11.045000+00:00,1764381600,2025-11-29T02:00:00.000Z,18.0,12.0,180,4.0,6+,1013.0,0,,,METAR,METAR SAZN 290200Z 18004KT 9999 SCT040 FEW050TCU OVC050 18/12 Q1013,-38.95,-68.141,273,Neuquen Arpt,OVC,"[{'cover': 'SCT', 'base': 4000}, {'cover': 'FEW', 'base': 5000}, {'cover': 'OVC', 'base': 5000}]",VFR,,,,,,AR,Argentina
3635,SAZR,2025-11-29 02:04:11.083000+00:00,1764381600,2025-11-29T02:00:00.000Z,21.0,16.0,70,11.0,6+,1012.0,0,,,METAR,METAR SAZR 290200Z 07011KT CAVOK 21/16 Q1012,-36.593,-64.28,190,Santa Rosa Arpt,CAVOK,[],VFR,,,,,,AR,Argentina
346,SAZS,2025-11-29 02:04:09.938000+00:00,1764381600,2025-11-29T02:00:00.000Z,14.0,5.0,130,2.0,6+,1014.0,0,VCTS,,METAR,METAR SAZS 290200Z 13002KT 9999 VCTS SCT048 FEW050TCU 14/05 Q1014,-41.151,-71.157,843,San Carlos de Bariloche Arpt,FEW,"[{'cover': 'SCT', 'base': 4800}, {'cover': 'FEW', 'base': 5000}]",VFR,,,,,,AR,Argentina
10,SBAR,2025-11-29 01:58:07.175000+00:00,1764381600,2025-11-29T02:00:00.000Z,26.0,23.0,80,6.0,6+,1012.0,0,,,METAR,METAR SBAR 290200Z 08006KT 9999 BKN017 26/23 Q1012,-10.984,-37.07,4,Aracaju/Santa Maria Intl,BKN,"[{'cover': 'BKN', 'base': 1700}]",MVFR,,,,,,BR,Brazil
316,SBBE,2025-11-29 01:51:29.487000+00:00,1764381600,2025-11-29T02:00:00.000Z,27.0,23.0,70,7.0,6+,1010.0,0,,,METAR,METAR SBBE 290200Z 07007KT 9999 BKN035 27/23 Q1010,-1.379,-48.476,16,Belém/Val de Cans Arpt,BKN,"[{'cover': 'BKN', 'base': 3500}]",VFR,,,,,,BR,Brazil
338,SBBG,2025-11-29 02:01:21.358000+00:00,1764381600,2025-11-29T02:00:00.000Z,20.0,16.0,100,6.0,6+,1012.0,2,,,METAR,METAR SBBG 290200Z AUTO 10006KT CAVOK 20/16 Q1012,-31.391,-54.112,182,Bage/Kraemer Arpt,CAVOK,[],VFR,,,,,,BR,Brazil
330,SBBR,2025-11-29 01:54:00.027000+00:00,1764381600,2025-11-29T02:00:00.000Z,22.0,20.0,140,3.0,6+,1016.0,0,VCTS,,METAR,METAR SBBR 290200Z 14003KT 120V180 9999 VCTS BKN040 FEW045CB 22/20 Q1016,-15.867,-47.933,1051,Brasília Intl,FEW,"[{'cover': 'BKN', 'base': 4000}, {'cover': 'FEW', 'base': 4500}]",VFR,,,,,,BR,Brazil
648,SBBV,2025-11-29 02:01:24.117000+00:00,1764381600,2025-11-29T02:00:00.000Z,25.0,24.0,70,14.0,3.73,1010.0,0,-SHRA,,METAR,METAR SBBV 290200Z 07014KT 6000 -SHRA SCT020 FEW030TCU OVC040 25/24 Q1010,2.846,-60.69,80,Boa Vista Arpt,OVC,"[{'cover': 'SCT', 'base': 2000}, {'cover': 'FEW', 'base': 3000}, {'cover': 'OVC', 'base': 4000}]",MVFR,,,,,,BR,Brazil
918,SBCF,2025-11-29 01:50:37+00:00,1764381600,2025-11-29T02:00:00.000Z,22.0,17.0,70,4.0,6+,1015.0,0,,,METAR,METAR SBCF 290200Z 07004KT CAVOK 22/17 Q1015,-19.635,-43.966,825,Belo Horizonte/Neves Intl,CAVOK,[],VFR,,,,,,BR,Brazil
636,SBCG,2025-11-29 01:54:27.309000+00:00,1764381600,2025-11-29T02:00:00.000Z,28.0,14.0,90,7.0,6+,1011.0,0,,,METAR,METAR SBCG 290200Z 09007KT CAVOK 28/14 Q1011,-20.469,-54.672,556,Campo Grande Intl,CAVOK,[],VFR,,,,,,BR,Brazil
877,SBCT,2025-11-29 01:58:04.127000+00:00,1764381600,2025-11-29T02:00:00.000Z,17.0,16.0,340,4.0,6+,1015.0,0,,,METAR,METAR SBCT 290200Z 34004KT 9999 FEW015 BKN045 17/16 Q1015,-25.529,-49.176,914,Curitiba/Pena Intl,BKN,"[{'cover': 'FEW', 'base': 1500}, {'cover': 'BKN', 'base': 4500}]",VFR,,,,,,BR,Brazil
632,SBCY,2025-11-29 01:59:09.895000+00:00,1764381600,2025-11-29T02:00:00.000Z,25.0,23.0,240,9.0,6+,1010.0,0,,,METAR,METAR SBCY 290200Z 24009KT 9999 FEW020 BKN100 25/23 Q1010,-15.653,-56.116,182,Cuiabá/Rondon Arpt,BKN,"[{'cover': 'FEW', 'base': 2000}, {'cover': 'BKN', 'base': 10000}]",VFR,,,,,,BR,Brazil
920,SBCZ,2025-11-29 02:06:08.290000+00:00,1764381600,2025-11-29T02:00:00.000Z,24.0,23.0,0,0.0,6+,1010.0,0,,,METAR,METAR SBCZ 290200Z 00000KT CAVOK 24/23 Q1010,-7.597,-72.774,193,Cruzeiro Do Sul Intl,CAVOK,[],VFR,,,,,,BR,Brazil
2546,SBEG,2025-11-29 01:52:59.329000+00:00,1764381600,2025-11-29T02:00:00.000Z,26.0,25.0,240,2.0,6+,1009.0,0,,,METAR,METAR SBEG 290200Z 24002KT CAVOK 26/25 Q1009,-3.039,-60.05,69,Manaus/Gomes Intl,CAVOK,[],VFR,,,,,,BR,Brazil
1806,SBFI,2025-11-29 01:59:56.453000+00:00,1764381600,2025-11-29T02:00:00.000Z,24.0,23.0,80,1.0,6+,1009.0,0,,,METAR,METAR SBFI 290200Z 08001KT CAVOK 24/23 Q1009,-25.595,-54.488,233,Foz do Iguacu Arpt,CAVOK,[],VFR,,,,,,BR,Brazil
1132,SBFL,2025-11-29 01:58:24.933000+00:00,1764381600,2025-11-29T02:00:00.000Z,20.0,19.0,310,6.0,6+,1010.0,0,,,METAR,METAR SBFL 290200Z 31006KT CAVOK 20/19 Q1010,-27.671,-48.547,5,Florianopolis Intl,CAVOK,[],VFR,,,,,,BR,Brazil
1153,SBFN,2025-11-29 02:03:01.366000+00:00,1764381600,2025-11-29T02:00:00.000Z,26.0,21.0,120,12.0,6+,1012.0,2,,,METAR,METAR SBFN 290200Z AUTO 12012KT 090V150 9999 FEW020 26/21 Q1012,-3.855,-32.423,52,Fernando de Noronha Arpt,FEW,"[{'cover': 'FEW', 'base': 2000}]",VFR,,,,,,BR,Brazil
1160,SBFZ,2025-11-29 01:52:02.270000+00:00,1764381600,2025-11-29T02:00:00.000Z,27.0,23.0,100,13.0,6+,1011.0,0,,,METAR,METAR SBFZ 290200Z 10013KT 9999 BKN020 27/23 Q1011,-3.776,-38.533,32,Fortaleza/Martins Intl,BKN,"[{'cover': 'BKN', 'base': 2000}]",MVFR,,,,,,BR,Brazil
1489,SBGL,2025-11-29 01:58:31.968000+00:00,1764381600,2025-11-29T02:00:00.000Z,23.0,21.0,310,6.0,6+,1011.0,0,,,METAR,METAR SBGL 290200Z 31006KT 9999 FEW010 SCT030 BKN050 23/21 Q1011,-22.815,-43.261,3,Rio de Janeiro/Galeão Intl,BKN,"[{'cover': 'FEW', 'base': 1000}, {'cover': 'SCT', 'base': 3000}, {'cover': 'BKN', 'base': 5000}]",VFR,,,,,,BR,Brazil
1528,SBGO,2025-11-29 01:58:32.369000+00:00,1764381600,2025-11-29T02:00:00.000Z,23.0,18.0,0,0.0,6+,1014.0,0,,,METAR,METAR SBGO 290200Z 00000KT CAVOK 23/18 Q1014,-16.632,-49.221,740,Goiania/Genoveva Arpt,CAVOK,[],VFR,,,,,,BR,Brazil
1491,SBGR,2025-11-29 01:58:07.205000+00:00,1764381600,2025-11-29T02:00:00.000Z,18.0,16.0,70,7.0,4.35,1014.0,0,,,METAR,METAR SBGR 290200Z 07007KT 7000 NSC 18/16 Q1014,-23.432,-46.469,745,Sao Paulo Intl,CLR,[],MVFR,,,,,,BR,Brazil
2080,SBJP,2025-11-29 01:56:07.209000+00:00,1764381600,2025-11-29T02:00:00.000Z,26.0,23.0,100,7.0,6+,1013.0,0,,,METAR,METAR SBJP 290200Z 10007KT 9999 FEW020 26/23 Q1013,-7.148,-34.951,66,Joao Pessoa/Pinto Arpt,FEW,"[{'cover': 'FEW', 'base': 2000}]",VFR,,,,,,BR,Brazil
4464,SBKP,2025-11-29 01:55:53.768000+00:00,1764381600,2025-11-29T02:00:00.000Z,22.0,14.0,110,7.0,6+,1013.0,0,,,METAR,METAR SBKP 290200Z 11007KT CAVOK 22/14 Q1013,-23.007,-47.135,659,Campinas/Viracopos Arpt,CAVOK,[],VFR,,,,,,BR,Brazil
2315,SBLO,2025-11-29 02:00:24.067000+00:00,1764381600,2025-11-29T02:00:00.000Z,25.0,15.0,240,3.0,6+,1012.0,0,,,METAR,METAR SBLO 290200Z 24003KT CAVOK 25/15 Q1012,-23.334,-51.13,563,Londrina Arpt,CAVOK,[],VFR,,,,,,BR,Brazil
2573,SBMA,2025-11-29 01:56:41.768000+00:00,1764381600,2025-11-29T02:00:00.000Z,26.0,24.0,220,3.0,6+,1008.0,0,,,METAR,METAR SBMA 290200Z 22003KT CAVOK 26/24 Q1008,-5.368,-49.137,110,Marabá Arpt,CAVOK,[],VFR,,,,,,BR,Brazil
3357,SBMN,2025-11-29 01:52:29.167000+00:00,1764381600,2025-11-29T02:00:00.000Z,27.0,25.0,220,3.0,6+,1009.0,0,,,METAR,METAR SBMN 290200Z 22003KT 180V260 9999 FEW025 27/25 Q1009,-3.146,-59.986,71,Manaus/Ponta Peleda,FEW,"[{'cover': 'FEW', 'base': 2500}]",VFR,,,,,,BR,Brazil
2597,SBMO,2025-11-29 01:51:41.051000+00:00,1764381600,2025-11-29T02:00:00.000Z,24.0,23.0,90,6.0,6+,1013.0,0,,,METAR,METAR SBMO 290200Z 09006KT 9999 SCT020 24/23 Q1013,-9.511,-35.792,116,Maceió/Palmares Arpt,SCT,"[{'cover': 'SCT', 'base': 2000}]",VFR,,,,,,BR,Brazil
2569,SBMQ,2025-11-29 01:59:34.021000+00:00,1764381600,2025-11-29T02:00:00.000Z,27.0,24.0,360,9.0,6+,1009.0,0,,,METAR,METAR SBMQ 290200Z 36009KT CAVOK 27/24 Q1009,0.051,-51.072,15,Macapá Intl,CAVOK,[],VFR,,,,,,BR,Brazil
3071,SBNF,2025-11-29 01:58:24.907000+00:00,1764381600,2025-11-29T02:00:00.000Z,20.0,19.0,360,2.0,6+,1010.0,0,,,METAR,METAR SBNF 290200Z 36002KT 9999 FEW015 SCT100 20/19 Q1010,-26.88,-48.651,5,Navegantes Intl,SCT,"[{'cover': 'FEW', 'base': 1500}, {'cover': 'SCT', 'base': 10000}]",VFR,,,,,,BR,Brazil
3083,SBOI,2025-11-29 01:58:24.876000+00:00,1764381600,2025-11-29T02:00:00.000Z,25.0,23.0,0,0.0,6+,1011.0,2,,,METAR,METAR SBOI 290200Z AUTO 00000KT CAVOK 25/23 Q1011,3.861,-51.796,15,Oiapoque Arpt,CAVOK,[],VFR,,,,,,BR,Brazil
3363,SBPA,2025-11-29 01:53:32.889000+00:00,1764381600,2025-11-29T02:00:00.000Z,24.0,19.0,170,5.0,6+,1010.0,0,,,METAR,METAR SBPA 290200Z 17005KT 120V250 CAVOK 24/19 Q1010,-29.994,-51.171,3,Porto Alegre/Filho Intl,CAVOK,[],VFR,,,,,,BR,Brazil
3326,SBPJ,2025-11-29 01:58:04.167000+00:00,1764381600,2025-11-29T02:00:00.000Z,27.0,24.0,170,4.0,6+,1010.0,0,,,METAR,METAR SBPJ 290200Z 17004KT 9999 FEW025 BKN100 27/24 Q1010,-10.291,-48.357,226,Palmas/Rodrigues Arpt,BKN,"[{'cover': 'FEW', 'base': 2500}, {'cover': 'BKN', 'base': 10000}]",VFR,,,,,,BR,Brazil
3360,SBPL,2025-11-29 01:55:57.638000+00:00,1764381600,2025-11-29T02:00:00.000Z,29.0,15.0,120,9.0,6+,1011.0,0,,,METAR,METAR SBPL 290200Z 12009KT CAVOK 29/15 Q1011,-9.367,-40.565,386,Petrolina Arpt,CAVOK,[],VFR,,,,,,BR,Brazil
318,SBPS,2025-11-29 01:52:41.283000+00:00,1764381600,2025-11-29T02:00:00.000Z,24.0,23.0,20,4.0,6+,1013.0,0,,,METAR,METAR SBPS 290200Z 02004KT 9999 SCT015 24/23 Q1013,-16.439,-39.081,44,Porto Seguro Arpt,SCT,"[{'cover': 'SCT', 'base': 1500}]",VFR,,,,,,BR,Brazil
3364,SBPV,2025-11-29 01:55:58.568000+00:00,1764381600,2025-11-29T02:00:00.000Z,25.0,24.0,0,0.0,6+,1009.0,0,,,METAR,METAR SBPV 290200Z 00000KT CAVOK 25/24 Q1009 RETS,-8.708,-63.901,89,Porto Velho Intl,CAVOK,[],VFR,,,,,,BR,Brazil
3637,SBRB,2025-11-29 01:58:24.959000+00:00,1764381600,2025-11-29T02:00:00.000Z,24.0,23.0,90,1.0,6+,1010.0,0,,,METAR,METAR SBRB 290200Z 09001KT 9999 FEW030 24/23 Q1010,-9.867,-67.897,190,Rio Branco Intl,FEW,"[{'cover': 'FEW', 'base': 3000}]",VFR,,,,,,BR,Brazil
3638,SBRF,2025-11-29 01:58:07.145000+00:00,1764381600,2025-11-29T02:00:00.000Z,27.0,22.0,120,11.0,6+,1012.0,0,,,METAR,METAR SBRF 290200Z 12011KT 9999 SCT021 27/22 Q1012,-8.126,-34.923,10,Recife Arpt,SCT,"[{'cover': 'SCT', 'base': 2100}]",VFR,,,,,,BR,Brazil
3873,SBRJ,2025-11-29 01:59:52.900000+00:00,1764381600,2025-11-29T02:00:00.000Z,23.0,22.0,340,10.0,6+,1010.0,0,,,METAR,METAR SBRJ 290200Z 34010KT 9999 BKN010 OVC050 23/22 Q1010 RETS,-22.91,-43.163,6,Rio de Janeiro/Dumont Arpt,OVC,"[{'cover': 'BKN', 'base': 1000}, {'cover': 'OVC', 'base': 5000}]",MVFR,,,,,,BR,Brazil
3612,SBRP,2025-11-29 01:56:07.302000+00:00,1764381600,2025-11-29T02:00:00.000Z,20.0,12.0,20,3.0,6+,1012.0,0,,,METAR,METAR SBRP 290200Z 02003KT CAVOK 20/12 Q1012,-21.134,-47.774,550,Ribeirão Preto/Lopes Arpt,CAVOK,[],VFR,,,,,,BR,Brazil
2859,SBSG,2025-11-29 01:52:29.789000+00:00,1764381600,2025-11-29T02:00:00.000Z,24.0,23.0,130,3.0,6+,1013.0,0,,,METAR,METAR SBSG 290200Z 13003KT 9999 SCT020 24/23 Q1013,-5.768,-35.376,83,Natal/Alves Intl,SCT,"[{'cover': 'SCT', 'base': 2000}]",VFR,,,,,,BR,Brazil
3897,SBSJ,2025-11-29 01:53:38.829000+00:00,1764381600,2025-11-29T02:00:00.000Z,18.0,16.0,70,3.0,6+,1014.0,0,,,METAR,METAR SBSJ 290200Z 07003KT CAVOK 18/16 Q1014,-23.229,-45.861,640,Sao Jose dos Campos Arpt,CAVOK,[],VFR,,,,,,BR,Brazil
3918,SBSL,2025-11-29 01:51:23.947000+00:00,1764381600,2025-11-29T02:00:00.000Z,28.0,23.0,70,12.0,6+,1009.0,0,,,METAR,METAR SBSL 290200Z 07012KT 9999 SCT025 28/23 Q1009,-2.585,-44.234,53,São Luís/Machado Intl,SCT,"[{'cover': 'SCT', 'base': 2500}]",VFR,,,,,,BR,Brazil
3891,SBSN,2025-11-29 01:59:28.911000+00:00,1764381600,2025-11-29T02:00:00.000Z,29.0,25.0,120,5.0,6+,1008.0,0,,,METAR,METAR SBSN 290200Z 12005KT CAVOK 29/25 Q1008,-2.423,-54.789,57,Santarem Intl,CAVOK,[],VFR,,,,,,BR,Brazil
593,SBSP,2025-11-29 02:06:10.922000+00:00,1764381720,2025-11-29T02:02:00.000Z,21.0,16.0,110,3.0,6+,1015.0,0,,,SPECI,SPECI SBSP 290202Z 11003KT 080V140 CAVOK 21/16 Q1015,-23.627,-46.655,802,Sao Paulo/Congonhas,CAVOK,[],VFR,,,,,,BR,Brazil
3919,SBSV,2025-11-29 01:51:35.566000+00:00,1764381600,2025-11-29T02:00:00.000Z,26.0,22.0,70,11.0,6+,1012.0,0,,,METAR,METAR SBSV 290200Z 07011KT 9999 FEW017 SCT060 26/22 Q1012,-12.911,-38.331,9,Salvador/Magalhães Intl,SCT,"[{'cover': 'FEW', 'base': 1700}, {'cover': 'SCT', 'base': 6000}]",VFR,,,,,,BR,Brazil
4238,SBTE,2025-11-29 01:56:41.824000+00:00,1764381600,2025-11-29T02:00:00.000Z,30.0,21.0,350,9.0,6+,1008.0,0,,,METAR,METAR SBTE 290200Z 35009KT 9999 FEW020 30/21 Q1008,-5.06,-42.824,60,Teresina Arpt,FEW,"[{'cover': 'FEW', 'base': 2000}]",VFR,,,,,,BR,Brazil
4496,SBVT,2025-11-29 01:57:50.059000+00:00,1764381600,2025-11-29T02:00:00.000Z,23.0,20.0,30,8.0,6+,1012.0,0,,,METAR,METAR SBVT 290200Z 03008KT 9999 FEW020 23/20 Q1012,-20.258,-40.286,4,Vitória/Salles Arpt,FEW,"[{'cover': 'FEW', 'base': 2000}]",VFR,,,,,,BR,Brazil
9,SCAR,2025-11-29 02:01:22.004000+00:00,1764381600,2025-11-29T02:00:00.000Z,19.0,13.0,90,3.0,6+,1015.0,0,,,METAR,METAR SCAR 290200Z 09003KT CAVOK 19/13 Q1015,-18.351,-70.336,57,Arica/Chacalluta Arpt,CAVOK,[],VFR,,,,,,CL,Chile
884,SCAT,2025-11-29 02:01:21.968000+00:00,1764381600,2025-11-29T02:00:00.000Z,15.0,12.0,200,6.0,1.24,1014.0,2,,,METAR,METAR SCAT 290200Z AUTO 20006KT //// R17/P2000N NCD 15/12 Q1014,-27.262,-70.774,209,Desierto Atacama Arpt,CLR,[],IFR,,,,,,CL,Chile
357,SCBA,2025-11-29 01:59:25.678000+00:00,1764381540,2025-11-29T02:00:00.000Z,18.0,8.0,120,5.0,6+,1011.0,2,,,METAR,METAR SCBA 290159Z AUTO 12005KT 070V170 9999 FEW015/// SCT081/// OVC096/// 18/08 Q1011,-45.913,-71.694,516,Balmaceda/Vidal Arpt,OVC,"[{'cover': 'FEW', 'base': 1500}, {'cover': 'SCT', 'base': 8100}, {'cover': 'OVC', 'base': 9600}]",VFR,,,,,,CL,Chile
594,SCCF,2025-11-29 02:01:21.864000+00:00,1764381600,2025-11-29T02:00:00.000Z,13.0,-15.0,VRB,4.0,6+,1025.0,0,,,METAR,METAR SCCF 290200Z VRB04KT CAVOK 13/M15 Q1025,-22.496,-68.905,2290,Calama/El Loa Intl,CAVOK,[],VFR,,,,,,CL,Chile
4793,SCCH,2025-11-29 02:01:21.838000+00:00,1764381600,2025-11-29T02:00:00.000Z,13.0,8.0,VRB,2.0,6+,1015.0,2,,,METAR,METAR SCCH 290200Z AUTO VRB02KT CAVOK 13/08 Q1015,-36.583,-72.031,148,Chillan/OHiggins Arpt,CAVOK,[],VFR,,,,,,CL,Chile
3304,SCCI,2025-11-29 01:56:43.417000+00:00,1764381600,2025-11-29T02:00:00.000Z,7.0,0.0,260,14.0,6+,1016.0,16,,,METAR,METAR SCCI 290200Z 26014KT 9999 FEW040 07/00 Q1016 NOSIG,-53.003,-70.855,37,Punta Arenas Arpt,FEW,"[{'cover': 'FEW', 'base': 4000}]",VFR,,,,,,CL,Chile
1808,SCDA,2025-11-29 02:01:22.060000+00:00,1764381600,2025-11-29T02:00:00.000Z,19.0,14.0,210,10.0,6+,1014.0,0,,,METAR,METAR SCDA 290200Z 21010KT 9999 OVC031 19/14 Q1014,-20.535,-70.181,41,Iquique/Diego Aracena Arpt,OVC,"[{'cover': 'OVC', 'base': 3100}]",VFR,,,,,,CL,Chile
3613,SCEL,2025-11-29 01:56:04.212000+00:00,1764381600,2025-11-29T02:00:00.000Z,16.0,8.0,170,9.0,6+,1015.0,16,,,METAR,METAR SCEL 290200Z 17009KT CAVOK 16/08 Q1015 NOSIG,-33.393,-70.786,478,Santiago/Benítez Intl,CAVOK,[],VFR,,,,,,CL,Chile
3,SCFA,2025-11-29 02:01:22.102000+00:00,1764381600,2025-11-29T02:00:00.000Z,18.0,12.0,190,7.0,6+,1014.0,16,,,METAR,METAR SCFA 290200Z 19007KT 9999 BKN033 18/12 Q1014 NOSIG,-23.45,-70.441,113,Antofagasta/Sabella Arpt,BKN,"[{'cover': 'BKN', 'base': 3300}]",VFR,,,,,,CL,Chile
1187,SCFT,2025-11-29 02:01:22.158000+00:00,1764381600,2025-11-29T02:00:00.000Z,20.0,9.0,280,6.0,6+,1010.0,2,,,METAR,METAR SCFT 290200Z AUTO 28006KT 200V360 9999 BKN140/// 20/09 Q1010,-43.189,-71.853,345,Futaleufú Arpt,BKN,"[{'cover': 'BKN', 'base': 14000}]",VFR,,,,,,CL,Chile
4794,SCGZ,2025-11-29 02:01:25.470000+00:00,1764381600,2025-11-29T02:00:00.000Z,6.0,-1.0,250,17.0,6+,1011.0,2,,,METAR,METAR SCGZ 290200Z AUTO 25017G29KT 220V280 9999 OVC039/// 06/M01 Q1011,-54.932,-67.631,21,Guardiamarina/Zahart,OVC,"[{'cover': 'OVC', 'base': 3900}]",VFR,,29.0,,,,CL,Chile
642,SCIE,2025-11-29 02:01:21.728000+00:00,1764381600,2025-11-29T02:00:00.000Z,16.0,14.0,20,11.0,6+,1014.0,0,,,METAR,METAR SCIE 290200Z 02011KT 9999 FEW011 16/14 Q1014,-36.773,-73.063,8,Concepcion/Sur Intl,FEW,"[{'cover': 'FEW', 'base': 1100}]",VFR,,,,,,CL,Chile
1810,SCIP,2025-11-29 02:01:21.809000+00:00,1764381600,2025-11-29T02:00:00.000Z,23.0,18.0,VRB,5.0,6+,1022.0,16,,,METAR,METAR SCIP 290200Z VRB05KT 9999 FEW025 23/18 Q1022 NOSIG,-27.161,-109.427,48,Pascua Island Arpt,FEW,"[{'cover': 'FEW', 'base': 2500}]",VFR,,,,,,CL,Chile
4978,SCJO,2025-11-29 02:01:22.123000+00:00,1764381600,2025-11-29T02:00:00.000Z,17.0,11.0,50,4.0,6+,1013.0,2,,,METAR,METAR SCJO 290200Z AUTO 05004KT 020V090 9999 BKN065/// 17/11 Q1013,-40.605,-73.061,61,Osorno/Siebert Arpt,BKN,"[{'cover': 'BKN', 'base': 6500}]",VFR,,,,,,CL,Chile
2593,SCPQ,2025-11-29 02:01:22.141000+00:00,1764381600,2025-11-29T02:00:00.000Z,13.0,11.0,20,4.0,6+,1013.0,2,,,METAR,METAR SCPQ 290200Z AUTO 02004KT CAVOK 13/11 Q1013,-42.347,-73.718,166,Monopulli Arpt,CAVOK,[],VFR,,,,,,CL,Chile
4980,SCQP,2025-11-29 02:01:21.699000+00:00,1764381600,2025-11-29T02:00:00.000Z,15.0,12.0,290,5.0,6+,1013.0,2,,,METAR,METAR SCQP 290200Z AUTO 29005KT CAVOK 15/12 Q1013,-38.925,-72.648,97,Temuco Arpt,CAVOK,[],VFR,,,,,,CL,Chile
2594,SCSE,2025-11-29 02:01:21.674000+00:00,1764381600,2025-11-29T02:00:00.000Z,16.0,11.0,VRB,2.0,6+,1014.0,0,,,METAR,METAR SCSE 290200Z VRB02KT CAVOK 16/11 Q1014,-29.918,-71.201,141,La Serena/La Florida Arpt,CAVOK,[],VFR,,,,,,CL,Chile
3324,SCTE,2025-11-29 02:01:22.036000+00:00,1764381600,2025-11-29T02:00:00.000Z,14.0,12.0,130,5.0,6+,1014.0,16,,,METAR,METAR SCTE 290200Z 13005KT 9999 BKN070 14/12 Q1014 NOSIG,-41.439,-73.094,85,Puerto Montt/Tepua Arpt,BKN,"[{'cover': 'BKN', 'base': 7000}]",VFR,,,,,,CL,Chile
4979,SCVD,2025-11-29 02:01:21.884000+00:00,1764381600,2025-11-29T02:00:00.000Z,14.0,12.0,120,3.0,6+,1013.0,2,,,METAR,METAR SCVD 290200Z AUTO 12003KT CAVOK 14/12 Q1013,-39.65,-73.086,19,Valdivia/Pichoy Arpt,CAVOK,[],VFR,,,,,,CL,Chile
2283,SCVM,2025-11-29 02:01:21.915000+00:00,1764381600,2025-11-29T02:00:00.000Z,12.0,9.0,200,3.0,6+,1016.0,0,,,METAR,METAR SCVM 290200Z 20003KT CAVOK 12/09 Q1016,-32.947,-71.479,136,Concon/Vina Del Mar Arpt,CAVOK,[],VFR,,,,,,CL,Chile
907,SECU,2025-11-29 02:02:42.069000+00:00,1764381600,2025-11-29T02:00:00.000Z,15.0,12.0,130,1.0,6+,1025.0,0,,,METAR,METAR SECU 290200Z 13001KT 9999 SCT030 SCT070 15/12 Q1025,-2.889,-78.984,2516,Cuenca/Lamar Intl,SCT,"[{'cover': 'SCT', 'base': 3000}, {'cover': 'SCT', 'base': 7000}]",VFR,,,,,,EC,Ecuador
1531,SEGU,2025-11-29 02:06:46.043000+00:00,1764381600,2025-11-29T02:00:00.000Z,27.0,20.0,220,11.0,6+,1010.0,16,,,METAR,METAR SEGU 290200Z 22011KT 9999 SCT026 BKN100 27/20 Q1010 NOSIG RMK A2984,-2.158,-79.884,6,Guayaquil/Olmedo Intl,BKN,"[{'cover': 'SCT', 'base': 2600}, {'cover': 'BKN', 'base': 10000}]",VFR,,,,,,EC,Ecuador
2586,SELT,2025-11-29 02:01:24.349000+00:00,1764381600,2025-11-29T02:00:00.000Z,10.0,8.0,190,2.0,6+,1031.0,0,,,METAR,METAR SELT 290200Z 19002KT 9999 FEW030 SCT100 10/08 Q1031,-0.921,-78.619,2779,Latacunga/Cotopaxi Intl,SCT,"[{'cover': 'FEW', 'base': 3000}, {'cover': 'SCT', 'base': 10000}]",VFR,,,,,,EC,Ecuador
2561,SEMT,2025-11-29 02:06:46.327000+00:00,1764381600,2025-11-29T02:00:00.000Z,24.0,20.0,220,6.0,6+,1011.0,0,,,METAR,METAR SEMT 290200Z 22006KT 9999 OVC023 24/20 Q1011 RMK A2987,-0.946,-80.679,13,Manta/Alfaro Intl,OVC,"[{'cover': 'OVC', 'base': 2300}]",MVFR,,,,,,EC,Ecuador
4489,SEQM,2025-11-29 02:06:46.064000+00:00,1764381600,2025-11-29T02:00:00.000Z,13.0,12.0,240,7.0,6+,1027.0,16,-DZ BCFG,,METAR,METAR SEQM 290200Z 24007KT 190V270 9999 -DZ BCFG SCT005 BKN020 13/12 Q1027 NOSIG RMK A3034,-0.124,-78.354,2386,Quito/New Intl,BKN,"[{'cover': 'SCT', 'base': 500}, {'cover': 'BKN', 'base': 2000}]",MVFR,,,,,,EC,Ecuador
63,SGAS,2025-11-29 01:50:29.498000+00:00,1764381600,2025-11-29T02:00:00.000Z,25.0,19.0,160,4.0,6+,1009.0,0,,,METAR,METAR SGAS 290200Z 16004KT CAVOK 25/19 Q1009,-25.248,-57.519,83,Asunción/Pettriossi,CAVOK,[],VFR,,,,,,PY,Paraguay
1159,SGEN,2025-11-29 01:51:40.968000+00:00,1764381600,2025-11-29T02:00:00.000Z,25.0,19.0,340,3.0,6+,1007.0,0,,,METAR,METAR SGEN 290200Z 34003KT CAVOK 25/19 Q1007,-27.221,-55.834,202,Encarnacion/Gonzales,CAVOK,[],VFR,,,,,,PY,Paraguay
24,SGES,2025-11-29 01:57:53.428000+00:00,1764381600,2025-11-29T02:00:00.000Z,25.0,21.0,0,0.0,6+,1009.0,0,,,METAR,METAR SGES 290200Z 00000KT CAVOK 25/21 Q1009,-25.461,-54.849,256,Guarani Intl,CAVOK,[],VFR,,,,,,PY,Paraguay
48,SKAR,2025-11-29 02:02:42.557000+00:00,1764381600,2025-11-29T02:00:00.000Z,19.0,17.0,VRB,1.0,6+,1017.0,0,,,METAR,METAR SKAR 290200Z VRB01KT 9999 SCT035 19/17 Q1017,4.455,-75.766,1214,Armenia/El Eden Arpt,SCT,"[{'cover': 'SCT', 'base': 3500}]",VFR,,,,,,CO,Colombia
3340,SKAS,2025-11-29 02:02:42.584000+00:00,1764381600,2025-11-29T02:00:00.000Z,22.0,22.0,VRB,2.0,6+,1009.0,0,,,METAR,METAR SKAS 290200Z VRB02KT 9999 FEW006 SCT025 22/22 Q1009 RMK BR,0.505,-76.501,251,Puerto Asis,SCT,"[{'cover': 'FEW', 'base': 600}, {'cover': 'SCT', 'base': 2500}]",VFR,,,,,,CO,Colombia
334,SKBG,2025-11-29 02:01:23.223000+00:00,1764381600,2025-11-29T02:00:00.000Z,19.0,19.0,320,3.0,1.86,1016.0,0,BCFG SHRA,,METAR,METAR SKBG 290200Z 32003KT 270V350 3000 BCFG SHRA FEW005 BKN015 19/19 Q1016,7.127,-73.185,1187,Bucaramango/Palonegro Arpt,BKN,"[{'cover': 'FEW', 'base': 500}, {'cover': 'BKN', 'base': 1500}]",IFR,,,,,,CO,Colombia
332,SKBO,2025-11-29 02:01:23.252000+00:00,1764381600,2025-11-29T02:00:00.000Z,11.0,11.0,70,3.0,6+,1026.0,16,,,METAR,METAR SKBO 290200Z 07003KT 020V100 9999 SCT060 11/11 Q1026 NOSIG,4.706,-74.151,2547,Bogota/El Dorado Arpt,SCT,"[{'cover': 'SCT', 'base': 6000}]",VFR,,,,,,CO,Colombia
336,SKBQ,2025-11-29 02:01:23.188000+00:00,1764381600,2025-11-29T02:00:00.000Z,25.0,25.0,180,5.0,6+,1010.0,2,,,METAR,METAR SKBQ 290200Z AUTO 18005KT CAVOK 25/25 Q1010,10.883,-74.78,23,Barranquilla/Cortissoz Arpt,CAVOK,[],VFR,,,,,,CO,Colombia
309,SKBS,2025-11-29 02:02:42.615000+00:00,1764381600,2025-11-29T02:00:00.000Z,24.0,24.0,VRB,1.0,,1011.0,2,,,METAR,METAR SKBS 290200Z AUTO VRB01KT //// FEW013/// SCT015/// BKN023/// 24/24 Q1011,6.203,-77.395,24,Bahia Soland Arpt,BKN,"[{'cover': 'FEW', 'base': 1300}, {'cover': 'SCT', 'base': 1500}, {'cover': 'BKN', 'base': 2300}]",,,,,,,CO,Colombia
882,SKCC,2025-11-29 02:01:23.279000+00:00,1764381600,2025-11-29T02:00:00.000Z,25.0,23.0,VRB,1.0,6+,1013.0,0,,,METAR,METAR SKCC 290200Z VRB01KT 9999 SCT030 BKN090 25/23 Q1013,7.93,-72.509,308,Cucuta/Daza Intl,BKN,"[{'cover': 'SCT', 'base': 3000}, {'cover': 'BKN', 'base': 9000}]",VFR,,,,,,CO,Colombia
881,SKCG,2025-11-29 02:01:23.306000+00:00,1764381600,2025-11-29T02:00:00.000Z,23.0,22.0,VRB,2.0,6+,1010.0,0,,,METAR,METAR SKCG 290200Z VRB02KT 9999 FEW020 23/22 Q1010,10.447,-75.516,6,Cartagena/Nuñez Intl,FEW,"[{'cover': 'FEW', 'base': 2000}]",VFR,,,,,,CO,Colombia
608,SKCL,2025-11-29 02:06:46.089000+00:00,1764381600,2025-11-29T02:00:00.000Z,20.0,20.0,60,3.0,4.97,1016.0,0,,,METAR,METAR SKCL 290200Z 06003KT 8000 BKN080 20/20 Q1016 RMK HZ,3.543,-76.382,967,Cali/Aragon Arpt,BKN,"[{'cover': 'BKN', 'base': 8000}]",MVFR,,,,,,CO,Colombia
4244,SKCO,2025-11-29 02:02:42.654000+00:00,1764381600,2025-11-29T02:00:00.000Z,25.0,22.0,230,4.0,,1012.0,2,,,METAR,METAR SKCO 290200Z AUTO 23004KT 200V260 //// ////// 25/22 Q1012,1.814,-78.749,6,Tumaco/La Florida Arpt,,,,,,,,,CO,Colombia
908,SKCZ,2025-11-29 02:02:42.683000+00:00,1764381600,2025-11-29T02:00:00.000Z,22.0,22.0,VRB,2.0,6+,1011.0,2,-RA,,METAR,METAR SKCZ 290200Z AUTO VRB02KT 9999 -RA NCD 22/22 Q1011,9.334,-75.283,81,Corozal/Las Brujas Arpt,CLR,[],VFR,,,,,,CO,Colombia
1147,SKEJ,2025-11-29 02:02:42.711000+00:00,1764381600,2025-11-29T02:00:00.000Z,24.0,24.0,VRB,2.0,6+,1011.0,2,,,METAR,METAR SKEJ 290200Z AUTO VRB02KT CAVOK 24/24 Q1011,7.026,-73.809,123,Barrancabermeja/Yariguies Arpt,CAVOK,[],VFR,,,,,,CO,Colombia
1148,SKFL,2025-11-29 02:02:42.737000+00:00,1764381600,2025-11-29T02:00:00.000Z,23.0,22.0,0,0.0,6+,1010.0,0,,,METAR,METAR SKFL 290200Z 00000KT 9999 SCT030 23/22 Q1010,1.589,-75.564,244,Florencia Arpt,SCT,"[{'cover': 'SCT', 'base': 3000}]",VFR,,,,,,CO,Colombia
909,SKGO,2025-11-29 02:02:42.766000+00:00,1764381600,2025-11-29T02:00:00.000Z,20.0,19.0,70,2.0,6+,1016.0,2,,,METAR,METAR SKGO 290200Z AUTO 07002KT 9999 OVC021/// 20/19 Q1016,4.758,-75.956,908,Cartago//Santa Ana Arpt,OVC,"[{'cover': 'OVC', 'base': 2100}]",MVFR,,,,,,CO,Colombia
1811,SKIB,2025-11-29 02:02:42.825000+00:00,1764381600,2025-11-29T02:00:00.000Z,21.0,20.0,320,3.0,6+,1013.0,0,,,METAR,METAR SKIB 290200Z 32003KT 270V340 9999 SCT050 21/20 Q1013,4.418,-75.13,899,Ibague/Perales Arpt,SCT,"[{'cover': 'SCT', 'base': 5000}]",VFR,,,,,,CO,Colombia
1812,SKIP,2025-11-29 02:06:49.804000+00:00,1764381600,2025-11-29T02:00:00.000Z,10.0,10.0,VRB,2.0,,1030.0,2,,,METAR,METAR SKIP 290200Z AUTO VRB02KT 9999NDV // OVC063/// 10/10 Q1030,0.858,-77.677,2964,Ipiales/San Luis Arpt,OVC,"[{'cover': 'OVC', 'base': 6300}]",,,,,,,CO,Colombia
50,SKLC,2025-11-29 02:02:42.877000+00:00,1764381600,2025-11-29T02:00:00.000Z,23.0,23.0,180,3.0,3.73,1011.0,0,RA,,METAR,METAR SKLC 290200Z 18003KT 120V250 6000 RA OVC010 23/23 Q1011,7.817,-76.718,20,Apartado/Betencourt Arpt,OVC,"[{'cover': 'OVC', 'base': 1000}]",MVFR,,,,,,CO,Colombia
2284,SKLT,2025-11-29 02:01:23.373000+00:00,1764381600,2025-11-29T02:00:00.000Z,26.0,24.0,VRB,1.0,6+,1008.0,2,,,METAR,METAR SKLT 290200Z AUTO VRB01KT CAVOK 26/24 Q1008,-4.196,-69.943,78,Leticia/Cobo Intl,CAVOK,[],VFR,,,,,,CO,Colombia
2849,SKMR,2025-11-29 02:02:42.905000+00:00,1764381600,2025-11-29T02:00:00.000Z,23.0,23.0,VRB,1.0,5.59,1011.0,0,RA,,METAR,METAR SKMR 290200Z VRB01KT 9000 RA BKN030 23/23 Q1011,8.826,-75.825,12,Monteria/Garzones Arpt,BKN,"[{'cover': 'BKN', 'base': 3000}]",MVFR,,,,,,CO,Colombia
2850,SKMU,2025-11-29 02:02:42.931000+00:00,1764381600,2025-11-29T02:00:00.000Z,24.0,24.0,30,3.0,,1009.0,2,,,METAR,METAR SKMU 290200Z AUTO 03003KT 360V080 //// ////// 24/24 Q1009,1.117,-70.083,207,Mitu Arpt,,,,,,,,,CO,Colombia
2851,SKMZ,2025-11-29 02:06:49.827000+00:00,1764381600,2025-11-29T02:00:00.000Z,15.0,15.0,100,4.0,,1026.0,2,,,METAR,METAR SKMZ 290200Z AUTO 10004KT 070V150 9999NDV // SCT001/// SCT003/// BKN240/// 15/15 Q1026,5.03,-75.47,2075,Manizales/La Nubia Arpt,BKN,"[{'cover': 'SCT', 'base': 100}, {'cover': 'SCT', 'base': 300}, {'cover': 'BKN', 'base': 24000}]",,,,,,,CO,Colombia
3061,SKNV,2025-11-29 02:02:42.987000+00:00,1764381600,2025-11-29T02:00:00.000Z,25.0,19.0,VRB,2.0,6+,1010.0,0,,,METAR,METAR SKNV 290200Z VRB02KT 9999 SCT060 25/19 Q1010,2.949,-75.294,449,Neiva/Salas Arpt,SCT,"[{'cover': 'SCT', 'base': 6000}]",VFR,,,,,,CO,Colombia
3342,SKPC,2025-11-29 02:02:43.011000+00:00,1764381600,2025-11-29T02:00:00.000Z,25.0,24.0,40,3.0,6+,1009.0,2,,,METAR,METAR SKPC 290200Z AUTO 04003KT CAVOK 25/24 Q1009,6.184,-67.491,51,Puerto Carreno Arpt,CAVOK,[],VFR,,,,,,CO,Colombia
3343,SKPD,2025-11-29 02:02:43.038000+00:00,1764381600,2025-11-29T02:00:00.000Z,27.0,26.0,VRB,2.0,6+,1009.0,2,,,METAR,METAR SKPD 290200Z AUTO VRB02KT CAVOK 27/26 Q1009,3.854,-67.906,140,Puerto Inirida Arpt,CAVOK,[],VFR,,,,,,CO,Colombia
3328,SKPE,2025-11-29 02:01:23.406000+00:00,1764381600,2025-11-29T02:00:00.000Z,20.0,17.0,160,3.0,6+,1018.0,2,,,METAR,METAR SKPE 290200Z AUTO 16003KT 140V220 CAVOK 20/17 Q1018,4.814,-75.735,1341,Pereira/Matecana Arpt,CAVOK,[],VFR,,,,,,CO,Colombia
3332,SKPP,2025-11-29 02:02:42.139000+00:00,1764381600,2025-11-29T02:00:00.000Z,17.0,16.0,VRB,2.0,,1020.0,2,,,METAR,METAR SKPP 290200Z AUTO VRB02KT //// ////// 17/16 Q1020,2.453,-76.609,1726,Popayan/Guillermo,,,,,,,,,CO,Colombia
3333,SKPS,2025-11-29 02:02:42.165000+00:00,1764381600,2025-11-29T02:00:00.000Z,17.0,16.0,110,3.0,6+,1021.0,2,,,METAR,METAR SKPS 290200Z AUTO 11003KT 9999 BKN110/// BKN150/// 17/16 Q1021,1.394,-77.291,1798,Pasto/Nariño Arpt,BKN,"[{'cover': 'BKN', 'base': 11000}, {'cover': 'BKN', 'base': 15000}]",VFR,,,,,,CO,Colombia
3335,SKPV,2025-11-29 02:06:49.850000+00:00,1764381600,2025-11-29T02:00:00.000Z,28.0,25.0,80,7.0,,1012.0,2,,,METAR,METAR SKPV 290200Z AUTO 08007KT 040V120 9999NDV // FEW014/// SCT021/// 28/25 Q1012,13.358,-81.358,7,Providencia Isl Arpt,SCT,"[{'cover': 'FEW', 'base': 1400}, {'cover': 'SCT', 'base': 2100}]",,,,,,,CO,Colombia
2848,SKQU,2025-11-29 02:02:42.218000+00:00,1764381600,2025-11-29T02:00:00.000Z,23.0,23.0,0,0.0,6+,1011.0,2,,,METAR,METAR SKQU 290200Z AUTO 00000KT 9999 FEW003TCU SCT005 OVC010 23/23 Q1011,5.213,-74.884,467,Mariquita Arpt,OVC,"[{'cover': 'FEW', 'base': 300}, {'cover': 'SCT', 'base': 500}, {'cover': 'OVC', 'base': 1000}]",MVFR,,,,,,CO,Colombia
2592,SKRG,2025-11-29 02:01:23.435000+00:00,1764381600,2025-11-29T02:00:00.000Z,16.0,14.0,VRB,1.0,6+,1025.0,0,,,METAR,METAR SKRG 290200Z VRB01KT 9999 SCT020 16/14 Q1025 RERA,6.169,-75.426,2132,Rionegro/Córdova Intl,SCT,"[{'cover': 'SCT', 'base': 2000}]",VFR,,,,,,CO,Colombia
3642,SKRH,2025-11-29 02:06:49.873000+00:00,1764381600,2025-11-29T02:00:00.000Z,28.0,22.0,VRB,2.0,,1010.0,2,,,METAR,METAR SKRH 290200Z AUTO VRB02KT //// R10///// // ////// 28/22 Q1010,11.528,-72.918,11,Riohacha/Padilla Arpt,,,,,,,,,CO,Colombia
3658,SKSA,2025-11-29 02:02:42.277000+00:00,1764381600,2025-11-29T02:00:00.000Z,23.0,21.0,320,3.0,,1010.0,2,,,METAR,METAR SKSA 290200Z AUTO 32003KT //// ////// 23/21 Q1010,6.955,-71.86,207,Saravena/Los Colonizadores Arpt,,,,,,,,,CO,Colombia
3912,SKSJ,2025-11-29 02:02:42.314000+00:00,1764381600,2025-11-29T02:00:00.000Z,24.0,24.0,360,2.0,6+,1010.0,2,,,METAR,METAR SKSJ 290200Z AUTO 36002KT CAVOK 24/24 Q1010,2.574,-72.64,185,San Jose del Guaviar,CAVOK,[],VFR,,,,,,CO,Colombia
3913,SKSM,2025-11-29 02:02:42.355000+00:00,1764381600,2025-11-29T02:00:00.000Z,26.0,22.0,VRB,1.0,6+,1010.0,0,,,METAR,METAR SKSM 290200Z VRB01KT 9999 SCT030 26/22 Q1010,11.12,-74.231,5,Santa Marta/Bolivar Arpt,SCT,"[{'cover': 'SCT', 'base': 3000}]",VFR,,,,,,CO,Colombia
75,SKSP,2025-11-29 02:01:23.465000+00:00,1764381600,2025-11-29T02:00:00.000Z,28.0,24.0,50,12.0,6+,1012.0,2,,,METAR,METAR SKSP 290200Z AUTO 05012KT CAVOK 28/24 Q1012,12.587,-81.704,6,San Andres Island Arpt,CAVOK,[],VFR,,,,,,CO,Colombia
4286,SKTM,2025-11-29 02:02:42.387000+00:00,1764381600,2025-11-29T02:00:00.000Z,24.0,19.0,VRB,2.0,6+,1012.0,2,,,METAR,METAR SKTM 290200Z AUTO VRB02KT CAVOK 24/19 Q1012,6.451,-71.76,361,Tame/Vargas Arpt,CAVOK,[],VFR,,,,,,CO,Colombia
54,SKUC,2025-11-29 02:06:49.895000+00:00,1764381600,2025-11-29T02:00:00.000Z,,,,,,,2,,,METAR,METAR SKUC 290200Z AUTO /////KT //// ////// ///// Q////,7.066,-70.735,127,Arauca/Perez Arpt,,,,,,,,,CO,Colombia
4470,SKUI,2025-11-29 02:02:42.437000+00:00,1764381600,2025-11-29T02:00:00.000Z,25.0,24.0,VRB,2.0,6+,1011.0,0,,,METAR,METAR SKUI 290200Z VRB02KT 9999 FEW020 25/24 Q1011,5.691,-76.644,55,Quibdó/El Caraño Arpt,FEW,"[{'cover': 'FEW', 'base': 2000}]",VFR,,,,,,CO,Colombia
4471,SKVP,2025-11-29 02:02:42.470000+00:00,1764381600,2025-11-29T02:00:00.000Z,28.0,21.0,50,6.0,6+,1012.0,0,,,METAR,METAR SKVP 290200Z 05006KT 9999 SCT040 28/21 Q1012,10.436,-73.248,137,Valledupar/Pumerejo Arpt,SCT,"[{'cover': 'SCT', 'base': 4000}]",VFR,,,,,,CO,Colombia
4472,SKVV,2025-11-29 02:02:42.497000+00:00,1764381600,2025-11-29T02:00:00.000Z,23.0,20.0,VRB,2.0,6+,1011.0,2,,,METAR,METAR SKVV 290200Z AUTO VRB02KT CAVOK 23/20 Q1011,4.162,-73.618,421,Villavicencio/Vangardia Arpt,CAVOK,[],VFR,,,,,,CO,Colombia
1146,SKYP,2025-11-29 02:02:42.524000+00:00,1764381600,2025-11-29T02:00:00.000Z,26.0,22.0,30,5.0,6+,1010.0,0,,,METAR,METAR SKYP 290200Z 03005KT 9999 SCT040 26/22 Q1010,5.319,-72.384,312,Yopal/El Alcaravan,SCT,"[{'cover': 'SCT', 'base': 4000}]",VFR,,,,,,CO,Colombia
3907,SLAL,2025-11-29 01:59:56.610000+00:00,1764381600,2025-11-29T02:00:00.000Z,12.0,6.0,30,6.0,6+,1029.0,0,,,METAR,METAR SLAL 290200Z 03006KT 9999 NSC 12/06 Q1029,-19.247,-65.15,3109,Alcantarí Arpt,CLR,[],VFR,,,,,,BO,"Bolivia, Plurinational State of"
633,SLCB,2025-11-29 01:59:56.562000+00:00,1764381600,2025-11-29T02:00:00.000Z,18.0,9.0,320,3.0,6+,1024.0,16,,,METAR,METAR SLCB 290200Z 32003KT 9999 FEW030 BKN200 18/09 Q1024 NOSIG,-17.421,-66.179,2560,Cochabamba/Wilstermann Intl,BKN,"[{'cover': 'FEW', 'base': 3000}, {'cover': 'BKN', 'base': 20000}]",VFR,,,,,,BO,"Bolivia, Plurinational State of"
2574,SLLP,2025-11-29 01:59:56.514000+00:00,1764381600,2025-11-29T02:00:00.000Z,7.0,0.0,60,6.0,6+,1036.0,16,,,METAR,METAR SLLP 290200Z 06006KT 9999 FEW013 FEW017CB SCT070 BKN200 07/00 Q1036 NOSIG,-16.511,-68.182,4061,La Paz/El Alto Intl,BKN,"[{'cover': 'FEW', 'base': 1300}, {'cover': 'FEW', 'base': 1700}, {'cover': 'SCT', 'base': 7000}, {'cover': 'BKN', 'base': 20000}]",VFR,,,,,,BO,"Bolivia, Plurinational State of"
4237,SLTJ,2025-11-29 01:59:56.587000+00:00,1764381600,2025-11-29T02:00:00.000Z,19.0,13.0,150,4.0,6+,1017.0,0,,,METAR,METAR SLTJ 290200Z 15004KT 9999 SCT030 BKN200 19/13 Q1017,-21.556,-64.701,1850,Tarija/Plaza Arpt,BKN,"[{'cover': 'SCT', 'base': 3000}, {'cover': 'BKN', 'base': 20000}]",VFR,,,,,,BO,"Bolivia, Plurinational State of"
4524,SLVR,2025-11-29 01:59:56.535000+00:00,1764381600,2025-11-29T02:00:00.000Z,25.0,22.0,340,8.0,6+,1009.0,16,,,METAR,METAR SLVR 290200Z 34008KT 9999 NSC 25/22 Q1009 NOSIG,-17.645,-63.135,377,Santa Cruz/Viru Intl,CLR,[],VFR,,,,,,BO,"Bolivia, Plurinational State of"
3321,SMJP,2025-11-29 01:58:32.346000+00:00,1764381600,2025-11-29T02:00:00.000Z,24.0,24.0,100,2.0,6+,1010.0,16,,,METAR,METAR SMJP 290200Z 10002KT 9999 FEW010 24/24 Q1010 NOSIG,5.453,-55.188,14,Paramaribo/Pengel Intl,FEW,"[{'cover': 'FEW', 'base': 1000}]",VFR,,,,,,SR,Suriname
659,SOCA,2025-11-29 02:06:53.976000+00:00,1764381600,2025-11-29T02:00:00.000Z,24.0,23.0,0,0.0,6+,1011.0,2,,,METAR,METAR SOCA 290200Z AUTO 00000KT 9999 SCT025 24/23 Q1011 TEMPO SCT020TCU,4.822,-52.365,7,Cayenne/Rochambeau Arpt,SCT,"[{'cover': 'SCT', 'base': 2500}]",VFR,,,,,,GF,French Guiana
3312,SPCL,2025-11-29 02:01:21.381000+00:00,1764381600,2025-11-29T02:00:00.000Z,25.0,24.0,10,2.0,6+,1009.0,0,,,METAR,METAR SPCL 290200Z 01002KT 9999 SCT015 SCT080 25/24 Q1009 RMK PP000,-8.378,-74.574,154,Pucallpa/Rengifo Intl,SCT,"[{'cover': 'SCT', 'base': 1500}, {'cover': 'SCT', 'base': 8000}]",VFR,,,,,,PE,Peru
625,SPHI,2025-11-29 02:06:41.587000+00:00,1764381600,2025-11-29T02:00:00.000Z,19.0,16.0,170,15.0,6+,1012.0,0,,,METAR,METAR SPHI 290200Z 17015KT CAVOK 19/16 Q1012 RMK BIRD HAZARD RWY 19/01 PP000,-6.787,-79.828,33,Chiclayo Arpt,CAVOK,[],VFR,,,,,,PE,Peru
4267,SPME,2025-11-29 02:01:21.403000+00:00,1764381600,2025-11-29T02:00:00.000Z,24.0,20.0,270,4.0,6+,1012.0,0,,,METAR,METAR SPME 290200Z 27004KT 9999 SCT020 SCT030 24/20 Q1012 RMK BIRD HAZARD RWY 32/14 PP000,-3.551,-80.385,26,Tumbes Arpt,SCT,"[{'cover': 'SCT', 'base': 2000}, {'cover': 'SCT', 'base': 3000}]",VFR,,,,,,PE,Peru
1772,SPQT,2025-11-29 02:06:46.163000+00:00,1764381600,2025-11-29T02:00:00.000Z,23.0,23.0,260,3.0,6+,1010.0,16,PRFG,,METAR,METAR SPQT 290200Z 26003KT 9999 2000SW PRFG SCT003 23/23 Q1010 NOSIG RMK PP000,-3.786,-73.306,92,Iquitos/Vignetta Arpt,SCT,"[{'cover': 'SCT', 'base': 300}]",VFR,,,,,,PE,Peru
76,SPQU,2025-11-29 02:06:46.189000+00:00,1764381600,2025-11-29T02:00:00.000Z,14.0,5.0,VRB,1.0,6+,1026.0,0,,,METAR,METAR SPQU 290200Z VRB01KT CAVOK 14/05 Q1026 RMK PP000,-16.341,-71.583,2527,Arequipa/Ballon Intl,CAVOK,[],VFR,,,,,,PE,Peru
4235,SPRU,2025-11-29 02:06:41.659000+00:00,1764381600,2025-11-29T02:00:00.000Z,18.0,15.0,150,9.0,4.35,1013.0,0,,,METAR,METAR SPRU 290200Z 15009KT 7000 NSC 18/15 Q1013 RMK PP000,-8.087,-79.109,23,Trujillo Arpt,CLR,[],MVFR,,,,,,PE,Peru
3337,SPSO,2025-11-29 02:06:46.215000+00:00,1764381600,2025-11-29T02:00:00.000Z,19.0,16.0,210,10.0,6+,1013.0,0,,,METAR,METAR SPSO 290200Z 21010KT CAVOK 19/16 Q1013 RMK PP000,-13.744,-76.221,8,Pisco Intl,CAVOK,[],VFR,,,,,,PE,Peru
4265,SPST,2025-11-29 02:01:21.426000+00:00,1764381600,2025-11-29T02:00:00.000Z,24.0,22.0,150,3.0,6+,1009.0,0,,,METAR,METAR SPST 290200Z 15003KT 9999 FEW020 24/22 Q1009 RMK PP000,-6.509,-76.373,282,Tarapoto Arpt,FEW,"[{'cover': 'FEW', 'base': 2000}]",VFR,,,,,,PE,Peru
4288,SPTN,2025-11-29 02:06:46.240000+00:00,1764381600,2025-11-29T02:00:00.000Z,16.0,11.0,210,3.0,6+,1015.0,0,,,METAR,METAR SPTN 290200Z 21003KT 9999 SCT100 16/11 Q1015 RMK PP000,-18.049,-70.277,459,Tacna Arpt,SCT,"[{'cover': 'SCT', 'base': 10000}]",VFR,,,,,,PE,Peru
3339,SPUR,2025-11-29 02:06:41.711000+00:00,1764381600,2025-11-29T02:00:00.000Z,22.0,15.0,180,13.0,6+,1013.0,0,,,METAR,METAR SPUR 290200Z 18013KT CAVOK 22/15 Q1013 RMK BIRD HAZARD RWY 19/01 PP000,-5.206,-80.616,30,Piura/Iberico Intl,CAVOK,[],VFR,,,,,,PE,Peru
902,SPZO,2025-11-29 02:06:46.284000+00:00,1764381600,2025-11-29T02:00:00.000Z,12.0,5.0,90,3.0,6+,1030.0,16,,,METAR,METAR SPZO 290200Z 09003KT 9999 SCT050 12/05 Q1030 NOSIG RMK BIRD HAZARD RWY 10/28 PP000,-13.536,-71.939,3249,Cuzco/Astete Arpt,SCT,"[{'cover': 'SCT', 'base': 5000}]",VFR,,,,,,PE,Peru
1152,SUDU,2025-11-29 01:58:30.731000+00:00,1764381600,2025-11-29T02:00:00.000Z,17.0,14.0,120,15.0,6+,1013.0,0,,,METAR,METAR SUDU 290200Z 12015KT 9999 SCT017 BKN200 17/14 Q1013,-33.359,-56.499,91,Durazno/Santa Bernadina Arpt,BKN,"[{'cover': 'SCT', 'base': 1700}, {'cover': 'BKN', 'base': 20000}]",VFR,,,,,,UY,Uruguay
3378,SULS,2025-11-29 01:56:43.356000+00:00,1764381600,2025-11-29T02:00:00.000Z,17.0,12.0,160,12.0,4.97,1014.0,0,,,METAR,METAR SULS 290200Z 16012KT 8000 SCT016 BKN023 17/12 Q1014,-34.855,-55.094,22,Maldonado Intl,BKN,"[{'cover': 'SCT', 'base': 1600}, {'cover': 'BKN', 'base': 2300}]",MVFR,,,,,,UY,Uruguay
2872,SUMO,2025-11-29 02:01:21.581000+00:00,1764381600,2025-11-29T02:00:00.000Z,19.0,14.0,140,11.0,,1012.0,2,,,METAR,METAR SUMO 290200Z AUTO 14011KT //// ////// 19/14 Q1012,-32.34,-54.224,113,Melo/Cerro Largo Arpt,,,,,,,,,UY,Uruguay
2867,SUMU,2025-11-29 01:58:31.943000+00:00,1764381600,2025-11-29T02:00:00.000Z,17.0,14.0,140,12.0,6+,1014.0,16,,,METAR,METAR SUMU 290200Z 14012KT 9999 OVC020 17/14 Q1014 NOSIG,-34.838,-56.031,32,Carrasco Intl,OVC,"[{'cover': 'OVC', 'base': 2000}]",MVFR,,,,,,UY,Uruguay
3336,SUPU,2025-11-29 02:06:46.357000+00:00,1764381600,2025-11-29T02:00:00.000Z,21.0,16.0,120,15.0,,1010.0,2,,,METAR,METAR SUPU 290200Z AUTO 12015G25KT //// ////// 21/16 Q1010,-32.362,-58.067,23,Paysandu Arpt,,,,,25.0,,,,UY,Uruguay
3664,SURV,2025-11-29 01:49:41.457000+00:00,1764381600,2025-11-29T02:00:00.000Z,25.0,16.0,180,11.0,6+,1011.0,0,,,METAR,METAR SURV 290200Z 18011KT CAVOK 25/16 Q1011,-30.97,-55.474,201,Rivera Intl,CAVOK,[],VFR,,,,,,UY,Uruguay
621,SVMI,2025-11-29 01:53:39.111000+00:00,1764381600,2025-11-29T02:00:00.000Z,26.0,24.0,60,1.0,6+,1012.0,0,,,METAR,METAR SVMI 290200Z 06001KT 9999 SCT016 SCT090 26/24 Q1012,10.603,-66.991,48,Caracas/Bolívar Intl,SCT,"[{'cover': 'SCT', 'base': 1600}, {'cover': 'SCT', 'base': 9000}]",VFR,,,,,,VE,"Venezuela, Bolivarian Republic of"
4484,SVVA,2025-11-29 02:06:49.129000+00:00,1764381600,2025-11-29T02:00:00.000Z,26.0,20.0,,,6+,1015.0,0,,,METAR,METAR SVVA 290200Z /////KT 9999 BKN016 26/20 Q1015,10.154,-67.92,428,Valencia Intl,BKN,"[{'cover': 'BKN', 'base': 1600}]",MVFR,,,,,,VE,"Venezuela, Bolivarian Republic of"
1499,SYCJ,2025-11-29 01:58:30.701000+00:00,1764381600,2025-11-29T02:00:00.000Z,25.0,24.0,40,6.0,6+,1010.0,17,,,METAR,METAR SYCJ 290200Z COR 04006KT 9999 FEW017 25/24 Q1010 NOSIG,6.499,-58.254,30,Georgetown/Jagan Intl,FEW,"[{'cover': 'FEW', 'base': 1700}]",VFR,,,,,,GY,Guyana
67,TAPA,2025-11-29 02:04:44.889000+00:00,1764381600,2025-11-29T02:00:00.000Z,27.0,22.0,90,11.0,6+,1015.0,16,VCSH,,METAR,METAR TAPA 290200Z 09011KT 9999 VCSH SCT018 27/22 Q1015 NOSIG,17.135,-61.797,15,Antigua/Bird Intl,SCT,"[{'cover': 'SCT', 'base': 1800}]",VFR,,,,,,AG,Antigua and Barbuda
319,TBPB,2025-11-29 02:01:30.534000+00:00,1764381600,2025-11-29T02:00:00.000Z,27.0,22.0,90,19.0,6+,1012.0,16,,,METAR,METAR TBPB 290200Z 09019KT 9999 SCT018 27/22 Q1012 NOSIG,13.075,-59.492,55,Bridgetown/Adams Intl,SCT,"[{'cover': 'SCT', 'base': 1800}]",VFR,,,,,,BB,Barbados
1150,TFFF,2025-11-29 02:06:54.003000+00:00,1764381600,2025-11-29T02:00:00.000Z,27.0,22.0,70,10.0,6+,1013.0,2,,,METAR,METAR TFFF 290200Z AUTO 07010KT 9999 FEW029 SCT039 27/22 Q1013 TEMPO 4000 SHRA SCT020TCU,14.591,-61.003,3,Le Lamentin/Cesaire Intl,SCT,"[{'cover': 'FEW', 'base': 2900}, {'cover': 'SCT', 'base': 3900}]",VFR,,,,,,MQ,Martinique
3660,TFFJ,2025-11-29 02:06:23.590000+00:00,1764381600,2025-11-29T02:00:00.000Z,27.0,23.0,90,11.0,6+,1015.0,2,,,METAR,METAR TFFJ 290200Z AUTO 09011KT 060V120 9999 SCT024 SCT030 27/23 Q1015,17.904,-62.844,13,St Barthelemy/Gustav Arpt,SCT,"[{'cover': 'SCT', 'base': 2400}, {'cover': 'SCT', 'base': 3000}]",VFR,,,,,,BL,Saint Barthélemy
3330,TFFR,2025-11-29 02:06:54.030000+00:00,1764381600,2025-11-29T02:00:00.000Z,24.0,22.0,110,4.0,6+,1015.0,2,,,METAR,METAR TFFR 290200Z AUTO 11004KT 9999 FEW033 24/22 Q1015 TEMPO 4000 SHRA SCT020TCU,16.265,-61.532,6,Guadeloupe/Pitre Intl,FEW,"[{'cover': 'FEW', 'base': 3300}]",VFR,,,,,,GP,Guadeloupe
1530,TGPY,2025-11-29 02:06:04.846000+00:00,1764381600,2025-11-29T02:00:00.000Z,27.0,24.0,100,11.0,6+,1012.0,16,,,METAR,METAR TGPY 290200Z 10011KT 9999 FEW020 27/24 Q1012 NOSIG,12.006,-61.797,12,St Georges/Bishop Intl,FEW,"[{'cover': 'FEW', 'base': 2000}]",VFR,,,,,,GD,Grenada
4015,TIST,2025-11-29 02:06:40.163000+00:00,1764381180,2025-11-29T02:00:00.000Z,27.2,23.9,90,5.0,10+,,12,,,METAR,METAR TIST 290153Z 09005KT 10SM FEW120 27/24 RMK AO2 SLPNO T02720239 $,18.3362,-64.9799,5,St Thomas/King Arpt,FEW,"[{'cover': 'FEW', 'base': 12000}]",VFR,,,,,,VI,"Virgin Islands, U.S."
4014,TISX,2025-11-29 02:06:40.211000+00:00,1764381180,2025-11-29T02:00:00.000Z,26.1,22.2,70,7.0,10+,1016.0,14,,,METAR,METAR TISX 290153Z AUTO 07007KT 10SM FEW027 SCT033 26/22 A3000 RMK AO2 SLP156 T02610222 PNO $,17.6997,-64.8126,16,St Croix/Rohlsen Arpt,SCT,"[{'cover': 'FEW', 'base': 2700}, {'cover': 'SCT', 'base': 3300}]",VFR,,,1015.6,,,VI,"Virgin Islands, U.S."
440,TJBQ,2025-11-29 01:46:27.214000+00:00,1764381000,2025-11-29T02:00:00.000Z,23.0,22.0,120,4.0,10+,1016.3,0,,,METAR,METAR TJBQ 290150Z 12004KT 10SM CLR 23/22 A3001,18.494,-67.128,69,Aquadilla/Hernández Arpt,CLR,[],VFR,,,,,,PR,Puerto Rico
3404,TJPS,2025-11-29 02:08:26.608000+00:00,1764381300,2025-11-29T02:00:00.000Z,25.0,22.0,VRB,3.0,9,1015.3,6,,,METAR,METAR TJPS 290155Z AUTO VRB03KT 9SM CLR 25/22 A2998 RMK AO2,18.011,-66.567,12,Ponce/Mercedita Arpt,CLR,[],VFR,,,,,,PR,Puerto Rico
3130,TJRV,2025-11-29 02:00:36.360000+00:00,1764381300,2025-11-29T02:00:00.000Z,26.0,24.0,110,6.0,10+,1016.3,4,,,METAR,METAR TJRV 290155Z 11006KT 10SM FEW030 SCT028 26/24 A3001 RMK AO2A SLP160 T02600240,18.25,-65.643,11,Jose Alponte Arpt,SCT,"[{'cover': 'FEW', 'base': 3000}, {'cover': 'SCT', 'base': 2800}]",VFR,,,1016.0,,,PR,Puerto Rico
3937,TJSJ,2025-11-29 02:06:40.321000+00:00,1764381360,2025-11-29T02:00:00.000Z,25.0,22.2,0,0.0,10+,1016.3,12,,0.005,METAR,METAR TJSJ 290156Z 00000KT 10SM FEW022 FEW080 25/22 A3001 RMK AO2 RAB06E09 SLP160 P0000 T02500222 $,18.4326,-66.0106,3,San Juan/Marin Intl,FEW,"[{'cover': 'FEW', 'base': 2200}, {'cover': 'FEW', 'base': 8000}]",VFR,,,1016.0,,,PR,Puerto Rico
4466,TLPL,2025-11-29 02:01:57.223000+00:00,1764381600,2025-11-29T02:00:00.000Z,28.0,23.0,90,20.0,6+,1013.0,16,,,METAR,METAR TLPL 290200Z 09020KT 9999 BKN024 28/23 Q1013 NOSIG,13.743,-60.948,13,St Lucia/Hewanorra Intl,BKN,"[{'cover': 'BKN', 'base': 2400}]",MVFR,,,,,,LC,Saint Lucia
58,TNCA,2025-11-29 02:01:35.872000+00:00,1764381600,2025-11-29T02:00:00.000Z,28.0,23.0,90,17.0,6+,1011.0,16,,,METAR,METAR TNCA 290200Z 09017KT 9999 FEW019 28/23 Q1011 NOSIG,12.501,-70.015,7,Aruba/Beatrix Intl,FEW,"[{'cover': 'FEW', 'base': 1900}]",VFR,,,,,,AW,Aruba
377,TNCB,2025-11-29 02:02:31.486000+00:00,1764381300,2025-11-29T02:00:00.000Z,28.0,23.0,80,13.0,6+,1011.0,2,,,METAR,METAR TNCB 290155Z AUTO 08013KT 9999 FEW021/// 28/23 Q1011,12.133,-68.277,6,Bonaire/Flamingo Arpt,FEW,"[{'cover': 'FEW', 'base': 2100}]",VFR,,,,,,BQ,
890,TNCC,2025-11-29 02:07:01.260000+00:00,1764381600,2025-11-29T02:00:00.000Z,28.0,24.0,100,12.0,6+,1012.0,16,,,METAR,METAR TNCC 290200Z 10012KT 9999 SCT018 28/24 Q1012 NOSIG,12.189,-68.96,10,Curacao/Hato Intl,SCT,"[{'cover': 'SCT', 'base': 1800}]",VFR,,,,,,CW,
1227,TNCE,2025-11-29 02:06:54.054000+00:00,1764381300,2025-11-29T02:00:00.000Z,26.0,23.0,90,12.0,,1015.0,2,,,METAR,METAR TNCE 290155Z AUTO 09012KT 050V120 //// // ///////// 26/23 Q1015 RE//,17.497,-62.979,38,St Eustatius/Roosevelt Arpt,,,,,,,,,BQ,
4219,TNCM,2025-11-29 02:06:54.079000+00:00,1764381600,2025-11-29T02:00:00.000Z,27.0,25.0,80,10.0,6+,1015.0,0,VCSH,,METAR,METAR TNCM 290200Z 08010KT 050V120 9999 VCSH SCT016 27/25 Q1015 RMK VCSH S/SW,18.041,-63.109,9,St Maarten Intl,SCT,"[{'cover': 'SCT', 'base': 1600}]",VFR,,,,,,SX,
4275,TTCP,2025-11-29 02:03:36.862000+00:00,1764381600,2025-11-29T02:00:00.000Z,26.0,23.0,60,4.0,6+,1011.0,16,,,METAR,METAR TTCP 290200Z 06004KT 9999 FEW016 26/23 Q1011 NOSIG,11.149,-60.836,13,Tobago/Crown Pt Arpt,FEW,"[{'cover': 'FEW', 'base': 1600}]",VFR,,,,,,TT,Trinidad and Tobago
3351,TTPP,2025-11-29 02:03:23.084000+00:00,1764381600,2025-11-29T02:00:00.000Z,26.0,24.0,80,9.0,6+,1011.0,16,,,METAR,METAR TTPP 290200Z 08009KT 9999 FEW018 26/24 Q1011 NOSIG,10.593,-61.348,11,Port of Spain/Piarco Arpt,FEW,"[{'cover': 'FEW', 'base': 1800}]",VFR,,,,,,TT,Trinidad and Tobago
1154,TUPJ,2025-11-29 02:06:40.345000+00:00,1764381600,2025-11-29T02:00:00.000Z,27.0,23.0,80,9.0,10+,1015.7,0,,,METAR,METAR TUPJ 290200Z 08009KT 10SM SCT017 27/23 A2999 RMK Q1015 VIS16KM,18.445,-64.543,6,Beef Isl/Lettsome Arpt,SCT,"[{'cover': 'SCT', 'base': 1700}]",VFR,,,,,,VG,"Virgin Islands, British"
368,TXKF,2025-11-29 01:52:01.981000+00:00,1764381300,2025-11-29T02:00:00.000Z,21.0,17.0,340,6.0,6+,1020.0,0,-SHRA,,METAR,METAR TXKF 290155Z 34006KT 9999 -SHRA SCT022 OVC035 21/17 Q1020 ,32.364,-64.679,4,Bermuda/Wade Intl,OVC,"[{'cover': 'SCT', 'base': 2200}, {'cover': 'OVC', 'base': 3500}]",VFR,,,,,,BM,Bermuda
49,UAAA,2025-11-29 02:06:12.988000+00:00,1764381600,2025-11-29T02:00:00.000Z,-5.0,-6.0,0,0.0,3.11,1026.0,16,BR,,METAR,METAR UAAA 290200Z 00000MPS 5000 BR SCT200 M05/M06 Q1026 NOSIG,43.35,77.027,673,Almaty Intl,SCT,"[{'cover': 'SCT', 'base': 20000}]",MVFR,,,,,,KZ,Kazakhstan
629,UAAH,2025-11-29 02:06:38.924000+00:00,1764381600,2025-11-29T02:00:00.000Z,-7.0,-8.0,70,8.0,6+,1031.0,16,,,METAR,METAR UAAH 290200Z 07004MPS CAVOK M07/M08 Q1031 NOSIG RMK QFE736/0981,46.893,75.005,427,Balkhash Arpt,CAVOK,[],VFR,,,,,,KZ,Kazakhstan
3060,UACC,2025-11-29 02:06:53.200000+00:00,1764381600,2025-11-29T02:00:00.000Z,-6.0,-8.0,120,6.0,6+,1030.0,16,,,METAR,METAR UACC 290200Z 12003MPS 9999 SCT030 M06/M08 Q1030 NOSIG RMK QFE741/0988,51.024,71.468,354,Astana Intl,SCT,"[{'cover': 'SCT', 'base': 3000}]",VFR,,,,,,KZ,Kazakhstan
2318,UACK,2025-11-29 02:06:49.921000+00:00,1764381600,2025-11-29T02:00:00.000Z,-3.0,-6.0,190,12.0,6+,1029.0,16,,,METAR,METAR UACK 290200Z 19006MPS CAVOK M03/M06 Q1029 NOSIG RMK QFE747/0996,53.332,69.594,261,Kokshetau Arpt,CAVOK,[],VFR,,,,,,KZ,Kazakhstan
906,UADD,2025-11-29 02:06:38.992000+00:00,1764381600,2025-11-29T02:00:00.000Z,-4.0,-9.0,150,4.0,6+,1024.0,16,,,METAR,METAR UADD 290200Z 15002MPS 9999 NSC M04/M09 Q1024 NOSIG RMK QFE710/0947,42.854,71.304,663,Taraz Arpt,CLR,[],VFR,,,,,,KZ,Kazakhstan
626,UAII,2025-11-29 02:06:39.021000+00:00,1764381600,2025-11-29T02:00:00.000Z,0.0,-6.0,130,8.0,4.35,1024.0,16,,,METAR,METAR UAII 290200Z 13004MPS 7000 NSC M00/M06 Q1024 NOSIG RMK QFE733/0977,42.366,69.476,410,Shymkent Intl,CLR,[],MVFR,,,,,,KZ,Kazakhstan
1825,UAIT,2025-11-29 02:06:14.413000+00:00,1764381600,2025-11-29T02:00:00.000Z,-5.0,-7.0,50,4.0,3.11,1024.0,16,BR,,METAR,METAR UAIT 290200Z 05002MPS 5000 BR NSC M05/M07 Q1024 NOSIG RMK QFE743/0991,43.311,68.55,301,Turkistan Arpt,CLR,[],MVFR,,,,,,KZ,Kazakhstan
1161,UAKD,2025-11-29 02:06:39.041000+00:00,1764381600,2025-11-29T02:00:00.000Z,-6.0,-7.0,90,10.0,0.28,1028.0,16,FZFG,,METAR,METAR UAKD 290200Z 09005MPS 0450 R04/1400D FZFG VV001 M06/M07 Q1028 NOSIG RMK QBB050 QFE736/0982,47.711,67.739,379,Zhezkazgan Arpt,OVX,"[{'cover': 'OVX', 'base': 100}]",LIFR,1.0,,,,,KZ,Kazakhstan
2104,UAKK,2025-11-29 02:06:39.077000+00:00,1764381600,2025-11-29T02:00:00.000Z,-10.0,-12.0,70,6.0,6+,1030.0,16,,,METAR,METAR UAKK 290200Z 07003MPS CAVOK M10/M12 Q1030 NOSIG RMK QFE725/0966,49.672,73.333,532,Karaganda Arpt,CAVOK,[],VFR,,,,,,KZ,Kazakhstan
2311,UAOO,2025-11-29 02:06:44.357000+00:00,1764381600,2025-11-29T02:00:00.000Z,1.0,-3.0,VRB,2.0,6+,1025.0,16,,,METAR,METAR UAOO 290200Z VRB01MPS 9999 SCT040 01/M03 Q1025 NOSIG RMK QFE757/1009,44.707,65.593,130,Kzylorda Arpt,SCT,"[{'cover': 'SCT', 'base': 4000}]",VFR,,,,,,KZ,Kazakhstan
4493,UARR,2025-11-29 02:06:44.403000+00:00,1764381600,2025-11-29T02:00:00.000Z,-2.0,-3.0,160,8.0,5.59,1026.0,16,,,METAR,METAR UARR 290200Z 16004MPS 9000 SCT016 M02/M03 Q1026 NOSIG RMK QFE766/1022,51.151,51.541,33,Uralsk Arpt,SCT,"[{'cover': 'SCT', 'base': 1600}]",VFR,,,,,,KZ,Kazakhstan
4523,UASK,2025-11-29 02:06:13.796000+00:00,1764381600,2025-11-29T02:00:00.000Z,-11.0,-12.0,0,0.0,6+,1036.0,16,,,METAR,METAR UASK 290200Z 00000MPS 9999 BKN044 M11/M12 Q1036 NOSIG RMK QFE752/1002,50.027,82.5,285,Ust-Kamenogorsk Arpt,BKN,"[{'cover': 'BKN', 'base': 4400}]",VFR,,,,,,KZ,Kazakhstan
3352,UASP,2025-11-29 02:06:39.177000+00:00,1764381600,2025-11-29T02:00:00.000Z,-9.0,-11.0,100,12.0,6+,1037.0,16,,,METAR,METAR UASP 290200Z 10006MPS 9999 BKN029 M09/M11 Q1037 NOSIG RMK QFE766/1022,52.202,77.078,122,Pavlodar Arpt,BKN,"[{'cover': 'BKN', 'base': 2900}]",MVFR,,,,,,KZ,Kazakhstan
3349,UASS,2025-11-29 02:06:39.200000+00:00,1764381600,2025-11-29T02:00:00.000Z,-6.0,-7.0,150,2.0,3.73,1037.0,16,-SN,,METAR,METAR UASS 290200Z 15001MPS 6000 -SN OVC020 M06/M07 Q1037 NOSIG RMK QFE759/1012,50.352,80.228,215,Semey Arpt,OVC,"[{'cover': 'OVC', 'base': 2000}]",MVFR,,,,,,KZ,Kazakhstan
3649,UATE,2025-11-29 02:06:44.452000+00:00,1764381600,2025-11-29T02:00:00.000Z,0.0,0.0,100,8.0,0.56,1026.0,16,FG,,METAR,METAR UATE 290200Z 10004MPS 0900 R11/P2000 FG VV002 00/00 Q1026 NOSIG RMK QBB060 QFE767/1023,43.86,51.092,21,Aktau Arpt,OVX,"[{'cover': 'OVX', 'base': 200}]",LIFR,2.0,,,,,KZ,Kazakhstan
1500,UATG,2025-11-29 02:06:44.511000+00:00,1764381600,2025-11-29T02:00:00.000Z,-6.0,-6.0,70,8.0,3.11,1027.0,16,BR,,METAR,METAR UATG 290200Z 07004MPS 5000 BR NSC M06/M06 Q1027 NOSIG RMK QFE772/1030,47.122,51.829,-23,Atyrau Arpt,CLR,[],MVFR,,,,,,KZ,Kazakhstan
47,UATT,2025-11-29 02:06:44.543000+00:00,1764381600,2025-11-29T02:00:00.000Z,-9.0,-11.0,110,2.0,6+,1028.0,16,,,METAR,METAR UATT 290200Z 11001MPS CAVOK M09/M11 Q1028 NOSIG RMK QFE751/1002,50.248,57.203,217,Aktjubinsk/Atkobe Arpt,CAVOK,[],VFR,,,,,,KZ,Kazakhstan
2305,UAUU,2025-11-29 02:06:39.340000+00:00,1764381600,2025-11-29T02:00:00.000Z,-3.0,-5.0,200,14.0,6+,1026.0,16,,,METAR,METAR UAUU 290200Z 20007MPS CAVOK M03/M05 Q1026 NOSIG RMK QFE753/1004,53.215,63.553,177,Kostanay Arpt,CAVOK,[],VFR,,,,,,KZ,Kazakhstan
1510,UBBB,2025-11-29 02:01:35.047000+00:00,1764381600,2025-11-29T02:00:00.000Z,12.0,8.0,130,4.0,6+,1024.0,16,,,METAR,METAR UBBB 290200Z 13004KT 9999 BKN034 12/08 Q1024 NOSIG,40.469,50.061,94,Baku/Aliyev Intl,BKN,"[{'cover': 'BKN', 'base': 3400}]",VFR,,,,,,AZ,Azerbaijan
1539,UBBG,2025-11-29 02:01:35.966000+00:00,1764381600,2025-11-29T02:00:00.000Z,7.0,3.0,260,2.0,3.73,1024.0,16,,,METAR,METAR UBBG 290200Z 26002KT 6000 BKN040 07/03 Q1024 NOSIG,40.738,46.318,333,Gyanca Intl,BKN,"[{'cover': 'BKN', 'base': 4000}]",MVFR,,,,,,AZ,Azerbaijan
2852,UBBN,2025-11-29 02:06:49.980000+00:00,1764381600,2025-11-29T02:00:00.000Z,-3.0,-6.0,360,4.0,3.11,1024.0,16,BR,,METAR,METAR UBBN 290200Z 36004KT 5000 BR ///245 M03/M06 Q1024 NOSIG RMK MT OBSC QFE693,39.189,45.458,857,Nakhchivan Arpt,,,,,,,,,AZ,Azerbaijan
1538,UBBQ,2025-11-29 02:03:18.796000+00:00,1764381600,2025-11-29T02:00:00.000Z,4.0,2.0,0,0.0,3.11,1024.0,16,BR,,METAR,METAR UBBQ 290200Z 00000KT 5000 BR BKN025 04/02 Q1024 NOSIG RMK MT OBSC,40.809,47.729,339,Qabala Intl,BKN,"[{'cover': 'BKN', 'base': 2500}]",MVFR,,,,,,AZ,Azerbaijan
4958,UBBY,2025-11-29 02:01:54.189000+00:00,1764381600,2025-11-29T02:00:00.000Z,6.0,3.0,110,4.0,4.97,1027.0,16,,,METAR,METAR UBBY 290200Z 11004KT 8000 BKN030 06/03 Q1027 NOSIG RMK MT OBSC,41.561,46.667,383,Zakataly Intl,BKN,"[{'cover': 'BKN', 'base': 3000}]",MVFR,,,,,,AZ,Azerbaijan
2587,UDSG,2025-11-29 02:06:15.299000+00:00,1764381600,2025-11-29T02:00:00.000Z,-6.0,-7.0,300,3.0,4.97,1026.0,16,,,METAR,METAR UDSG 290200Z 30003KT 8000 NSC M06/M07 Q1026 NOSIG,40.75,43.859,1515,Gyumri/Shirak Intl,CLR,[],MVFR,,,,,,AM,Armenia
1156,UDYZ,2025-11-29 02:06:15.232000+00:00,1764381600,2025-11-29T02:00:00.000Z,-3.0,-7.0,290,1.0,3.11,1026.0,16,BR,,METAR,METAR UDYZ 290200Z 29001KT 5000 BR FEW033 M03/M07 Q1026 NOSIG,40.147,44.396,851,Yerevan/Zvartnots Intl,FEW,"[{'cover': 'FEW', 'base': 3300}]",MVFR,,,,,,AM,Armenia
4795,UEEE,2025-11-29 02:04:28.670000+00:00,1764381600,2025-11-29T02:00:00.000Z,-37.0,-41.0,140,2.0,1.3,1017.0,16,BR,,METAR,METAR UEEE 290200Z 14001MPS 2100 BR SCT010 M37/M41 Q1017 R23/450173 NOSIG RMK QFE754,62.093,129.774,106,Yakutsk Arpt,SCT,"[{'cover': 'SCT', 'base': 1000}]",IFR,,,,,,RU,Russian Federation
2582,UERR,2025-11-29 02:06:50.008000+00:00,1764381600,2025-11-29T02:00:00.000Z,-37.0,-41.0,VRB,2.0,2.49,1016.0,16,BR,,METAR,METAR UERR 290200Z VRB01MPS 4000 BR FEW006 M37/M41 Q1016 R07/450145 NOSIG RMK QFE732/0976,62.538,114.056,352,Mirny Arpt,FEW,"[{'cover': 'FEW', 'base': 600}]",IFR,,,,,,RU,Russian Federation
2286,UGKO,2025-11-29 02:04:40.644000+00:00,1764381600,2025-11-29T02:00:00.000Z,11.0,3.0,100,7.0,6+,1019.0,16,,,METAR,METAR UGKO 290200Z 10007KT CAVOK 11/03 Q1019 NOSIG,42.177,42.483,44,Kutaisi/Kopitnarii Intl,CAVOK,[],VFR,,,,,,GE,Georgia
654,UGSB,2025-11-29 02:04:40.674000+00:00,1764381600,2025-11-29T02:00:00.000Z,12.0,2.0,130,13.0,6+,1019.0,16,,,METAR,METAR UGSB 290200Z 13013KT CAVOK 12/02 Q1019 NOSIG,41.61,41.6,32,Batumi Intl,CAVOK,[],VFR,,,,,,GE,Georgia
4249,UGTB,2025-11-29 02:04:40.702000+00:00,1764381600,2025-11-29T02:00:00.000Z,1.0,0.0,300,3.0,3.73,1025.0,16,,,METAR,METAR UGTB 290200Z 30003KT 6000 NSC 01/M00 Q1025 NOSIG,41.669,44.955,468,Tbilisi Intl,CLR,[],MVFR,,,,,,GE,Georgia
323,UHBB,2025-11-29 02:04:25.065000+00:00,1764381600,2025-11-29T02:00:00.000Z,-14.0,-16.0,40,4.0,2.3,1010.0,16,-SN,,METAR,METAR UHBB 290200Z 04002MPS 010V070 3700 -SN BKN033 M14/M16 Q1010 R36/490146 NOSIG RMK QFE740/0987,50.425,127.412,185,Blagoveshchensk Arpt,BKN,"[{'cover': 'BKN', 'base': 3300}]",IFR,,,,,,RU,Russian Federation
2083,UHHH,2025-11-29 02:04:25.101000+00:00,1764381600,2025-11-29T02:00:00.000Z,-10.0,-18.0,280,4.0,6+,1015.0,16,,,METAR,METAR UHHH 290200Z 28002MPS 250V310 CAVOK M10/M18 Q1015 R88/090060 NOSIG RMK QFE755/1007,48.527,135.184,74,Khabarovsk/Novy Arpt,CAVOK,[],VFR,,,,,,RU,Russian Federation
1180,UHMA,2025-11-29 02:06:05.566000+00:00,1764381600,2025-11-29T02:00:00.000Z,-16.0,-19.0,300,12.0,6+,1022.0,16,DRSN,,METAR,METAR UHMA 290200Z 30006MPS 9999 DRSN FEW033 M16/M19 Q1022 R02/////// NOSIG RMK MID 29009MPS END R02/28009MPS QFE762/1017,64.733,177.739,53,Anadyr Arpt,FEW,"[{'cover': 'FEW', 'base': 3300}]",VFR,,,,,,RU,Russian Federation
1514,UHMM,2025-11-29 02:06:05.628000+00:00,1764381600,2025-11-29T02:00:00.000Z,-10.0,-12.0,320,2.0,6+,1019.0,16,,,METAR,METAR UHMM 290200Z 32001MPS 9999 SCT033 M10/M12 Q1019 R10/82//55 NOSIG RMK QFE750 R28/11002MPS,59.911,150.725,175,Magadan/Sokol Arpt,SCT,"[{'cover': 'SCT', 'base': 3300}]",VFR,,,,,,RU,Russian Federation
3346,UHPP,2025-11-29 02:04:25.135000+00:00,1764381600,2025-11-29T02:00:00.000Z,1.0,-4.0,120,12.0,5.59,1018.0,16,-SHSN,,METAR,METAR UHPP 290200Z 12006MPS 9000 -SHSN FEW010 BKN024CB BKN055 01/M04 Q1018 R16R/410155 NOSIG RMK MT OBSC QFE760/1014,53.175,158.444,33,Petropavlovsk-Kamchatsky Arpt,BKN,"[{'cover': 'FEW', 'base': 1000}, {'cover': 'BKN', 'base': 2400}, {'cover': 'BKN', 'base': 5500}]",MVFR,,,,,,RU,Russian Federation
4480,UHSS,2025-11-29 02:06:05.711000+00:00,1764381600,2025-11-29T02:00:00.000Z,-2.0,-8.0,310,12.0,6+,1005.0,16,,,METAR,METAR UHSS 290200Z 31006MPS 9999 BKN029CB M02/M08 Q1005 R01/70D NOSIG RMK MT OBSC QFE753/1004,46.887,142.719,14,Yuzhno-Sakhalinsk Arpt,BKN,"[{'cover': 'BKN', 'base': 2900}]",MVFR,,,,,,RU,Russian Federation
4506,UHWW,2025-11-29 02:06:05.803000+00:00,1764381600,2025-11-29T02:00:00.000Z,-1.0,-9.0,VRB,2.0,6+,1015.0,16,,,METAR,METAR UHWW 290200Z VRB01MPS 9999 BKN033 M01/M09 Q1015 R25L/0///70 NOSIG RMK QFE760,43.399,132.146,11,Vladivostok Intl,BKN,"[{'cover': 'BKN', 'base': 3300}]",VFR,,,,,,RU,Russian Federation
1775,UIAA,2025-11-29 02:06:44.584000+00:00,1764381600,2025-11-29T02:00:00.000Z,-16.0,-19.0,180,2.0,3.73,1008.0,16,,,METAR,METAR UIAA 290200Z 18001MPS 6000 NSC M16/M19 Q1008 R29/410167 NOSIG RMK QFE698/0930,52.026,113.31,650,Chita/Kadala Arpt,CLR,[],MVFR,,,,,,RU,Russian Federation
616,UIBB,2025-11-29 02:06:44.619000+00:00,1764381600,2025-11-29T02:00:00.000Z,-25.0,-29.0,290,8.0,6+,1018.0,16,,,METAR,METAR UIBB 290200Z 29004MPS 9999 SCT023 M25/M29 Q1018 R12/420145 NOSIG RMK QFE720/0961,56.365,101.716,485,Bratsk Arpt,SCT,"[{'cover': 'SCT', 'base': 2300}]",VFR,,,,,,RU,Russian Federation
1773,UIII,2025-11-29 02:06:44.661000+00:00,1764381600,2025-11-29T02:00:00.000Z,-11.0,-14.0,350,10.0,6+,1017.0,16,-SHSN,,METAR,METAR UIII 290200Z 35005MPS 9999 -SHSN BKN050CB M11/M14 Q1017 R30/490340 NOSIG RMK QFE718/0958,52.273,104.38,480,Irkutsk Intl,BKN,"[{'cover': 'BKN', 'base': 5000}]",VFR,,,,,,RU,Russian Federation
4492,UIUU,2025-11-29 02:06:44.694000+00:00,1764381600,2025-11-29T02:00:00.000Z,-11.0,-12.0,VRB,2.0,4.35,1013.0,16,-SHSN,,METAR,METAR UIUU 290200Z VRB01MPS 7000 -SHSN BKN037CB M11/M12 Q1013 R26/450545 NOSIG RMK QFE716/0954,51.808,107.443,508,Ulan-Ude Arpt,BKN,"[{'cover': 'BKN', 'base': 3700}]",MVFR,,,,,,RU,Russian Federation
69,ULAA,2025-11-29 02:06:44.732000+00:00,1764381600,2025-11-29T02:00:00.000Z,2.0,1.0,230,10.0,6+,999.0,16,-SN -RA,,METAR,METAR ULAA 290200Z 23005MPS 170V270 9999 -SNRA BKN007 OVC013 02/01 Q0999 R26/690340 NOSIG RMK QFE748/0997,64.599,40.712,10,Arhangelsk/Talagi Arpt,OVC,"[{'cover': 'BKN', 'base': 700}, {'cover': 'OVC', 'base': 1300}]",IFR,,,,,,RU,Russian Federation
2310,ULLI,2025-11-29 02:06:44.108000+00:00,1764381600,2025-11-29T02:00:00.000Z,2.0,0.0,210,6.0,6+,1011.0,16,,,METAR,METAR ULLI 290200Z 21003MPS 9999 OVC008 02/M00 Q1011 R28L/290050 NOSIG,59.798,30.267,25,St Petersburg/Pulkovo Arpt,OVC,"[{'cover': 'OVC', 'base': 800}]",IFR,,,,,,RU,Russian Federation
2839,ULMM,2025-11-29 02:06:44.140000+00:00,1764381600,2025-11-29T02:00:00.000Z,0.0,0.0,270,8.0,1.99,983.0,16,-SHSN -SHRA,,METAR,METAR ULMM 290200Z 27004MPS 3200 -SHSNRA SCT007 BKN012CB 00/M00 Q0983 R13/590242 NOSIG RMK OBST OBSC QFE731,68.781,32.749,79,Murmansk Arpt,BKN,"[{'cover': 'SCT', 'base': 700}, {'cover': 'BKN', 'base': 1200}]",IFR,,,,,,RU,Russian Federation
3344,ULOO,2025-11-29 02:06:50.041000+00:00,1764381600,2025-11-29T02:00:00.000Z,1.0,0.0,180,10.0,2.55,1015.0,16,-DZ BR,,METAR,METAR ULOO 290200Z 18005MPS 4100 -DZ BR OVC004 01/M00 Q1015 NOSIG RMK OBST OBSC QFE757,57.79,28.397,46,Pskov Arpt,OVC,"[{'cover': 'OVC', 'base': 400}]",LIFR,,,,,,RU,Russian Federation
3345,ULPB,2025-11-29 02:04:24.909000+00:00,1764381600,2025-11-29T02:00:00.000Z,3.0,2.0,210,12.0,5.59,1007.0,2,,,METAR,METAR ULPB 290200Z AUTO 21006MPS 9000 // ///007/// 03/02 Q1007 RMK QBB210 QFE751/1002,61.885,34.155,41,Petrozavodsk Arpt,,,,,,,,,RU,Russian Federation
1526,UMGG,2025-11-29 02:06:44.758000+00:00,1764381600,2025-11-29T02:00:00.000Z,0.0,0.0,150,6.0,2.73,1023.0,16,-SHRA BR,,METAR,METAR UMGG 290200Z 15003MPS 4400 -SHRA BR SCT004 OVC021CB 00/M00 Q1023 NOSIG RMK QBB120,52.525,31.015,135,Gomel Arpt,OVC,"[{'cover': 'SCT', 'base': 400}, {'cover': 'OVC', 'base': 2100}]",IFR,,,,,,BY,Belarus
2084,UMKK,2025-11-29 02:06:50.080000+00:00,1764381600,2025-11-29T02:00:00.000Z,-1.0,-3.0,180,10.0,4.97,1014.0,16,,,METAR,METAR UMKK 290200Z 18005MPS 8000 NSC M01/M03 Q1014 R24/290095 NOSIG RMK QFE759/1013,54.885,20.583,6,Kaliningrad/Khrabrovo Arpt,CLR,[],MVFR,,,,,,RU,Russian Federation
2853,UMMS,2025-11-29 02:06:44.794000+00:00,1764381600,2025-11-29T02:00:00.000Z,-2.0,-2.0,190,10.0,0.47,1020.0,16,-FZDZ FZFG,,METAR,METAR UMMS 290200Z 19005MPS 0750 0600E R13L/1600 R13R/1800 -FZDZ FZFG VV001 M02/M02 Q1020 NOSIG RMK QBB050,53.883,28.031,196,Minsk Arpt,OVX,"[{'cover': 'OVX', 'base': 100}]",LIFR,1.0,,,,,BY,Belarus
27,UNAA,2025-11-29 02:06:44.833000+00:00,1764381600,2025-11-29T02:00:00.000Z,-18.0,-21.0,330,6.0,6+,1032.0,16,,,METAR,METAR UNAA 290200Z 33003MPS CAVOK M18/M21 Q1032 R02/190065 NOSIG RMK QFE751,53.74,91.385,249,Abakan Intl,CAVOK,[],VFR,,,,,,RU,Russian Federation
335,UNBB,2025-11-29 02:06:50.115000+00:00,1764381600,2025-11-29T02:00:00.000Z,-23.0,-27.0,350,4.0,6+,1038.0,16,,,METAR,METAR UNBB 290200Z 35002MPS CAVOK M23/M27 Q1038 R24/950148 NOSIG RMK QFE755,53.362,83.54,249,Barnaul Arpt,CAVOK,[],VFR,,,,,,RU,Russian Federation
2087,UNEE,2025-11-29 02:06:50.155000+00:00,1764381600,2025-11-29T02:00:00.000Z,-27.0,-30.0,270,6.0,6+,1036.0,16,,,METAR,METAR UNEE 290200Z 27003MPS CAVOK M27/M30 Q1036 R23/820245 NOSIG RMK QFE754,55.27,86.107,261,Kemerovo Intl,CAVOK,[],VFR,,,,,,RU,Russian Federation
2086,UNKL,2025-11-29 02:06:50.197000+00:00,1764381600,2025-11-29T02:00:00.000Z,-25.0,-30.0,270,8.0,6+,1030.0,16,,,METAR,METAR UNKL 290200Z 27004MPS 9999 SCT045 M25/M30 Q1030 R29/810247 NOSIG RMK QFE746,56.173,92.493,278,Krasnoyarsk Arpt,SCT,"[{'cover': 'SCT', 'base': 4500}]",VFR,,,,,,RU,Russian Federation
3066,UNNT,2025-11-29 02:06:44.874000+00:00,1764381600,2025-11-29T02:00:00.000Z,-28.0,-30.0,310,2.0,6+,1040.0,16,,,METAR,METAR UNNT 290200Z 31001MPS CAVOK M28/M30 Q1040 R25/820250 R16/////// NOSIG RMK QFE770/1027,55.013,82.651,106,Novosibirsk/Tolmachevo Arpt,CAVOK,[],VFR,,,,,,RU,Russian Federation
3064,UNOO,2025-11-29 02:06:50.254000+00:00,1764381600,2025-11-29T02:00:00.000Z,-11.0,-14.0,130,14.0,6+,1033.0,16,-SHSN,,METAR,METAR UNOO 290200Z 13007MPS 9999 -SHSN BKN030CB M11/M14 Q1033 R07/190050 NOSIG RMK QFE766,54.964,73.32,85,Omsk Arpt,BKN,"[{'cover': 'BKN', 'base': 3000}]",MVFR,,,,,,RU,Russian Federation
4274,UNTT,2025-11-29 02:04:23.789000+00:00,1764381600,2025-11-29T02:00:00.000Z,-29.0,-32.0,260,6.0,6+,1037.0,16,,,METAR,METAR UNTT 290200Z 26003MPS 9999 SCT032 M29/M32 Q1037 R21/490137 NOSIG RMK QFE762,56.381,85.207,179,Tomsk/Bogashevo Arpt,SCT,"[{'cover': 'SCT', 'base': 3200}]",VFR,,,,,,RU,Russian Federation
3097,UNWW,2025-11-29 02:06:50.291000+00:00,1764381600,2025-11-29T02:00:00.000Z,-24.0,-27.0,360,2.0,6+,1036.0,16,,,METAR,METAR UNWW 290200Z 36001MPS 9999 SCT023 M24/M27 Q1036 R19/950239 NOSIG RMK QFE750,53.811,86.878,307,Novokuznetsk Arpt,SCT,"[{'cover': 'SCT', 'base': 2300}]",VFR,,,,,,RU,Russian Federation
3067,UOOO,2025-11-29 02:06:44.171000+00:00,1764381600,2025-11-29T02:00:00.000Z,-31.0,-35.0,180,6.0,2.11,1025.0,16,BR,,METAR,METAR UOOO 290200Z 18003MPS 3400 BR FEW013 M31/M35 Q1025 R19/450340 NOSIG RMK QFE752/1003,69.308,87.322,177,Norilsk/Alykel Arpt,FEW,"[{'cover': 'FEW', 'base': 1300}]",IFR,,,,,,RU,Russian Federation
31,URKA,2025-11-29 02:06:43.758000+00:00,1764381600,2025-11-29T02:00:00.000Z,6.0,3.0,80,4.0,6+,1018.0,16,,,METAR,METAR URKA 290200Z 08002MPS CAVOK 06/03 Q1018 R21/010065 NOSIG RMK QFE759/1012,44.995,37.341,41,Anapa Arpt,CAVOK,[],VFR,,,,,,RU,Russian Federation
2309,URKK,2025-11-29 02:06:43.794000+00:00,1764381600,2025-11-29T02:00:00.000Z,4.0,4.0,50,4.0,0.03,1019.0,16,FG,,METAR,METAR URKK 290200Z 05002MPS 0050 R05R/0050N FG VV001 04/04 Q1019 R05R/CLRD70 NOSIG RMK QBB040 OBST OBSC QFE761,45.033,39.15,29,Krasnodar Arpt,OVX,"[{'cover': 'OVX', 'base': 100}]",LIFR,1.0,,,,,RU,Russian Federation
2584,URML,2025-11-29 02:06:50.328000+00:00,1764381600,2025-11-29T02:00:00.000Z,11.0,9.0,160,8.0,6+,1024.0,16,,,METAR,METAR URML 290200Z 16004MPS 9999 OVC012 11/09 Q1024 R14/190065 NOSIG RMK MT OBSC QFE767/1023,42.817,47.652,4,Makhachkala/Uytash Arpt,OVC,"[{'cover': 'OVC', 'base': 1200}]",MVFR,,,,,,RU,Russian Federation
2863,URMM,2025-11-29 02:06:43.832000+00:00,1764381600,2025-11-29T02:00:00.000Z,6.0,5.0,120,12.0,3.73,1022.0,16,,,METAR,METAR URMM 290200Z 12006MPS 6000 OVC007 06/05 Q1022 R11/010070 NOSIG RMK MT OBSC OBST OBSC QFE738/0984,44.225,43.082,318,Mineralyne Vody Arpt,OVC,"[{'cover': 'OVC', 'base': 700}]",IFR,,,,,,RU,Russian Federation
2860,URMN,2025-11-29 02:06:43.870000+00:00,1764381600,2025-11-29T02:00:00.000Z,4.0,3.0,200,2.0,6+,1021.0,0,,,METAR,METAR URMN 290200Z 20001MPS 9999 OVC006 04/03 Q1021 R24/////// TEMPO 0500 FG OVC002 RMK MT OBSC QFE729,43.514,43.646,424,Nalchik Arpt,OVC,"[{'cover': 'OVC', 'base': 600}]",IFR,,,,,,RU,Russian Federation
3100,URMO,2025-11-29 02:04:25.872000+00:00,1764381600,2025-11-29T02:00:00.000Z,3.0,3.0,80,4.0,0.22,1022.0,16,FG,,METAR,METAR URMO 290200Z 08002MPS 0350 R09/1000N FG VV002 03/03 Q1022 R09/190060 NOSIG RMK QBB060 MT OBSC OBST OBSC QFE722/0963,43.204,44.608,505,Vladikavkaz Arpt,OVX,"[{'cover': 'OVX', 'base': 200}]",LIFR,2.0,,,,,RU,Russian Federation
3928,URMT,2025-11-29 02:06:43.907000+00:00,1764381600,2025-11-29T02:00:00.000Z,3.0,3.0,180,10.0,3.73,1020.0,16,,,METAR,METAR URMT 290200Z 18005MPS 6000 SCT010 03/03 Q1020 R25/010070 NOSIG RMK QFE726,45.108,42.1,448,Stavropol/Shpakovskoye Intl,SCT,"[{'cover': 'SCT', 'base': 1000}]",MVFR,,,,,,RU,Russian Federation
3620,URRP,2025-11-29 02:04:25.944000+00:00,1764381600,2025-11-29T02:00:00.000Z,3.0,3.0,90,12.0,3.11,1022.0,16,BR,,METAR,METAR URRP 290200Z 09006MPS 5000 BR FEW006 03/03 Q1022 R05/190060 NOSIG RMK QFE762/1016,47.494,39.925,73,Platov Intl,FEW,"[{'cover': 'FEW', 'base': 600}]",MVFR,,,,,,RU,Russian Federation
29,URSS,2025-11-29 02:06:43.952000+00:00,1764381600,2025-11-29T02:00:00.000Z,9.0,3.0,30,12.0,6+,1019.0,16,,,METAR,METAR URSS 290200Z 03006MPS 9999 NSC 09/03 Q1019 R02/010070 R06/010070 NOSIG RMK R06/07004MPS QFE763,43.438,39.926,4,Sochi Intl,CLR,[],VFR,,,,,,RU,Russian Federation
68,URWA,2025-11-29 02:06:43.985000+00:00,1764381600,2025-11-29T02:00:00.000Z,0.0,0.0,0,0.0,3.73,1027.0,16,PRFG,,METAR,METAR URWA 290200Z 00000MPS 6000 0400NW R09/1000N PRFG OVC004 M00/M00 Q1027 R09/010070 NOSIG RMK OBST OBSC QFE772/1030,46.286,47.995,-19,Astrakhan Arpt,OVC,"[{'cover': 'OVC', 'base': 400}]",LIFR,,,,,,RU,Russian Federation
1149,URWI,2025-11-29 02:06:44.022000+00:00,1764381600,2025-11-29T02:00:00.000Z,0.0,0.0,170,6.0,0.03,1024.0,2,,,METAR,METAR URWI 290200Z AUTO 17003MPS 0050 // ///001/// M00/M00 Q1024 RMK QBB040,46.374,44.331,145,Elista Arpt,,,,,,,,,RU,Russian Federation
4494,URWW,2025-11-29 02:06:44.058000+00:00,1764381600,2025-11-29T02:00:00.000Z,0.0,0.0,240,4.0,0.06,1025.0,16,FG,,METAR,METAR URWW 290200Z 24002MPS 210V270 0100 R05/0350N FG VV001 00/00 Q1025 R05/010070 NOSIG RMK QBB050 OBST OBSC,48.788,44.336,131,Volgograd Intl,OVX,"[{'cover': 'OVX', 'base': 100}]",LIFR,1.0,,,,,RU,Russian Federation
617,USCC,2025-11-29 02:06:42.648000+00:00,1764381600,2025-11-29T02:00:00.000Z,2.0,0.0,230,8.0,6+,1020.0,16,,,METAR,METAR USCC 290200Z 23004MPS 9999 BKN020 02/M00 Q1020 R27/690345 NOSIG RMK QFE745,55.306,61.503,227,Cheljabinsk Arpt,BKN,"[{'cover': 'BKN', 'base': 2000}]",MVFR,,,,,,RU,Russian Federation
2877,USCM,2025-11-29 02:04:28.744000+00:00,1764381600,2025-11-29T02:00:00.000Z,0.0,-4.0,180,8.0,6+,1023.0,16,,,METAR,METAR USCM 290200Z 18004MPS 9999 OVC040CB 00/M04 Q1023 R18/090060 NOSIG RMK QFE729,53.393,58.756,425,Magnitogorsk Intl,OVC,"[{'cover': 'OVC', 'base': 4000}]",VFR,,,,,,RU,Russian Federation
3619,USDA,2025-11-29 02:04:28.706000+00:00,1764381600,2025-11-29T02:00:00.000Z,-19.0,-21.0,170,14.0,4.35,1009.0,16,BLSN,,METAR,METAR USDA 290200Z 17007MPS 7000 BLSN FEW003 M19/M21 Q1009 R22/410250 NOSIG RMK QBB110 QFE756/1008,71.216,72.05,5,Sabette Arpt,FEW,"[{'cover': 'FEW', 'base': 300}]",MVFR,,,,,,RU,Russian Federation
3887,USDD,2025-11-29 02:06:42.705000+00:00,1764381600,2025-11-29T02:00:00.000Z,-21.0,-23.0,190,8.0,4.35,1016.0,16,-SN,,METAR,METAR USDD 290200Z 19004MPS 7000 -SN SCT010 M21/M23 Q1016 R22/450534 NOSIG RMK QFE758/1010,66.591,66.611,53,Salekhard Arpt,SCT,"[{'cover': 'SCT', 'base': 1000}]",MVFR,,,,,,RU,Russian Federation
1805,USHH,2025-11-29 02:04:23.889000+00:00,1764381600,2025-11-29T02:00:00.000Z,-13.0,-17.0,120,14.0,1.06,1020.0,0,BLSN SN,,METAR,METAR USHH 290200Z 12007MPS 1700 R06/P2000U SN BLSN BKN016 M13/M17 Q1020 R06/413035 TEMPO 0600 +SN OVC003,61.029,69.086,46,Khanty-Mansijsk Arpt,BKN,"[{'cover': 'BKN', 'base': 1600}]",IFR,,,,,,RU,Russian Federation
3068,USNN,2025-11-29 02:06:44.908000+00:00,1764381600,2025-11-29T02:00:00.000Z,-30.0,-33.0,140,2.0,6+,1035.0,16,,,METAR,METAR USNN 290200Z 14001MPS CAVOK M30/M33 Q1035 R21/0///65 NOSIG RMK QFE771,60.959,76.497,52,Nizhnevartovsk Arpt,CAVOK,[],VFR,,,,,,RU,Russian Federation
3338,USPP,2025-11-29 02:06:42.783000+00:00,1764381600,2025-11-29T02:00:00.000Z,1.0,0.0,230,8.0,6+,1018.0,0,,,METAR,METAR USPP 290200Z 23004MPS 9999 OVC006 01/00 Q1018 R21/690250 TEMPO 3200 -FZRA RMK QBB180 QFE753,57.914,56.021,120,Perm/Savino Arpt,OVC,"[{'cover': 'OVC', 'base': 600}]",IFR,,,,,,RU,Russian Federation
3929,USRR,2025-11-29 02:06:42.852000+00:00,1764381600,2025-11-29T02:00:00.000Z,-24.0,-27.0,150,8.0,6+,1030.0,0,,,METAR,METAR USRR 290200Z 15004MPS 9999 FEW012 M24/M27 Q1030 R07/810260 RMK QFE767,61.342,73.422,52,Surgut Intl,FEW,"[{'cover': 'FEW', 'base': 1200}]",VFR,,,,,,RU,Russian Federation
3927,USSS,2025-11-29 02:06:42.906000+00:00,1764381600,2025-11-29T02:00:00.000Z,1.0,1.0,260,8.0,6+,1019.0,16,,,METAR,METAR USSS 290200Z 26004MPS 9999 BKN012 01/01 Q1019 R26L/290042 NOSIG RMK QFE743/0991,56.745,60.792,222,Yekaterinburg/Koltsovo Arpt,BKN,"[{'cover': 'BKN', 'base': 1200}]",MVFR,,,,,,RU,Russian Federation
4269,USTR,2025-11-29 02:06:42.942000+00:00,1764381600,2025-11-29T02:00:00.000Z,-2.0,-2.0,220,12.0,2.8,1017.0,0,-SHSN BLSN,,METAR,METAR USTR 290200Z 22006MPS 4500 -SHSN BLSN BKN013CB OVC040 M02/M02 Q1017 R21/451039 R30/////99 TEMPO 18006G15MPS 1000 SHSN BLSN VV004,57.19,65.324,93,Tyumen/Roschino Intl,OVC,"[{'cover': 'BKN', 'base': 1300}, {'cover': 'OVC', 'base': 4000}]",IFR,,,,,,RU,Russian Federation
42,UTAA,2025-11-29 02:06:44.929000+00:00,1764381600,2025-11-29T02:00:00.000Z,5.0,5.0,300,6.0,3.73,1024.0,16,,,METAR,METAR UTAA 290200Z 30006KT 6000 NSC 05/05 Q1024 R88/CLRD70 NOSIG,37.975,58.371,207,Ashgabat Intl,CLR,[],MVFR,,,,,,TM,Turkmenistan
2312,UTAK,2025-11-29 02:06:44.948000+00:00,1764381600,2025-11-29T02:00:00.000Z,7.0,3.0,80,6.0,6+,1024.0,16,,,METAR,METAR UTAK 290200Z 08006KT 9999 OVC037 07/03 Q1024 R16R/CLRD70 NOSIG,40.054,53.007,83,Turkmenbashi Arpt,OVC,"[{'cover': 'OVC', 'base': 3700}]",VFR,,,,,,TM,Turkmenistan
2840,UTAM,2025-11-29 02:06:44.191000+00:00,1764381600,2025-11-29T02:00:00.000Z,3.0,0.0,120,4.0,3.73,1027.0,16,,,METAR,METAR UTAM 290200Z 12004KT 6000 NSC 03/M00 Q1027 R88/CLRD70 NOSIG,37.619,61.897,218,Mary Arpt,CLR,[],MVFR,,,,,,TM,Turkmenistan
4231,UTAT,2025-11-29 02:06:44.968000+00:00,1764381600,2025-11-29T02:00:00.000Z,3.0,2.0,0,0.0,3.73,1023.0,16,,,METAR,METAR UTAT 290200Z 00000KT 6000 OVC015 03/02 Q1023 R26/CLRD70 NOSIG,41.761,59.827,84,Daşoguz Arpt,OVC,"[{'cover': 'OVC', 'base': 1500}]",MVFR,,,,,,TM,Turkmenistan
916,UTAV,2025-11-29 02:06:44.985000+00:00,1764381600,2025-11-29T02:00:00.000Z,2.0,2.0,0,0.0,0.09,1025.0,16,MIFG,,METAR,METAR UTAV 290200Z 00000KT 0150 R31/0900U MIFG NSC 02/02 Q1025 R31/CLRD70 NOSIG,39.083,63.613,187,Türkmenabat Arpt,CLR,[],LIFR,,,,,,TM,Turkmenistan
1158,UTDD,2025-11-29 02:06:45.027000+00:00,1764381600,2025-11-29T02:00:00.000Z,1.0,-5.0,VRB,2.0,3.11,1024.0,16,BR FU,,METAR,METAR UTDD 290200Z VRB01MPS 5000 BR FU NSC 01/M05 Q1024 R09/CLRD// NOSIG RMK QFE699/0932,38.543,68.825,785,Dushanbe Arpt,CLR,[],MVFR,,,,,,TJ,Tajikistan
4262,UTDK,2025-11-29 02:06:14.679000+00:00,1764381600,2025-11-29T02:00:00.000Z,1.0,-9.0,VRB,2.0,6+,1024.0,0,,,METAR,METAR UTDK 290200Z VRB01MPS 9999 NSC 01/M09 Q1024 R01/09//70 RMK QFE710/0947,37.988,69.805,675,Kulob Arpt,CLR,[],VFR,,,,,,TJ,Tajikistan
2296,UTDL,2025-11-29 02:06:45.053000+00:00,1764381600,2025-11-29T02:00:00.000Z,0.0,-6.0,260,4.0,6+,1024.0,16,,,METAR,METAR UTDL 290200Z 26002MPS 9999 NSC 00/M06 Q1024 R26/CLRD70 NOSIG RMK QFE730/0974,40.215,69.695,436,Khujand Arpt,CLR,[],VFR,,,,,,TJ,Tajikistan
2297,UTDT,2025-11-29 02:06:14.824000+00:00,1764381600,2025-11-29T02:00:00.000Z,0.0,-1.0,0,0.0,1.3,1024.0,0,BR FU,,METAR,METAR UTDT 290200Z 00000MPS 2100 BR FU NSC 00/M01 Q1024 R35/CLRD70 RMK QFE728/0971,37.866,68.865,443,Qurghonteppa Intl,CLR,[],IFR,,,,,,TJ,Tajikistan
2090,UUBC,2025-11-29 02:04:23.207000+00:00,1764381600,2025-11-29T02:00:00.000Z,0.0,0.0,210,8.0,3.73,1023.0,16,,,METAR,METAR UUBC 290200Z 21004MPS 6000 OVC003 M00/M00 Q1023 R31/190055 NOSIG RMK QFE750/1000,54.552,36.37,198,Kaluga Intl,OVC,"[{'cover': 'OVC', 'base': 300}]",LIFR,,,,,,RU,Russian Federation
4974,UUBW,2025-11-29 02:04:26.149000+00:00,1764381600,2025-11-29T02:00:00.000Z,1.0,0.0,230,6.0,6+,1022.0,16,,,METAR,METAR UUBW 290200Z 23003MPS 9999 OVC006 01/M00 Q1022 R30/010060 NOSIG RMK QFE756,55.553,38.15,111,Moscow/Ramenskoye Arpt,OVC,"[{'cover': 'OVC', 'base': 600}]",IFR,,,,,,RU,Russian Federation
905,UUDD,2025-11-29 02:06:44.237000+00:00,1764381600,2025-11-29T02:00:00.000Z,0.0,0.0,260,10.0,6+,1022.0,16,,,METAR,METAR UUDD 290200Z 26005MPS 9999 OVC004 M00/M00 Q1022 R31L/CLRD60 NOSIG,55.409,37.906,165,Moscow/Domodedovo Arpt,OVC,"[{'cover': 'OVC', 'base': 400}]",LIFR,,,,,,RU,Russian Federation
1802,UUDL,2025-11-29 02:04:26.529000+00:00,1764381600,2025-11-29T02:00:00.000Z,1.0,-1.0,220,6.0,6+,1019.0,16,,,METAR,METAR UUDL 290200Z 22003MPS 9999 BKN011 01/M01 Q1019 R23/290155 NOSIG RMK QFE756,57.561,40.157,88,Yaroslav/Tunoshna Arpt,BKN,"[{'cover': 'BKN', 'base': 1100}]",MVFR,,,,,,RU,Russian Federation
3879,UUEE,2025-11-29 02:06:45.393000+00:00,1764381600,2025-11-29T02:00:00.000Z,0.0,-1.0,230,12.0,6+,1021.0,16,,,METAR,METAR UUEE 290200Z 23006MPS 9999 BKN006 M00/M01 Q1021 R24L/120057 R24C/120057 NOSIG,55.973,37.415,186,Moscow/Sheremetyevo Intl,BKN,"[{'cover': 'BKN', 'base': 600}]",IFR,,,,,,RU,Russian Federation
1186,UUOB,2025-11-29 02:04:23.236000+00:00,1764381600,2025-11-29T02:00:00.000Z,1.0,1.0,60,6.0,3.73,1023.0,16,,,METAR,METAR UUOB 290200Z 06003MPS 6000 OVC004 01/01 Q1023 R11/190065 NOSIG RMK QBB120,50.644,36.59,218,Belgorod Intl,OVC,"[{'cover': 'OVC', 'base': 400}]",LIFR,,,,,,RU,Russian Federation
4498,UUOK,2025-11-29 02:04:23.240000+00:00,1764381600,2025-11-29T02:00:00.000Z,0.0,-1.0,100,4.0,6+,1024.0,16,,,METAR,METAR UUOK 290200Z 10002MPS CAVOK 00/M01 Q1024 R12/////// NOSIG RMK QFE750/1000,51.751,36.297,203,Kursk/Vostochmy Arpt,CAVOK,[],VFR,,,,,,RU,Russian Federation
2583,UUOL,2025-11-29 02:04:26.183000+00:00,1764381600,2025-11-29T02:00:00.000Z,0.0,-1.0,310,4.0,6+,1024.0,2,,,METAR,METAR UUOL 290200Z AUTO 31002MPS 280V350 9999 ///010 00/M01 Q1024,52.702,39.534,176,Lipetsk Arpt,,,,,,,,,RU,Russian Federation
4485,UUOO,2025-11-29 02:06:45.438000+00:00,1764381600,2025-11-29T02:00:00.000Z,1.0,-1.0,70,4.0,6+,1025.0,16,,,METAR,METAR UUOO 290200Z 07002MPS 9999 SCT013 01/M01 Q1025 R12/190055 NOSIG RMK QFE754,51.814,39.228,154,Voronez Intl,SCT,"[{'cover': 'SCT', 'base': 1300}]",VFR,,,,,,RU,Russian Federation
4477,UUWW,2025-11-29 02:06:45.473000+00:00,1764381600,2025-11-29T02:00:00.000Z,0.0,-1.0,220,10.0,6+,1022.0,16,,,METAR,METAR UUWW 290200Z 22005MPS 9999 OVC004 M00/M01 Q1022 R24/120060 NOSIG,55.592,37.261,195,Moscow/Vnukovo Arpt,OVC,"[{'cover': 'OVC', 'base': 400}]",LIFR,,,,,,RU,Russian Federation
3640,UUYY,2025-11-29 02:06:53.229000+00:00,1764381600,2025-11-29T02:00:00.000Z,0.0,0.0,210,10.0,6+,1011.0,16,,,METAR,METAR UUYY 290200Z 21005MPS 9999 OVC006 M00/M00 Q1011 R18/490338 NOSIG RMK QFE750/1000,61.647,50.845,107,Syktyvkar Arpt,OVC,"[{'cover': 'OVC', 'base': 600}]",IFR,,,,,,RU,Russian Federation
1519,UWGG,2025-11-29 02:06:45.545000+00:00,1764381600,2025-11-29T02:00:00.000Z,2.0,1.0,260,6.0,6+,1021.0,16,,,METAR,METAR UWGG 290200Z 26003MPS 9999 OVC008 02/01 Q1021 R18L/290050 NOSIG,56.225,43.786,73,Nizhny Novgorod Intl,OVC,"[{'cover': 'OVC', 'base': 800}]",IFR,,,,,,RU,Russian Federation
2313,UWKD,2025-11-29 02:06:45.584000+00:00,1764381600,2025-11-29T02:00:00.000Z,4.0,4.0,180,4.0,0.16,1020.0,16,FG,,METAR,METAR UWKD 290200Z 18002MPS 0250 0200SE R11/0700N FG VV002 04/04 Q1020 R11/290050 NOSIG RMK QBB070 QFE755/1007,55.61,49.275,114,Kazan Intl,OVX,"[{'cover': 'OVX', 'base': 200}]",LIFR,2.0,,,,,RU,Russian Federation
2876,UWKE,2025-11-29 02:06:45.632000+00:00,1764381600,2025-11-29T02:00:00.000Z,0.0,0.0,220,8.0,1.8,1021.0,16,-DZ BR,,METAR,METAR UWKE 290200Z 22004MPS 2900 -DZ BR OVC003 00/00 Q1021 R21/290053 NOSIG RMK OBST OBSC QFE749/0999,55.566,52.1,193,Begishevo Arpt,OVC,"[{'cover': 'OVC', 'base': 300}]",LIFR,,,,,,RU,Russian Federation
929,UWKS,2025-11-29 02:04:28.459000+00:00,1764381600,2025-11-29T02:00:00.000Z,4.0,4.0,270,2.0,0.22,1020.0,16,FG,,METAR,METAR UWKS 290200Z 27001MPS 0350 0300NE R24/0325D FG VV001 04/04 Q1020 R24/290150 NOSIG RMK QBB050 QFE751,56.09,47.347,165,Cheboksary Arpt,OVX,"[{'cover': 'OVX', 'base': 100}]",LIFR,1.0,,,,,RU,Russian Federation
4490,UWLL,2025-11-29 02:06:50.368000+00:00,1764381600,2025-11-29T02:00:00.000Z,4.0,3.0,200,8.0,1.55,1021.0,16,BR,,METAR,METAR UWLL 290200Z 20004MPS 2500 1000S BR OVC003 04/03 Q1021 R20/290150 NOSIG RMK QBB090 QFE756/1008,54.274,48.236,119,Ulyanovsk/Barataevka,OVC,"[{'cover': 'OVC', 'base': 300}]",LIFR,,,,,,RU,Russian Federation
4474,UWLW,2025-11-29 02:06:45.672000+00:00,1764381600,2025-11-29T02:00:00.000Z,4.0,4.0,160,2.0,6+,1021.0,16,,,METAR,METAR UWLW 290200Z 16001MPS 9999 OVC006 04/04 Q1021 R20/290250 NOSIG RMK QFE761/1014,54.402,48.8,67,Ulyanovsk/Vostochny Arpt,OVC,"[{'cover': 'OVC', 'base': 600}]",IFR,,,,,,RU,Russian Federation
3666,UWOO,2025-11-29 02:06:45.706000+00:00,1764381600,2025-11-29T02:00:00.000Z,-4.0,-5.0,100,4.0,6+,1027.0,16,,,METAR,METAR UWOO 290200Z 10002MPS 9999 SCT049 M04/M05 Q1027 R08/CLRD60 NOSIG RMK QFE759/1013,51.795,55.457,90,Orenburg Arpt,SCT,"[{'cover': 'SCT', 'base': 4900}]",VFR,,,,,,RU,Russian Federation
3103,UWOR,2025-11-29 02:06:50.394000+00:00,1764381600,2025-11-29T02:00:00.000Z,-6.0,-7.0,240,6.0,6+,1027.0,16,,,METAR,METAR UWOR 290200Z 24003MPS CAVOK M06/M07 Q1027 R25/CLRD60 NOSIG RMK QFE747/0996,51.07,58.597,270,Orsk Arpt,CAVOK,[],VFR,,,,,,RU,Russian Federation
3888,UWPS,2025-11-29 02:04:23.335000+00:00,1764381600,2025-11-29T02:00:00.000Z,6.0,5.0,0,0.0,0.5,1020.0,16,+DZ FG,,METAR,METAR UWPS 290200Z 00000MPS 0800 0700E R20/0800N +DZ FG OVC006 06/05 Q1020 R20/////// NOSIG RMK QFE748,54.116,45.203,206,Saransk Arpt,OVC,"[{'cover': 'OVC', 'base': 600}]",LIFR,,,,,,RU,Russian Federation
1513,UWSG,2025-11-29 02:04:28.610000+00:00,1764381600,2025-11-29T02:00:00.000Z,5.0,5.0,180,4.0,2.61,1022.0,16,BR,,METAR,METAR UWSG 290200Z 18002MPS 4200 BR OVC007 05/05 Q1022 R26/290060 NOSIG RMK QFE764/1019,51.713,46.171,31,Saratov/Gagarin Arpt,OVC,"[{'cover': 'OVC', 'base': 700}]",IFR,,,,,,RU,Russian Federation
4452,UWUU,2025-11-29 02:07:22.348000+00:00,1764382020,2025-11-29T02:07:00.000Z,2.0,1.0,190,8.0,6+,1023.0,0,,,SPECI,SPECI UWUU 290207Z 19004MPS 9999 OVC008 02/01 Q1023 R14R/290144 TEMPO 1000 SNRA BKN006 RMK QBB240,54.57,55.87,137,Ufa Intl,OVC,"[{'cover': 'OVC', 'base': 800}]",IFR,,,,,,RU,Russian Federation
2314,UWWW,2025-11-29 02:06:45.793000+00:00,1764381600,2025-11-29T02:00:00.000Z,1.0,0.0,180,8.0,4.97,1022.0,16,,,METAR,METAR UWWW 290200Z 18004MPS 8000 OVC003 01/00 Q1022 R15/290250 NOSIG RMK QFE755/1007,53.509,50.163,124,Samara/Kurumoch Intl,OVC,"[{'cover': 'OVC', 'base': 300}]",LIFR,,,,,,RU,Russian Federation
33,VAAH,2025-11-29 02:02:30.453000+00:00,1764381600,2025-11-29T02:00:00.000Z,21.0,16.0,60,7.0,0.75,1015.0,0,BR,,METAR,METAR VAAH 290200Z 06007KT 1200 R23/2000 R05/2000 BR NSC 21/16 Q1015 TEMPO 1000 MIFG,23.077,72.635,52,Ahmadabad/Patel Intl,CLR,[],LIFR,,,,,,IN,India
2068,VAAU,2025-11-29 02:04:22.599000+00:00,1764381600,2025-11-29T02:00:00.000Z,15.0,9.0,0,0.0,1.86,1017.0,16,BR,,METAR,METAR VAAU 290200Z 00000KT 3000 BR FEW020 15/09 Q1017 NOSIG,19.863,75.398,578,Aurangabad Arpt,FEW,"[{'cover': 'FEW', 'base': 2000}]",IFR,,,,,,IN,India
342,VABB,2025-11-29 02:04:19.490000+00:00,1764381600,2025-11-29T02:00:00.000Z,25.0,16.0,90,7.0,1.3,1013.0,0,FU,,METAR,METAR VABB 290200Z 09007KT 2100 FU FEW020 SCT100 25/16 Q1013 TEMPO 1500 HZ,19.1,72.859,14,Mumbai/Shivaji Intl,SCT,"[{'cover': 'FEW', 'base': 2000}, {'cover': 'SCT', 'base': 10000}]",IFR,,,,,,IN,India
300,VABO,2025-11-29 02:02:30.315000+00:00,1764381600,2025-11-29T02:00:00.000Z,18.0,17.0,0,0.0,1.12,1014.0,16,BR,,METAR,METAR VABO 290200Z 00000KT 1800 BR NSC 18/17 Q1014 NOSIG,22.333,73.225,36,Vadodara Arpt,CLR,[],IFR,,,,,,IN,India
519,VABP,2025-11-29 01:46:28.432000+00:00,1764379800,2025-11-29T01:30:00.000Z,13.0,7.0,80,2.0,1.55,1018.0,16,HZ,,METAR,METAR VABP 290130Z 08002KT 2500 HZ NSC 13/07 Q1018 NOSIG,23.288,77.337,520,Bhopal/Raja Bhoj Arpt,CLR,[],IFR,,,,,,IN,India
1793,VAHS,2025-11-29 02:08:26.252000+00:00,1764381600,2025-11-29T02:00:00.000Z,20.0,19.0,70,5.0,0.43,1016.0,0,BR,,METAR,METAR VAHS 290200Z 07005KT 0700 R23/0900 BR NSC 20/19 Q1016 TEMPO 800 IN BR,22.3772,71.0374,198,Rajkot Intl,CLR,[],LIFR,,,,,,IN,India
1795,VAID,2025-11-29 02:02:30.582000+00:00,1764381600,2025-11-29T02:00:00.000Z,15.0,12.0,70,3.0,0.93,1019.0,16,HZ,,METAR,METAR VAID 290200Z 07003KT 1500 HZ FEW100 15/12 Q1019 NOSIG,22.722,75.801,564,Indore Arpt,FEW,"[{'cover': 'FEW', 'base': 10000}]",LIFR,,,,,,IN,India
2873,VANP,2025-11-29 02:01:22.469000+00:00,1764381600,2025-11-29T02:00:00.000Z,14.0,10.0,310,2.0,1.24,1017.0,16,BR,,METAR,METAR VANP 290200Z 31002KT 2000 BR FEW100 14/10 Q1017 NOSIG,21.089,79.055,309,Nagpur/Ambedkar Intl,FEW,"[{'cover': 'FEW', 'base': 10000}]",IFR,,,,,,IN,India
2100,VAOZ,2025-11-29 02:06:50.577000+00:00,1764381600,2025-11-29T02:00:00.000Z,11.0,11.0,250,2.0,0.93,1017.0,16,BR,,METAR,METAR VAOZ 290200Z 25002KT 1500 BR FEW100 BKN200 11/11 Q1017 NOSIG,20.119,73.914,598,Ozar Arpt,BKN,"[{'cover': 'FEW', 'base': 10000}, {'cover': 'BKN', 'base': 20000}]",LIFR,,,,,,IN,India
3902,VASU,2025-11-29 02:02:30.649000+00:00,1764381600,2025-11-29T02:00:00.000Z,22.0,15.0,70,6.0,1.74,1014.0,16,HZ,,METAR,METAR VASU 290200Z 07006KT 2800 HZ NSC 22/15 Q1014 NOSIG,21.114,72.742,6,Surat Arpt,CLR,[],IFR,,,,,,IN,India
4463,VAUD,2025-11-29 02:02:30.505000+00:00,1764381600,2025-11-29T02:00:00.000Z,15.0,13.0,0,0.0,0.62,1018.0,16,MIFG,,METAR,METAR VAUD 290200Z 00000KT 1000 R26/1500 MIFG NSC 15/13 Q1018 NOSIG,24.618,73.896,506,Udaipur/Pratap Arpt,CLR,[],LIFR,,,,,,IN,India
867,VCBI,2025-11-29 01:20:57.868000+00:00,1764378600,2025-11-29T01:10:00.000Z,25.0,24.0,300,5.0,3.73,1008.0,16,,,METAR,METAR VCBI 290110Z 30005KT 270V350 6000 FEW012 BKN016 25/24 Q1008 NOSIG,7.181,79.884,10,Katunayake/Bandaranaike Intl,BKN,"[{'cover': 'FEW', 'base': 1200}, {'cover': 'BKN', 'base': 1600}]",MVFR,,,,,,LK,Sri Lanka
2058,VCRI,2025-11-29 01:20:57.898000+00:00,1764378600,2025-11-29T01:10:00.000Z,22.0,22.0,240,4.0,5.59,1008.0,0,,,METAR,METAR VCRI 290110Z 24004KT 9000 NSC 22/22 Q1008,6.287,81.125,50,Mattala/Rajapaksa Intl,CLR,[],VFR,,,,,,LK,Sri Lanka
3663,VDSA,2025-11-29 02:06:08.627000+00:00,1764381600,2025-11-29T02:00:00.000Z,23.0,16.0,240,3.0,6+,1013.0,0,,,METAR,METAR VDSA 290200Z 24003KT CAVOK 23/16 Q1013,13.371,104.225,59,Siem Reap-Ankr Intl,CAVOK,[],VFR,,,,,,KH,Cambodia
2294,VDSV,2025-11-29 02:06:08.535000+00:00,1764381600,2025-11-29T02:00:00.000Z,25.0,16.0,50,4.0,6+,1012.0,0,,,METAR,METAR VDSV 290200Z 05004KT 9999 FEW015 25/16 Q1012,10.582,103.637,1,Sihanoukville Intl,FEW,"[{'cover': 'FEW', 'base': 1500}]",VFR,,,,,,KH,Cambodia
2091,VEAT,2025-11-29 02:04:22.673000+00:00,1764381600,2025-11-29T02:00:00.000Z,20.0,17.0,0,0.0,1.86,1015.0,16,BR,,METAR,METAR VEAT 290200Z 00000KT 3000 BR NSC 20/17 Q1015 NOSIG,23.887,91.24,20,Agartala Arpt,CLR,[],IFR,,,,,,IN,India
337,VEBS,2025-11-29 02:04:19.897000+00:00,1764381600,2025-11-29T02:00:00.000Z,21.0,16.0,340,4.0,1.86,1015.0,16,HZ,,METAR,METAR VEBS 290200Z 34004KT 3000 HZ SCT100 21/16 Q1015 NOSIG,20.244,85.818,42,Bhubaneswar Intl,SCT,"[{'cover': 'SCT', 'base': 10000}]",IFR,,,,,,IN,India
610,VECC,2025-11-29 02:06:53.814000+00:00,1764381600,2025-11-29T02:00:00.000Z,20.0,15.0,320,4.0,0.87,1015.0,0,BR,,METAR,METAR VECC 290200Z 32004KT 1400 R01R/P2000 BR NSC 20/15 Q1015 BECMG 1500 BR,22.651,88.445,11,Kolkata/Bose Intl,CLR,[],LIFR,,,,,,IN,India
3628,VEDG,2025-11-29 02:04:22.841000+00:00,1764381600,2025-11-29T02:00:00.000Z,18.0,16.0,0,0.0,0.62,1016.0,16,BR,,METAR,METAR VEDG 290200Z 00000KT 1000 R16/1400 BR FEW100 18/16 Q1016 NOSIG,23.623,87.243,88,Durgapur/Kazi Nazrul Arpt,FEW,"[{'cover': 'FEW', 'base': 10000}]",LIFR,,,,,,IN,India
1524,VEGT,2025-11-29 02:04:22.215000+00:00,1764381600,2025-11-29T02:00:00.000Z,20.0,17.0,0,0.0,1.55,1015.0,16,BR,,METAR,METAR VEGT 290200Z 00000KT 2500 BR FEW020 20/17 Q1015 NOSIG,26.107,91.587,50,Guwahati/Bordoloi Intl,FEW,"[{'cover': 'FEW', 'base': 2000}]",IFR,,,,,,IN,India
1520,VEGY,2025-11-29 02:04:22.240000+00:00,1764381600,2025-11-29T02:00:00.000Z,15.0,13.0,0,0.0,0.93,1017.0,0,BR,,METAR,METAR VEGY 290200Z 00000KT 1500 BR NSC 15/13 Q1017,24.744,84.951,115,Gaya Arpt,CLR,[],LIFR,,,,,,IN,India
1787,VEIM,2025-11-29 02:02:30.416000+00:00,1764381600,2025-11-29T02:00:00.000Z,11.0,11.0,0,0.0,0.06,1020.0,16,FG,,METAR,METAR VEIM 290200Z 00000KT 0100 R04/0200 FG VV/// 11/11 Q1020 NOSIG,24.76,93.897,777,Imphal Arpt,OVX,[],LIFR,,,,,,IN,India
2089,VEJH,2025-11-29 02:04:19.864000+00:00,1764381600,2025-11-29T02:00:00.000Z,14.0,14.0,60,4.0,1.24,1017.0,0,BR,,METAR,METAR VEJH 290200Z 06004KT 2000 BR NSC 14/14 Q1017,21.914,84.05,231,Jharsuguda Arpt,CLR,[],IFR,,,,,,IN,India
2065,VEJS,2025-11-29 02:02:30.374000+00:00,1764381600,2025-11-29T02:00:00.000Z,17.0,14.0,310,2.0,0.93,1017.0,0,BR,,METAR,METAR VEJS 290200Z 31002KT 1500 BR NSC 17/14 Q1017,22.813,86.169,151,Jamshedpur/Sonari Arpt,CLR,[],LIFR,,,,,,IN,India
2092,VEKI,2025-11-29 02:02:31.444000+00:00,1764381600,2025-11-29T02:00:00.000Z,14.0,12.0,0,0.0,0.5,1016.0,16,MIFG,,METAR,METAR VEKI 290200Z 00000KT 0800 MIFG NSC 14/12 Q1016 NOSIG,26.776,83.889,81,Kushinagar Arpt,CLR,[],LIFR,,,,,,IN,India
11,VELP,2025-11-29 02:04:19.622000+00:00,1764381600,2025-11-29T02:00:00.000Z,18.0,14.0,0,0.0,2.17,1018.0,16,BR,,METAR,METAR VELP 290200Z 00000KT 3500 BR NSC 18/14 Q1018 NOSIG,23.841,92.62,429,Lengpui Arpt,CLR,[],IFR,,,,,,IN,India
2063,VELR,2025-11-29 02:04:22.623000+00:00,1764381600,2025-11-29T02:00:00.000Z,18.0,16.0,340,2.0,4.35,1016.0,0,,,METAR,METAR VELR 290200Z 34002KT 7000 NSC 18/16 Q1016,27.296,94.098,101,N Lakhimpur/Lilabari Arpt,CLR,[],MVFR,,,,,,IN,India
883,VEMN,2025-11-29 02:04:22.650000+00:00,1764381600,2025-11-29T02:00:00.000Z,16.0,14.0,0,0.0,2.49,1017.0,0,BR,,METAR,METAR VEMN 290200Z 00000KT 4000 BR NSC 16/14 Q1017 BECMG 5000 BR,27.481,95.014,111,Dibrugarh Arpt,CLR,[],IFR,,,,,,IN,India
3322,VEPT,2025-11-29 02:04:22.274000+00:00,1764381600,2025-11-29T02:00:00.000Z,17.0,13.0,250,6.0,0.99,1016.0,16,BR,,METAR,METAR VEPT 290200Z 25006KT 1600 BR NSC 17/13 Q1016 NOSIG,25.591,85.088,53,Patna/Narayan Intl,CLR,[],LIFR,,,,,,IN,India
2081,VERC,2025-11-29 01:59:28.727000+00:00,1764381600,2025-11-29T02:00:00.000Z,13.0,11.0,0,0.0,0.81,1020.0,16,BR,,METAR,METAR VERC 290200Z 00000KT 1300 R31/1700 R13/1500 BR FEW100 13/11 Q1020 NOSIG,23.314,85.322,646,Ranchi/Bursa Munda Arpt,FEW,"[{'cover': 'FEW', 'base': 10000}]",LIFR,,,,,,IN,India
3629,VERK,2025-11-29 02:04:22.788000+00:00,1764381600,2025-11-29T02:00:00.000Z,12.0,12.0,50,1.0,0.12,1017.0,0,FG,,METAR,METAR VERK 290200Z 05001KT 0200 FG NSC 12/12 Q1017,22.256,84.816,196,Rourkela Arpt,CLR,[],LIFR,,,,,,IN,India
644,VGEG,2025-11-29 02:06:10.724000+00:00,1764381600,2025-11-29T02:00:00.000Z,22.0,20.0,60,4.0,2.17,1015.0,16,HZ,,METAR,METAR VGEG 290200Z 06004KT 3500 HZ NSC 22/20 Q1015 NOSIG,22.249,91.814,7,Chittogram/Amanat Intl,CLR,[],IFR,,,,,,BD,Bangladesh
1784,VHHH,2025-11-29 02:06:54.112000+00:00,1764381600,2025-11-29T02:00:00.000Z,20.0,7.0,350,5.0,6+,1017.0,0,,,METAR,METAR VHHH 290200Z 35005KT 300V020 9999 FEW040 20/07 Q1017 BECMG 27010KT,22.309,113.922,9,Hong Kong Intl,FEW,"[{'cover': 'FEW', 'base': 4000}]",VFR,,,,,,HK,Hong Kong
46,VIAR,2025-11-29 02:06:15.169000+00:00,1764381600,2025-11-29T02:00:00.000Z,7.0,6.0,VRB,2.0,0.68,1018.0,16,BR,,METAR,METAR VIAR 290200Z VRB02KT 1100 R34/1900 BR NSC 07/06 Q1018 NOSIG,31.707,74.801,226,Amritsar/Jee Intl,CLR,[],LIFR,,,,,,IN,India
2265,VIBR,2025-11-29 02:02:30.388000+00:00,1764381600,2025-11-29T02:00:00.000Z,3.0,1.0,0,0.0,3.73,1022.0,0,,,METAR,METAR VIBR 290200Z 00000KT 6000 NSC 03/01 Q1022,31.876,77.154,1089,Bhuntar Arpt,CLR,[],MVFR,,,,,,IN,India
913,VIDP,2025-11-29 02:06:14.985000+00:00,1764381600,2025-11-29T02:00:00.000Z,12.0,10.0,240,3.0,0.93,1017.0,16,BR,,METAR,METAR VIDP 290200Z 24003KT 1500 R28/1900 R27/2000 R29R/1900 R29L/2000 BR NSC 12/10 Q1017 NOSIG,28.567,77.117,236,New Delhi/Gandhi Intl,CLR,[],LIFR,,,,,,IN,India
896,VIGG,2025-11-29 02:02:30.800000+00:00,1764381600,2025-11-29T02:00:00.000Z,7.0,4.0,0,0.0,3.73,1019.0,0,,,METAR,METAR VIGG 290200Z 00000KT 6000 NSC 07/04 Q1019,32.165,76.263,760,Kangra Arpt,CLR,[],MVFR,,,,,,IN,India
2102,VIJP,2025-11-29 02:06:50.414000+00:00,1764381600,2025-11-29T02:00:00.000Z,15.0,10.0,0,0.0,1.12,1019.0,0,HZ,,METAR,METAR VIJP 290200Z 00000KT 1800 HZ FEW090 15/10 Q1019 TEMPO 1500 HZ,26.824,75.812,383,Jaipur Intl,FEW,"[{'cover': 'FEW', 'base': 9000}]",IFR,,,,,,IN,India
2319,VILK,2025-11-29 02:06:50.441000+00:00,1764381600,2025-11-29T02:00:00.000Z,14.0,12.0,270,3.0,0.75,1017.0,16,BR,,METAR,METAR VILK 290200Z 27003KT 1200 R27/2000 BR NSC 14/12 Q1017 NOSIG,26.761,80.889,121,Lucknow/Singh Arpt,CLR,[],LIFR,,,,,,IN,India
2540,VLLB,2025-11-29 02:06:10.974000+00:00,1764381600,2025-11-29T02:00:00.000Z,13.0,10.0,180,2.0,3.11,1019.0,16,BR,,METAR,METAR VLLB 290200Z 18002KT 5000 BR BKN006 13/10 Q1019 NOSIG,19.897,102.161,297,Luang-Prabang,BKN,"[{'cover': 'BKN', 'base': 600}]",IFR,,,,,,LA,Lao People's Democratic Republic
2539,VLLN,2025-11-29 02:06:11.013000+00:00,1764381600,2025-11-29T02:00:00.000Z,8.0,8.0,90,2.0,0.62,1020.0,16,BR,,METAR,METAR VLLN 290200Z 09002KT 1000 BR OVC013 08/08 Q1020 NOSIG,20.963,101.403,548,Luang Namtha Arpt,OVC,"[{'cover': 'OVC', 'base': 1300}]",LIFR,,,,,,LA,Lao People's Democratic Republic
3374,VLPS,2025-11-29 02:06:11.050000+00:00,1764381600,2025-11-29T02:00:00.000Z,22.0,17.0,360,6.0,6+,1013.0,16,,,METAR,METAR VLPS 290200Z 36006KT 9999 BKN200 22/17 Q1013 NOSIG,15.132,105.781,102,Pakse Intl,BKN,"[{'cover': 'BKN', 'base': 20000}]",VFR,,,,,,LA,Lao People's Democratic Republic
4953,VLSK,2025-11-29 02:06:11.079000+00:00,1764381600,2025-11-29T02:00:00.000Z,20.0,12.0,360,6.0,3.73,1017.0,16,,,METAR,METAR VLSK 290200Z 36006KT 6000 SCT040 FEW100 20/12 Q1017 NOSIG,16.557,104.76,148,Savannakhet Arpt,FEW,"[{'cover': 'SCT', 'base': 4000}, {'cover': 'FEW', 'base': 10000}]",MVFR,,,,,,LA,Lao People's Democratic Republic
4510,VLVT,2025-11-29 02:06:08.421000+00:00,1764381600,2025-11-29T02:00:00.000Z,20.0,16.0,340,6.0,4.97,1016.0,16,,,METAR,METAR VLVT 290200Z 34006KT 8000 NSC 20/16 Q1016 NOSIG,17.987,102.564,171,Vientiane/Wattay Arpt,CLR,[],MVFR,,,,,,LA,Lao People's Democratic Republic
2585,VMMC,2025-11-29 02:06:53.328000+00:00,1764381600,2025-11-29T02:00:00.000Z,18.0,9.0,360,13.0,6+,1017.0,16,,,METAR,METAR VMMC 290200Z 36013KT 9999 FEW040 18/09 Q1017 NOSIG,22.141,113.596,1,Macao Intl,FEW,"[{'cover': 'FEW', 'base': 4000}]",VFR,,,,,,MO,Macao
2324,VNKT,2025-11-29 01:58:30.684000+00:00,1764381600,2025-11-29T02:00:00.000Z,10.0,9.0,VRB,2.0,3.73,1022.0,16,,,METAR,METAR VNKT 290200Z VRB02KT 6000 FEW015 10/09 Q1022 NOSIG,27.697,85.359,1334,Kathmandu/Tribhuvan Intl,FEW,"[{'cover': 'FEW', 'base': 1500}]",MVFR,,,,,,NP,Nepal
1,VOAT,2025-11-29 02:08:26.325000+00:00,1764381600,2025-11-29T02:00:00.000Z,27.0,20.0,340,9.0,3.11,1011.0,0,HZ,,METAR,METAR VOAT 290200Z 34009KT 5000 HZ SCT015 SCT080 27/20 Q1011,10.824,72.176,5,Agatti Arpt,SCT,"[{'cover': 'SCT', 'base': 1500}, {'cover': 'SCT', 'base': 8000}]",MVFR,,,,,,IN,India
343,VOBL,2025-11-29 02:08:26.403000+00:00,1764381600,2025-11-29T02:00:00.000Z,17.0,15.0,30,6.0,0.93,1016.0,16,BR,,METAR,METAR VOBL 290200Z 03006KT 1500 R09R/2000 R09L/1800 BR BKN008 SCT012 17/15 Q1016 NOSIG,13.205,77.704,908,Bangaluru Intl,SCT,"[{'cover': 'BKN', 'base': 800}, {'cover': 'SCT', 'base': 1200}]",LIFR,,,,,,IN,India
4525,VOBZ,2025-11-29 02:08:26.302000+00:00,1764381600,2025-11-29T02:00:00.000Z,22.0,17.0,10,6.0,2.49,1013.0,16,BR,,METAR,METAR VOBZ 290200Z 01006KT 4000 BR SCT020 SCT100 22/17 Q1013 NOSIG,16.53,80.797,26,Vijayawada Arpt,SCT,"[{'cover': 'SCT', 'base': 2000}, {'cover': 'SCT', 'base': 10000}]",IFR,,,,,,IN,India
611,VOCB,2025-11-29 02:06:50.643000+00:00,1764381600,2025-11-29T02:00:00.000Z,22.0,19.0,VRB,2.0,0.75,1013.0,0,BR,,METAR,METAR VOCB 290200Z VRB02KT 1200 R23/P2000 BR FEW012 FEW020TCU BKN080 22/19 Q1013 TEMPO 1500 BR,11.03,77.043,394,Coimbatore Arpt,BKN,"[{'cover': 'FEW', 'base': 1200}, {'cover': 'FEW', 'base': 2000}, {'cover': 'BKN', 'base': 8000}]",LIFR,,,,,,IN,India
895,VOCI,2025-11-29 02:02:30.550000+00:00,1764381600,2025-11-29T02:00:00.000Z,22.0,20.0,60,2.0,1.55,1010.0,0,BR,,METAR,METAR VOCI 290200Z 06002KT 2500 BR SCT012 BKN080 22/20 Q1010 TEMPO 3000 BR,10.152,76.402,8,Cochin Intl,BKN,"[{'cover': 'SCT', 'base': 1200}, {'cover': 'BKN', 'base': 8000}]",IFR,,,,,,IN,India
645,VOCL,2025-11-29 02:04:22.821000+00:00,1764381600,2025-11-29T02:00:00.000Z,21.0,18.0,70,4.0,2.49,1011.0,0,BR,,METAR,METAR VOCL 290200Z 07004KT 4000 BR FEW012 21/18 Q1011 BECMG 5000 BR,11.137,75.955,104,Calicut Intl,FEW,"[{'cover': 'FEW', 'base': 1200}]",IFR,,,,,,IN,India
1807,VOHS,2025-11-29 02:01:22.505000+00:00,1764381600,2025-11-29T02:00:00.000Z,17.0,11.0,40,4.0,1.86,1016.0,16,HZ,,METAR,METAR VOHS 290200Z 04004KT 3000 HZ FEW015 17/11 Q1016 NOSIG,17.233,78.429,607,Hyderabad/Gandhi Intl,FEW,"[{'cover': 'FEW', 'base': 1500}]",IFR,,,,,,IN,India
304,VOHY,2025-11-29 02:04:22.507000+00:00,1764381600,2025-11-29T02:00:00.000Z,17.0,11.0,60,3.0,1.86,1017.0,0,BR,,METAR,METAR VOHY 290200Z 06003KT 3000 BR FEW015 SCT100 17/11 Q1017 BECMG 5000 HZ,17.453,78.468,540,Hyderabad/Begumpet Arpt,SCT,"[{'cover': 'FEW', 'base': 1500}, {'cover': 'SCT', 'base': 10000}]",IFR,,,,,,IN,India
880,VOKN,2025-11-29 02:08:26.217000+00:00,1764381600,2025-11-29T02:00:00.000Z,23.0,16.0,80,6.0,1.86,1010.0,16,HZ,,METAR,METAR VOKN 290200Z 08006KT 3000 HZ FEW012 23/16 Q1010 NOSIG,11.917,75.547,105,Kannur Intl,FEW,"[{'cover': 'FEW', 'base': 1200}]",IFR,,,,,,IN,India
2067,VOMD,2025-11-29 02:06:50.487000+00:00,1764381600,2025-11-29T02:00:00.000Z,22.0,20.0,320,5.0,1.24,1011.0,17,DZ,,METAR,METAR VOMD 290200Z COR 32005KT 2000 DZ SCT015 FEW025CB OVC080 22/20 Q1011 NOSIG,9.835,78.093,135,Madurai Intl,OVC,"[{'cover': 'SCT', 'base': 1500}, {'cover': 'FEW', 'base': 2500}, {'cover': 'OVC', 'base': 8000}]",IFR,,,,,,IN,India
2066,VOML,2025-11-29 02:02:30.779000+00:00,1764381600,2025-11-29T02:00:00.000Z,22.0,18.0,90,4.0,1.55,1011.0,0,BR,,METAR,METAR VOML 290200Z 09004KT 2500 BR FEW080 22/18 Q1011 BECMG 3000 BR,12.961,74.89,100,Mangaluru Arpt,FEW,"[{'cover': 'FEW', 'base': 8000}]",IFR,,,,,,IN,India
2560,VOMM,2025-11-29 02:02:30.737000+00:00,1764381600,2025-11-29T02:00:00.000Z,24.0,23.0,20,7.0,1.55,1010.0,16,-DZ BR,,METAR,METAR VOMM 290200Z 02007KT 2500 -DZ BR SCT016 FEW025CB BKN080 24/23 Q1010 NOSIG,12.994,80.18,7,Chennai Intl,BKN,"[{'cover': 'SCT', 'base': 1600}, {'cover': 'FEW', 'base': 2500}, {'cover': 'BKN', 'base': 8000}]",IFR,,,,,,IN,India
2099,VOPB,2025-11-29 02:06:50.611000+00:00,1764381600,2025-11-29T02:00:00.000Z,26.0,21.0,VRB,2.0,3.73,1012.0,16,,,METAR,METAR VOPB 290200Z VRB02KT 6000 SCT014 SCT220 26/21 Q1012 NOSIG,11.641,92.73,1,Port Blair/Veer Savarkar Intl,SCT,"[{'cover': 'SCT', 'base': 1400}, {'cover': 'SCT', 'base': 22000}]",MVFR,,,,,,IN,India
3646,VORY,2025-11-29 02:02:30.480000+00:00,1764381600,2025-11-29T02:00:00.000Z,20.0,17.0,20,8.0,2.49,1013.0,16,BR,,METAR,METAR VORY 290200Z 02008KT 4000 BR NSC 20/17 Q1013 NOSIG,17.11,81.818,47,Rajahmundry Arpt,CLR,[],IFR,,,,,,IN,India
4290,VOTP,2025-11-29 02:04:22.864000+00:00,1764381600,2025-11-29T02:00:00.000Z,23.0,22.0,320,8.0,1.86,1012.0,0,BR,,METAR,METAR VOTP 290200Z 32008KT 3000 BR SCT015 OVC090 23/22 Q1012 BECMG 1500 BR,13.633,79.543,103,Tirupati Arpt,OVC,"[{'cover': 'SCT', 'base': 1500}, {'cover': 'OVC', 'base': 9000}]",IFR,,,,,,IN,India
4263,VOTR,2025-11-29 02:04:22.543000+00:00,1764381600,2025-11-29T02:00:00.000Z,22.0,20.0,310,9.0,0.75,1010.0,16,DZ BR,,METAR,METAR VOTR 290200Z 31009KT 1200 R27/2000 DZ BR SCT016 OVC080 22/20 Q1010 NOSIG,10.765,78.71,90,Tiruchchirapalli Arpt,OVC,"[{'cover': 'SCT', 'base': 1600}, {'cover': 'OVC', 'base': 8000}]",LIFR,,,,,,IN,India
4264,VOTV,2025-11-29 02:04:22.485000+00:00,1764381600,2025-11-29T02:00:00.000Z,23.0,19.0,0,0.0,2.49,1010.0,16,-DZ BR,,METAR,METAR VOTV 290200Z 00000KT 4000 -DZ BR FEW010 SCT012 OVC080 23/19 Q1010 NOSIG,8.484,76.919,9,Thiruvananthapuram Intl,OVC,"[{'cover': 'FEW', 'base': 1000}, {'cover': 'SCT', 'base': 1200}, {'cover': 'OVC', 'base': 8000}]",IFR,,,,,,IN,India
3368,VQPR,2025-11-29 02:06:18.506000+00:00,1764381600,2025-11-29T02:00:00.000Z,5.0,3.0,20,3.0,4.35,,0,,,METAR,METAR VQPR 290200Z 02003KT 340V050 7000 FEW018 SCT025 BKN060 05/03 Q1 025,27.403,89.425,2227,Paro Intl,BKN,"[{'cover': 'FEW', 'base': 1800}, {'cover': 'SCT', 'base': 2500}, {'cover': 'BKN', 'base': 6000}]",MVFR,,,,,,BT,Bhutan
924,VTBD,2025-11-29 02:05:57.020000+00:00,1764381600,2025-11-29T02:00:00.000Z,23.0,10.0,340,10.0,6+,1015.0,16,,,METAR,METAR VTBD 290200Z 34010KT CAVOK 23/10 Q1015 NOSIG,13.913,100.607,6,Bangkok Intl,CAVOK,[],VFR,,,,,,TH,Thailand
4233,VTBO,2025-11-29 02:06:19.245000+00:00,1764381600,2025-11-29T02:00:00.000Z,25.0,15.0,30,9.0,6+,1013.0,0,,,METAR,METAR VTBO 290200Z 03009KT CAVOK 25/15 Q1013,12.275,102.319,25,Trat Arpt,CAVOK,[],VFR,,,,,,TH,Thailand
312,VTBS,2025-11-29 02:05:57.114000+00:00,1764381600,2025-11-29T02:00:00.000Z,23.0,10.0,340,7.0,6+,1014.0,16,,,METAR,METAR VTBS 290200Z 34007KT 300V020 CAVOK 23/10 Q1014 NOSIG,13.686,100.767,1,Bangkok/Suvarnabhumi Arpt,CAVOK,[],VFR,,,,,,TH,Thailand
4486,VTBU,2025-11-29 02:05:57.456000+00:00,1764381600,2025-11-29T02:00:00.000Z,25.0,13.0,350,10.0,5.59,1014.0,16,,,METAR,METAR VTBU 290200Z 35010KT 9000 NSC 25/13 Q1014 NOSIG,12.68,101.001,12,Rayong/U-Tapao Intl,CLR,[],VFR,,,,,,TH,Thailand
923,VTCC,2025-11-29 02:05:57.187000+00:00,1764381600,2025-11-29T02:00:00.000Z,16.0,11.0,190,3.0,6+,1018.0,16,,,METAR,METAR VTCC 290200Z 19003KT 160V240 9999 FEW035 16/11 Q1018 NOSIG,18.771,98.963,308,Chiang Mai Intl,FEW,"[{'cover': 'FEW', 'base': 3500}]",VFR,,,,,,TH,Thailand
1814,VTCH,2025-11-29 02:06:18.986000+00:00,1764381600,2025-11-29T02:00:00.000Z,15.0,12.0,VRB,2.0,4.97,1018.0,16,,,METAR,METAR VTCH 290200Z VRB02KT 8000 FEW015 15/12 Q1018 NOSIG,19.302,97.972,266,Mae Hong Son Arpt,FEW,"[{'cover': 'FEW', 'base': 1500}]",MVFR,,,,,,TH,Thailand
2590,VTCL,2025-11-29 02:06:19.010000+00:00,1764381600,2025-11-29T02:00:00.000Z,15.0,12.0,VRB,1.0,6+,1018.0,16,,,METAR,METAR VTCL 290200Z VRB01KT 9999 FEW030 15/12 Q1018 NOSIG,18.277,99.502,240,Lampang Arpt,FEW,"[{'cover': 'FEW', 'base': 3000}]",VFR,,,,,,TH,Thailand
3078,VTCN,2025-11-29 02:06:19.042000+00:00,1764381600,2025-11-29T02:00:00.000Z,14.0,13.0,VRB,2.0,6+,1014.0,16,,,METAR,METAR VTCN 290200Z VRB02KT 9999 FEW002 14/13 Q1014 NOSIG,18.807,100.787,211,Nan Arpt,FEW,"[{'cover': 'FEW', 'base': 200}]",VFR,,,,,,TH,Thailand
3334,VTCP,2025-11-29 02:06:50.458000+00:00,1764381600,2025-11-29T02:00:00.000Z,14.0,12.0,100,2.0,3.11,1018.0,16,BR,,METAR,METAR VTCP 290200Z 10002KT 5000 2000E BR NSC 14/12 Q1018 NOSIG,18.129,100.162,166,Phrae Arpt,CLR,[],MVFR,,,,,,TH,Thailand
634,VTCT,2025-11-29 02:06:19.283000+00:00,1764381600,2025-11-29T02:00:00.000Z,15.0,11.0,VRB,2.0,6+,1019.0,16,,,METAR,METAR VTCT 290200Z VRB02KT CAVOK 15/11 Q1019 NOSIG,19.961,99.881,389,Chiang Rai Intl,CAVOK,[],VFR,,,,,,TH,Thailand
3361,VTPB,2025-11-29 02:06:19.192000+00:00,1764381600,2025-11-29T02:00:00.000Z,18.0,12.0,360,3.0,6+,1016.0,16,,,METAR,METAR VTPB 290200Z 36003KT 300V050 CAVOK 18/12 Q1016 NOSIG,16.676,101.195,134,Phetchabun Arpt,CAVOK,[],VFR,,,,,,TH,Thailand
1813,VTPH,2025-11-29 02:06:19.103000+00:00,1764381600,2025-11-29T02:00:00.000Z,24.0,10.0,VRB,4.0,6+,1014.0,16,,,METAR,METAR VTPH 290200Z VRB04KT CAVOK 24/10 Q1014 NOSIG,12.633,99.951,12,Hua Hin Arpt,CAVOK,[],VFR,,,,,,TH,Thailand
2588,VTPM,2025-11-29 02:06:19.221000+00:00,1764381600,2025-11-29T02:00:00.000Z,18.0,12.0,0,0.0,6+,1016.0,16,,,METAR,METAR VTPM 290200Z 00000KT CAVOK 18/12 Q1016 NOSIG,16.703,98.542,211,Mae Sot Arpt,CAVOK,[],VFR,,,,,,TH,Thailand
4232,VTPO,2025-11-29 02:06:19.133000+00:00,1764381600,2025-11-29T02:00:00.000Z,19.0,15.0,340,6.0,6+,1016.0,16,,,METAR,METAR VTPO 290200Z 34006KT 290V040 CAVOK 19/15 Q1016 NOSIG,17.238,99.818,58,Sukhothai Arpt,CAVOK,[],VFR,,,,,,TH,Thailand
3366,VTPP,2025-11-29 02:06:19.162000+00:00,1764381600,2025-11-29T02:00:00.000Z,19.0,13.0,VRB,2.0,6+,1016.0,16,,,METAR,METAR VTPP 290200Z VRB02KT CAVOK 19/13 Q1016 NOSIG,16.792,100.274,45,Phitsanulok Arpt,CAVOK,[],VFR,,,,,,TH,Thailand
4511,VTSB,2025-11-29 02:06:18.533000+00:00,1764381600,2025-11-29T02:00:00.000Z,25.0,17.0,360,6.0,6+,1013.0,16,,,METAR,METAR VTSB 290200Z 36006KT 9999 FEW020 25/17 Q1013 NOSIG,9.133,99.152,10,Surat Thani Intl,FEW,"[{'cover': 'FEW', 'base': 2000}]",VFR,,,,,,TH,Thailand
2870,VTSC,2025-11-29 02:06:18.563000+00:00,1764381600,2025-11-29T02:00:00.000Z,24.0,24.0,260,3.0,5.59,1012.0,16,,,METAR,METAR VTSC 290200Z 26003KT 9000 FEW010 SCT100 24/24 Q1012 NOSIG,6.52,101.743,5,Narathiwat Arpt,SCT,"[{'cover': 'FEW', 'base': 1000}, {'cover': 'SCT', 'base': 10000}]",VFR,,,,,,TH,Thailand
635,VTSE,2025-11-29 02:06:18.597000+00:00,1764381600,2025-11-29T02:00:00.000Z,26.0,10.0,30,6.0,6+,1013.0,16,,,METAR,METAR VTSE 290200Z 03006KT 320V110 CAVOK 26/10 Q1013 NOSIG,10.711,99.362,8,Chumphon Arpt,CAVOK,[],VFR,,,,,,TH,Thailand
3080,VTSF,2025-11-29 02:06:18.629000+00:00,1764381600,2025-11-29T02:00:00.000Z,26.0,21.0,340,8.0,6+,1012.0,16,,,METAR,METAR VTSF 290200Z 34008KT 310V010 9999 FEW018 26/21 Q1012 NOSIG,8.546,99.94,6,Nakhon Si Thammarat Arpt,FEW,"[{'cover': 'FEW', 'base': 1800}]",VFR,,,,,,TH,Thailand
2106,VTSG,2025-11-29 02:06:18.758000+00:00,1764381600,2025-11-29T02:00:00.000Z,26.0,20.0,10,7.0,6+,1013.0,16,,,METAR,METAR VTSG 290200Z 01007KT 320V040 9999 FEW020 26/20 Q1013 NOSIG,8.099,98.986,32,Krabi Arpt,FEW,"[{'cover': 'FEW', 'base': 2000}]",VFR,,,,,,TH,Thailand
4457,VTSM,2025-11-29 02:06:18.660000+00:00,1764381600,2025-11-29T02:00:00.000Z,27.0,21.0,350,9.0,6+,1014.0,16,,,METAR,METAR VTSM 290200Z 35009KT 9999 FEW020 27/21 Q1014 NOSIG,9.548,100.062,12,Samui Intl,FEW,"[{'cover': 'FEW', 'base': 2000}]",VFR,,,,,,TH,Thailand
1792,VTSP,2025-11-29 02:05:57.261000+00:00,1764381600,2025-11-29T02:00:00.000Z,27.0,21.0,80,8.0,6+,1012.0,16,,,METAR,METAR VTSP 290200Z 08008KT 020V100 9999 FEW020 27/21 Q1012 NOSIG,8.105,98.308,12,Phuket Intl,FEW,"[{'cover': 'FEW', 'base': 2000}]",VFR,,,,,,TH,Thailand
4514,VTSR,2025-11-29 02:06:18.685000+00:00,1764381600,2025-11-29T02:00:00.000Z,25.0,19.0,260,4.0,6+,1013.0,16,,,METAR,METAR VTSR 290200Z 26004KT 230V310 9999 FEW025 25/19 Q1013 NOSIG,9.773,98.587,23,Ranong Arpt,FEW,"[{'cover': 'FEW', 'base': 2500}]",VFR,,,,,,TH,Thailand
1791,VTSS,2025-11-29 02:05:57.342000+00:00,1764381600,2025-11-29T02:00:00.000Z,26.0,21.0,10,8.0,6+,1012.0,16,,,METAR,METAR VTSS 290200Z 01008KT 340V040 9999 FEW020 SCT100 26/21 Q1012 NOSIG,6.933,100.393,28,Hat Yai Intl,SCT,"[{'cover': 'FEW', 'base': 2000}, {'cover': 'SCT', 'base': 10000}]",VFR,,,,,,TH,Thailand
4230,VTST,2025-11-29 02:06:18.718000+00:00,1764381600,2025-11-29T02:00:00.000Z,26.0,23.0,330,2.0,6+,1012.0,16,,,METAR,METAR VTST 290200Z 33002KT 9999 FEW030 26/23 Q1012 NOSIG,7.512,99.621,17,Trang Arpt,FEW,"[{'cover': 'FEW', 'base': 3000}]",VFR,,,,,,TH,Thailand
4513,VTUD,2025-11-29 02:06:19.671000+00:00,1764381600,2025-11-29T02:00:00.000Z,18.0,13.0,290,3.0,4.35,1016.0,16,,,METAR,METAR VTUD 290200Z 29003KT 250V320 7000 NSC 18/13 Q1016 NOSIG,17.382,102.799,177,Udon Thani Arpt,CLR,[],MVFR,,,,,,TH,Thailand
3904,VTUI,2025-11-29 02:06:19.699000+00:00,1764381600,2025-11-29T02:00:00.000Z,25.0,12.0,VRB,1.0,6+,1015.0,16,,,METAR,METAR VTUI 290200Z VRB01KT CAVOK 25/12 Q1015 NOSIG,17.195,104.119,162,Sakon Nakhon Arpt,CAVOK,[],VFR,,,,,,TH,Thailand
2105,VTUK,2025-11-29 02:06:19.742000+00:00,1764381600,2025-11-29T02:00:00.000Z,21.0,10.0,360,5.0,6+,1016.0,16,,,METAR,METAR VTUK 290200Z 36005KT 320V030 CAVOK 21/10 Q1016 NOSIG,16.462,102.786,190,Khon Kaen Arpt,CAVOK,[],VFR,,,,,,TH,Thailand
2565,VTUL,2025-11-29 02:06:19.770000+00:00,1764381600,2025-11-29T02:00:00.000Z,16.0,13.0,30,4.0,6+,1015.0,16,,,METAR,METAR VTUL 290200Z 03004KT 360V070 CAVOK 16/13 Q1015 NOSIG,17.445,101.725,257,Loei Arpt,CAVOK,[],VFR,,,,,,TH,Thailand
306,VTUO,2025-11-29 02:06:19.801000+00:00,1764381600,2025-11-29T02:00:00.000Z,20.0,8.0,60,6.0,6+,1015.0,16,,,METAR,METAR VTUO 290200Z 06006KT 020V080 CAVOK 20/08 Q1015 NOSIG,15.227,103.244,182,Buriram Arpt,CAVOK,[],VFR,,,,,,TH,Thailand
2841,VTUQ,2025-11-29 02:06:19.828000+00:00,1764381600,2025-11-29T02:00:00.000Z,21.0,9.0,20,3.0,3.73,1016.0,16,,,METAR,METAR VTUQ 290200Z 02003KT 330V080 6000 NSC 21/09 Q1016 NOSIG,14.95,102.313,225,Nakhon Ratchasima Arpt,CLR,[],MVFR,,,,,,TH,Thailand
4512,VTUU,2025-11-29 02:06:19.857000+00:00,1764381600,2025-11-29T02:00:00.000Z,21.0,14.0,20,5.0,6+,1014.0,16,,,METAR,METAR VTUU 290200Z 02005KT 330V080 CAVOK 21/14 Q1014 NOSIG,15.251,104.87,119,Ubon Ratchathan Intl,CAVOK,[],VFR,,,,,,TH,Thailand
3661,VTUV,2025-11-29 02:06:19.884000+00:00,1764381600,2025-11-29T02:00:00.000Z,20.0,9.0,360,6.0,6+,1015.0,16,,,METAR,METAR VTUV 290200Z 36006KT CAVOK 20/09 Q1015 NOSIG,16.117,103.772,136,Roi Et Arpt,CAVOK,[],VFR,,,,,,TH,Thailand
2302,VTUW,2025-11-29 02:06:19.914000+00:00,1764381600,2025-11-29T02:00:00.000Z,20.0,7.0,350,3.0,6+,1015.0,16,,,METAR,METAR VTUW 290200Z 35003KT 290V030 CAVOK 20/07 Q1015 NOSIG,17.384,104.643,167,Nakhon Phanom Arpt,CAVOK,[],VFR,,,,,,TH,Thailand
1786,VVCI,2025-11-29 02:06:09.891000+00:00,1764381600,2025-11-29T02:00:00.000Z,22.0,8.0,VRB,2.0,6+,1017.0,16,,,METAR,METAR VVCI 290200Z VRB02KT CAVOK 22/08 Q1017 NOSIG,20.823,106.727,6,Haiphong/Cat Bi Intl,CAVOK,[],VFR,,,,,,VN,Viet Nam
921,VVCR,2025-11-29 02:06:09.983000+00:00,1764381600,2025-11-29T02:00:00.000Z,26.0,21.0,210,4.0,6+,1011.0,16,,,METAR,METAR VVCR 290200Z 21004KT 9999 BKN050 26/21 Q1011 NOSIG,11.998,109.219,12,Cam Ranh Intl,BKN,"[{'cover': 'BKN', 'base': 5000}]",VFR,,,,,,VN,Viet Nam
4508,VVCT,2025-11-29 02:06:10.070000+00:00,1764381600,2025-11-29T02:00:00.000Z,26.0,18.0,340,7.0,6+,1012.0,16,,,METAR,METAR VVCT 290200Z 34007KT 300V030 CAVOK 26/18 Q1012 NOSIG,10.085,105.712,6,Can Tho Intl,CAVOK,[],VFR,,,,,,VN,Viet Nam
919,VVDN,2025-11-29 02:06:10.169000+00:00,1764381600,2025-11-29T02:00:00.000Z,23.0,16.0,VRB,1.0,6+,1015.0,16,,,METAR,METAR VVDN 290200Z VRB01KT 9999 FEW020 BKN042 23/16 Q1015 NOSIG,16.044,108.199,7,Da Nang Intl,BKN,"[{'cover': 'FEW', 'base': 2000}, {'cover': 'BKN', 'base': 4200}]",VFR,,,,,,VN,Viet Nam
1506,VVNB,2025-11-29 02:06:10.254000+00:00,1764381600,2025-11-29T02:00:00.000Z,16.0,12.0,VRB,2.0,4.35,1019.0,16,,,METAR,METAR VVNB 290200Z VRB02KT 7000 NSC 16/12 Q1019 NOSIG,21.218,105.805,6,Hanoi/Noi Bai Intl,CLR,[],MVFR,,,,,,VN,Viet Nam
1785,VVPB,2025-11-29 02:06:10.351000+00:00,1764381600,2025-11-29T02:00:00.000Z,21.0,16.0,250,6.0,6+,1016.0,16,,,METAR,METAR VVPB 290200Z 25006KT 9999 FEW015 BKN040 21/16 Q1016 NOSIG,16.399,107.699,15,Huế/Phu Bai Arpt,BKN,"[{'cover': 'FEW', 'base': 1500}, {'cover': 'BKN', 'base': 4000}]",VFR,,,,,,VN,Viet Nam
3375,VVPQ,2025-11-29 02:06:10.454000+00:00,1764381600,2025-11-29T02:00:00.000Z,28.0,19.0,VRB,3.0,6+,1012.0,16,,,METAR,METAR VVPQ 290200Z VRB03KT CAVOK 28/19 Q1012 NOSIG,10.169,103.995,8,Phu Quoc Arpt,CAVOK,[],VFR,,,,,,VN,Viet Nam
3872,VVTS,2025-11-29 02:06:10.539000+00:00,1764381600,2025-11-29T02:00:00.000Z,24.0,19.0,330,6.0,6+,1011.0,16,,,METAR,METAR VVTS 290200Z 33006KT 280V360 CAVOK 24/19 Q1011 NOSIG,10.817,106.667,10,Ho Chi Minh/Nhat Intl,CAVOK,[],VFR,,,,,,VN,Viet Nam
4521,VVVD,2025-11-29 02:06:10.610000+00:00,1764381600,2025-11-29T02:00:00.000Z,17.0,13.0,30,3.0,6+,1018.0,16,,,METAR,METAR VVVD 290200Z 03003KT CAVOK 17/13 Q1018 NOSIG,21.118,107.414,8,Van Don Intl,CAVOK,[],VFR,,,,,,VN,Viet Nam
2776,VYMD,2025-11-29 01:35:27.817000+00:00,1764379800,2025-11-29T01:30:00.000Z,14.0,12.0,0,0.0,3.73,1014.0,16,,,METAR,METAR VYMD 290130Z 00000KT 6000 FEW025 14/12 Q1014 NOSIG,21.702,95.978,87,Mandalay Intl,FEW,"[{'cover': 'FEW', 'base': 2500}]",MVFR,,,,,,MM,Myanmar
3665,VYYY,2025-11-29 02:06:08.473000+00:00,1764381600,2025-11-29T02:00:00.000Z,21.0,18.0,10,3.0,4.97,1014.0,16,,,METAR,METAR VYYY 290200Z 01003KT 8000 NSC 21/18 Q1014 NOSIG,16.906,96.137,31,Yangon Intl,CLR,[],MVFR,,,,,,MM,Myanmar
4483,WAAA,2025-11-29 02:05:53.510000+00:00,1764381600,2025-11-29T02:00:00.000Z,32.0,25.0,VRB,3.0,6+,1010.0,16,,,METAR,METAR WAAA 290200Z VRB03KT 9999 FEW018 32/25 Q1010 NOSIG,-5.062,119.554,13,Makassar/Hasanuddin Intl,FEW,"[{'cover': 'FEW', 'base': 1800}]",VFR,,,,,,ID,Indonesia
313,WABB,2025-11-29 02:05:53.655000+00:00,1764381600,2025-11-29T02:00:00.000Z,30.0,25.0,270,10.0,6+,1009.0,16,,,METAR,METAR WABB 290200Z 27010KT 9999 FEW015 30/25 Q1009 NOSIG,-1.19,136.108,12,Biak/Kaisiepo Arpt,FEW,"[{'cover': 'FEW', 'base': 1500}]",VFR,,,,,,ID,Indonesia
925,WADD,2025-11-29 02:05:54.322000+00:00,1764381600,2025-11-29T02:00:00.000Z,29.0,24.0,260,8.0,6+,1011.0,16,,,METAR,METAR WADD 290200Z 26008KT 9999 BKN015 29/24 Q1011 NOSIG,-8.748,115.167,3,Bali/Rai Intl,BKN,"[{'cover': 'BKN', 'base': 1500}]",MVFR,,,,,,ID,Indonesia
2595,WADL,2025-11-29 02:06:41.463000+00:00,1764381600,2025-11-29T02:00:00.000Z,24.0,23.0,50,4.0,2.49,1012.0,0,RA,,METAR,METAR WADL 290200Z 05004KT 020V080 4000 RA BKN016 24/23 Q1012 RETS NO SIG,-8.757,116.277,97,Lombok Intl,BKN,"[{'cover': 'BKN', 'base': 1600}]",IFR,,,,,,ID,Indonesia
4797,WAHI,2025-11-29 02:06:12.627000+00:00,1764381600,2025-11-29T02:00:00.000Z,29.0,23.0,VRB,3.0,6+,1011.0,16,,,METAR,METAR WAHI 290200Z VRB03KT 9999 FEW020 29/23 Q1011 NOSIG,-7.9041,110.0575,7,Yogyakarta Intl,FEW,"[{'cover': 'FEW', 'base': 2000}]",VFR,,,,,,ID,Indonesia
914,WAJJ,2025-11-29 02:06:11.503000+00:00,1764381600,2025-11-29T02:00:00.000Z,28.0,24.0,280,7.0,6+,1009.0,16,,,METAR,METAR WAJJ 290200Z 28007KT 9999 FEW013 SCT018 28/24 Q1009 NOSIG,-2.573,140.514,93,Jayapura/Sentani Arpt,SCT,"[{'cover': 'FEW', 'base': 1300}, {'cover': 'SCT', 'base': 1800}]",VFR,,,,,,ID,Indonesia
347,WALL,2025-11-29 02:08:32.973000+00:00,1764381600,2025-11-29T02:00:00.000Z,24.0,24.0,270,3.0,0.25,1011.0,16,+TSRA,,METAR,METAR WALL 290200Z 27003KT 0400 +TSRA FEW010CB OVC012 24/24 Q1011 NOSIG RMK CB OVER THE FIELD,-1.268,116.894,3,Sepinggan Intl,OVC,"[{'cover': 'FEW', 'base': 1000}, {'cover': 'OVC', 'base': 1200}]",LIFR,,,,,,ID,Indonesia
2543,WAMM,2025-11-29 02:06:12.029000+00:00,1764381600,2025-11-29T02:00:00.000Z,32.0,25.0,VRB,3.0,6+,1013.0,16,,,METAR,METAR WAMM 290200Z VRB03KT 9999 SCT019 32/25 Q1013 NOSIG,1.541,124.926,86,Manado/Ratulangi Intl,SCT,"[{'cover': 'SCT', 'base': 1900}]",VFR,,,,,,ID,Indonesia
308,WAOO,2025-11-29 02:06:12.414000+00:00,1764381600,2025-11-29T02:00:00.000Z,30.0,25.0,0,0.0,6+,1010.0,16,,,METAR,METAR WAOO 290200Z 00000KT 9999 FEW020 30/25 Q1010 NOSIG,-3.44,114.759,23,Banjarmasin/Syamsudin Noor Arpt,FEW,"[{'cover': 'FEW', 'base': 2000}]",VFR,,,,,,ID,Indonesia
51,WAPP,2025-11-29 02:06:11.578000+00:00,1764381600,2025-11-29T02:00:00.000Z,32.0,25.0,210,5.0,6+,1008.0,16,,,METAR,METAR WAPP 290200Z 21005KT 9999 SCT016 32/25 Q1008 NOSIG,-3.71,128.089,20,Ambon/Pattimura Arpt,SCT,"[{'cover': 'SCT', 'base': 1600}]",VFR,,,,,,ID,Indonesia
3899,WARR,2025-11-29 02:05:54.505000+00:00,1764381600,2025-11-29T02:00:00.000Z,31.0,24.0,130,14.0,6+,1010.0,16,,,METAR,METAR WARR 290200Z 13014KT 9999 FEW020 31/24 Q1010 NOSIG,-7.38,112.787,3,Surabaya/Juanda Intl,FEW,"[{'cover': 'FEW', 'base': 2000}]",VFR,,,,,,ID,Indonesia
2295,WATT,2025-11-29 02:06:11.796000+00:00,1764381600,2025-11-29T02:00:00.000Z,32.0,24.0,340,5.0,6+,1010.0,16,,,METAR,METAR WATT 290200Z 34005KT 340V040 9999 FEW018 32/24 Q1010 NOSIG,-10.172,123.671,104,Kupang/El Tari Arpt,FEW,"[{'cover': 'FEW', 'base': 1800}]",VFR,,,,,,ID,Indonesia
627,WBGB,2025-11-29 02:08:25.104000+00:00,1764381600,2025-11-29T02:00:00.000Z,27.0,24.0,VRB,2.0,6+,1011.0,0,,,METAR,METAR WBGB 290200Z VRB02KT 9999 FEW016 27/24 Q1011,3.12,113.025,34,Bintulu Arpt,FEW,"[{'cover': 'FEW', 'base': 1600}]",VFR,,,,,,MY,Malaysia
2073,WBGG,2025-11-29 02:08:25.639000+00:00,1764381600,2025-11-29T02:00:00.000Z,28.0,25.0,200,3.0,6+,1012.0,16,,,METAR,METAR WBGG 290200Z 20003KT 140V290 9999 FEW014 28/25 Q1012 NOSIG,1.484,110.34,26,Kuching Intl,FEW,"[{'cover': 'FEW', 'base': 1400}]",VFR,,,,,,MY,Malaysia
2864,WBGR,2025-11-29 02:08:25.133000+00:00,1764381600,2025-11-29T02:00:00.000Z,27.0,25.0,VRB,2.0,6+,1011.0,0,,,METAR,METAR WBGR 290200Z VRB02KT 9999 SCT016 27/25 Q1011,4.322,113.987,18,Miri Arpt,SCT,"[{'cover': 'SCT', 'base': 1600}]",VFR,,,,,,MY,Malaysia
3625,WBGS,2025-11-29 02:08:25.164000+00:00,1764381600,2025-11-29T02:00:00.000Z,27.0,24.0,130,4.0,6+,1011.0,0,,,METAR,METAR WBGS 290200Z 13004KT 9999 FEW014 27/24 Q1011,2.264,111.983,26,Sibu Arpt,FEW,"[{'cover': 'FEW', 'base': 1400}]",VFR,,,,,,MY,Malaysia
341,WBKK,2025-11-29 02:08:25.673000+00:00,1764381600,2025-11-29T02:00:00.000Z,27.0,24.0,170,5.0,6+,1011.0,16,-RA,,METAR,METAR WBKK 290200Z 17005KT 130V210 9999 -RA FEW010 SCT035 27/24 Q1011 NOSIG,5.937,116.051,9,Kota Kinabalu Intl,SCT,"[{'cover': 'FEW', 'base': 1000}, {'cover': 'SCT', 'base': 3500}]",VFR,,,,,,MY,Malaysia
2271,WBKL,2025-11-29 02:08:25.224000+00:00,1764381600,2025-11-29T02:00:00.000Z,27.0,24.0,VRB,3.0,6+,1011.0,0,,,METAR,METAR WBKL 290200Z VRB03KT 9999 FEW014 27/24 Q1011,5.301,115.25,29,Labuan Intl,FEW,"[{'cover': 'FEW', 'base': 1400}]",VFR,,,,,,MY,Malaysia
3901,WBKS,2025-11-29 02:08:25.253000+00:00,1764381600,2025-11-29T02:00:00.000Z,28.0,26.0,290,3.0,5.59,1011.0,0,-RA,,METAR,METAR WBKS 290200Z 29003KT 230V330 9000 -RA FEW016 SCT045 28/26 Q1011,5.901,118.059,13,Sandakan Arpt,SCT,"[{'cover': 'FEW', 'base': 1600}, {'cover': 'SCT', 'base': 4500}]",VFR,,,,,,MY,Malaysia
2272,WBKT,2025-11-29 02:08:25.284000+00:00,1764381600,2025-11-29T02:00:00.000Z,27.0,23.0,230,6.0,6+,1010.0,0,,,METAR,METAR WBKT 290200Z 23006KT 190V290 9999 FEW014 27/23 Q1010,6.922,116.837,11,Kudat Arpt,FEW,"[{'cover': 'FEW', 'base': 1400}]",VFR,,,,,,MY,Malaysia
4519,WBKW,2025-11-29 02:08:25.317000+00:00,1764381600,2025-11-29T02:00:00.000Z,27.0,25.0,0,0.0,6+,1011.0,0,,,METAR,METAR WBKW 290200Z 00000KT 9999 FEW017 27/25 Q1011,4.316,118.119,17,Tawau Arpt,FEW,"[{'cover': 'FEW', 'base': 1700}]",VFR,,,,,,MY,Malaysia
631,WBSB,2025-11-29 02:08:25.836000+00:00,1764381600,2025-11-29T02:00:00.000Z,27.0,24.0,180,4.0,6+,1012.0,16,,,METAR,METAR WBSB 290200Z 18004KT 9999 FEW014 FEW015CB BKN140 27/24 Q1012 NOSIG,4.944,114.928,15,Brunei Intl,BKN,"[{'cover': 'FEW', 'base': 1400}, {'cover': 'FEW', 'base': 1500}, {'cover': 'BKN', 'base': 14000}]",VFR,,,,,,BN,Brunei Darussalam
3373,WIBB,2025-11-29 02:06:12.121000+00:00,1764381600,2025-11-29T02:00:00.000Z,27.0,22.0,330,7.0,6+,1010.0,16,,,METAR,METAR WIBB 290200Z 33007KT 9999 NSC 27/22 Q1010 NOSIG,0.461,101.445,41,Pakanbaru/Kasim Arpt,CLR,[],VFR,,,,,,ID,Indonesia
650,WIDD,2025-11-29 02:05:54.036000+00:00,1764381600,2025-11-29T02:00:00.000Z,29.0,22.0,290,9.0,6+,1013.0,16,,,METAR,METAR WIDD 290200Z 29009KT 9999 FEW014 29/22 Q1013 NOSIG,1.121,104.119,26,Batam/Hang Nadim,FEW,"[{'cover': 'FEW', 'base': 1400}]",VFR,,,,,,ID,Indonesia
4276,WIDN,2025-11-29 02:06:12.172000+00:00,1764381600,2025-11-29T02:00:00.000Z,30.0,25.0,290,3.0,6+,1011.0,16,,,METAR,METAR WIDN 290200Z 29003KT 9999 FEW017 30/25 Q1011 NOSIG,0.923,104.532,18,Tanjung Pinang Arpt,FEW,"[{'cover': 'FEW', 'base': 1700}]",VFR,,,,,,ID,Indonesia
1794,WIHH,2025-11-29 02:05:53.770000+00:00,1764381600,2025-11-29T02:00:00.000Z,31.0,22.0,160,4.0,4.97,1010.0,16,,,METAR,METAR WIHH 290200Z 16004KT 8000 FEW020 31/22 Q1010 NOSIG,-6.267,106.891,26,Jakarta/Perdanakusum,FEW,"[{'cover': 'FEW', 'base': 2000}]",MVFR,,,,,,ID,Indonesia
655,WIII,2025-11-29 02:05:53.898000+00:00,1764381600,2025-11-29T02:00:00.000Z,31.0,23.0,200,5.0,6+,1010.0,16,,,METAR,METAR WIII 290200Z 20005KT 160V240 9999 FEW020 31/23 Q1010 NOSIG,-6.125,106.659,9,Jakarta/Hatta Intl,FEW,"[{'cover': 'FEW', 'base': 2000}]",VFR,,,,,,ID,Indonesia
4257,WILL,2025-11-29 02:06:11.714000+00:00,1764381600,2025-11-29T02:00:00.000Z,30.0,20.0,230,7.0,6+,1011.0,16,,,METAR,METAR WILL 290200Z 23007KT 9999 FEW020 30/20 Q1011 NOSIG,-5.242,105.179,83,Bandar Lampung Intl,FEW,"[{'cover': 'FEW', 'base': 2000}]",VFR,,,,,,ID,Indonesia
2292,WIMM,2025-11-29 02:05:54.183000+00:00,1764381600,2025-11-29T02:00:00.000Z,27.0,23.0,290,6.0,6+,1011.0,16,,,METAR,METAR WIMM 290200Z 29006KT 9999 FEW018 27/23 Q1011 NOSIG,3.636,98.874,7,Medan/Kualanamu Intl,FEW,"[{'cover': 'FEW', 'base': 1800}]",VFR,,,,,,ID,Indonesia
3371,WIOO,2025-11-29 02:06:12.290000+00:00,1764381600,2025-11-29T02:00:00.000Z,26.0,24.0,260,5.0,6+,1012.0,16,,,METAR,METAR WIOO 290200Z 26005KT 9999 SCT012 26/24 Q1012 RERA NOSIG,-0.151,109.404,4,Pontianak/Supadio Arpt,SCT,"[{'cover': 'SCT', 'base': 1200}]",VFR,,,,,,ID,Indonesia
3370,WIPP,2025-11-29 02:06:12.346000+00:00,1764381600,2025-11-29T02:00:00.000Z,29.0,23.0,VRB,2.0,6+,1011.0,16,,,METAR,METAR WIPP 290200Z VRB02KT 9999 FEW015 29/23 Q1011 NOSIG,-2.898,104.7,7,Palembang/Badaruddin Arpt,FEW,"[{'cover': 'FEW', 'base': 1500}]",VFR,,,,,,ID,Indonesia
639,WITT,2025-11-29 02:06:12.590000+00:00,1764381600,2025-11-29T02:00:00.000Z,26.0,21.0,130,5.0,6+,1011.0,16,,,METAR,METAR WITT 290200Z 13005KT 9999 FEW020 26/21 Q1011 NOSIG,5.524,95.42,21,Banda Aceh,FEW,"[{'cover': 'FEW', 'base': 2000}]",VFR,,,,,,ID,Indonesia
2555,WMAU,2025-11-29 02:08:25.346000+00:00,1764381600,2025-11-29T02:00:00.000Z,28.0,23.0,230,1.0,5.59,1011.0,0,,,METAR,METAR WMAU 290200Z 23001KT 9000 FEW020 28/23 Q1011,2.387,103.876,5,Mersing Arpt,FEW,"[{'cover': 'FEW', 'base': 2000}]",VFR,,,,,,MY,Malaysia
3903,WMBA,2025-11-29 02:08:25.372000+00:00,1764381600,2025-11-29T02:00:00.000Z,27.0,23.0,0,0.0,6+,1011.0,0,,,METAR,METAR WMBA 290200Z 00000KT 9999 FEW021 27/23 Q1011,4.221,100.701,9,Sitiawan Arpt,FEW,"[{'cover': 'FEW', 'base': 2100}]",VFR,,,,,,MY,Malaysia
2,WMKA,2025-11-29 02:08:25.404000+00:00,1764381600,2025-11-29T02:00:00.000Z,26.0,22.0,VRB,5.0,5.59,1012.0,0,,,METAR,METAR WMKA 290200Z VRB05KT 9000 FEW018 SCT028 26/22 Q1012,6.19,100.398,5,Alor Setar/Halim Arpt,SCT,"[{'cover': 'FEW', 'base': 1800}, {'cover': 'SCT', 'base': 2800}]",VFR,,,,,,MY,Malaysia
628,WMKB,2025-11-29 02:08:25.436000+00:00,1764381600,2025-11-29T02:00:00.000Z,26.0,22.0,10,5.0,5.59,1011.0,16,,,METAR,METAR WMKB 290200Z 01005KT 320V040 9000 FEW020 26/22 Q1011 NOSIG,5.466,100.391,4,Butterworth Arpt,FEW,"[{'cover': 'FEW', 'base': 2000}]",VFR,,,,,,MY,Malaysia
2071,WMKC,2025-11-29 02:08:25.464000+00:00,1764381600,2025-11-29T02:00:00.000Z,26.0,22.0,270,6.0,6+,1011.0,0,,,METAR,METAR WMKC 290200Z 27006KT 230V310 9999 FEW018 26/22 Q1011,6.167,102.293,7,Kota Bharu Arpt,FEW,"[{'cover': 'FEW', 'base': 1800}]",VFR,,,,,,MY,Malaysia
2273,WMKD,2025-11-29 02:08:25.492000+00:00,1764381600,2025-11-29T02:00:00.000Z,25.0,23.0,220,4.0,6+,1011.0,16,,,METAR,METAR WMKD 290200Z 22004KT 180V250 9999 FEW010 25/23 Q1011 NOSIG,3.775,103.209,18,Kuantan Arpt,FEW,"[{'cover': 'FEW', 'base': 1000}]",VFR,,,,,,MY,Malaysia
2260,WMKE,2025-11-29 02:08:25.514000+00:00,1764381600,2025-11-29T02:00:00.000Z,26.0,22.0,320,5.0,6+,1011.0,0,,,METAR,METAR WMKE 290200Z 32005KT 250V030 9999 FEW020 26/22 Q1011,4.537,103.427,5,Kerteh Arpt,FEW,"[{'cover': 'FEW', 'base': 2000}]",VFR,,,,,,MY,Malaysia
1790,WMKI,2025-11-29 02:08:25.536000+00:00,1764381600,2025-11-29T02:00:00.000Z,26.0,23.0,40,5.0,6+,1011.0,0,,,METAR,METAR WMKI 290200Z 04005KT 360V090 9999 FEW027 26/23 Q1011,4.568,101.092,37,Ipoh/Azlan Shah Arpt,FEW,"[{'cover': 'FEW', 'base': 2700}]",VFR,,,,,,MY,Malaysia
2074,WMKJ,2025-11-29 02:08:25.700000+00:00,1764381600,2025-11-29T02:00:00.000Z,28.0,22.0,VRB,3.0,6+,1011.0,0,,,METAR,METAR WMKJ 290200Z VRB03KT 9999 FEW018 28/22 Q1011,1.641,103.67,38,Johore Bharu/Senai Arpt,FEW,"[{'cover': 'FEW', 'base': 1800}]",VFR,,,,,,MY,Malaysia
2275,WMKK,2025-11-29 02:08:25.739000+00:00,1764381600,2025-11-29T02:00:00.000Z,27.0,22.0,360,3.0,6+,1011.0,16,,,METAR,METAR WMKK 290200Z 36003KT 300V070 9999 FEW018 27/22 Q1011 NOSIG,2.747,101.714,21,Kuala Lumpur Intl,FEW,"[{'cover': 'FEW', 'base': 1800}]",VFR,,,,,,MY,Malaysia
2274,WMKL,2025-11-29 02:08:25.559000+00:00,1764381600,2025-11-29T02:00:00.000Z,27.0,22.0,VRB,3.0,6+,1012.0,0,,,METAR,METAR WMKL 290200Z VRB03KT 9999 FEW020 27/22 Q1012,6.33,99.729,4,Langkawi Arpt,FEW,"[{'cover': 'FEW', 'base': 2000}]",VFR,,,,,,MY,Malaysia
2865,WMKM,2025-11-29 02:08:25.582000+00:00,1764381600,2025-11-29T02:00:00.000Z,28.0,23.0,VRB,3.0,6+,1012.0,0,,,METAR,METAR WMKM 290200Z VRB03KT 9999 FEW020 28/23 Q1012,2.263,102.252,9,Malacca Arpt,FEW,"[{'cover': 'FEW', 'base': 2000}]",VFR,,,,,,MY,Malaysia
4291,WMKN,2025-11-29 02:08:25.604000+00:00,1764381600,2025-11-29T02:00:00.000Z,25.0,22.0,VRB,2.0,6+,1011.0,0,,,METAR,METAR WMKN 290200Z VRB02KT 9999 FEW020 25/22 Q1011,5.383,103.103,12,Kuala Terengganu Arpt,FEW,"[{'cover': 'FEW', 'base': 2000}]",VFR,,,,,,MY,Malaysia
3372,WMKP,2025-11-29 02:08:25.774000+00:00,1764381600,2025-11-29T02:00:00.000Z,26.0,20.0,30,7.0,4.97,1011.0,16,,,METAR,METAR WMKP 290200Z 03007KT 350V070 8000 FEW020 26/20 Q1011 NOSIG,5.297,100.277,4,Penang Intl,FEW,"[{'cover': 'FEW', 'base': 2000}]",MVFR,,,,,,MY,Malaysia
4292,WMSA,2025-11-29 02:08:25.797000+00:00,1764381600,2025-11-29T02:00:00.000Z,26.0,23.0,VRB,1.0,6+,1012.0,0,,,METAR,METAR WMSA 290200Z VRB01KT 9999 FEW018 26/23 Q1012,3.13,101.552,19,Kuala Lumpur/Shah Arpt,FEW,"[{'cover': 'FEW', 'base': 1800}]",VFR,,,,,,MY,Malaysia
3653,WSAP,2025-11-29 02:02:31.781000+00:00,1764381600,2025-11-29T02:00:00.000Z,29.0,22.0,310,5.0,6+,1012.0,0,,,METAR,METAR WSAP 290200Z 31005KT 9999 FEW018 BKN300 29/22 Q1012,1.36,103.909,20,Singapore/Pays,BKN,"[{'cover': 'FEW', 'base': 1800}, {'cover': 'BKN', 'base': 30000}]",VFR,,,,,,SG,Singapore
4771,WSSL,2025-11-29 02:03:40.041000+00:00,1764381600,2025-11-29T02:00:00.000Z,28.0,23.0,340,4.0,6+,1011.0,0,,,METAR,METAR WSSL 290200Z 34004KT 230V040 9999 FEW018 BKN300 28/23 Q1011,1.417,103.866,11,Singapore/Seletar Arpt,BKN,"[{'cover': 'FEW', 'base': 1800}, {'cover': 'BKN', 'base': 30000}]",VFR,,,,,,SG,Singapore
3920,WSSS,2025-11-29 02:01:25.448000+00:00,1764381600,2025-11-29T02:00:00.000Z,29.0,22.0,300,4.0,6+,1011.0,16,,,METAR,METAR WSSS 290200Z 30004KT 230V020 9999 FEW018 SCT160 BKN300 29/22 Q1011 NOSIG,1.368,103.982,17,Singapore/Changi Intl,BKN,"[{'cover': 'FEW', 'base': 1800}, {'cover': 'SCT', 'base': 16000}, {'cover': 'BKN', 'base': 30000}]",VFR,,,,,,SG,Singapore
35,YBAS,2025-11-29 02:06:38.480000+00:00,1764381600,2025-11-29T02:00:00.000Z,25.0,17.0,130,8.0,6+,1014.0,2,,,METAR,METAR YBAS 290200Z AUTO 13008KT 9999 // SCT030 25/17 Q1014,-23.795,133.889,549,Alice Springs Arpt,SCT,"[{'cover': 'SCT', 'base': 3000}]",VFR,,,,,,AU,Australia
354,YBBN,2025-11-29 02:06:51.752000+00:00,1764381600,2025-11-29T02:00:00.000Z,28.0,24.0,320,10.0,6+,1005.0,0,-RA,,METAR,METAR YBBN 290200Z 32010KT 9999 -RA FEW015 SCT100 OVC130 28/24 Q1005,-27.391,153.13,3,Brisbane Intl,OVC,"[{'cover': 'FEW', 'base': 1500}, {'cover': 'SCT', 'base': 10000}, {'cover': 'OVC', 'base': 13000}]",VFR,,,,,,AU,Australia
3062,YBCG,2025-11-29 02:06:51.918000+00:00,1764381600,2025-11-29T02:00:00.000Z,28.0,23.0,320,9.0,6+,1004.0,2,-SHRA,,METAR,METAR YBCG 290200Z AUTO 32009KT 9999 -SHRA SCT038 BKN049 OVC074 28/23 Q1004,-28.168,153.505,5,Coolangatta/Gold Coast Arpt,OVC,"[{'cover': 'SCT', 'base': 3800}, {'cover': 'BKN', 'base': 4900}, {'cover': 'OVC', 'base': 7400}]",VFR,,,,,,AU,Australia
903,YBCS,2025-11-29 02:08:10.325000+00:00,1764381600,2025-11-29T02:00:00.000Z,32.0,26.0,10,12.0,6+,1008.0,2,,,METAR,METAR YBCS 290200Z AUTO 01012KT 9999 // NCD 32/26 Q1008,-16.874,145.745,2,Cairns Intl,CLR,[],VFR,,,,,,AU,Australia
1771,YBHM,2025-11-29 02:06:49.524000+00:00,1764381600,2025-11-29T02:00:00.000Z,30.0,24.0,320,21.0,6+,1008.0,2,,,METAR,METAR YBHM 290200Z AUTO 32021KT 9999 // NCD 30/24 Q1008,-20.357,148.949,4,Hamilton Island Arpt,CLR,[],VFR,,,,,,AU,Australia
310,YBLN,2025-11-29 02:05:58.123000+00:00,1764381600,2025-11-29T02:00:00.000Z,19.0,10.0,150,9.0,6+,1021.0,2,,,METAR,METAR YBLN 290200Z AUTO 15009KT 9999 // BKN044 19/10 Q1021,-33.688,115.402,17,Busselton Rgnl,BKN,"[{'cover': 'BKN', 'base': 4400}]",VFR,,,,,,AU,Australia
1789,YBMA,2025-11-29 02:06:38.513000+00:00,1764381600,2025-11-29T02:00:00.000Z,34.0,21.0,170,9.0,6+,1010.0,2,,,METAR,METAR YBMA 290200Z AUTO 17009KT 170V280 9999 // SCT053 34/21 Q1010,-20.678,139.488,346,Mount Isa Arpt,SCT,"[{'cover': 'SCT', 'base': 5300}]",VFR,,,,,,AU,Australia
3650,YBRK,2025-11-29 02:06:38.565000+00:00,1764381600,2025-11-29T02:00:00.000Z,34.0,24.0,340,12.0,6+,1006.0,2,,,METAR,METAR YBRK 290200Z AUTO 34012KT 9999 // ////// 34/24 Q1006,-23.375,150.477,10,Rockhampton Arpt,,,,,,,,,AU,Australia
311,YBRM,2025-11-29 02:06:38.606000+00:00,1764381600,2025-11-29T02:00:00.000Z,31.0,23.0,250,10.0,6+,1010.0,2,,,METAR,METAR YBRM 290200Z AUTO 25010KT 9999 // SCT025 31/23 Q1010,-17.948,122.235,11,Broome Arpt,SCT,"[{'cover': 'SCT', 'base': 2500}]",VFR,,,,,,AU,Australia
2562,YBSU,2025-11-29 02:05:59.380000+00:00,1764381600,2025-11-29T02:00:00.000Z,29.0,23.0,280,10.0,6+,1005.0,2,-SHRA,,METAR,METAR YBSU 290200Z AUTO 28010KT 9999 -SHRA BKN039 BKN067 BKN100 29/23 Q1005,-26.603,153.091,4,Sunshine Coast Arpt,BKN,"[{'cover': 'BKN', 'base': 3900}, {'cover': 'BKN', 'base': 6700}, {'cover': 'BKN', 'base': 10000}]",VFR,,,,,,AU,Australia
4280,YBTL,2025-11-29 02:08:10.352000+00:00,1764381600,2025-11-29T02:00:00.000Z,31.0,25.0,30,12.0,6+,1008.0,2,,,METAR,METAR YBTL 290200Z AUTO 03012KT 9999 // NCD 31/25 Q1008,-19.248,146.766,4,Townsville Arpt,CLR,[],VFR,,,,,,AU,Australia
4796,YBWW,2025-11-29 02:05:57.885000+00:00,1764381600,2025-11-29T02:00:00.000Z,24.0,21.0,350,14.0,6+,1007.0,2,,,METAR,METAR YBWW 290200Z AUTO 35014KT 9999 // FEW038 SCT075 BKN099 24/21 Q1007,-27.558,151.793,460,Toowoomba/Wellcamp Arpt,BKN,"[{'cover': 'FEW', 'base': 3800}, {'cover': 'SCT', 'base': 7500}, {'cover': 'BKN', 'base': 9900}]",VFR,,,,,,AU,Australia
649,YCFS,2025-11-29 02:05:58.497000+00:00,1764381600,2025-11-29T02:00:00.000Z,29.0,21.0,340,11.0,6+,1001.0,2,,,METAR,METAR YCFS 290200Z AUTO 34011KT 9999 // ////// 29/21 Q1001,-30.317,153.119,2,Coffs Harbour Arpt,,,,,,,,,AU,Australia
901,YCIN,2025-11-29 02:06:49.554000+00:00,1764381600,2025-11-29T02:00:00.000Z,34.0,20.0,290,7.0,6+,1008.0,2,,,METAR,METAR YCIN 290200Z AUTO 29007KT 250V330 9999 // NCD 34/20 Q1008,-17.574,123.831,83,Curtin,CLR,[],VFR,,,,,,AU,Australia
1164,YFRT,2025-11-29 02:06:49.583000+00:00,1764381600,2025-11-29T02:00:00.000Z,22.0,6.0,200,7.0,6+,1017.0,2,,,METAR,METAR YFRT 290200Z AUTO 20007KT 9999 // NCD 22/06 Q1017,-30.848,128.114,159,Forrest Arpt,CLR,[],VFR,,,,,,AU,Australia
1536,YGEL,2025-11-29 02:06:00.780000+00:00,1764381600,2025-11-29T02:00:00.000Z,25.0,11.0,180,12.0,6+,1015.0,2,,,METAR,METAR YGEL 290200Z AUTO 18012KT 9999 // NCD 25/11 Q1015,-28.805,114.699,32,Geraldton Arpt,CLR,[],VFR,,,,,,AU,Australia
1535,YGLA,2025-11-29 02:06:00.858000+00:00,1764381600,2025-11-29T02:00:00.000Z,32.0,24.0,350,10.0,6+,1006.0,2,,,METAR,METAR YGLA 290200Z AUTO 35010KT 9999 // FEW036 32/24 Q1006,-23.87,151.221,17,Gladstone Arpt,FEW,"[{'cover': 'FEW', 'base': 3600}]",VFR,,,,,,AU,Australia
1797,YHID,2025-11-29 02:06:00.948000+00:00,1764381600,2025-11-29T02:00:00.000Z,32.0,23.0,80,10.0,6+,1009.0,2,,,METAR,METAR YHID 290200Z AUTO 08010KT 030V100 9999 // NCD 32/23 Q1009,-10.584,142.29,5,Horn Island Arpt,CLR,[],VFR,,,,,,AU,Australia
2293,YLHI,2025-11-29 02:05:58.973000+00:00,1764381600,2025-11-29T02:00:00.000Z,26.0,23.0,360,7.0,6+,1005.0,2,,,METAR,METAR YLHI 290200Z AUTO 36007KT 9999 // BKN012 BKN018 26/23 Q1005,-31.538,159.077,2,Lord Howe Island Arpt,BKN,"[{'cover': 'BKN', 'base': 1200}, {'cover': 'BKN', 'base': 1800}]",MVFR,,,,,,AU,Australia
57,YMAV,2025-11-29 02:05:57.766000+00:00,1764381600,2025-11-29T02:00:00.000Z,15.0,11.0,200,13.0,6+,1005.0,2,-SHRA,,METAR,METAR YMAV 290200Z AUTO 20013KT 9999 -SHRA SCT029 SCT037 BKN052 15/11 Q1005,-38.029,144.478,11,Avalon Arpt,BKN,"[{'cover': 'SCT', 'base': 2900}, {'cover': 'SCT', 'base': 3700}, {'cover': 'BKN', 'base': 5200}]",VFR,,,,,,AU,Australia
1495,YMHB,2025-11-29 02:08:10.378000+00:00,1764381600,2025-11-29T02:00:00.000Z,15.0,3.0,160,8.0,6+,999.0,2,,,METAR,METAR YMHB 290200Z AUTO 16008KT 140V200 9999 // FEW034 BKN053 OVC064 15/03 Q0999,-42.834,147.503,2,Hobart Intl,OVC,"[{'cover': 'FEW', 'base': 3400}, {'cover': 'BKN', 'base': 5300}, {'cover': 'OVC', 'base': 6400}]",VFR,,,,,,AU,Australia
2563,YMLT,2025-11-29 02:06:49.618000+00:00,1764381600,2025-11-29T02:00:00.000Z,16.0,7.0,20,4.0,6+,998.0,2,,,METAR,METAR YMLT 290200Z AUTO 02004KT 360V110 9999 // SCT044 BKN055 BKN065 16/07 Q0998,-41.544,147.213,167,Launceston Arpt,BKN,"[{'cover': 'SCT', 'base': 4400}, {'cover': 'BKN', 'base': 5500}, {'cover': 'BKN', 'base': 6500}]",VFR,,,,,,AU,Australia
2564,YMML,2025-11-29 02:06:51.999000+00:00,1764381600,2025-11-29T02:00:00.000Z,16.0,11.0,200,7.0,6+,1005.0,0,,,METAR,METAR YMML 290200Z 20007KT 9999 BKN025 BKN050 16/11 Q1005,-37.666,144.832,115,Melbourne Intl,BKN,"[{'cover': 'BKN', 'base': 2500}, {'cover': 'BKN', 'base': 5000}]",MVFR,,,,,,AU,Australia
12,YPAD,2025-11-29 02:06:51.704000+00:00,1764381600,2025-11-29T02:00:00.000Z,19.0,10.0,250,14.0,6+,1011.0,0,,,METAR,METAR YPAD 290200Z 25014KT 9999 FEW029 BKN061 19/10 Q1011,-34.952,138.52,2,Adelaide Intl,BKN,"[{'cover': 'FEW', 'base': 2900}, {'cover': 'BKN', 'base': 6100}]",VFR,,,,,,AU,Australia
630,YPCC,2025-11-29 02:06:38.656000+00:00,1764381600,2025-11-29T02:00:00.000Z,28.0,21.0,120,9.0,6+,1013.0,2,,,METAR,METAR YPCC 290200Z AUTO 12009KT 9999 // NCD 28/21 Q1013,-12.189,96.834,3,Cocos Isl Intl,CLR,[],VFR,,,,,,CC,Cocos (Keeling) Islands
899,YPDN,2025-11-29 02:06:51.880000+00:00,1764381600,2025-11-29T02:00:00.000Z,32.0,26.0,300,12.0,6+,1009.0,0,,,METAR,METAR YPDN 290200Z 30012KT 9999 FEW024 SCT027 32/26 Q1009,-12.424,130.893,32,Darwin Intl,SCT,"[{'cover': 'FEW', 'base': 2400}, {'cover': 'SCT', 'base': 2700}]",VFR,,,,,,AU,Australia
1498,YPGV,2025-11-29 02:06:49.647000+00:00,1764381600,2025-11-29T02:00:00.000Z,34.0,23.0,320,9.0,6+,1008.0,2,,,METAR,METAR YPGV 290200Z AUTO 32009KT 290V350 9999 // FEW034 34/23 Q1008,-12.274,136.82,53,Gove Arpt,FEW,"[{'cover': 'FEW', 'base': 3400}]",VFR,,,,,,AU,Australia
2077,YPJT,2025-11-29 02:06:01.034000+00:00,1764381600,2025-11-29T02:00:00.000Z,23.0,11.0,100,7.0,6+,1020.0,2,,,METAR,METAR YPJT 290200Z AUTO 10007KT 050V200 9999 // NCD 23/11 Q1020,-32.101,115.879,29,Perth/Jandakot Arpt,CLR,[],VFR,,,,,,AU,Australia
2103,YPKG,2025-11-29 02:06:49.674000+00:00,1764381600,2025-11-29T02:00:00.000Z,21.0,6.0,50,5.0,6+,1019.0,2,,,METAR,METAR YPKG 290200Z AUTO 05005KT 340V100 9999 // NCD 21/06 Q1019,-30.785,121.453,372,Kalgoorlie/Boulder Arpt,CLR,[],VFR,,,,,,AU,Australia
2317,YPKU,2025-11-29 02:06:49.710000+00:00,1764381600,2025-11-29T02:00:00.000Z,36.0,24.0,210,5.0,6+,1008.0,2,,,METAR,METAR YPKU 290200Z AUTO 21005KT 9999 // NCD 36/24 Q1008,-15.781,128.71,42,Kununurra Arpt,CLR,[],VFR,,,,,,AU,Australia
2304,YPLM,2025-11-29 02:06:38.703000+00:00,1764381600,2025-11-29T02:00:00.000Z,33.0,11.0,200,13.0,6+,1008.0,2,,,METAR,METAR YPLM 290200Z AUTO 20013KT 9999 // NCD 33/11 Q1008,-22.241,114.097,5,Learmonth Arpt,CLR,[],VFR,,,,,,AU,Australia
3353,YPPD,2025-11-29 02:06:38.737000+00:00,1764381600,2025-11-29T02:00:00.000Z,30.0,22.0,320,10.0,6+,1008.0,2,,,METAR,METAR YPPD 290200Z AUTO 32010KT 9999 // NCD 30/22 Q1008,-20.372,118.632,6,Port Hedland Intl,CLR,[],VFR,,,,,,AU,Australia
3331,YPPH,2025-11-29 02:06:52.041000+00:00,1764381600,2025-11-29T02:00:00.000Z,23.0,9.0,70,7.0,6+,1019.0,0,,,METAR,METAR YPPH 290200Z 07007KT CAVOK 23/09 Q1019,-31.927,115.976,16,Perth Intl,CAVOK,[],VFR,,,,,,AU,Australia
2266,YPTN,2025-11-29 02:08:10.441000+00:00,1764381600,2025-11-29T02:00:00.000Z,34.0,24.0,340,9.0,6+,1009.0,2,,,METAR,METAR YPTN 290200Z AUTO 34009KT 9999 // NCD 34/24 Q1009,-14.523,132.383,135,Tindal Arpt,CLR,[],VFR,,,,,,AU,Australia
4495,YPWR,2025-11-29 02:06:01.359000+00:00,1764381600,2025-11-29T02:00:00.000Z,21.0,6.0,220,12.0,6+,1013.0,2,,,METAR,METAR YPWR 290200Z AUTO 22012KT 9999 // NCD 21/06 Q1013,-31.156,136.805,169,Woomera Arpt,CLR,[],VFR,,,,,,AU,Australia
4800,YPXM,2025-11-29 02:06:38.785000+00:00,1764381600,2025-11-29T02:00:00.000Z,26.0,21.0,160,8.0,6+,1014.0,2,,,METAR,METAR YPXM 290200Z AUTO 16008KT 130V190 9999 // FEW021 26/21 Q1014,-10.453,105.688,262,Christmas Isl Arpt,FEW,"[{'cover': 'FEW', 'base': 2100}]",VFR,,,,,,CX,Christmas Island
614,YSCB,2025-11-29 02:08:10.469000+00:00,1764381600,2025-11-29T02:00:00.000Z,18.0,11.0,330,18.0,6+,1001.0,2,,,METAR,METAR YSCB 290200Z AUTO 33018G28KT 9999 // SCT033 SCT110 18/11 Q1001,-35.309,149.2,577,Canberra Intl,SCT,"[{'cover': 'SCT', 'base': 3300}, {'cover': 'SCT', 'base': 11000}]",VFR,,28.0,,,,AU,Australia
910,YSDU,2025-11-29 02:06:38.813000+00:00,1764381600,2025-11-29T02:00:00.000Z,29.0,10.0,250,21.0,6+,1003.0,2,,,METAR,METAR YSDU 290200Z AUTO 25021KT 9999 // FEW079 29/10 Q1003,-32.221,148.575,285,Dubbo Rgnl,FEW,"[{'cover': 'FEW', 'base': 7900}]",VFR,,,,,,AU,Australia
3104,YSNF,2025-11-29 02:06:38.848000+00:00,1764381600,2025-11-29T02:00:00.000Z,26.0,21.0,330,7.0,6+,1012.0,2,,,METAR,METAR YSNF 290200Z AUTO 33007KT 9999 // BKN016 26/21 Q1012,-29.039,167.941,113,Norfolk Island Arpt,BKN,"[{'cover': 'BKN', 'base': 1600}]",MVFR,,,,,,NF,Norfolk Island
4724,YSRI,2025-11-29 02:08:26.180000+00:00,1764381900,2025-11-29T02:05:00.000Z,32.0,14.0,320,17.0,6+,996.0,2,,,SPECI,SPECI YSRI 290205Z AUTO 32017G29KT 9999 // FEW075 32/14 Q0996,-33.601,150.777,19,Richmond,FEW,"[{'cover': 'FEW', 'base': 7500}]",VFR,,29.0,,,,AU,Australia
4213,YSSY,2025-11-29 02:06:38.403000+00:00,1764381660,2025-11-29T02:01:00.000Z,31.0,11.0,310,15.0,6+,996.0,0,,,SPECI,SPECI YSSY 290201Z 31015G26KT CAVOK 31/11 Q0996,-33.946,151.173,3,Sydney Intl,CAVOK,[],VFR,,26.0,,,,AU,Australia
4242,YSTW,2025-11-29 02:06:49.745000+00:00,1764381600,2025-11-29T02:00:00.000Z,28.0,12.0,290,13.0,6+,1004.0,2,,,METAR,METAR YSTW 290200Z AUTO 29013KT 9999 // BKN086 BKN110 28/12 Q1004,-31.084,150.847,404,Tamworth Arpt,BKN,"[{'cover': 'BKN', 'base': 8600}, {'cover': 'BKN', 'base': 11000}]",VFR,,,,,,AU,Australia
3074,YWLM,2025-11-29 02:08:33.005000+00:00,1764381600,2025-11-29T02:00:00.000Z,30.0,15.0,300,19.0,6+,998.0,2,,,METAR,METAR YWLM 290200Z AUTO 30019KT 9999 // BKN115 30/15 Q0998,-32.794,151.836,7,Williamtown/New Castle Arpt,BKN,"[{'cover': 'BKN', 'base': 11500}]",VFR,,,,,,AU,Australia
3303,ZBAA,2025-11-29 02:05:59.829000+00:00,1764381600,2025-11-29T02:00:00.000Z,5.0,-5.0,330,6.0,6+,1012.0,16,,,METAR,METAR ZBAA 290200Z 33003MPS CAVOK 05/M05 Q1012 NOSIG,40.082,116.603,31,Beijing Intl,CAVOK,[],VFR,,,,,,CN,China
3302,ZBAD,2025-11-29 02:05:59.903000+00:00,1764381600,2025-11-29T02:00:00.000Z,4.0,-5.0,VRB,2.0,6+,1013.0,16,,,METAR,METAR ZBAD 290200Z VRB01MPS CAVOK 04/M05 Q1013 NOSIG,39.501,116.412,25,Beijing/Daxing Arpt,CAVOK,[],VFR,,,,,,CN,China
1796,ZBHH,2025-11-29 02:06:56.002000+00:00,1764381600,2025-11-29T02:00:00.000Z,0.0,-10.0,70,4.0,4.35,1014.0,16,,,METAR,METAR ZBHH 290200Z 07002MPS 020V100 7000 NSC M00/M10 Q1014 NOSIG,40.854,111.827,1081,Hohhot/Baita Intl,CLR,[],MVFR,,,,,,CN,China
3917,ZBSJ,2025-11-29 02:06:55.955000+00:00,1764381600,2025-11-29T02:00:00.000Z,5.0,-4.0,VRB,2.0,3.73,1013.0,16,,,METAR,METAR ZBSJ 290200Z VRB01MPS 6000 NSC 05/M04 Q1013 NOSIG,38.281,114.697,70,Zhengding Arpt,CLR,[],MVFR,,,,,,CN,China
4234,ZBTJ,2025-11-29 02:05:59.976000+00:00,1764381600,2025-11-29T02:00:00.000Z,7.0,-6.0,280,4.0,4.35,1012.0,16,,,METAR,METAR ZBTJ 290200Z 28002MPS 240V320 7000 NSC 07/M06 Q1012 NOSIG,39.124,117.346,4,Tianjin/Binhai Intl,CLR,[],MVFR,,,,,,CN,China
4475,ZBYN,2025-11-29 02:06:00.054000+00:00,1764381600,2025-11-29T02:00:00.000Z,7.0,-9.0,150,4.0,4.97,1016.0,16,,,METAR,METAR ZBYN 290200Z 15002MPS 110V180 8000 NSC 07/M09 Q1016 NOSIG,37.747,112.628,778,Taiyuan/Wusu Intl,CLR,[],MVFR,,,,,,CN,China
657,ZGGG,2025-11-29 02:06:00.132000+00:00,1764381600,2025-11-29T02:00:00.000Z,17.0,5.0,VRB,2.0,6+,1019.0,16,,,METAR,METAR ZGGG 290200Z VRB01MPS CAVOK 17/05 Q1019 NOSIG,23.392,113.307,11,Guangzhou/Baiyun Intl,CAVOK,[],VFR,,,,,,CN,China
891,ZGHA,2025-11-29 02:06:56.031000+00:00,1764381600,2025-11-29T02:00:00.000Z,12.0,4.0,VRB,2.0,4.97,1019.0,16,,,METAR,METAR ZGHA 290200Z VRB01MPS 8000 NSC 12/04 Q1019 NOSIG,28.18,113.219,61,Changsha/Huanghua Arpt,CLR,[],MVFR,,,,,,CN,China
2321,ZGKL,2025-11-29 02:06:55.567000+00:00,1764381600,2025-11-29T02:00:00.000Z,12.0,6.0,VRB,2.0,5.59,1020.0,16,,,METAR,METAR ZGKL 290200Z VRB01MPS 9000 NSC 12/06 Q1020 NOSIG,25.22,110.04,151,Guilin/Liangjiang Intl,CLR,[],VFR,,,,,,CN,China
3059,ZGNN,2025-11-29 02:06:55.588000+00:00,1764381600,2025-11-29T02:00:00.000Z,15.0,9.0,VRB,2.0,4.35,1019.0,16,,,METAR,METAR ZGNN 290200Z VRB01MPS 7000 NSC 15/09 Q1019 NOSIG,22.609,108.173,128,Nanning/Wuwei Intl,CLR,[],MVFR,,,,,,CN,China
3921,ZGOW,2025-11-29 02:06:55.612000+00:00,1764381600,2025-11-29T02:00:00.000Z,17.0,7.0,30,4.0,6+,1019.0,16,,,METAR,METAR ZGOW 290200Z 03002MPS 320V100 CAVOK 17/07 Q1019 NOSIG,23.55,116.505,4,Jieyang/Chaoshan Intl,CAVOK,[],VFR,,,,,,CN,China
4259,ZGSZ,2025-11-29 02:06:55.642000+00:00,1764381600,2025-11-29T02:00:00.000Z,20.0,4.0,20,10.0,6+,1018.0,16,,,METAR,METAR ZGSZ 290200Z 02005MPS CAVOK 20/04 Q1018 NOSIG,22.639,113.803,18,Shenzhen/Boan Intl,CAVOK,[],VFR,,,,,,CN,China
607,ZHCC,2025-11-29 02:06:56.054000+00:00,1764381600,2025-11-29T02:00:00.000Z,20.0,-7.0,280,8.0,6+,1013.0,16,,,METAR,METAR ZHCC 290200Z 28004MPS 250V310 CAVOK 20/M07 Q1013 NOSIG,34.52,113.834,149,Zhengzhou/Xinzheng Arpt,CAVOK,[],VFR,,,,,,CN,China
4803,ZHHH,2025-11-29 02:06:56.081000+00:00,1764381600,2025-11-29T02:00:00.000Z,17.0,7.0,VRB,2.0,4.97,1017.0,16,,,METAR,METAR ZHHH 290200Z VRB01MPS 8000 NSC 17/07 Q1017 NOSIG,30.783,114.205,33,Wuhan/Tianhe Intl,CLR,[],MVFR,,,,,,CN,China
1493,ZJHK,2025-11-29 02:06:56.107000+00:00,1764381600,2025-11-29T02:00:00.000Z,21.0,11.0,40,12.0,6+,1017.0,16,,,METAR,METAR ZJHK 290200Z 04006MPS 9999 SCT033 21/11 Q1017 NOSIG,19.934,110.445,21,Haikou/Meilan Intl,SCT,"[{'cover': 'SCT', 'base': 3300}]",VFR,,,,,,CN,China
4279,ZJSY,2025-11-29 02:06:56.137000+00:00,1764381600,2025-11-29T02:00:00.000Z,24.0,16.0,VRB,2.0,6+,1014.0,16,,,METAR,METAR ZJSY 290200Z VRB01MPS 9999 BKN040 BKN060 24/16 Q1014 NOSIG,18.303,109.412,27,Sanya/Phoenix Intl,BKN,"[{'cover': 'BKN', 'base': 4000}, {'cover': 'BKN', 'base': 6000}]",VFR,,,,,,CN,China
2323,ZLLL,2025-11-29 02:06:56.168000+00:00,1764381600,2025-11-29T02:00:00.000Z,0.0,-12.0,0,0.0,6+,1020.0,16,,,METAR,METAR ZLLL 290200Z 00000MPS CAVOK M00/M12 Q1020 NOSIG,36.513,103.623,1939,Lanzhou/Zhongchuan Arpt,CAVOK,[],VFR,,,,,,CN,China
4801,ZLXY,2025-11-29 02:06:55.674000+00:00,1764381600,2025-11-29T02:00:00.000Z,12.0,-6.0,VRB,2.0,6+,1018.0,16,,,METAR,METAR ZLXY 290200Z VRB01MPS CAVOK 12/M06 Q1018 NOSIG,34.449,108.752,478,Xianyang Intl,CAVOK,[],VFR,,,,,,CN,China
4459,ZMCK,2025-11-29 02:01:35.387000+00:00,1764381600,2025-11-29T02:00:00.000Z,-17.0,-19.0,100,6.0,6+,1007.0,16,,,METAR,METAR ZMCK 290200Z 10003MPS 9999 FEW033 SCT100 M17/M19 Q1007 NOSIG RMK QFE640.9 81 MOP,47.651,106.822,1366,Ulaanbaatar Intl,SCT,"[{'cover': 'FEW', 'base': 3300}, {'cover': 'SCT', 'base': 10000}]",VFR,,,,,,MN,Mongolia
4502,ZMUB,2025-11-29 02:06:55.696000+00:00,1764381600,2025-11-29T02:00:00.000Z,-20.0,-22.0,VRB,2.0,4.97,1008.0,16,,,METAR,METAR ZMUB 290200Z VRB01MPS 8000 FEW033 SCT100 M20/M22 Q1008 NOSIG RMK QFE649.4 80 NW MO,47.843,106.766,1300,Ulan-Bator/Khaan Arpt,SCT,"[{'cover': 'FEW', 'base': 3300}, {'cover': 'SCT', 'base': 10000}]",MVFR,,,,,,MN,Mongolia
2096,ZPPP,2025-11-29 02:06:55.727000+00:00,1764381600,2025-11-29T02:00:00.000Z,9.0,-1.0,210,8.0,6+,1023.0,16,,,METAR,METAR ZPPP 290200Z 21004MPS CAVOK 09/M01 Q1023 NOSIG,25.107,102.934,2104,Kunming/Changshui Intl,CAVOK,[],VFR,,,,,,CN,China
4802,ZSAM,2025-11-29 02:06:55.753000+00:00,1764381600,2025-11-29T02:00:00.000Z,19.0,8.0,VRB,2.0,6+,1019.0,16,,,METAR,METAR ZSAM 290200Z VRB01MPS CAVOK 19/08 Q1019 NOSIG,24.546,118.131,13,Xiamen-Gaoqi Intl,CAVOK,[],VFR,,,,,,CN,China
1144,ZSFZ,2025-11-29 02:06:55.782000+00:00,1764381600,2025-11-29T02:00:00.000Z,17.0,7.0,280,8.0,6+,1019.0,16,,,METAR,METAR ZSFZ 290200Z 28004MPS CAVOK 17/07 Q1019 NOSIG,25.936,119.666,14,Fuzhou/Changle Intl,CAVOK,[],VFR,,,,,,CN,China
1798,ZSHC,2025-11-29 02:06:00.194000+00:00,1764381600,2025-11-29T02:00:00.000Z,15.0,2.0,210,6.0,4.97,1018.0,16,,,METAR,METAR ZSHC 290200Z 21003MPS 180V240 8000 NSC 15/02 Q1018 NOSIG,30.229,120.434,8,Hangzhou/Xiaoshan Intl,CLR,[],MVFR,,,,,,CN,China
2888,ZSNB,2025-11-29 02:06:55.814000+00:00,1764381600,2025-11-29T02:00:00.000Z,15.0,2.0,160,4.0,6+,1019.0,16,,,METAR,METAR ZSNB 290200Z 16002MPS 100V200 CAVOK 15/02 Q1019 NOSIG,29.827,121.462,5,Ningbo/Lishe Intl,CAVOK,[],VFR,,,,,,CN,China
3058,ZSNJ,2025-11-29 02:06:56.192000+00:00,1764381600,2025-11-29T02:00:00.000Z,17.0,0.0,240,10.0,6+,1016.0,16,,,METAR,METAR ZSNJ 290200Z 24005G10MPS CAVOK 17/M00 Q1016 NOSIG,31.739,118.863,27,Nanjing/Lukou Intl,CAVOK,[],VFR,,19.0,,,,CN,China
1829,ZSOF,2025-11-29 02:06:56.218000+00:00,1764381600,2025-11-29T02:00:00.000Z,17.0,0.0,180,10.0,6+,1015.0,16,,,METAR,METAR ZSOF 290200Z 18005MPS CAVOK 17/M00 Q1015 NOSIG,31.99,116.965,64,Hefei/Xinqiao Intl,CAVOK,[],VFR,,,,,,CN,China
3305,ZSPD,2025-11-29 02:06:00.284000+00:00,1764381600,2025-11-29T02:00:00.000Z,17.0,6.0,190,10.0,6+,1018.0,16,,,METAR,METAR ZSPD 290200Z 19005MPS 160V220 CAVOK 17/06 Q1018 NOSIG,31.146,121.8,4,Shanghai/Pudong Intl,CAVOK,[],VFR,,,,,,CN,China
3892,ZSSS,2025-11-29 02:06:00.349000+00:00,1764381600,2025-11-29T02:00:00.000Z,17.0,2.0,200,8.0,6+,1018.0,16,,,METAR,METAR ZSSS 290200Z 20004MPS 170V230 CAVOK 17/02 Q1018 NOSIG,31.209,121.337,2,Shanghai/Hongqiao Intl,CAVOK,[],VFR,,,,,,CN,China
605,ZUCK,2025-11-29 02:06:56.247000+00:00,1764381600,2025-11-29T02:00:00.000Z,11.0,11.0,20,4.0,1.86,1019.0,16,BR,,METAR,METAR ZUCK 290200Z 02002MPS 350V050 3000 BR NSC 11/11 Q1019 NOSIG,29.718,106.639,416,Chongqing/Jiangbei Intl,CLR,[],IFR,,,,,,CN,China
2322,ZUGY,2025-11-29 02:06:55.874000+00:00,1764381600,2025-11-29T02:00:00.000Z,10.0,2.0,120,2.0,6+,1019.0,16,,,METAR,METAR ZUGY 290200Z 12001MPS CAVOK 10/02 Q1019 NOSIG,26.538,106.801,1130,Guizhou/Longdongbao Arpt,CAVOK,[],VFR,,,,,,CN,China
4266,ZUTF,2025-11-29 02:06:55.901000+00:00,1764381600,2025-11-29T02:00:00.000Z,10.0,9.0,VRB,2.0,1.43,1019.0,0,BR,,METAR,METAR ZUTF 290200Z VRB01MPS 2300 BR NSC 10/09 Q1019 BECMG TL0230 3000,30.304,104.436,443,Chengdu/Tianfu Arpt,CLR,[],IFR,,,,,,CN,China
892,ZUUU,2025-11-29 02:06:55.929000+00:00,1764381600,2025-11-29T02:00:00.000Z,12.0,9.0,340,2.0,1.86,1019.0,16,BR,,METAR,METAR ZUUU 290200Z 34001MPS 3000 BR FEW026 OVC036 12/09 Q1019 NOSIG,30.576,103.95,494,Chengdu/Shuangliu Intl,OVC,"[{'cover': 'FEW', 'base': 2600}, {'cover': 'OVC', 'base': 3600}]",IFR,,,,,,CN,China
2094,ZWSH,2025-11-29 02:06:55.979000+00:00,1764381600,2025-11-29T02:00:00.000Z,0.0,-16.0,330,4.0,6+,1020.0,16,,,METAR,METAR ZWSH 290200Z 33002MPS CAVOK 00/M16 Q1020 NOSIG,39.542,76.019,1374,Kashgar Arpt,CAVOK,[],VFR,,,,,,CN,China
4482,ZWWW,2025-11-29 02:06:00.432000+00:00,1764381600,2025-11-29T02:00:00.000Z,-3.0,-3.0,230,6.0,3.11,1031.0,16,BR,,METAR,METAR ZWWW 290200Z 23003MPS 5000 BR BKN011 M03/M03 Q1031 NOSIG,43.907,87.474,654,Ürümqi/Diwopu Arpt,BKN,"[{'cover': 'BKN', 'base': 1100}]",MVFR,,,,,,CN,China
604,ZYCC,2025-11-29 02:06:56.272000+00:00,1764381600,2025-11-29T02:00:00.000Z,5.0,-1.0,210,16.0,6+,1002.0,16,,,METAR,METAR ZYCC 290200Z 21008MPS 9999 OVC023 05/M01 Q1002 NOSIG,43.993,125.682,211,Changchun/Longjia Intl,OVC,"[{'cover': 'OVC', 'base': 2300}]",MVFR,,,,,,CN,China
1820,ZYHB,2025-11-29 02:06:56.304000+00:00,1764381600,2025-11-29T02:00:00.000Z,3.0,-1.0,170,10.0,6+,1000.0,16,,,METAR,METAR ZYHB 290200Z 17005MPS 130V200 9999 OVC026 03/M01 Q1000 NOSIG,45.628,126.259,134,Harbin/Taiping Arpt,OVC,"[{'cover': 'OVC', 'base': 2600}]",MVFR,,,,,,CN,China
926,ZYTL,2025-11-29 02:06:00.503000+00:00,1764381600,2025-11-29T02:00:00.000Z,13.0,4.0,VRB,4.0,4.97,1010.0,16,,,METAR,METAR ZYTL 290200Z VRB02MPS 8000 NSC 13/04 Q1010 NOSIG,38.961,121.556,33,Dalian/Zhoushuizi Intl,CLR,[],MVFR,,,,,,CN,China
3898,ZYTX,2025-11-29 02:06:00.601000+00:00,1764381600,2025-11-29T02:00:00.000Z,9.0,4.0,210,10.0,6+,1007.0,16,,,METAR,METAR ZYTX 290200Z 21005MPS 9999 BKN040 09/04 Q1007 NOSIG,41.639,123.485,56,Shenyang/Taoxian Intl,BKN,"[{'cover': 'BKN', 'base': 4000}]",VFR,,,,,,CN,China
