,icaoId,receiptTime,obsTime,reportTime,temp,dewp,wdir,wspd,visib,altim,qcField,metarType,rawOb,lat,lon,elev,name,cover,clouds,fltCat,wxString,slp,precip,vertVis,maxT,wgst,minT,IATA,Airport_name,Country,City,Information
0,BGBW,2025-11-23 01:55:29.563000+00:00,1763862600,2025-11-23T02:00:00.000Z,-6.0,-9.0,200,1.0,,1011.0,2,METAR,METAR BGBW 230150Z AUTO 20001KT 9999NDV NCD M06/M09 Q1011,61.164,-45.42,49,"Narssarssuaq Arpt, KJ, GL",CLR,[],,,,,,,,,UAK,Narsarsuaq Airport,Greenland,Narsarsuaq,https://www.worlddata.info/america/greenland/airports.php
1,BGGH,2025-11-23 01:53:16.996000+00:00,1763862600,2025-11-23T02:00:00.000Z,-2.0,-2.0,40,8.0,6+,1010.0,2,METAR,METAR BGGH 230150Z AUTO 04008KT 9999 FEW001/// SCT004/// M02/M02 Q1010 REFZRA,64.191,-51.677,76,"Godthab/Nuuk Arpt, SM, GL",SCT,"[{'cover': 'FEW', 'base': 100}, {'cover': 'SCT', 'base': 400}]",VFR,,,,,,,,GOH,Nuuk Airport,Greenland,Nuuk,https://www.worlddata.info/america/greenland/airports.php
2,BGJN,2025-11-23 01:55:29.589000+00:00,1763862600,2025-11-23T02:00:00.000Z,-4.0,-5.0,60,3.0,,1013.0,2,METAR,METAR BGJN 230150Z AUTO 06003KT 9999NDV FEW022/// BKN030/// BKN140/// M04/M05 Q1013,69.24,-51.064,22,"Ilulissat Arpt, AV, GL",BKN,"[{'cover': 'FEW', 'base': 2200}, {'cover': 'BKN', 'base': 3000}, {'cover': 'BKN', 'base': 14000}]",,,,,,,,,JAV,Ilulissat Airport,Greenland,Ilulissat,https://www.worlddata.info/america/greenland/airports.php
3,BGKK,2025-11-23 01:55:29.608000+00:00,1763862600,2025-11-23T02:00:00.000Z,-3.0,-6.0,340,4.0,,1008.0,2,METAR,METAR BGKK 230150Z AUTO 34004KT 9999NDV BKN064/// M03/M06 Q1008,65.575,-37.133,37,"Kulusuk Arpt, SM, GL",BKN,"[{'cover': 'BKN', 'base': 6400}]",,,,,,,,,KUS,Kulusuk Airport,Greenland,Kulusuk,https://www.worlddata.info/america/greenland/airports.php
4,BGSF,2025-11-23 01:55:29.628000+00:00,1763862600,2025-11-23T02:00:00.000Z,-6.0,-6.0,30,6.0,,1012.0,2,METAR,METAR BGSF 230150Z AUTO 03006KT 360V060 9999NDV FEW010/// BKN021/// OVC025/// M06/M06 Q1012,67.013,-50.718,75,"Stroemfjord Arpt, QQ, GL",OVC,"[{'cover': 'FEW', 'base': 1000}, {'cover': 'BKN', 'base': 2100}, {'cover': 'OVC', 'base': 2500}]",,,,,,,,,SFJ,Kangerlussuaq Airport,Greenland,Kangerlussuaq,https://www.worlddata.info/america/greenland/airports.php
5,BGTL,2025-11-23 01:56:50.027000+00:00,1763862900,2025-11-23T02:00:00.000Z,-6.2,-8.0,100,6.0,6+,1009.2,46,METAR,METAR BGTL 230155Z AUTO 10006KT 9999 OVC006 M06/M08 A2980 RMK AO2 CIG 003 RWY26 SLP074 T10621080 TSNO $,76.527,-68.758,79,"Thule, AV, GL",OVC,"[{'cover': 'OVC', 'base': 600}]",IFR,,1007.4,,,,,,THU,Pituffik Space Base,Greenland,Pituffik,https://www.worlddata.info/america/greenland/airports.php
6,BIKF,2025-11-23 01:33:11.586000+00:00,1763861400,2025-11-23T01:30:00.000Z,2.0,0.0,10,1.0,6+,1001.0,0,METAR,METAR BIKF 230130Z 01001KT 9999 FEW014 02/00 Q1001,63.987,-22.614,49,"Keflavik Intl, SP, IS",FEW,"[{'cover': 'FEW', 'base': 1400}]",VFR,,,,,,,,KEF,Keflavik International Airport,Iceland,Reykjavík,https://www.worlddata.info/europe/iceland/airports.php
7,BKPR,2025-11-23 01:52:40.630000+00:00,1763863200,2025-11-23T02:00:00.000Z,2.0,2.0,350,16.0,6+,1014.0,16,METAR,METAR BKPR 230200Z 35016KT 9999 BKN080 02/02 Q1014 NOSIG,42.576,21.03,545,"Pristina Intl, PR, XK",BKN,"[{'cover': 'BKN', 'base': 8000}]",VFR,,,,,,,,PRN,Priština Adem Jashari International Airport,Kosovo,Prishtina,https://www.worlddata.info/europe/kosovo/airports.php
8,CBBC,2025-11-23 02:01:56.121000+00:00,1763863260,2025-11-23T02:01:00.000Z,4.0,4.0,,,9,1015.3,2,SPECI,SPECI CBBC 230201Z AUTO /////KT 9SM FEW004 SCT031 SCT048 BKN071 04/04 A2998 RMK WIND MISG SLP154,52.181,-128.154,36,"Bella Bella Arpt, BC, CA",BKN,"[{'cover': 'FEW', 'base': 400}, {'cover': 'SCT', 'base': 3100}, {'cover': 'SCT', 'base': 4800}, {'cover': 'BKN', 'base': 7100}]",VFR,,1015.4,,,,,,ZEL,Bella Bella (Campbell Island) Airport,Canada,Bella Bella,https://www.worlddata.info/america/canada/airports.php
9,CYAH,2025-11-23 01:15:39.136000+00:00,1763860260,2025-11-23T01:11:00.000Z,-2.0,-3.0,290,6.0,6,999.4,2,SPECI,SPECI CYAH 230111Z AUTO 29006KT 6SM -SN SCT017 BKN026 OVC033 M02/M03 A2951 RMK SLP016,53.757,-73.676,298,"La Grande IV Arpt, QC, CA",OVC,"[{'cover': 'SCT', 'base': 1700}, {'cover': 'BKN', 'base': 2600}, {'cover': 'OVC', 'base': 3300}]",MVFR,-SN,1001.6,,,,,,YAH,La Grande-4 Airport,Canada,La Grande-4,https://www.worlddata.info/america/canada/airports.php
10,CYAM,2025-11-23 01:41:00.654000+00:00,1763861700,2025-11-23T01:35:00.000Z,2.0,-1.0,80,8.0,12,1009.6,0,SPECI,SPECI CYAM 230135Z 08008KT 12SM -SN BKN034 OVC051 02/M01 A2981 RMK SC6SC2 SLP104,46.484,-84.504,186,"Sault Ste Marie Arpt, ON, CA",OVC,"[{'cover': 'BKN', 'base': 3400}, {'cover': 'OVC', 'base': 5100}]",VFR,-SN,1010.4,,,,,,YAM,Sault Ste Marie Airport,Canada,Sault Ste Marie,https://www.worlddata.info/america/canada/airports.php
11,CYAT,2025-11-23 01:28:45.868000+00:00,1763861280,2025-11-23T01:28:00.000Z,-7.0,-7.0,240,7.0,5,1008.9,2,SPECI,SPECI CYAT 230128Z AUTO 24007KT 5SM BR OVC004 M07/M07 A2979 RMK SLP090,52.927,-82.432,4,"Attawapisket Arpt, ON, CA",OVC,"[{'cover': 'OVC', 'base': 400}]",LIFR,BR,1009.0,,,,,,YAT,Attawapiskat Airport,Canada,Attawapiskat,https://www.worlddata.info/america/canada/airports.php
12,CYAY,2025-11-23 01:34:10.151000+00:00,1763861460,2025-11-23T01:31:00.000Z,2.0,0.0,180,8.0,9,1001.1,2,SPECI,SPECI CYAY 230131Z AUTO 18008KT 9SM FEW035 BKN047 OVC250 02/00 A2956 RMK SLP014,51.39,-56.081,23,"St Anthony Arpt, NL, CA",OVC,"[{'cover': 'FEW', 'base': 3500}, {'cover': 'BKN', 'base': 4700}, {'cover': 'OVC', 'base': 25000}]",VFR,,1001.4,,,,,,YAY,St. Anthony Airport,Canada,St. Anthony,https://www.worlddata.info/america/canada/airports.php
13,CYBX,2025-11-23 01:47:23.608000+00:00,1763862120,2025-11-23T01:42:00.000Z,3.0,1.0,230,15.0,15,1000.4,0,SPECI,SPECI CYBX 230142Z 23015G22KT 15SM -RA FEW010 BKN026 OVC051 03/01 A2954 RMK SC2SC3SC3 SLP006,51.442,-57.188,32,"Blanc Sablon Arpt, QC, CA",OVC,"[{'cover': 'FEW', 'base': 1000}, {'cover': 'BKN', 'base': 2600}, {'cover': 'OVC', 'base': 5100}]",MVFR,-RA,1000.6,,,,22.0,,YBX,Lourdes-de-Blanc-Sablon Airport,Canada,Blanc-Sablon,https://www.worlddata.info/america/canada/airports.php
14,CYCA,2025-11-23 01:54:51.832000+00:00,1763862840,2025-11-23T01:54:00.000Z,2.0,0.0,210,16.0,9,995.3,2,SPECI,SPECI CYCA 230154Z AUTO 21016G24KT 9SM FEW021 02/00 A2939 RMK SLP954,53.683,-57.042,12,"Cartwright Arpt, NL, CA",FEW,"[{'cover': 'FEW', 'base': 2100}]",VFR,,995.4,,,,24.0,,YRF,Cartwright Airport,Canada,Cartwright,https://www.worlddata.info/america/canada/airports.php
15,CYCB,2025-11-23 01:52:49.230000+00:00,1763862480,2025-11-23T01:48:00.000Z,-5.0,-5.0,90,11.0,3,1003.5,0,SPECI,SPECI CYCB 230148Z 09011KT 3SM -SN BR OVC007 M05/M05 A2963 RMK ST8 CIG VRB 5-9 SLP038,69.106,-105.116,19,"Cambridge Bay Arpt, NU, CA",OVC,"[{'cover': 'OVC', 'base': 700}]",IFR,-SN BR,1003.8,,,,,,YCB,Cambridge Bay Airport,Canada,Cambridge Bay,https://www.worlddata.info/america/canada/airports.php
16,CYCO,2025-11-23 01:45:28.520000+00:00,1763862060,2025-11-23T01:41:00.000Z,-7.0,-8.0,240,8.0,6,997.7,0,SPECI,SPECI CYCO 230141Z 24008KT 6SM -SN BKN009 BKN015 OVC031 M07/M08 A2946 RMK ST5SC1SC2 SLP982,67.817,-115.135,20,"Coppermine/Kugluktuk Arpt, NU, CA",OVC,"[{'cover': 'BKN', 'base': 900}, {'cover': 'BKN', 'base': 1500}, {'cover': 'OVC', 'base': 3100}]",IFR,-SN,998.2,,,,,,YCO,Kugluktuk Airport,Canada,Kugluktuk,https://www.worlddata.info/america/canada/airports.php
17,CYCY,2025-11-23 02:00:18.918000+00:00,1763863020,2025-11-23T01:57:00.000Z,-8.0,-9.0,310,6.0,1.5,1011.3,2,SPECI,SPECI CYCY 230157Z AUTO 31006KT 1 1/2SM BR OVC003 M08/M09 A2986 RMK ICE SLP117,70.484,-68.515,73,"Cylde River Arpt, NU, CA",OVC,"[{'cover': 'OVC', 'base': 300}]",LIFR,BR,1011.7,,,,,,YCY,Clyde River Airport,Canada,Clyde River,https://www.worlddata.info/america/canada/airports.php
18,CYEK,2025-11-23 01:52:49.749000+00:00,1763862480,2025-11-23T01:48:00.000Z,-6.0,-7.0,0,0.0,3,999.7,2,SPECI,SPECI CYEK 230148Z AUTO 00000KT 3SM -SN OVC018 M06/M07 A2952 RMK SLP001,61.098,-94.072,7,"Arviat/Eskimo Pt Arpt, NU, CA",OVC,"[{'cover': 'OVC', 'base': 1800}]",MVFR,-SN,1000.1,,,,,,YEK,Arviat Airport,Canada,Arviat,https://www.worlddata.info/america/canada/airports.php
19,CYER,2025-11-23 01:54:36.454000+00:00,1763862720,2025-11-23T01:52:00.000Z,-8.0,-8.0,220,5.0,3,1006.5,2,SPECI,SPECI CYER 230152Z AUTO 22005KT 3SM BR OVC003 M08/M08 A2972 RMK SLP066,56.019,-87.675,11,"Ft Severn Arpt, ON, CA",OVC,"[{'cover': 'OVC', 'base': 300}]",LIFR,BR,1006.6,,,,,,YER,Fort Severn Airport,Canada,Fort Severn,https://www.worlddata.info/america/canada/airports.php
20,CYEV,2025-11-23 01:49:50.436000+00:00,1763862120,2025-11-23T01:42:00.000Z,-7.0,-8.0,290,7.0,2.5,1004.5,0,SPECI,SPECI CYEV 230142Z 29007KT 2 1/2SM -SHGS BKN009 OVC048 M07/M08 A2966 RMK ST5SC3 CVCTV CLD EMBD CIG RAG SLP054,68.309,-133.5,74,"Inuvik/Zubko Arpt, NT, CA",OVC,"[{'cover': 'BKN', 'base': 900}, {'cover': 'OVC', 'base': 4800}]",IFR,-SHGS,1005.4,,,,,,YEV,Inuvik Mike Zubko Airport,Canada,Inuvik,https://www.worlddata.info/america/canada/airports.php
21,CYGL,2025-11-23 01:45:28.557000+00:00,1763861880,2025-11-23T01:38:00.000Z,-1.0,-1.0,270,9.0,6,1004.8,0,SPECI,SPECI CYGL 230138Z 27009KT 6SM -FZDZ -SN BR OVC005 M01/M01 A2967 RMK SF8 SLP062,53.625,-77.7,192,"La Grande Riviere Arpt, QC, CA",OVC,"[{'cover': 'OVC', 'base': 500}]",IFR,-FZDZ -SN BR,1006.2,,,,,,YGL,La Grande Rivière Airport,Canada,La Grande Rivière,https://www.worlddata.info/america/canada/airports.php
22,CYGR,2025-11-23 01:29:37.809000+00:00,1763861160,2025-11-23T01:26:00.000Z,4.0,0.0,320,11.0,15,1004.8,0,SPECI,SPECI CYGR 230126Z 32011KT 260V330 15SM FEW040 OVC180 04/M00 A2967 RMK CF1AC7 WSHFT 0119 SLP049,47.425,-61.775,4,"Îles de la Madeleine Arpt, QC, CA",OVC,"[{'cover': 'FEW', 'base': 4000}, {'cover': 'OVC', 'base': 18000}]",VFR,,1004.9,,,,,,YGR,Îles-de-la-Madeleine Airport,Canada,Les Îles-de-la-Madeleine,https://www.worlddata.info/america/canada/airports.php
23,CYHD,2025-11-23 01:47:23.634000+00:00,1763862300,2025-11-23T01:45:00.000Z,1.0,-1.0,290,12.0,9,1008.9,2,SPECI,SPECI CYHD 230145Z AUTO 29012G18KT 9SM OVC010 01/M01 A2979 RMK SLP111,49.83,-92.74,414,"Dryden Rgnl, ON, CA",OVC,"[{'cover': 'OVC', 'base': 1000}]",MVFR,,1011.1,,,,18.0,,YHD,Dryden Regional Airport,Canada,Dryden,https://www.worlddata.info/america/canada/airports.php
24,CYHE,2025-11-23 01:21:17.425000+00:00,1763860680,2025-11-23T01:18:00.000Z,10.0,10.0,220,7.0,9,1014.6,2,SPECI,SPECI CYHE 230118Z AUTO 22007KT 9SM -RA BKN008 OVC020 10/10 A2996 RMK SLP146,49.37,-121.493,43,"Hope Rgnl Airpark, BC, CA",OVC,"[{'cover': 'BKN', 'base': 800}, {'cover': 'OVC', 'base': 2000}]",IFR,-RA,1014.6,,,,,,YHE,Hope Airport / FVRD Regional Airpark,Canada,Hope,https://www.worlddata.info/america/canada/airports.php
25,CYIO,2025-11-23 01:25:20.651000+00:00,1763860980,2025-11-23T01:23:00.000Z,-15.0,-16.0,120,4.0,0.38,1011.3,2,SPECI,SPECI CYIO 230123Z AUTO 12004KT 3/8SM FZFG VV002 M15/M16 A2986 RMK ICE SLP122,72.694,-77.957,61,"Pond Inlet Arpt, NU, CA",OVX,"[{'cover': 'OVX', 'base': 200}]",LIFR,FZFG,1012.2,,2.0,,,,YIO,Pond Inlet Airport,Canada,Pond Inlet,https://www.worlddata.info/america/canada/airports.php
26,CYIV,2025-11-23 01:29:37.849000+00:00,1763861280,2025-11-23T01:28:00.000Z,0.0,-1.0,270,10.0,9,1005.2,2,SPECI,SPECI CYIV 230128Z AUTO 27010G16KT 9SM OVC006 00/M01 A2968 RMK SLP068,53.857,-94.655,234,"Island Lake Arpt, MB, CA",OVC,"[{'cover': 'OVC', 'base': 600}]",IFR,,1006.8,,,,16.0,,YIV,Island Lake Airport,Canada,Island Lake,https://www.worlddata.info/america/canada/airports.php
27,CYKL,2025-11-23 01:49:50.453000+00:00,1763862360,2025-11-23T01:46:00.000Z,-5.0,-5.0,300,6.0,9,992.6,2,SPECI,SPECI CYKL 230146Z AUTO 30006KT 9SM -SN OVC006 M05/M05 A2931 RMK SLP960,54.803,-66.804,507,"Schefferville Arpt, QC, CA",OVC,"[{'cover': 'OVC', 'base': 600}]",IFR,-SN,996.0,,,,,,YKL,Schefferville Airport,Canada,Schefferville,https://www.worlddata.info/america/canada/airports.php
28,CYLH,2025-11-23 01:43:14.626000+00:00,1763862120,2025-11-23T01:42:00.000Z,-4.0,-5.0,70,3.0,2.25,1003.8,2,SPECI,SPECI CYLH 230142Z AUTO 07003KT 2 1/4SM -SN FEW018 SCT050 BKN071 OVC110 M04/M05 A2964 RMK SLP058,52.196,-87.936,245,"Lansdowne House Arpt, ON, CA",OVC,"[{'cover': 'FEW', 'base': 1800}, {'cover': 'SCT', 'base': 5000}, {'cover': 'BKN', 'base': 7100}, {'cover': 'OVC', 'base': 11000}]",IFR,-SN,1005.8,,,,,,YLH,Lansdowne House Airport,Canada,Lansdowne House,https://www.worlddata.info/america/canada/airports.php
29,CYLW,2025-11-23 01:52:49.955000+00:00,1763862600,2025-11-23T01:50:00.000Z,6.0,4.0,130,7.0,9,1015.0,2,SPECI,SPECI CYLW 230150Z AUTO 13007KT 9SM -RA OVC025 06/04 A2997 RMK SLP162,49.953,-119.375,420,"Kelowna Arpt, BC, CA",OVC,"[{'cover': 'OVC', 'base': 2500}]",MVFR,-RA,1016.2,,,,,,YLW,Kelowna International Airport,Canada,Kelowna,https://www.worlddata.info/america/canada/airports.php
30,CYMT,2025-11-23 01:29:37.878000+00:00,1763861160,2025-11-23T01:26:00.000Z,-5.0,-6.0,250,11.0,6,1007.5,2,SPECI,SPECI CYMT 230126Z AUTO 25011G17KT 6SM -SN OVC014 M05/M06 A2975 RMK SLP101,49.779,-74.527,388,"Chibougamau Arpt, QC, CA",OVC,"[{'cover': 'OVC', 'base': 1400}]",MVFR,-SN,1010.1,,,,17.0,,YMT,Chapais Airport,Canada,Chibougamau,https://www.worlddata.info/america/canada/airports.php
31,CYNA,2025-11-23 01:59:45.357000+00:00,1763863140,2025-11-23T01:59:00.000Z,1.0,0.0,270,16.0,9,1000.4,2,SPECI,SPECI CYNA 230159Z AUTO 27016G26KT 9SM -RA FEW012 SCT022 BKN028 OVC050 01/M00 A2954 RMK SLP004,50.19,-61.789,9,"Natashquan Arpt, QC, CA",OVC,"[{'cover': 'FEW', 'base': 1200}, {'cover': 'SCT', 'base': 2200}, {'cover': 'BKN', 'base': 2800}, {'cover': 'OVC', 'base': 5000}]",MVFR,-RA,1000.4,,,,26.0,,YNA,Natashquan Airport,Canada,Natashquan,https://www.worlddata.info/america/canada/airports.php
32,CYPD,2025-11-23 01:40:48.073000+00:00,1763862000,2025-11-23T01:40:00.000Z,3.0,2.0,300,4.0,9,1004.8,2,SPECI,SPECI CYPD 230140Z AUTO 30004KT 9SM -RA BKN010 BKN014 OVC028 03/02 A2967 RMK PCPN 1.0MM PAST HR SLP053,45.657,-61.374,106,"Port Hawkesbury Arpt, NS, CA",OVC,"[{'cover': 'BKN', 'base': 1000}, {'cover': 'BKN', 'base': 1400}, {'cover': 'OVC', 'base': 2800}]",MVFR,-RA,1005.3,,,,,,YPS,Port Hawkesbury Airport,Canada,Port Hawkesbury,https://www.worlddata.info/america/canada/airports.php
33,CYPH,2025-11-23 01:09:28.336000+00:00,1763859900,2025-11-23T01:05:00.000Z,-2.0,-3.0,20,4.0,7,1003.8,2,SPECI,SPECI CYPH 230105Z AUTO 02004KT 7SM OVC003 M02/M03 A2964 RMK SLP040,58.47,-78.08,24,"Inukjuak Arpt, QC, CA",OVC,"[{'cover': 'OVC', 'base': 300}]",LIFR,,1004.0,,,,,,YPH,Inukjuak Airport,Canada,Inukjuak,https://www.worlddata.info/america/canada/airports.php
34,CYPL,2025-11-23 01:56:49.287000+00:00,1763862780,2025-11-23T01:53:00.000Z,-3.0,-4.0,300,6.0,4,1003.8,2,SPECI,SPECI CYPL 230153Z AUTO 30006G16KT 4SM -SN BKN010 OVC033 M03/M04 A2964 RMK SLP061,51.449,-90.218,390,"Pickle Lake Arpt, ON, CA",OVC,"[{'cover': 'BKN', 'base': 1000}, {'cover': 'OVC', 'base': 3300}]",MVFR,-SN,1006.1,,,,16.0,,YPL,Pickle Lake Airport,Canada,Pickle Lake,https://www.worlddata.info/america/canada/airports.php
35,CYPO,2025-11-23 01:49:04.586000+00:00,1763862480,2025-11-23T01:48:00.000Z,-5.0,-6.0,200,3.0,9,1006.5,2,SPECI,SPECI CYPO 230148Z AUTO 20003KT 9SM FEW015 SCT019 OVC046 M05/M06 A2972 RMK SLP069,54.988,-85.439,49,"Peawanuck Arpt, ON, CA",OVC,"[{'cover': 'FEW', 'base': 1500}, {'cover': 'SCT', 'base': 1900}, {'cover': 'OVC', 'base': 4600}]",VFR,,1006.9,,,,,,YPO,Peawanuck Airport,Canada,Peawanuck,https://www.worlddata.info/america/canada/airports.php
36,CYPW,2025-11-23 01:45:28.595000+00:00,1763862060,2025-11-23T01:41:00.000Z,10.0,10.0,150,3.0,20,1013.6,0,SPECI,SPECI CYPW 230141Z 15003KT 110V190 20SM -RA OVC004 10/10 A2993 RMK SF8 VIS N-E 2 LO CLD BR PCPN VRY LGT SLP139,49.835,-124.499,122,"Powell River Arpt, BC, CA",OVC,"[{'cover': 'OVC', 'base': 400}]",LIFR,-RA,1013.9,,,,,,YPW,Powell River Airport,Canada,Powell River,https://www.worlddata.info/america/canada/airports.php
37,CYPX,2025-11-23 01:47:23.667000+00:00,1763862360,2025-11-23T01:46:00.000Z,-11.0,-12.0,30,5.0,6,1003.8,2,SPECI,SPECI CYPX 230146Z AUTO 03005KT 6SM BR SCT180 M11/M12 A2964 RMK SLP042,60.045,-77.281,10,"Puvungnituq Arpt, QC, CA",SCT,"[{'cover': 'SCT', 'base': 18000}]",VFR,BR,1004.2,,,,,,YPX,Puvirnituq Airport,Canada,Puvirnituq,https://www.worlddata.info/america/canada/airports.php
38,CYQY,2025-11-23 01:56:49.325000+00:00,1763862660,2025-11-23T01:51:00.000Z,4.0,4.0,0,0.0,6,1005.5,0,SPECI,SPECI CYQY 230151Z 00000KT 6SM RA BR OVC011 04/04 A2969 RMK NS8 SLP058,46.166,-60.049,58,"Sydney Arpt, NS, CA",OVC,"[{'cover': 'OVC', 'base': 1100}]",MVFR,RA BR,1005.8,,,,,,YQY,Sydney / J.A. Douglas McCurdy Airport,Canada,Sydney,https://www.worlddata.info/america/canada/airports.php
39,CYRL,2025-11-23 01:52:50.077000+00:00,1763862420,2025-11-23T01:47:00.000Z,1.0,0.0,290,8.0,15,1008.2,0,SPECI,SPECI CYRL 230147Z 29008G16KT 15SM SCT011 BKN016 OVC026 01/M00 A2977 RMK SC4SC3SC1 SLP103,51.067,-93.799,370,"Red Lake Arpt, ON, CA",OVC,"[{'cover': 'SCT', 'base': 1100}, {'cover': 'BKN', 'base': 1600}, {'cover': 'OVC', 'base': 2600}]",MVFR,,1010.3,,,,16.0,,YRL,Red Lake Airport,Canada,Red Lake,https://www.worlddata.info/america/canada/airports.php
40,CYRT,2025-11-23 01:49:50.493000+00:00,1763862300,2025-11-23T01:45:00.000Z,-2.0,-3.0,160,13.0,15,1001.8,0,SPECI,SPECI CYRT 230145Z 16013KT 15SM OVC022 M02/M03 A2958 RMK SC8 CIG RAG SLP022,62.811,-92.1,29,"Rankin Inlet Arpt, NU, CA",OVC,"[{'cover': 'OVC', 'base': 2200}]",MVFR,,1002.2,,,,,,YRT,Rankin Inlet Airport,Canada,Rankin Inlet,https://www.worlddata.info/america/canada/airports.php
41,CYRV,2025-11-23 01:56:49.379000+00:00,1763862720,2025-11-23T01:52:00.000Z,5.0,4.0,120,5.0,9,1013.6,2,SPECI,SPECI CYRV 230152Z AUTO 12005KT 360V150 9SM -RA BKN009 OVC013 05/04 A2993 RMK PCPN 0.8MM PAST HR SLP151,50.958,-118.176,456,"Revelstoke Arpt, BC, CA",OVC,"[{'cover': 'BKN', 'base': 900}, {'cover': 'OVC', 'base': 1300}]",IFR,-RA,1015.1,,,,,,YRV,Revelstoke Airport,Canada,Revelstoke,https://www.worlddata.info/america/canada/airports.php
42,CYVM,2025-11-23 01:56:49.422000+00:00,1763862720,2025-11-23T01:52:00.000Z,-2.0,-3.0,0,0.0,5,1008.9,2,SPECI,SPECI CYVM 230152Z AUTO 00000KT 5SM -SN BKN036 OVC048 M02/M03 A2979 RMK SLP089,67.552,-64.026,3,"Broughton Isl/Qikiqtarjuaq Arpt, NU, CA",OVC,"[{'cover': 'BKN', 'base': 3600}, {'cover': 'OVC', 'base': 4800}]",MVFR,-SN,1008.9,,,,,,YVM,Qikiqtarjuaq Airport,Canada,Qikiqtarjuaq,https://www.worlddata.info/america/canada/airports.php
43,CYVO,2025-11-23 01:15:39.329000+00:00,1763860320,2025-11-23T01:12:00.000Z,-4.0,-7.0,230,5.0,15,1012.6,0,SPECI,SPECI CYVO 230112Z 23005KT 210V270 15SM OVC013 M04/M07 A2990 RMK SC8 SLP151,48.056,-77.779,329,"Val D'Or Arpt, QC, CA",OVC,"[{'cover': 'OVC', 'base': 1300}]",MVFR,,1015.1,,,,,,YVO,Val-d'Or Airport,Canada,Val-d'Or,https://www.worlddata.info/america/canada/airports.php
44,CYVQ,2025-11-23 01:52:50.651000+00:00,1763862480,2025-11-23T01:48:00.000Z,-7.0,-9.0,280,9.0,30,1003.8,0,SPECI,SPECI CYVQ 230148Z 28009KT 30SM SCT012 BKN072 BKN090 M07/M09 A2964 RMK SC3AC3AC1 SLP046,65.278,-126.796,63,"Norman Wells Arpt, NT, CA",BKN,"[{'cover': 'SCT', 'base': 1200}, {'cover': 'BKN', 'base': 7200}, {'cover': 'BKN', 'base': 9000}]",VFR,,1004.6,,,,,,YVQ,Norman Wells Airport,Canada,Norman Wells,https://www.worlddata.info/america/canada/airports.php
45,CYVV,2025-11-23 01:47:23.682000+00:00,1763862240,2025-11-23T01:44:00.000Z,2.0,-1.0,210,8.0,10+,1014.3,0,SPECI,SPECI CYVV 230144Z 21008KT 10SM -SN FEW016 OVC030 02/M01 A2995 RMK SC2SC6 SLP151,44.745,-81.107,221,"Wiarton Arpt, ON, CA",OVC,"[{'cover': 'FEW', 'base': 1600}, {'cover': 'OVC', 'base': 3000}]",MVFR,-SN,1015.1,,,,,,YVV,Wiarton Airport,Canada,Wiarton,https://www.worlddata.info/america/canada/airports.php
46,CYWL,2025-11-23 01:45:28.667000+00:00,1763862060,2025-11-23T01:41:00.000Z,1.0,1.0,350,4.0,3,1010.2,0,SPECI,SPECI CYWL 230141Z 35004KT 3SM -SN BR OVC014 01/01 A2983 RMK SC8 SLP134,52.186,-122.066,942,"Williams Lake Rgnl, BC, CA",OVC,"[{'cover': 'OVC', 'base': 1400}]",MVFR,-SN BR,1013.4,,,,,,YWL,Williams Lake Airport,Canada,Williams Lake,https://www.worlddata.info/america/canada/airports.php
47,CYXL,2025-11-23 01:25:20.798000+00:00,1763860740,2025-11-23T01:19:00.000Z,1.0,0.0,300,12.0,6,1007.2,0,SPECI,SPECI CYXL 230119Z 30012G23KT 260V330 6SM -SN BR OVC006 01/00 A2974 RMK SC8 SLP093,50.114,-91.905,381,"Sioux Lookout Arpt, ON, CA",OVC,"[{'cover': 'OVC', 'base': 600}]",IFR,-SN BR,1009.3,,,,23.0,,YXL,Sioux Lookout Airport,Canada,Sioux Lookout,https://www.worlddata.info/america/canada/airports.php
48,CYXS,2025-11-23 02:00:18.972000+00:00,1763862960,2025-11-23T01:56:00.000Z,-1.0,-1.0,160,7.0,5,1009.6,2,SPECI,SPECI CYXS 230156Z AUTO 16007KT 5SM BR CLR M01/M01 A2981 RMK SLP126,53.884,-122.677,685,"Prince George Arpt, BC, CA",CLR,[],MVFR,BR,1012.6,,,,,,YXS,Prince George Airport,Canada,Prince George,https://www.worlddata.info/america/canada/airports.php
49,CYXY,2025-11-23 01:34:10.331000+00:00,1763861220,2025-11-23T01:27:00.000Z,-6.0,-6.0,170,4.0,15,1002.5,0,SPECI,SPECI CYXY 230127Z 17004KT 150V260 15SM SCT003 BKN084 BKN100 M06/M06 A2960 RMK SF3AC1AC2 SLP072,60.71,-135.059,677,"Whitehorse Arpt, YT, CA",BKN,"[{'cover': 'SCT', 'base': 300}, {'cover': 'BKN', 'base': 8400}, {'cover': 'BKN', 'base': 10000}]",VFR,,1007.2,,,,,,YXY,Whitehorse / Erik Nielsen International Airport,Canada,Whitehorse,https://www.worlddata.info/america/canada/airports.php
50,CYYQ,2025-11-23 01:56:49.451000+00:00,1763862780,2025-11-23T01:53:00.000Z,-5.0,-6.0,180,8.0,15,1000.4,0,SPECI,SPECI CYYQ 230153Z 18008KT 15SM OVC035 M05/M06 A2954 RMK SC8 SLP008,58.745,-94.074,20,"Churchill Arpt, MB, CA",OVC,"[{'cover': 'OVC', 'base': 3500}]",VFR,,1000.8,,,,,,YYQ,Churchill Airport,Canada,Churchill,https://www.worlddata.info/america/canada/airports.php
51,CYYR,2025-11-23 01:36:51.926000+00:00,1763861580,2025-11-23T01:33:00.000Z,-1.0,-1.0,200,7.0,6,994.3,0,SPECI,SPECI CYYR 230133Z 20007KT 6SM -SN FEW003 BKN018 OVC033 M01/M01 A2936 RMK SF2SC4SC2 DENSITY ALT -1035FT SLP944,53.32,-60.417,42,"Goose Bay Arpt, NL, CA",OVC,"[{'cover': 'FEW', 'base': 300}, {'cover': 'BKN', 'base': 1800}, {'cover': 'OVC', 'base': 3300}]",MVFR,-SN,994.4,,,,,,YYR,Goose Bay Airport,Canada,Goose Bay,https://www.worlddata.info/america/canada/airports.php
52,CYYW,2025-11-23 02:00:19.023000+00:00,1763863020,2025-11-23T01:57:00.000Z,-1.0,-2.0,310,10.0,3,1003.1,2,SPECI,SPECI CYYW 230157Z AUTO 31010KT 3SM -SN SCT012 BKN016 BKN030 OVC038 M01/M02 A2962 RMK SLP059,50.296,-88.912,320,"Armstrong Arpt, ON, CA",OVC,"[{'cover': 'SCT', 'base': 1200}, {'cover': 'BKN', 'base': 1600}, {'cover': 'BKN', 'base': 3000}, {'cover': 'OVC', 'base': 3800}]",MVFR,-SN,1005.9,,,,,,YYW,Armstrong Airport,Canada,Armstrong,https://www.worlddata.info/america/canada/airports.php
53,CYZE,2025-11-23 02:00:19.048000+00:00,1763862960,2025-11-23T01:56:00.000Z,3.0,0.0,180,11.0,9,1011.9,2,SPECI,SPECI CYZE 230156Z AUTO 18011KT 9SM -RA FEW026 BKN032 OVC050 03/00 A2988 RMK SLP130,45.885,-82.57,189,"Gore Bay/Manitoulin Arpt, ON, CA",OVC,"[{'cover': 'FEW', 'base': 2600}, {'cover': 'BKN', 'base': 3200}, {'cover': 'OVC', 'base': 5000}]",VFR,-RA,1013.0,,,,,,YZE,Gore Bay Manitoulin Airport,Canada,Gore Bay,https://www.worlddata.info/america/canada/airports.php
54,CYZT,2025-11-23 01:56:49.478000+00:00,1763862780,2025-11-23T01:53:00.000Z,6.0,6.0,260,5.0,15,1016.0,0,SPECI,SPECI CYZT 230153Z 26005KT 15SM SCT023 BKN040 06/06 A3000 RMK SC3SC2 SLP160,50.685,-127.369,13,"Port Hardy Arpt, BC, CA",BKN,"[{'cover': 'SCT', 'base': 2300}, {'cover': 'BKN', 'base': 4000}]",VFR,,1016.0,,,,,,YZT,Port Hardy Airport,Canada,Port Hardy,https://www.worlddata.info/america/canada/airports.php
55,CZMT,2025-11-23 01:07:47.827000+00:00,1763859960,2025-11-23T01:06:00.000Z,3.0,3.0,160,3.0,15,1013.3,0,SPECI,SPECI CZMT 230106Z 16003KT 15SM -SHRA BKN044 BKN070 03/03 A2992 RMK SC7AC1 AC TR TCU ASOCTD SLP134,54.023,-132.12,11,"Masset Arpt, BC, CA",BKN,"[{'cover': 'BKN', 'base': 4400}, {'cover': 'BKN', 'base': 7000}]",VFR,-SHRA,1013.4,,,,,,ZMT,Masset Airport,Canada,Masset,https://www.worlddata.info/america/canada/airports.php
56,CZSJ,2025-11-23 01:54:12.349000+00:00,1763862780,2025-11-23T01:53:00.000Z,-2.0,-2.0,280,7.0,6,1005.5,2,SPECI,SPECI CZSJ 230153Z AUTO 28007KT 250V310 6SM BR OVC005 M02/M02 A2969 RMK SLP073,53.063,-93.344,286,"Sandy Lake Arpt, ON, CA",OVC,"[{'cover': 'OVC', 'base': 500}]",IFR,BR,1007.3,,,,,,ZSJ,Sandy Lake Airport,Canada,Sandy Lake,https://www.worlddata.info/america/canada/airports.php
57,CZUM,2025-11-23 01:25:20.890000+00:00,1763860860,2025-11-23T01:21:00.000Z,-3.0,-3.0,220,3.0,8,991.6,2,SPECI,SPECI CZUM 230121Z AUTO 22003KT 180V260 8SM -SN BKN005 OVC011 M03/M03 A2928 RMK SLP942,53.562,-64.107,431,"Churchill Falls Arpt, NL, CA",OVC,"[{'cover': 'BKN', 'base': 500}, {'cover': 'OVC', 'base': 1100}]",IFR,-SN,994.2,,,,,,ZUM,Churchill Falls Airport,Canada,Churchill Falls,https://www.worlddata.info/america/canada/airports.php
58,DAAG,2025-11-23 01:36:18.399000+00:00,1763861400,2025-11-23T01:30:00.000Z,7.0,1.0,220,5.0,6+,1027.0,0,METAR,METAR DAAG 230130Z 22005KT 9999 FEW023 07/01 Q1027,36.691,3.215,18,"Algiers Intl, BM, DZ",FEW,"[{'cover': 'FEW', 'base': 2300}]",VFR,,,,,,,,ALG,Houari Boumediene Airport,Algeria,Algiers,https://www.worlddata.info/africa/algeria/airports.php
59,DAAT,2025-11-23 01:36:18.425000+00:00,1763861400,2025-11-23T01:30:00.000Z,16.0,-8.0,100,9.0,6+,1021.0,0,METAR,METAR DAAT 230130Z 10009KT CAVOK 16/M08 Q1021,22.824,5.452,1372,"Tamanrasset/Aguenar-Hadj Bei Arpt, TA, DZ",CAVOK,[],VFR,,,,,,,,TMR,Aguenar – Hadj Bey Akhamok Airport,Algeria,Tamanrasset,https://www.worlddata.info/africa/algeria/airports.php
60,DAON,2025-11-23 01:36:18.452000+00:00,1763861400,2025-11-23T01:30:00.000Z,6.0,3.0,100,4.0,6+,1027.0,0,METAR,METAR DAON 230130Z 10004KT CAVOK 06/03 Q1027,35.013,-1.457,245,"Tlemcen/Zenata Arpt, TL, DZ",CAVOK,[],VFR,,,,,,,,TLM,Zenata – Messali El Hadj Airport,Algeria,Zenata,https://www.worlddata.info/africa/algeria/airports.php
61,DAOO,2025-11-23 01:36:18.479000+00:00,1763861400,2025-11-23T01:30:00.000Z,6.0,3.0,150,2.0,6+,1026.0,0,METAR,METAR DAOO 230130Z 15002KT 9999 FEW030 06/03 Q1026,35.623,-0.624,87,"Oran/Es-Sénia Arpt, OR, DZ",FEW,"[{'cover': 'FEW', 'base': 3000}]",VFR,,,,,,,,ORN,Oran Es-Sénia (Ahmed Ben Bella) International Airport,Algeria,Es-Sénia,https://www.worlddata.info/africa/algeria/airports.php
62,DIAP,2025-11-23 01:39:29.735000+00:00,1763861400,2025-11-23T01:30:00.000Z,27.0,24.0,180,3.0,6+,1011.0,16,METAR,METAR DIAP 230130Z 18003KT 150V210 9999 SCT012 27/24 Q1011 NOSIG,5.261,-3.926,4,"Abidjan/Boigny Intl, AB, CI",SCT,"[{'cover': 'SCT', 'base': 1200}]",VFR,,,,,,,,ABJ,Félix-Houphouët-Boigny International Airport,Ivory Coast,Abidjan,https://www.worlddata.info/africa/ivory-coast/airports.php
63,DTMB,2025-11-23 01:36:35.889000+00:00,1763861400,2025-11-23T01:30:00.000Z,10.0,3.0,250,10.0,6+,1023.0,0,METAR,METAR DTMB 230130Z 25010KT CAVOK 10/03 Q1023,35.758,10.755,1,"Monastir/Bourguiba Intl, MO, TN",CAVOK,[],VFR,,,,,,,,MIR,Monastir Habib Bourguiba International Airport,Tunisia,Monastir,https://www.worlddata.info/africa/tunisia/airports.php
64,DTNH,2025-11-23 01:36:35.915000+00:00,1763861400,2025-11-23T01:30:00.000Z,10.0,3.0,200,8.0,6+,1023.0,0,METAR,METAR DTNH 230130Z 20008KT 170V270 9999 FEW030 10/03 Q1023,36.074,10.436,1,"Enfidha/Mammamet Arpt, SO, TN",FEW,"[{'cover': 'FEW', 'base': 3000}]",VFR,,,,,,,,NBE,Enfidha - Hammamet International Airport,Tunisia,Enfidha,https://www.worlddata.info/africa/tunisia/airports.php
65,DTTA,2025-11-23 01:36:35.942000+00:00,1763861400,2025-11-23T01:30:00.000Z,9.0,8.0,220,9.0,4.97,1023.0,0,METAR,METAR DTTA 230130Z 22009KT 190V250 8000 SCT023 09/08 Q1023,36.851,10.227,4,"Tunis/Carthage Intl, AR, TN",SCT,"[{'cover': 'SCT', 'base': 2300}]",MVFR,,,,,,,,TUN,Tunis Carthage International Airport,Tunisia,Tunis,https://www.worlddata.info/africa/tunisia/airports.php
66,DTTJ,2025-11-23 01:36:35.972000+00:00,1763861400,2025-11-23T01:30:00.000Z,14.0,3.0,320,11.0,6+,1025.0,16,METAR,METAR DTTJ 230130Z 32011KT 9999 FEW020 14/03 Q1025 NOSIG,33.875,10.775,3,"Djerba/Zarzis Intl, ME, TN",FEW,"[{'cover': 'FEW', 'base': 2000}]",VFR,,,,,,,,DJE,Djerba Zarzis International Airport,Tunisia,Mellita,https://www.worlddata.info/africa/tunisia/airports.php
67,EBAW,2025-11-23 01:55:19.480000+00:00,1763862600,2025-11-23T02:00:00.000Z,1.0,-9.0,180,10.0,6+,1015.0,2,METAR,METAR EBAW 230150Z AUTO 18010G20KT 9999 -SN NCD 01/M09 Q1015,51.189,4.46,7,"Antwerp Intl, VA, BE",CLR,[],VFR,-SN,,,,,20.0,,ANR,Antwerp International Airport (Deurne),Belgium,Antwerp,https://www.worlddata.info/europe/belgium/airports.php
68,EBBR,2025-11-23 01:56:20.877000+00:00,1763862600,2025-11-23T02:00:00.000Z,1.0,-8.0,180,13.0,6+,1015.0,0,METAR,METAR EBBR 230150Z 18013KT 9999 BKN045 01/M08 Q1015 TEMPO 4000 -SNRA,50.896,4.526,49,"Brussels Intl, VL, BE",BKN,"[{'cover': 'BKN', 'base': 4500}]",VFR,,,,,,,,BRU,Brussels Airport,Belgium,Zaventem,https://www.worlddata.info/europe/belgium/airports.php
69,EBCI,2025-11-23 01:55:19.806000+00:00,1763862600,2025-11-23T02:00:00.000Z,0.0,-8.0,180,12.0,6+,1015.0,16,METAR,METAR EBCI 230150Z 18012KT CAVOK M00/M08 Q1015 NOSIG,50.459,4.454,176,"Charleroi Arpt, WH, BE",CAVOK,[],VFR,,,,,,,,CRL,Brussels South Charleroi Airport,Belgium,Charleroi,https://www.worlddata.info/europe/belgium/airports.php
70,EBLG,2025-11-23 02:00:17.987000+00:00,1763862600,2025-11-23T02:00:00.000Z,0.0,-9.0,160,11.0,6+,1015.0,16,METAR,METAR EBLG 230150Z 16011KT CAVOK M00/M09 Q1015 NOSIG,50.637,5.443,187,"Bierset/Liège Arpt, WL, BE",CAVOK,[],VFR,,,,,,,,LGG,Liège Airport,Belgium,Grâce-Hollogne,https://www.worlddata.info/europe/belgium/airports.php
71,EBOS,2025-11-23 01:56:20.899000+00:00,1763862600,2025-11-23T02:00:00.000Z,0.0,0.0,180,15.0,4.35,1012.0,0,METAR,METAR EBOS 230150Z 18015KT 7000 -RASN SCT006 BKN007 00/M00 Q1012 TEMPO 18016G26KT 4000 -SNRA,51.199,2.862,5,"Oostende-Bruges Intl, VH, BE",BKN,"[{'cover': 'SCT', 'base': 600}, {'cover': 'BKN', 'base': 700}]",IFR,-RA -SN,,,,,,,OST,Oostende-Brugge International Airport,Belgium,Oostende,https://www.worlddata.info/europe/belgium/airports.php
72,EDAC,2025-11-23 01:58:13.154000+00:00,1763862600,2025-11-23T02:00:00.000Z,-6.0,-8.0,140,5.0,6+,1021.0,2,METAR,METAR EDAC 230150Z AUTO 14005KT 9999 // NCD M06/M08 Q1021,50.982,12.506,193,"Altenburg Arpt, ID, DE",CLR,[],VFR,,,,,,,,AOC,Leipzig–Altenburg Airport,Germany,Nobitz,https://www.worlddata.info/europe/germany/airports.php
73,EDAH,2025-11-23 01:56:20.920000+00:00,1763862600,2025-11-23T02:00:00.000Z,-1.0,-3.0,170,9.0,6+,1020.0,2,METAR,METAR EDAH 230150Z AUTO 17009KT 9999 // BKN200/// M01/M03 Q1020,53.879,14.152,22,"Heringsdorf Arpt, MV, DE",BKN,"[{'cover': 'BKN', 'base': 20000}]",VFR,,,,,,,,HDF,Heringsdorf Airport,Germany,Zirchow,https://www.worlddata.info/europe/germany/airports.php
74,EDBC,2025-11-23 01:55:27.289000+00:00,1763862600,2025-11-23T02:00:00.000Z,-4.0,-6.0,190,12.0,6+,1020.0,2,METAR,METAR EDBC 230150Z AUTO 19012KT CAVOK M04/M06 Q1020,51.856,11.42,178,"Magdeburg/Cochstedt Arpt, ST, DE",CAVOK,[],VFR,,,,,,,,CSO,Cochstedt Airport,Germany,Hecklingen,https://www.worlddata.info/europe/germany/airports.php
75,EDDB,2025-11-23 01:53:26.465000+00:00,1763862600,2025-11-23T02:00:00.000Z,-6.0,-7.0,140,3.0,6+,1022.0,18,METAR,METAR EDDB 230150Z AUTO 14003KT CAVOK M06/M07 Q1022 NOSIG,52.3807,13.5306,48,"Berlin/Brandenburg Intl, BR, DE",CAVOK,[],VFR,,,,,,,,BER,Berlin Brandenburg Airport,Germany,Berlin,https://www.worlddata.info/europe/germany/airports.php
76,EDDC,2025-11-23 01:53:26.615000+00:00,1763862600,2025-11-23T02:00:00.000Z,-7.0,-8.0,160,5.0,6+,1021.0,2,METAR,METAR EDDC 230150Z AUTO 16005KT CAVOK M07/M08 Q1021,51.128,13.7543,227,"Dresden Arpt, SN, DE",CAVOK,[],VFR,,,,,,,,DRS,Dresden Airport,Germany,Dresden,https://www.worlddata.info/europe/germany/airports.php
77,EDDE,2025-11-23 01:53:26.773000+00:00,1763862600,2025-11-23T02:00:00.000Z,-7.0,-10.0,200,7.0,6+,1020.0,2,METAR,METAR EDDE 230150Z AUTO 20007KT CAVOK M07/M10 Q1020,50.983,10.961,314,"Erfurt Arpt, TH, DE",CAVOK,[],VFR,,,,,,,,ERF,Erfurt-Weimar Airport,Germany,Erfurt,https://www.worlddata.info/europe/germany/airports.php
78,EDDF,2025-11-23 01:56:20.945000+00:00,1763862600,2025-11-23T02:00:00.000Z,-4.0,-5.0,160,5.0,3.11,1021.0,2,METAR,METAR EDDF 230150Z AUTO 16005KT 130V190 5000 BR OVC003 M04/M05 Q1021 BECMG 1200 BCFG OVC001,50.045,8.598,113,"Frankfurt/Main Arpt, HE, DE",OVC,"[{'cover': 'OVC', 'base': 300}]",LIFR,BR,,,,,,,FRA,Frankfurt Airport,Germany,Frankfurt am Main,https://www.worlddata.info/europe/germany/airports.php
79,EDDG,2025-11-23 01:53:26.930000+00:00,1763862600,2025-11-23T02:00:00.000Z,-2.0,-6.0,130,6.0,6+,1017.0,18,METAR,METAR EDDG 230150Z AUTO 13006KT 080V180 CAVOK M02/M06 Q1017 NOSIG,52.135,7.697,46,"Münster/Osnabrück Arpt, NT, DE",CAVOK,[],VFR,,,,,,,,FMO,Münster Osnabrück Airport,Germany,Greven,https://www.worlddata.info/europe/germany/airports.php
80,EDDH,2025-11-23 01:53:25.389000+00:00,1763862600,2025-11-23T02:00:00.000Z,-1.0,-5.0,150,9.0,6+,1017.0,18,METAR,METAR EDDH 230150Z AUTO 15009KT CAVOK M01/M05 Q1017 NOSIG,53.633,9.988,8,"Hamburg Arpt, HH, DE",CAVOK,[],VFR,,,,,,,,HAM,Hamburg Helmut Schmidt Airport,Germany,Hamburg,https://www.worlddata.info/europe/germany/airports.php
81,EDDK,2025-11-23 01:53:25.545000+00:00,1763862600,2025-11-23T02:00:00.000Z,-2.0,-7.0,120,7.0,6+,1018.0,18,METAR,METAR EDDK 230150Z AUTO 12007KT 090V150 CAVOK M02/M07 Q1018 NOSIG,50.865,7.157,92,"Koln-Bonn Arpt, NT, DE",CAVOK,[],VFR,,,,,,,,CGN,Cologne Bonn Airport,Germany,Köln (Cologne),https://www.worlddata.info/europe/germany/airports.php
82,EDDL,2025-11-23 01:53:25.704000+00:00,1763862600,2025-11-23T02:00:00.000Z,0.0,-7.0,150,13.0,6+,1017.0,18,METAR,METAR EDDL 230150Z AUTO 15013KT CAVOK M00/M07 Q1017 NOSIG,51.296,6.769,37,"Düsseldorf Intl, NT, DE",CAVOK,[],VFR,,,,,,,,DUS,Düsseldorf Airport,Germany,Düsseldorf,https://www.worlddata.info/europe/germany/airports.php
83,EDDM,2025-11-23 01:53:25.865000+00:00,1763862600,2025-11-23T02:00:00.000Z,-11.0,-13.0,320,1.0,4.35,1021.0,18,METAR,METAR EDDM 230150Z AUTO 32001KT 7000 NCD M11/M13 Q1021 NOSIG,48.348,11.813,445,"Munich Intl, BY, DE",CLR,[],MVFR,,,,,,,,MUC,Munich Airport,Germany,Munich,https://www.worlddata.info/europe/germany/airports.php
84,EDDN,2025-11-23 01:53:26.027000+00:00,1763862600,2025-11-23T02:00:00.000Z,-10.0,-12.0,130,5.0,6+,1021.0,2,METAR,METAR EDDN 230150Z AUTO 13005KT CAVOK M10/M12 Q1021,49.503,11.055,312,"Nurnberg Arpt, BY, DE",CAVOK,[],VFR,,,,,,,,NUE,Nuremberg Airport,Germany,Nuremberg,https://www.worlddata.info/europe/germany/airports.php
85,EDDP,2025-11-23 01:53:27.071000+00:00,1763862600,2025-11-23T02:00:00.000Z,-6.0,-8.0,170,6.0,6+,1021.0,18,METAR,METAR EDDP 230150Z AUTO 17006KT CAVOK M06/M08 Q1021 NOSIG,51.435,12.24,129,"Leipzig/Halle Arpt, SN, DE",CAVOK,[],VFR,,,,,,,,LEJ,Leipzig/Halle Airport,Germany,Schkeuditz,https://www.worlddata.info/europe/germany/airports.php
86,EDDR,2025-11-23 01:53:27.212000+00:00,1763862600,2025-11-23T02:00:00.000Z,-7.0,-8.0,80,4.0,3.73,1019.0,2,METAR,METAR EDDR 230150Z AUTO 08004KT 6000 NSC M07/M08 Q1019,49.213,7.108,317,"Saarbrücken Arpt, SL, DE",CLR,[],MVFR,,,,,,,,SCN,Saarbrücken Airport,Germany,Saarbrücken,https://www.worlddata.info/europe/germany/airports.php
87,EDDS,2025-11-23 01:53:26.161000+00:00,1763862600,2025-11-23T02:00:00.000Z,-8.0,-9.0,120,2.0,3.73,1020.0,2,METAR,METAR EDDS 230150Z AUTO 12002KT 6000 NSC M08/M09 Q1020,48.69,9.222,374,"Stuttgart Arpt, BW, DE",CLR,[],MVFR,,,,,,,,STR,Stuttgart Airport,Germany,Stuttgart,https://www.worlddata.info/europe/germany/airports.php
88,EDDV,2025-11-23 01:53:26.303000+00:00,1763862600,2025-11-23T02:00:00.000Z,-2.0,-5.0,170,5.0,6+,1018.0,2,METAR,METAR EDDV 230150Z AUTO 17005KT 150V220 CAVOK M02/M05 Q1018,52.466,9.68,53,"Hannover Arpt, NI, DE",CAVOK,[],VFR,,,,,,,,HAJ,Hannover Airport,Germany,Hannover,https://www.worlddata.info/europe/germany/airports.php
89,EDDW,2025-11-23 01:53:27.375000+00:00,1763862600,2025-11-23T02:00:00.000Z,-2.0,-6.0,160,8.0,6+,1017.0,2,METAR,METAR EDDW 230150Z AUTO 16008KT CAVOK M02/M06 Q1017,53.047,8.787,5,"Bremen Arpt, HB, DE",CAVOK,[],VFR,,,,,,,,BRE,Bremen Airport,Germany,Bremen,https://www.worlddata.info/europe/germany/airports.php
90,EDFH,2025-11-23 01:55:24.571000+00:00,1763862600,2025-11-23T02:00:00.000Z,-7.0,-8.0,140,9.0,6+,1017.0,0,METAR,METAR EDFH 230150Z 14009KT CAVOK M07/M08 Q1017,49.946,7.265,494,"Frankfurt/Hahn Arpt, RP, DE",CAVOK,[],VFR,,,,,,,,HHN,Frankfurt-Hahn Airport,Germany,Frankfurt am Main (Lautzenhausen),https://www.worlddata.info/europe/germany/airports.php
91,EDFM,2025-11-23 01:56:05.195000+00:00,1763862600,2025-11-23T02:00:00.000Z,-5.0,-5.0,140,6.0,2.05,1022.0,2,METAR,METAR EDFM 230150Z AUTO 14006KT 3300 // OVC002/// M05/M05 Q1022,49.474,8.515,94,"Mannheim City Arpt, BW, DE",OVC,"[{'cover': 'OVC', 'base': 200}]",LIFR,,,,,,,,MHG,Mannheim-City Airport,Germany,Mannheim,https://www.worlddata.info/europe/germany/airports.php
92,EDGS,2025-11-23 01:55:27.375000+00:00,1763862600,2025-11-23T02:00:00.000Z,-6.0,-10.0,160,9.0,6+,1016.0,2,METAR,METAR EDGS 230150Z AUTO 16009KT 9999 // NCD M06/M10 Q1016,50.708,8.083,595,"Siegerland Arpt, NT, DE",CLR,[],VFR,,,,,,,,SGE,Siegerland Airport,Germany,Burbach,https://www.worlddata.info/europe/germany/airports.php
93,EDHI,2025-11-23 01:56:20.980000+00:00,1763862600,2025-11-23T02:00:00.000Z,-1.0,-5.0,200,11.0,6+,1017.0,2,METAR,METAR EDHI 230150Z AUTO 20011KT 9999 // NCD M01/M05 Q1017,53.536,9.837,5,"Hamburg/FinkenwerderR Arpt, HH, DE",CLR,[],VFR,,,,,,,,XFW,Hamburg-Finkenwerder Airport,Germany,Hamburg,https://www.worlddata.info/europe/germany/airports.php
94,EDHK,2025-11-23 01:56:21.001000+00:00,1763862600,2025-11-23T02:00:00.000Z,1.0,-6.0,210,10.0,6+,1016.0,2,METAR,METAR EDHK 230150Z AUTO 21010KT 9999 // BKN140/// 01/M06 Q1016,54.376,10.143,24,"Kiel/Holtenau Arpt, SH, DE",BKN,"[{'cover': 'BKN', 'base': 14000}]",VFR,,,,,,,,KEL,Kiel-Holtenau Airport,Germany,Kiel,https://www.worlddata.info/europe/germany/airports.php
95,EDHL,2025-11-23 01:58:13.178000+00:00,1763862600,2025-11-23T02:00:00.000Z,-2.0,-5.0,160,5.0,6+,1018.0,2,METAR,METAR EDHL 230150Z AUTO 16005KT 9999 // NCD M02/M05 Q1018,53.805,10.719,13,"Lübeck Arpt, SH, DE",CLR,[],VFR,,,,,,,,LBC,Lübeck Blankensee Airport,Germany,Lübeck,https://www.worlddata.info/europe/germany/airports.php
96,EDJA,2025-11-23 01:56:05.271000+00:00,1763862600,2025-11-23T02:00:00.000Z,-10.0,-11.0,VRB,2.0,6+,1019.0,2,METAR,METAR EDJA 230150Z AUTO VRB02KT 9999 // NCD M10/M11 Q1019,47.989,10.239,625,"Memmingerberg Arpt, BY, DE",CLR,[],VFR,,,,,,,,FMM,Memmingen Allgau Airport,Germany,Memmingen,https://www.worlddata.info/europe/germany/airports.php
97,EDLN,2025-11-23 01:58:13.197000+00:00,1763862600,2025-11-23T02:00:00.000Z,-1.0,-5.0,140,6.0,6+,1017.0,2,METAR,METAR EDLN 230150Z AUTO 14006KT 110V170 9999 // NCD M01/M05 Q1017,51.23,6.504,38,"Monchengladbach Arpt, NW, DE",CLR,[],VFR,,,,,,,,MGL,Mönchengladbach Airport,Germany,Mönchengladbach,https://www.worlddata.info/europe/germany/airports.php
98,EDLP,2025-11-23 01:55:27.593000+00:00,1763862600,2025-11-23T02:00:00.000Z,-4.0,-8.0,90,6.0,6+,1017.0,0,METAR,METAR EDLP 230150Z 09006KT CAVOK M04/M08 Q1017,51.614,8.616,211,"Paderborn Arpt, NT, DE",CAVOK,[],VFR,,,,,,,,PAD,Paderborn Lippstadt Airport,Germany,Büren,https://www.worlddata.info/europe/germany/airports.php
99,EDLV,2025-11-23 01:55:24.707000+00:00,1763862600,2025-11-23T02:00:00.000Z,-2.0,-6.0,140,8.0,6+,1016.0,2,METAR,METAR EDLV 230150Z AUTO 14008KT 9999 // SCT240/// M02/M06 Q1016,51.602,6.142,27,"Weeze Arpt, NT, DE",SCT,"[{'cover': 'SCT', 'base': 24000}]",VFR,,,,,,,,NRN,Weeze Airport,Germany,Weeze,https://www.worlddata.info/europe/germany/airports.php
100,EDLW,2025-11-23 01:58:13.217000+00:00,1763862600,2025-11-23T02:00:00.000Z,-1.0,-9.0,180,6.0,6+,1016.0,2,METAR,METAR EDLW 230150Z AUTO 18006KT 9999 // NCD M01/M09 Q1016,51.518,7.612,122,"Dortmund Arpt, NT, DE",CLR,[],VFR,,,,,,,,DTM,Dortmund Airport,Germany,Dortmund,https://www.worlddata.info/europe/germany/airports.php
101,EDMA,2025-11-23 01:58:13.237000+00:00,1763862600,2025-11-23T02:00:00.000Z,-8.0,-9.0,150,3.0,4.35,1021.0,2,METAR,METAR EDMA 230150Z AUTO 15003KT 7000 // NCD M08/M09 Q1021,48.425,10.932,462,"Augsberg Arpt, BY, DE",CLR,[],MVFR,,,,,,,,AGB,Augsburg Airport,Germany,Augsburg,https://www.worlddata.info/europe/germany/airports.php
102,EDMO,2025-11-23 01:58:13.257000+00:00,1763862600,2025-11-23T02:00:00.000Z,-9.0,-10.0,160,2.0,0.31,1020.0,2,METAR,METAR EDMO 230150Z AUTO 16002KT 0500 0300 R22/0600U FZFG VV/// M09/M10 Q1020,48.081,11.283,587,"Oberpfaffenhofe Arpt, BY, DE",OVX,[],LIFR,FZFG,,,,,,,OBF,Oberpfaffenhofen Airport,Germany,Weßling,https://www.worlddata.info/europe/germany/airports.php
103,EDNY,2025-11-23 01:58:13.274000+00:00,1763862600,2025-11-23T02:00:00.000Z,-6.0,-8.0,30,4.0,6+,1020.0,2,METAR,METAR EDNY 230150Z AUTO 03004KT 9999 // BKN014/// M06/M08 Q1020,47.671,9.511,411,"Friedrichshafen Arpt, BW, DE",BKN,"[{'cover': 'BKN', 'base': 1400}]",MVFR,,,,,,,,FDH,Friedrichshafen Airport,Germany,Friedrichshafen,https://www.worlddata.info/europe/germany/airports.php
104,EDQM,2025-11-23 01:58:13.294000+00:00,1763862600,2025-11-23T02:00:00.000Z,-10.0,-10.0,170,4.0,6+,1019.0,2,METAR,METAR EDQM 230150Z AUTO 17004KT 9999 // NCD M10/M10 Q1019,50.289,11.86,578,"Hof/Plauen Arpt, BY, DE",CLR,[],VFR,,,,,,,,HOQ,Hof-Plauen Airport,Germany,Hof,https://www.worlddata.info/europe/germany/airports.php
105,EDSB,2025-11-23 01:55:28.023000+00:00,1763862600,2025-11-23T02:00:00.000Z,-7.0,-8.0,90,3.0,4.35,1022.0,2,METAR,METAR EDSB 230150Z AUTO 09003KT 7000 NCD M07/M08 Q1022,48.779,8.081,122,"Baden Arpt, BW, DE",CLR,[],MVFR,,,,,,,,FKB,Karlsruhe Baden-Baden Airport,Germany,Rheinmünster,https://www.worlddata.info/europe/germany/airports.php
106,EDTL,2025-11-23 01:58:13.313000+00:00,1763862600,2025-11-23T02:00:00.000Z,-7.0,-8.0,VRB,1.0,6+,1021.0,2,METAR,METAR EDTL 230150Z AUTO VRB01KT 9999 // NCD M07/M08 Q1021,48.369,7.828,152,"Lahr/Black Forest Arpt, BW, DE",CLR,[],VFR,,,,,,,,LHA,Lahr Airport,Germany,Lahr/Schwarzwald,https://www.worlddata.info/europe/germany/airports.php
107,EDVE,2025-11-23 01:55:25.750000+00:00,1763862600,2025-11-23T02:00:00.000Z,-2.0,-5.0,150,4.0,6+,1019.0,2,METAR,METAR EDVE 230150Z AUTO 15004KT CAVOK M02/M05 Q1019,52.319,10.558,83,"Braunschweig Arpt, NI, DE",CAVOK,[],VFR,,,,,,,,BWE,Braunschweig-Wolfsburg Airport,Germany,Braunschweig,https://www.worlddata.info/europe/germany/airports.php
108,EDVK,2025-11-23 01:56:21.028000+00:00,1763862600,2025-11-23T02:00:00.000Z,-4.0,-6.0,100,3.0,6+,1019.0,2,METAR,METAR EDVK 230150Z AUTO 10003KT 070V150 9999 // NCD M04/M06 Q1019,51.421,9.388,262,"Kassel/Calden Arpt, HE, DE",CLR,[],VFR,,,,,,,,KSF,Kassel Airport,Germany,Calden,https://www.worlddata.info/europe/germany/airports.php
109,EDWE,2025-11-23 01:55:24.842000+00:00,1763862600,2025-11-23T02:00:00.000Z,1.0,-7.0,180,10.0,6+,1014.0,2,METAR,METAR EDWE 230150Z AUTO 18010KT CAVOK 01/M07 Q1014,53.388,7.229,0,"Emden Arpt, NI, DE",CAVOK,[],VFR,,,,,,,,EME,Emden Airport,Germany,Emden,https://www.worlddata.info/europe/germany/airports.php
110,EDXW,2025-11-23 01:58:13.333000+00:00,1763862600,2025-11-23T02:00:00.000Z,4.0,-1.0,210,16.0,6+,1012.0,2,METAR,METAR EDXW 230150Z AUTO 21016KT 9999 // FEW094/// 04/M01 Q1012,54.913,8.341,8,"Westerland/Sylt Arpt, SH, DE",FEW,"[{'cover': 'FEW', 'base': 9400}]",VFR,,,,,,,,GWT,Westerland Sylt Airport,Germany,Sylt,https://www.worlddata.info/europe/germany/airports.php
111,EEKA,2025-11-23 01:51:20.321000+00:00,1763862600,2025-11-23T02:00:00.000Z,6.0,5.0,230,7.0,6+,1013.0,2,METAR,METAR EEKA 230150Z AUTO 23007KT 190V260 9999 -RA SCT015/// BKN017/// OVC021/// 06/05 Q1013,58.991,22.831,6,"Kärdla Arpt, HI, EE",OVC,"[{'cover': 'SCT', 'base': 1500}, {'cover': 'BKN', 'base': 1700}, {'cover': 'OVC', 'base': 2100}]",MVFR,-RA,,,,,,,KDL,Kärdla Airport,Estonia,Kärdla,https://www.worlddata.info/europe/estonia/airports.php
112,EEKE,2025-11-23 01:51:20.358000+00:00,1763862600,2025-11-23T02:00:00.000Z,6.0,2.0,240,6.0,6+,1016.0,2,METAR,METAR EEKE 230150Z AUTO 24006KT 200V280 9999 -RA FEW036/// 06/02 Q1016,58.23,22.509,4,"Kuressaare Arpt, SA, EE",FEW,"[{'cover': 'FEW', 'base': 3600}]",VFR,-RA,,,,,,,URE,Kuressaare Airport,Estonia,Kuressaare,https://www.worlddata.info/europe/estonia/airports.php
113,EEPU,2025-11-23 01:51:20.426000+00:00,1763862600,2025-11-23T02:00:00.000Z,5.0,3.0,210,15.0,6+,1016.0,2,METAR,METAR EEPU 230150Z AUTO 21015KT 9999 BKN012/// BKN018/// OVC022/// 05/03 Q1016,58.419,24.473,13,"Pärnu Arpt, PA, EE",OVC,"[{'cover': 'BKN', 'base': 1200}, {'cover': 'BKN', 'base': 1800}, {'cover': 'OVC', 'base': 2200}]",MVFR,,,,,,,,EPU,Pärnu Airport,Estonia,Pärnu,https://www.worlddata.info/europe/estonia/airports.php
114,EETN,2025-11-23 01:50:18.311000+00:00,1763862600,2025-11-23T02:00:00.000Z,4.0,2.0,220,13.0,6+,1013.0,0,METAR,METAR EETN 230150Z 22013KT 9999 BKN027 04/02 Q1013,59.413,24.801,41,"Tallin Arpt, HA, EE",BKN,"[{'cover': 'BKN', 'base': 2700}]",MVFR,,,,,,,,TLL,Lennart Meri Tallinn Airport,Estonia,Tallinn,https://www.worlddata.info/europe/estonia/airports.php
115,EETU,2025-11-23 01:51:20.393000+00:00,1763862600,2025-11-23T02:00:00.000Z,0.0,-2.0,220,12.0,6+,1017.0,2,METAR,METAR EETU 230150Z AUTO 22012KT 9999 NCD 00/M02 Q1017,58.307,26.691,67,"Tartu Arpt, TA, EE",CLR,[],VFR,,,,,,,,TAY,Tartu Airport,Estonia,Tartu,https://www.worlddata.info/europe/estonia/airports.php
116,EFET,2025-11-23 01:53:15.096000+00:00,1763862600,2025-11-23T02:00:00.000Z,-24.0,-27.0,50,4.0,6+,1000.0,2,METAR,METAR EFET 230150Z AUTO 05004KT CAVOK M24/M27 Q1000,68.363,23.424,300,"Enontekio Arpt, LL, FI",CAVOK,[],VFR,,,,,,,,ENF,Enontekio Airport,Finland,Enontekio,https://www.worlddata.info/europe/finland/airports.php
117,EFHA,2025-11-23 01:53:13.593000+00:00,1763862600,2025-11-23T02:00:00.000Z,3.0,2.0,220,9.0,6+,1005.0,2,METAR,METAR EFHA 230150Z AUTO 22009KT 190V250 9999 OVC007 03/02 Q1005,61.855,24.805,144,"Halli Arpt, KS, FI",OVC,"[{'cover': 'OVC', 'base': 700}]",IFR,,,,,,,,KEV,Halli Airport,Finland,Jämsä,https://www.worlddata.info/europe/finland/airports.php
118,EFHK,2025-11-23 01:56:07.844000+00:00,1763862600,2025-11-23T02:00:00.000Z,5.0,3.0,220,9.0,6+,1010.0,0,METAR,METAR EFHK 230150Z 22009KT 9999 -DZ SCT011 BKN014 05/03 Q1010 TEMPO SCT012,60.327,24.957,56,"Helsinki/Vantaa Arpt, UU, FI",BKN,"[{'cover': 'SCT', 'base': 1100}, {'cover': 'BKN', 'base': 1400}]",MVFR,-DZ,,,,,,,HEL,Helsinki Vantaa Airport,Finland,Helsinki,https://www.worlddata.info/europe/finland/airports.php
119,EFIV,2025-11-23 01:51:20.702000+00:00,1763862600,2025-11-23T02:00:00.000Z,-26.0,-29.0,240,2.0,6+,1003.0,2,METAR,METAR EFIV 230150Z AUTO 24002KT 9999 OVC004 M26/M29 Q1003,68.607,27.405,145,"Ivalo Arpt, LL, FI",OVC,"[{'cover': 'OVC', 'base': 400}]",LIFR,,,,,,,,IVL,Ivalo Airport,Finland,Ivalo,https://www.worlddata.info/europe/finland/airports.php
120,EFJO,2025-11-23 01:53:14.084000+00:00,1763862600,2025-11-23T02:00:00.000Z,2.0,1.0,220,9.0,6+,1004.0,2,METAR,METAR EFJO 230150Z AUTO 22009KT 180V250 9999 -SNRA OVC008 02/01 Q1004,62.66,29.611,118,"Joensuu Arpt, PK, FI",OVC,"[{'cover': 'OVC', 'base': 800}]",IFR,-SN -RA,,,,,,,JOE,Joensuu Airport,Finland,Joensuu,https://www.worlddata.info/europe/finland/airports.php
121,EFJY,2025-11-23 01:53:13.283000+00:00,1763862600,2025-11-23T02:00:00.000Z,3.0,2.0,240,10.0,6+,1004.0,2,METAR,METAR EFJY 230150Z AUTO 24010KT 210V280 9999 -SHRA OVC007 03/02 Q1004,62.404,25.675,139,"Jyväskylä Arpt, KS, FI",OVC,"[{'cover': 'OVC', 'base': 700}]",IFR,-SHRA,,,,,,,JYV,Jyväskylä Airport,Finland,Jyväskylän Maalaiskunta,https://www.worlddata.info/europe/finland/airports.php
122,EFKE,2025-11-23 01:53:15.260000+00:00,1763862600,2025-11-23T02:00:00.000Z,-9.0,-10.0,220,4.0,5.59,999.0,2,METAR,METAR EFKE 230150Z AUTO 22004KT 9000 -SN BKN006 OVC014 M09/M10 Q0999,65.784,24.579,15,"Kemi/Tornio Arpt, LL, FI",OVC,"[{'cover': 'BKN', 'base': 600}, {'cover': 'OVC', 'base': 1400}]",IFR,-SN,,,,,,,KEM,Kemi-Tornio Airport,Finland,Kemi / Tornio,https://www.worlddata.info/europe/finland/airports.php
123,EFKI,2025-11-23 01:53:15.412000+00:00,1763862600,2025-11-23T02:00:00.000Z,0.0,-1.0,270,13.0,2.49,999.0,2,METAR,METAR EFKI 230150Z AUTO 27013KT 4000 -SHSN OVC005 M00/M01 Q0999,64.283,27.673,132,"Kajaani Arpt, PP, FI",OVC,"[{'cover': 'OVC', 'base': 500}]",IFR,-SHSN,,,,,,,KAJ,Kajaani Airport,Finland,Kajaani,https://www.worlddata.info/europe/finland/airports.php
124,EFKK,2025-11-23 01:53:13.753000+00:00,1763862600,2025-11-23T02:00:00.000Z,0.0,-1.0,VRB,1.0,5.59,1002.0,2,METAR,METAR EFKK 230150Z AUTO VRB01KT 9000 -FZRASN FEW012 BKN028 M00/M01 Q1002,63.721,23.143,25,"Kruunupyy Arpt, KP, FI",BKN,"[{'cover': 'FEW', 'base': 1200}, {'cover': 'BKN', 'base': 2800}]",MVFR,-FZRA SN,,,,,,,KOK,Kokkola-Pietarsaari Airport,Finland,Kokkola / Kruunupyy,https://www.worlddata.info/europe/finland/airports.php
125,EFKS,2025-11-23 01:53:15.568000+00:00,1763862600,2025-11-23T02:00:00.000Z,-6.0,-7.0,80,5.0,6+,997.0,2,METAR,METAR EFKS 230150Z AUTO 08005KT 050V120 9999 -SN OVC014 M06/M07 Q0997,65.992,29.236,270,"Kuusamo Arpt, PP, FI",OVC,"[{'cover': 'OVC', 'base': 1400}]",MVFR,-SN,,,,,,,KAO,Kuusamo Airport,Finland,Kuusamo,https://www.worlddata.info/europe/finland/airports.php
126,EFKT,2025-11-23 01:53:15.731000+00:00,1763862600,2025-11-23T02:00:00.000Z,-16.0,-18.0,350,3.0,2.86,1000.0,2,METAR,METAR EFKT 230150Z AUTO 35003KT 4600 -SHSN OVC006 M16/M18 Q1000,67.701,24.847,190,"Kittilä Arpt, LL, FI",OVC,"[{'cover': 'OVC', 'base': 600}]",IFR,-SHSN,,,,,,,KTT,Kittilä Airport,Finland,Kittilä,https://www.worlddata.info/europe/finland/airports.php
127,EFKU,2025-11-23 01:53:13.439000+00:00,1763862600,2025-11-23T02:00:00.000Z,2.0,1.0,230,12.0,6+,1002.0,2,METAR,METAR EFKU 230150Z AUTO 23012KT 9999 RA OVC006 02/01 Q1002,63.008,27.799,92,"Kuopio Arpt, PS, FI",OVC,"[{'cover': 'OVC', 'base': 600}]",IFR,RA,,,,,,,KUO,Kuopio Airport,Finland,Kuopio / Siilinjärvi,https://www.worlddata.info/europe/finland/airports.php
128,EFLP,2025-11-23 01:53:14.261000+00:00,1763862600,2025-11-23T02:00:00.000Z,3.0,2.0,230,9.0,3.73,1009.0,2,METAR,METAR EFLP 230150Z AUTO 23009KT 6000 -SHRA OVC004 03/02 Q1009,61.044,28.151,102,"Lappeenranta Arpt, EK, FI",OVC,"[{'cover': 'OVC', 'base': 400}]",LIFR,-SHRA,,,,,,,LPP,Lappeenranta Airport,Finland,Lappeenranta,https://www.worlddata.info/europe/finland/airports.php
129,EFMA,2025-11-23 01:51:20.673000+00:00,1763862600,2025-11-23T02:00:00.000Z,6.0,3.0,240,13.0,6+,1010.0,2,METAR,METAR EFMA 230150Z AUTO 24013G24KT 210V270 9999 SCT013 OVC032 06/03 Q1010,60.125,19.903,6,"Mariehamn Arpt, AH, FI",OVC,"[{'cover': 'SCT', 'base': 1300}, {'cover': 'OVC', 'base': 3200}]",VFR,,,,,,24.0,,MHQ,Mariehamn Airport,Åland Islands,Mariehamn,https://www.worlddata.info/europe/aland/airports.php
130,EFMI,2025-11-23 01:53:14.435000+00:00,1763862600,2025-11-23T02:00:00.000Z,3.0,2.0,220,9.0,6+,1006.0,2,METAR,METAR EFMI 230150Z AUTO 22009KT 9999 OVC009 03/02 Q1006,61.687,27.201,99,"Mikkeli Arpt, ES, FI",OVC,"[{'cover': 'OVC', 'base': 900}]",IFR,,,,,,,,MIK,Mikkeli Airport,Finland,Mikkeli,https://www.worlddata.info/europe/finland/airports.php
131,EFOU,2025-11-23 01:51:20.592000+00:00,1763862600,2025-11-23T02:00:00.000Z,-3.0,-5.0,270,8.0,6+,1000.0,2,METAR,METAR EFOU 230150Z AUTO 27008KT 230V300 9999 OVC009 M03/M05 Q1000,64.93,25.355,15,"Oulu Arpt, PP, FI",OVC,"[{'cover': 'OVC', 'base': 900}]",IFR,,,,,,,,OUL,Oulu Airport,Finland,Oulu / Oulunsalo,https://www.worlddata.info/europe/finland/airports.php
132,EFPO,2025-11-23 01:53:13.912000+00:00,1763862600,2025-11-23T02:00:00.000Z,6.0,3.0,240,8.0,6+,1006.0,2,METAR,METAR EFPO 230150Z AUTO 24008KT 210V270 9999 OVC019 06/03 Q1006,61.462,21.8,10,"Pori Arpt, EK, FI",OVC,"[{'cover': 'OVC', 'base': 1900}]",MVFR,,,,,,,,POR,Pori Airport,Finland,Pori,https://www.worlddata.info/europe/finland/airports.php
133,EFRO,2025-11-23 01:51:20.629000+00:00,1763862600,2025-11-23T02:00:00.000Z,-9.0,-10.0,30,9.0,6+,997.0,2,METAR,METAR EFRO 230150Z AUTO 03009KT 9999 OVC011 M09/M10 Q0997,66.562,25.829,201,"Rovaniemi Arpt, LL, FI",OVC,"[{'cover': 'OVC', 'base': 1100}]",MVFR,,,,,,,,RVN,Rovaniemi Airport,Finland,Rovaniemi,https://www.worlddata.info/europe/finland/airports.php
134,EFSA,2025-11-23 01:53:14.612000+00:00,1763862600,2025-11-23T02:00:00.000Z,3.0,2.0,220,13.0,6+,1006.0,2,METAR,METAR EFSA 230150Z AUTO 22013KT 9999 -RA OVC012 03/02 Q1006,61.943,28.945,90,"Savonlinna Arpt, ES, FI",OVC,"[{'cover': 'OVC', 'base': 1200}]",MVFR,-RA,,,,,,,SVL,Savonlinna Airport,Finland,Savonlinna,https://www.worlddata.info/europe/finland/airports.php
135,EFSI,2025-11-23 01:53:14.785000+00:00,1763862600,2025-11-23T02:00:00.000Z,3.0,2.0,230,8.0,6+,1003.0,2,METAR,METAR EFSI 230150Z AUTO 23008KT 9999 OVC008 03/02 Q1003,62.693,22.83,90,"Seinajoki/Ilmajoki Arpt, EP, FI",OVC,"[{'cover': 'OVC', 'base': 800}]",IFR,,,,,,,,SJY,Seinäjoki Airport,Finland,Seinäjoki / Ilmajoki,https://www.worlddata.info/europe/finland/airports.php
136,EFTP,2025-11-23 01:51:20.497000+00:00,1763862600,2025-11-23T02:00:00.000Z,3.0,2.0,210,11.0,6+,1006.0,2,METAR,METAR EFTP 230150Z AUTO 21011KT 9999 SCT005 OVC020 03/02 Q1006,61.419,23.616,111,"Tampere/Pirkkala Arpt, PI, FI",OVC,"[{'cover': 'SCT', 'base': 500}, {'cover': 'OVC', 'base': 2000}]",MVFR,,,,,,,,TMP,Tampere-Pirkkala Airport,Finland,Tampere / Pirkkala,https://www.worlddata.info/europe/finland/airports.php
137,EFTU,2025-11-23 01:51:20.528000+00:00,1763862600,2025-11-23T02:00:00.000Z,5.0,3.0,240,11.0,6+,1009.0,2,METAR,METAR EFTU 230150Z AUTO 24011KT 9999 OVC026 05/03 Q1009,60.514,22.263,47,"Turku Arpt, VS, FI",OVC,"[{'cover': 'OVC', 'base': 2600}]",MVFR,,,,,,,,TKU,Turku Airport,Finland,Turku,https://www.worlddata.info/europe/finland/airports.php
138,EFUT,2025-11-23 01:53:14.953000+00:00,1763862600,2025-11-23T02:00:00.000Z,3.0,3.0,230,9.0,3.11,1009.0,2,METAR,METAR EFUT 230150Z AUTO 23009KT 5000 -SHRA OVC007 03/03 Q1009,60.896,26.938,104,"Utti Arpt, KY, FI",OVC,"[{'cover': 'OVC', 'base': 700}]",IFR,-SHRA,,,,,,,UTI,Utti Air Base,Finland,Utti / Valkeala,https://www.worlddata.info/europe/finland/airports.php
139,EFVA,2025-11-23 01:51:20.559000+00:00,1763862600,2025-11-23T02:00:00.000Z,3.0,2.0,220,6.0,6+,1002.0,2,METAR,METAR EFVA 230150Z AUTO 22006KT 9999 SCT015 BKN034 03/02 Q1002,63.051,21.762,4,"Vaasa Arpt, PO, FI",BKN,"[{'cover': 'SCT', 'base': 1500}, {'cover': 'BKN', 'base': 3400}]",VFR,,,,,,,,VAA,Vaasa Airport,Finland,Vaasa,https://www.worlddata.info/europe/finland/airports.php
140,EGAA,2025-11-23 01:56:12.507000+00:00,1763862600,2025-11-23T02:00:00.000Z,8.0,7.0,150,12.0,5.59,994.0,2,METAR,METAR EGAA 230150Z AUTO 15012KT 9000 -RA FEW016/// SCT034/// //////CB 08/07 Q0994 RERA,54.654,-6.225,65,"Belfast Intl, NI, GB",SCT,"[{'cover': 'FEW', 'base': 1600}, {'cover': 'SCT', 'base': 3400}]",VFR,-RA,,,,,,,BFS,Belfast International Airport,United Kingdom,Belfast,https://www.worlddata.info/europe/united-kingdom/airports.php
141,EGAC,2025-11-23 01:56:12.485000+00:00,1763862600,2025-11-23T02:00:00.000Z,8.0,7.0,160,5.0,3.73,995.0,2,METAR,METAR EGAC 230150Z AUTO 16005KT 130V190 6000 SHGR OVC039/// //////CB 08/07 Q0995,54.614,-5.873,2,"Belfast/Harbour Arpt, NI, GB",OVC,"[{'cover': 'OVC', 'base': 3900}]",MVFR,SHGR,,,,,,,BHD,George Best Belfast City Airport,United Kingdom,Belfast,https://www.worlddata.info/europe/united-kingdom/airports.php
142,EGBB,2025-11-23 01:54:21.792000+00:00,1763862600,2025-11-23T02:00:00.000Z,1.0,1.0,150,6.0,0.12,1005.0,0,METAR,METAR EGBB 230150Z 15006KT 0200 FG SCT020 01/01 Q1005,52.46,-1.758,91,"Birmingham Intl, EN, GB",SCT,"[{'cover': 'SCT', 'base': 2000}]",LIFR,FG,,,,,,,BHX,Birmingham Airport,United Kingdom,"Birmingham, West Midlands",https://www.worlddata.info/europe/united-kingdom/airports.php
143,EGCC,2025-11-23 01:55:45.982000+00:00,1763862600,2025-11-23T02:00:00.000Z,4.0,3.0,150,4.0,6+,1003.0,19,METAR,METAR EGCC 230150Z COR AUTO 15004KT 100V220 9999 NCD 04/03 Q1003 NOSIG,53.354,-2.275,78,"Manchester Intl, EN, GB",CLR,[],VFR,,,,,,,,MAN,Manchester Airport,United Kingdom,"Manchester, Greater Manchester",https://www.worlddata.info/europe/united-kingdom/airports.php
144,EGDY,2025-11-23 01:33:14.780000+00:00,1763860800,2025-11-23T01:20:00.000Z,6.0,6.0,160,4.0,6+,1007.0,2,METAR,METAR EGDY 230120Z AUTO 16004KT 9999 BKN072/// 06/06 Q1007,51.006,-2.643,21,"Yeovilton Arpt), EN, GB",BKN,"[{'cover': 'BKN', 'base': 7200}]",VFR,,,,,,,,YEO,RNAS Yeovilton,United Kingdom,Yeovil,https://www.worlddata.info/europe/united-kingdom/airports.php
145,EGFF,2025-11-23 01:56:12.525000+00:00,1763862600,2025-11-23T02:00:00.000Z,9.0,7.0,160,7.0,6+,1005.0,2,METAR,METAR EGFF 230150Z AUTO 16007KT 9999 //////TCU 09/07 Q1005,51.397,-3.343,65,"Cardiff Intl, WL, GB",,,,,,,,,,,CWL,Cardiff International Airport,United Kingdom,"Rhoose, Vale of Glamorgan",https://www.worlddata.info/europe/united-kingdom/airports.php
146,EGGD,2025-11-23 01:54:19.436000+00:00,1763862600,2025-11-23T02:00:00.000Z,6.0,6.0,200,8.0,6+,1006.0,2,METAR,METAR EGGD 230150Z AUTO 20008KT 9999 FEW005 06/06 Q1006,51.383,-2.719,182,"Bristol Intl, EN, GB",FEW,"[{'cover': 'FEW', 'base': 500}]",VFR,,,,,,,,BRS,Bristol Airport,United Kingdom,Bristol,https://www.worlddata.info/europe/united-kingdom/airports.php
147,EGGP,2025-11-23 01:54:20.899000+00:00,1763862600,2025-11-23T02:00:00.000Z,5.0,4.0,120,6.0,6+,1002.0,2,METAR,METAR EGGP 230150Z AUTO 12006KT 9999 FEW026/// 05/04 Q1002,53.334,-2.85,23,"Liverpool/Lennon Arpt, EN, GB",FEW,"[{'cover': 'FEW', 'base': 2600}]",VFR,,,,,,,,LPL,Liverpool John Lennon Airport,United Kingdom,Liverpool,https://www.worlddata.info/europe/united-kingdom/airports.php
148,EGGW,2025-11-23 01:54:21.344000+00:00,1763862600,2025-11-23T02:00:00.000Z,6.0,5.0,190,4.0,0.43,1006.0,2,METAR,METAR EGGW 230150Z AUTO 19004KT 160V220 0700 R25/P1500N FG BKN002 06/05 Q1006,51.875,-0.368,159,"Luton Arpt, EN, GB",BKN,"[{'cover': 'BKN', 'base': 200}]",LIFR,FG,,,,,,,LTN,London Luton Airport,United Kingdom,"Luton, Bedfordshire",https://www.worlddata.info/europe/united-kingdom/airports.php
149,EGHI,2025-11-23 01:56:12.542000+00:00,1763862600,2025-11-23T02:00:00.000Z,,,,,3.73,,2,METAR,METAR EGHI 230150Z AUTO /////KT 6000 HZ ///////// ///// Q////,50.944,-1.358,13,"Southampton Intl, EN, GB",,,,HZ,,,,,,,SOU,Southampton Airport,United Kingdom,Southampton,https://www.worlddata.info/europe/united-kingdom/airports.php
150,EGHQ,2025-11-23 01:54:15.309000+00:00,1763862600,2025-11-23T02:00:00.000Z,10.0,10.0,190,13.0,4.35,1005.0,2,METAR,METAR EGHQ 230150Z AUTO 19013KT 7000 RA BKN004/// 10/10 Q1005,50.438,-4.998,101,"Newquay/Cornwall Arpt, EN, GB",BKN,"[{'cover': 'BKN', 'base': 400}]",LIFR,RA,,,,,,,NQY,Cornwall Airport Newquay,United Kingdom,Newquay,https://www.worlddata.info/europe/united-kingdom/airports.php
151,EGJB,2025-11-23 01:54:19.577000+00:00,1763862600,2025-11-23T02:00:00.000Z,11.0,8.0,230,11.0,6+,1010.0,0,METAR,METAR EGJB 230150Z 23011KT 9999 FEW017 SCT024 11/08 Q1010,49.433,-2.598,102,"Guernsey Arpt, , GG",SCT,"[{'cover': 'FEW', 'base': 1700}, {'cover': 'SCT', 'base': 2400}]",VFR,,,,,,,,GCI,Guernsey Airport,Guernsey,Saint Peter Port,https://www.worlddata.info/europe/guernsey/airports.php
152,EGJJ,2025-11-23 01:54:19.696000+00:00,1763862600,2025-11-23T02:00:00.000Z,9.0,9.0,220,8.0,6+,1010.0,2,METAR,METAR EGJJ 230150Z AUTO 22008KT 9999 SCT021/// BKN026/// 09/09 Q1010,49.21,-2.194,84,"Jersey Arpt, , JE",BKN,"[{'cover': 'SCT', 'base': 2100}, {'cover': 'BKN', 'base': 2600}]",MVFR,,,,,,,,JER,Jersey Airport,Jersey,Saint Helier,https://www.worlddata.info/europe/jersey/airports.php
153,EGKB,2025-11-23 01:54:21.436000+00:00,1763862600,2025-11-23T02:00:00.000Z,7.0,7.0,230,6.0,6+,1007.0,2,METAR,METAR EGKB 230150Z AUTO 23006KT 9999 OVC002/// 07/07 Q1007,51.33,0.033,183,"London/Biggin Hill Arpt, EN, GB",OVC,"[{'cover': 'OVC', 'base': 200}]",LIFR,,,,,,,,BQH,London Biggin Hill Airport,United Kingdom,London,https://www.worlddata.info/europe/united-kingdom/airports.php
154,EGKK,2025-11-23 01:54:22.008000+00:00,1763862600,2025-11-23T02:00:00.000Z,8.0,8.0,240,4.0,5.59,1007.0,0,METAR,METAR EGKK 230150Z 24004KT 210V290 9000 FEW001 OVC007 08/08 Q1007,51.148,-0.19,58,"London/Gatwick Arpt, EN, GB",OVC,"[{'cover': 'FEW', 'base': 100}, {'cover': 'OVC', 'base': 700}]",IFR,,,,,,,,LGW,London Gatwick Airport,United Kingdom,"Gatwick, Surrey",https://www.worlddata.info/europe/united-kingdom/airports.php
155,EGLC,2025-11-23 01:54:21.533000+00:00,1763862600,2025-11-23T02:00:00.000Z,8.0,7.0,220,3.0,6+,1007.0,2,METAR,METAR EGLC 230150Z AUTO 22003KT 9999 BKN005 OVC012 08/07 Q1007,51.505,0.055,10,"London City Arpt, EN, GB",OVC,"[{'cover': 'BKN', 'base': 500}, {'cover': 'OVC', 'base': 1200}]",IFR,,,,,,,,LCY,London City Airport,United Kingdom,London,https://www.worlddata.info/europe/united-kingdom/airports.php
156,EGLF,2025-11-23 01:54:15.404000+00:00,1763862600,2025-11-23T02:00:00.000Z,6.0,6.0,240,3.0,2.11,1007.0,2,METAR,METAR EGLF 230150Z AUTO 24003KT 3400 BR BKN003/// 06/06 Q1007,51.28,-0.773,65,"Farnborough Arpt, EN, GB",BKN,"[{'cover': 'BKN', 'base': 300}]",LIFR,BR,,,,,,,FAB,Farnborough Airport,United Kingdom,Farnborough,https://www.worlddata.info/europe/united-kingdom/airports.php
157,EGLL,2025-11-23 01:56:12.565000+00:00,1763862600,2025-11-23T02:00:00.000Z,7.0,6.0,240,5.0,6+,1007.0,2,METAR,METAR EGLL 230150Z AUTO 24005KT 9999 SCT009 07/06 Q1007 TEMPO BKN006,51.477,-0.461,26,"London/Heathrow Intl, EN, GB",SCT,"[{'cover': 'SCT', 'base': 900}]",VFR,,,,,,,,LHR,London Heathrow Airport,United Kingdom,London,https://www.worlddata.info/europe/united-kingdom/airports.php
158,EGMD,2025-11-23 01:54:21.622000+00:00,1763862600,2025-11-23T02:00:00.000Z,9.0,8.0,200,23.0,6+,1008.0,2,METAR,METAR EGMD 230150Z AUTO 20023KT 9999 BKN008/// OVC021/// 09/08 Q1008,50.956,0.939,4,"Lydd Arpt, EN, GB",OVC,"[{'cover': 'BKN', 'base': 800}, {'cover': 'OVC', 'base': 2100}]",IFR,,,,,,,,LYX,Lydd London Ashford Airport,United Kingdom,"Romney Marsh, Kent",https://www.worlddata.info/europe/united-kingdom/airports.php
159,EGNJ,2025-11-23 01:54:20.994000+00:00,1763862600,2025-11-23T02:00:00.000Z,4.0,4.0,210,7.0,0.19,1005.0,2,METAR,METAR EGNJ 230150Z AUTO 21007KT 0300 FG FEW002/// 04/04 Q1005,53.58,-0.341,23,"Humberside Intl, EN, GB",FEW,"[{'cover': 'FEW', 'base': 200}]",LIFR,FG,,,,,,,HUY,Humberside Airport,United Kingdom,Grimsby,https://www.worlddata.info/europe/united-kingdom/airports.php
160,EGNS,2025-11-23 01:54:16.102000+00:00,1763862600,2025-11-23T02:00:00.000Z,10.0,9.0,160,17.0,4.35,997.0,0,METAR,METAR EGNS 230150Z 16017KT 7000 RA FEW005 SCT008 BKN020 10/09 Q0997,54.085,-4.632,18,"Isle Of Man Arpt, , IM",BKN,"[{'cover': 'FEW', 'base': 500}, {'cover': 'SCT', 'base': 800}, {'cover': 'BKN', 'base': 2000}]",MVFR,RA,,,,,,,IOM,Isle of Man Airport,Isle of Man,Castletown,https://www.worlddata.info/europe/isle-of-man/airports.php
161,EGNT,2025-11-23 01:54:21.095000+00:00,1763862600,2025-11-23T02:00:00.000Z,3.0,3.0,190,3.0,6+,1002.0,0,METAR,METAR EGNT 230150Z 19003KT 140V240 9999 FEW045 03/03 Q1002,55.037,-1.702,77,"Newcastle Intl, SC, GB",FEW,"[{'cover': 'FEW', 'base': 4500}]",VFR,,,,,,,,NCL,Newcastle International Airport,United Kingdom,"Newcastle upon Tyne, Tyne and Wear",https://www.worlddata.info/europe/united-kingdom/airports.php
162,EGNV,2025-11-23 01:54:21.191000+00:00,1763862600,2025-11-23T02:00:00.000Z,4.0,4.0,190,7.0,3.11,1003.0,2,METAR,METAR EGNV 230150Z AUTO 19007KT 5000 BR BKN017/// 04/04 Q1003,54.511,-1.418,36,"Teesside Intl, EN, GB",BKN,"[{'cover': 'BKN', 'base': 1700}]",MVFR,BR,,,,,,,MME,Teesside International Airport,United Kingdom,"Darlington, Durham",https://www.worlddata.info/europe/united-kingdom/airports.php
163,EGNX,2025-11-23 01:54:21.265000+00:00,1763862600,2025-11-23T02:00:00.000Z,3.0,3.0,120,4.0,0.19,1005.0,0,METAR,METAR EGNX 230150Z 12004KT 0300 R27/0375N FG OVC001 03/03 Q1005,52.833,-1.333,91,"Nottingham/E Midlands Arpt, EN, GB",OVC,"[{'cover': 'OVC', 'base': 100}]",LIFR,FG,,,,,,,EMA,East Midlands Airport,United Kingdom,Nottingham,https://www.worlddata.info/europe/united-kingdom/airports.php
164,EGOV,2025-11-23 01:33:15.438000+00:00,1763860800,2025-11-23T01:20:00.000Z,10.0,9.0,170,24.0,6+,999.0,2,METAR,METAR EGOV 230120Z AUTO 17024KT 9999 DZ OVC004/// 10/09 Q0999,53.252,-4.536,11,"Valley, WL, GB",OVC,"[{'cover': 'OVC', 'base': 400}]",LIFR,DZ,,,,,,,VLY,Anglesey Airport,United Kingdom,Angelsey,https://www.worlddata.info/europe/united-kingdom/airports.php
165,EGPA,2025-11-23 01:54:16.212000+00:00,1763862600,2025-11-23T02:00:00.000Z,3.0,3.0,120,4.0,6+,1000.0,2,METAR,METAR EGPA 230150Z AUTO 12004KT 9999 BKN029/// 03/03 Q1000,58.958,-2.905,15,"Kirkwall Arpt, SC, GB",BKN,"[{'cover': 'BKN', 'base': 2900}]",MVFR,,,,,,,,KOI,Kirkwall Airport,United Kingdom,Orkney Islands,https://www.worlddata.info/europe/united-kingdom/airports.php
166,EGPB,2025-11-23 01:54:16.308000+00:00,1763862600,2025-11-23T02:00:00.000Z,3.0,2.0,0,0.0,6+,1001.0,2,METAR,METAR EGPB 230150Z AUTO 00000KT 9999 FEW024/// 03/02 Q1001,59.88,-1.296,2,"Sumburgh Arpt, SC, GB",FEW,"[{'cover': 'FEW', 'base': 2400}]",VFR,,,,,,,,LSI,Sumburgh Airport,United Kingdom,Lerwick,https://www.worlddata.info/europe/united-kingdom/airports.php
167,EGPC,2025-11-23 01:54:15.527000+00:00,1763862600,2025-11-23T02:00:00.000Z,7.0,4.0,130,6.0,6+,999.0,2,METAR,METAR EGPC 230150Z AUTO 13006KT 9999 FEW019/// 07/04 Q0999,58.459,-3.093,38,"Wick Arpt, SC, GB",FEW,"[{'cover': 'FEW', 'base': 1900}]",VFR,,,,,,,,WIC,Wick Airport,United Kingdom,Wick,https://www.worlddata.info/europe/united-kingdom/airports.php
168,EGPD,2025-11-23 01:56:12.335000+00:00,1763862600,2025-11-23T02:00:00.000Z,-1.0,-2.0,VRB,1.0,6+,1000.0,2,METAR,METAR EGPD 230150Z AUTO VRB01KT 9999 BKN003 M01/M02 Q1000 TEMPO 3000 BR,57.205,-2.205,65,"Aberdeen Arpt, SC, GB",BKN,"[{'cover': 'BKN', 'base': 300}]",LIFR,,,,,,,,ABZ,Aberdeen Dyce Airport,United Kingdom,Aberdeen,https://www.worlddata.info/europe/united-kingdom/airports.php
169,EGPE,2025-11-23 01:54:15.603000+00:00,1763862600,2025-11-23T02:00:00.000Z,0.0,0.0,VRB,1.0,6+,999.0,2,METAR,METAR EGPE 230150Z AUTO VRB01KT 9999 BKN041/// 00/M00 Q0999,57.538,-4.053,7,"Inverness Arpt, SC, GB",BKN,"[{'cover': 'BKN', 'base': 4100}]",VFR,,,,,,,,INV,Inverness Airport,United Kingdom,Inverness,https://www.worlddata.info/europe/united-kingdom/airports.php
170,EGPF,2025-11-23 01:54:22.187000+00:00,1763862600,2025-11-23T02:00:00.000Z,2.0,2.0,70,7.0,5.59,999.0,2,METAR,METAR EGPF 230150Z AUTO 07007KT 9000 NCD 02/02 Q0999,55.867,-4.433,8,"Glasgow Arpt, SC, GB",CLR,[],VFR,,,,,,,,GLA,Glasgow International Airport,United Kingdom,"Paisley, Renfrewshire",https://www.worlddata.info/europe/united-kingdom/airports.php
171,EGPH,2025-11-23 01:55:27.127000+00:00,1763862600,2025-11-23T02:00:00.000Z,-1.0,-2.0,70,5.0,6+,999.0,2,METAR,METAR EGPH 230150Z AUTO 07005KT 9999 FEW023/// M01/M02 Q0999,55.952,-3.36,29,"Edinburgh Arpt, SC, GB",FEW,"[{'cover': 'FEW', 'base': 2300}]",VFR,,,,,,,,EDI,Edinburgh Airport,United Kingdom,Edinburgh,https://www.worlddata.info/europe/united-kingdom/airports.php
172,EGPI,2025-11-23 01:54:15.007000+00:00,1763862600,2025-11-23T02:00:00.000Z,8.0,6.0,160,20.0,6+,994.0,2,METAR,METAR EGPI 230150Z AUTO 16020KT 9999 -RA OVC011/// 08/06 Q0994 RERA,55.681,-6.25,17,"Islay Arpt, SC, GB",OVC,"[{'cover': 'OVC', 'base': 1100}]",MVFR,-RA,,,,,,,ILY,Islay Airport,United Kingdom,"Isle of Islay, Argyll and Bute",https://www.worlddata.info/europe/united-kingdom/airports.php
173,EGPK,2025-11-23 01:54:22.289000+00:00,1763862600,2025-11-23T02:00:00.000Z,5.0,4.0,100,8.0,6+,998.0,0,METAR,METAR EGPK 230150Z 10008KT 9999 -RA SCT041 05/04 Q0998,55.509,-4.587,14,"Prestwick Intl, SC, GB",SCT,"[{'cover': 'SCT', 'base': 4100}]",VFR,-RA,,,,,,,PIK,Glasgow Prestwick Airport,United Kingdom,"Prestwick, South Ayrshire",https://www.worlddata.info/europe/united-kingdom/airports.php
174,EGPL,2025-11-23 01:54:15.699000+00:00,1763862600,2025-11-23T02:00:00.000Z,7.0,5.0,120,11.0,6+,995.0,2,METAR,METAR EGPL 230150Z AUTO 12011KT 9999 SCT010/// OVC018/// 07/05 Q0995 RERA,57.475,-7.364,3,"Benbecula Isl Arpt, SC, GB",OVC,"[{'cover': 'SCT', 'base': 1000}, {'cover': 'OVC', 'base': 1800}]",MVFR,,,,,,,,BEB,Benbecula Airport,United Kingdom,Balivanich,https://www.worlddata.info/europe/united-kingdom/airports.php
175,EGPO,2025-11-23 01:54:15.800000+00:00,1763862600,2025-11-23T02:00:00.000Z,8.0,5.0,150,11.0,6+,997.0,2,METAR,METAR EGPO 230150Z AUTO 15011KT 9999 BKN019/// BKN040/// 08/05 Q0997,58.215,-6.329,10,"Stornoway Arpt, SC, GB",BKN,"[{'cover': 'BKN', 'base': 1900}, {'cover': 'BKN', 'base': 4000}]",MVFR,,,,,,,,SYY,Stornoway Airport,United Kingdom,"Stornoway, Western Isles",https://www.worlddata.info/europe/united-kingdom/airports.php
176,EGQL,2025-11-23 02:00:15.983000+00:00,1763862600,2025-11-23T02:00:00.000Z,1.0,0.0,350,1.0,5.59,1000.0,0,METAR,METAR EGQL 230150Z 35001KT 9000 BR OVC034 01/00 Q1000 RMK BLU,56.377,-2.862,11,"Leuchars, SC, GB",OVC,"[{'cover': 'OVC', 'base': 3400}]",VFR,BR,,,,,,,ADX,Leuchars Station Airfield,United Kingdom,"Leuchars, Fife",https://www.worlddata.info/europe/united-kingdom/airports.php
177,EGQS,2025-11-23 02:00:16.055000+00:00,1763862600,2025-11-23T02:00:00.000Z,2.0,1.0,170,4.0,6+,999.0,0,METAR,METAR EGQS 230150Z 17004KT 9999 FEW035 BKN140 02/01 Q0999 RMK BLU,57.711,-3.324,6,"Lossiemouth, SC, GB",BKN,"[{'cover': 'FEW', 'base': 3500}, {'cover': 'BKN', 'base': 14000}]",VFR,,,,,,,,LMO,RAF Lossiemouth,United Kingdom,Lossiemouth,https://www.worlddata.info/europe/united-kingdom/airports.php
178,EGSH,2025-11-23 01:54:21.720000+00:00,1763862600,2025-11-23T02:00:00.000Z,6.0,5.0,190,9.0,6+,1007.0,2,METAR,METAR EGSH 230150Z AUTO 19009KT 150V230 9999 OVC004/// 06/05 Q1007,52.676,1.283,21,"Norwich Intl, EN, GB",OVC,"[{'cover': 'OVC', 'base': 400}]",LIFR,,,,,,,,NWI,Norwich Airport,United Kingdom,"Norwich, Norfolk",https://www.worlddata.info/europe/united-kingdom/airports.php
179,EGSS,2025-11-23 01:54:22.354000+00:00,1763862600,2025-11-23T02:00:00.000Z,7.0,7.0,180,7.0,5.59,1007.0,2,METAR,METAR EGSS 230150Z AUTO 18007KT 9000 BKN003 OVC009 07/07 Q1007,51.881,0.223,101,"London/Stansted Arpt, EN, GB",OVC,"[{'cover': 'BKN', 'base': 300}, {'cover': 'OVC', 'base': 900}]",LIFR,,,,,,,,STN,London Stansted Airport,United Kingdom,London,https://www.worlddata.info/europe/united-kingdom/airports.php
180,EGUB,2025-11-23 01:33:16.095000+00:00,1763860800,2025-11-23T01:20:00.000Z,3.0,2.0,90,6.0,0.19,1006.0,2,METAR,METAR EGUB 230120Z AUTO 09006KT 0300 FG SCT001/// 03/02 Q1006,51.62,-1.099,56,"Benson, EN, GB",SCT,"[{'cover': 'SCT', 'base': 100}]",LIFR,FG,,,,,,,BEX,RAF Benson,United Kingdom,Benson,https://www.worlddata.info/europe/united-kingdom/airports.php
181,EGUL,2025-11-23 01:56:18.929000+00:00,1763862900,2025-11-23T02:00:00.000Z,7.0,5.6,180,6.0,6+,,14,METAR,METAR EGUL 230155Z AUTO 18006KT 9999 OVC007 07/06 M RMK AO2 OVC V BKN SLPNO T00700056 $,52.409,0.561,8,"Lakenheath, EN, GB",OVC,"[{'cover': 'OVC', 'base': 700}]",IFR,,,,,,,,LKZ,RAF Lakenheath,United Kingdom,"Brandon, Suffolk",https://www.worlddata.info/europe/united-kingdom/airports.php
182,EGUN,2025-11-23 01:56:50.098000+00:00,1763862900,2025-11-23T02:00:00.000Z,7.2,6.1,190,7.0,6+,1005.8,14,METAR,METAR EGUN 230155Z AUTO 19007KT 9999 BKN010 BKN025 07/06 A2970 RMK AO2 BKN010 V OVC SLP061 T00720061 CHINO RWY10 $,52.362,0.486,10,"Mildenhall, EN, GB",BKN,"[{'cover': 'BKN', 'base': 1000}, {'cover': 'BKN', 'base': 2500}]",MVFR,,1006.1,,,,,,MHZ,RAF Mildenhall,United Kingdom,"Bury Saint Edmunds, Suffolk",https://www.worlddata.info/europe/united-kingdom/airports.php
183,EGVA,2025-11-23 01:56:16.058000+00:00,1763862900,2025-11-23T02:00:00.000Z,3.2,2.6,0,0.0,0.75,1005.8,14,METAR,METAR EGVA 230155Z AUTO 00000KT 1200 R27/0700VP1500 BR BKN020 BKN065 03/03 A2970 RMK AO2 CIG 020V065 CIG 019 RWY09 SLP062 T00320026 $,51.682,-1.79,84,"Fairford, EN, GB",BKN,"[{'cover': 'BKN', 'base': 2000}, {'cover': 'BKN', 'base': 6500}]",LIFR,BR,1006.2,,,,,,FFD,RAF Fairford,United Kingdom,Fairford,https://www.worlddata.info/europe/united-kingdom/airports.php
184,EGVN,2025-11-23 01:58:15.025000+00:00,1763862600,2025-11-23T02:00:00.000Z,2.0,2.0,0,0.0,0.31,1006.0,0,METAR,METAR EGVN 230150Z 00000KT 0500 FG BKN001 02/02 Q1006 TEMPO 4000 BR FEW005 RMK RED TEMPO GRN,51.758,-1.578,83,"Brize Norton, EN, GB",BKN,"[{'cover': 'BKN', 'base': 100}]",LIFR,FG,,,,,,,BZZ,RAF Brize Norton,United Kingdom,"Carterton, Oxfordshire",https://www.worlddata.info/europe/united-kingdom/airports.php
185,EGVO,2025-11-23 01:33:16.410000+00:00,1763860800,2025-11-23T01:20:00.000Z,5.0,5.0,220,6.0,0.25,1007.0,2,METAR,METAR EGVO 230120Z AUTO 22006KT 0400 FG OVC001/// 05/05 Q1007,51.239,-0.945,118,"Odiham, EN, GB",OVC,"[{'cover': 'OVC', 'base': 100}]",LIFR,FG,,,,,,,ODH,RAF Odiham,United Kingdom,Odiham,https://www.worlddata.info/europe/united-kingdom/airports.php
186,EGWU,2025-11-23 02:01:43.216000+00:00,1763862600,2025-11-23T02:00:00.000Z,7.0,6.0,230,4.0,6+,1007.0,2,METAR,METAR EGWU 230150Z AUTO 23004KT 9999 SCT009/// 07/06 Q1007,51.549,-0.417,33,"Northolt, EN, GB",SCT,"[{'cover': 'SCT', 'base': 900}]",VFR,,,,,,,,NHT,RAF Northolt,United Kingdom,London,https://www.worlddata.info/europe/united-kingdom/airports.php
187,EGXC,2025-11-23 01:58:15.048000+00:00,1763862600,2025-11-23T02:00:00.000Z,3.0,3.0,170,3.0,0.06,1005.0,0,METAR,METAR EGXC 230150Z 17003KT 0100 FG OVC001 03/03 Q1005 RMK RED,53.094,-0.173,9,"Coningsby, EN, GB",OVC,"[{'cover': 'OVC', 'base': 100}]",LIFR,FG,,,,,,,QCY,RAF Coningsby,United Kingdom,Coningsby,https://www.worlddata.info/europe/united-kingdom/airports.php
188,EGXW,2025-11-23 01:33:17.494000+00:00,1763860800,2025-11-23T01:20:00.000Z,4.0,4.0,230,8.0,0.06,1005.0,2,METAR,METAR EGXW 230120Z AUTO 23008KT 0100 FG OVC001/// 04/04 Q1005,53.175,-0.523,70,"Waddington Arpt, EN, GB",OVC,"[{'cover': 'OVC', 'base': 100}]",LIFR,FG,,,,,,,WTN,RAF Waddington,United Kingdom,Waddington,https://www.worlddata.info/europe/united-kingdom/airports.php
189,EGYM,2025-11-23 01:33:18.184000+00:00,1763860800,2025-11-23T01:20:00.000Z,7.0,7.0,200,9.0,6+,1006.0,2,METAR,METAR EGYM 230120Z AUTO 20009KT 9999 OVC003/// 07/07 Q1006,52.648,0.567,25,"Marham Arpt, EN, GB",OVC,"[{'cover': 'OVC', 'base': 300}]",LIFR,,,,,,,,KNF,RAF Marham,United Kingdom,"King's Lynn, Norfolk",https://www.worlddata.info/europe/united-kingdom/airports.php
190,EGYP,2025-11-23 01:59:21.251000+00:00,1763862600,2025-11-23T02:00:00.000Z,10.0,3.0,330,20.0,6+,1006.0,0,METAR,METAR EGYP 230150Z 33020KT CAVOK 10/03 Q1006,-51.82,-58.448,70,"Mount Pleasant Arpt, SG, FK",CAVOK,[],VFR,,,,,,,,MPN,Mount Pleasant Airport,Falkland Islands,Mount Pleasant,https://www.worlddata.info/america/falkland-islands/airports.php
191,EHAM,2025-11-23 01:58:06.669000+00:00,1763862900,2025-11-23T02:00:00.000Z,0.0,-5.0,180,15.0,3.73,1013.0,0,METAR,METAR EHAM 230155Z 18015KT 6000 -SN FEW020 BKN030 00/M05 Q1013 BECMG 4000 BKN020,52.315,4.79,-2,"Amsterdam/Schiphol Arpt, NH, NL",BKN,"[{'cover': 'FEW', 'base': 2000}, {'cover': 'BKN', 'base': 3000}]",MVFR,-SN,,,,,,,AMS,Amsterdam Airport Schiphol,Netherlands,Amsterdam,https://www.worlddata.info/europe/netherlands/airports.php
192,EHBK,2025-11-23 01:57:20.446000+00:00,1763862900,2025-11-23T02:00:00.000Z,0.0,-9.0,190,13.0,6+,1016.0,2,METAR,METAR EHBK 230155Z AUTO 19013KT 9999 NSC 00/M09 Q1016,50.905,5.762,112,"Maastricht/Aachen Arpt, LI, NL",CLR,[],VFR,,,,,,,,MST,Maastricht Aachen Airport,Netherlands,Maastricht,https://www.worlddata.info/europe/netherlands/airports.php
193,EHEH,2025-11-23 01:58:06.700000+00:00,1763862900,2025-11-23T02:00:00.000Z,0.0,-7.0,170,9.0,6+,1015.0,2,METAR,METAR EHEH 230155Z AUTO 17009KT 9999 OVC100 00/M07 Q1015 BLU,51.45,5.377,20,"Eindhoven Arpt, NB, NL",OVC,"[{'cover': 'OVC', 'base': 10000}]",VFR,,,,,,,,EIN,Eindhoven Airport,Netherlands,Eindhoven,https://www.worlddata.info/europe/netherlands/airports.php
194,EHGG,2025-11-23 01:57:20.477000+00:00,1763862900,2025-11-23T02:00:00.000Z,0.0,-8.0,180,13.0,6+,1014.0,2,METAR,METAR EHGG 230155Z AUTO 18013KT 9999 NSC 00/M08 Q1014,53.12,6.579,2,"Groningen Arpt, DR, NL",CLR,[],VFR,,,,,,,,GRQ,Groningen Airport Eelde,Netherlands,Groningen,https://www.worlddata.info/europe/netherlands/airports.php
195,EHGR,2025-11-23 01:58:13.376000+00:00,1763862900,2025-11-23T02:00:00.000Z,1.0,-5.0,180,11.0,6+,1015.0,2,METAR,METAR EHGR 230155Z AUTO 18011KT 120V220 9999 SCT042 OVC047 01/M05 Q1015 BLU,51.565,4.935,12,"Gilze-Rijen, NB, NL",OVC,"[{'cover': 'SCT', 'base': 4200}, {'cover': 'OVC', 'base': 4700}]",VFR,,,,,,,,GLZ,Gilze Rijen Air Base,Netherlands,Rijen,https://www.worlddata.info/europe/netherlands/airports.php
196,EHKD,2025-11-23 02:00:29.695000+00:00,1763862900,2025-11-23T02:00:00.000Z,0.0,-2.0,180,17.0,2.42,1012.0,2,METAR,METAR EHKD 230155Z AUTO 18017KT 3900 -SN SCT023 BKN026 OVC031 00/M02 Q1012 REDZSN GRN,52.927,4.781,1,"Den Helder Arpt, NH, NL",OVC,"[{'cover': 'SCT', 'base': 2300}, {'cover': 'BKN', 'base': 2600}, {'cover': 'OVC', 'base': 3100}]",IFR,-SN SN,,,,,,,DHR,De Kooy Airfield / Den Helder Naval Air Station,Netherlands,Den Helder,https://www.worlddata.info/europe/netherlands/airports.php
197,EHLE,2025-11-23 01:57:20.550000+00:00,1763862900,2025-11-23T02:00:00.000Z,0.0,-6.0,180,12.0,6+,1013.0,2,METAR,METAR EHLE 230155Z AUTO 18012KT 150V210 9999 NSC 00/M06 Q1013,52.456,5.522,-3,"Lelystad Arpt, FL, NL",CLR,[],VFR,,,,,,,,LEY,Lelystad Airport,Netherlands,Lelystad,https://www.worlddata.info/europe/netherlands/airports.php
198,EHLW,2025-11-23 01:58:06.743000+00:00,1763862900,2025-11-23T02:00:00.000Z,1.0,-6.0,180,12.0,6+,1012.0,2,METAR,METAR EHLW 230155Z AUTO 18012KT 140V210 9999 FEW064 01/M06 Q1012 BLU,53.223,5.752,1,"Leeuwarden Arpt, FR, NL",FEW,"[{'cover': 'FEW', 'base': 6400}]",VFR,,,,,,,,LWR,Leeuwarden Air Base,Netherlands,Leeuwarden,https://www.worlddata.info/europe/netherlands/airports.php
199,EHRD,2025-11-23 01:57:20.517000+00:00,1763862900,2025-11-23T02:00:00.000Z,0.0,-2.0,180,13.0,1.62,1013.0,18,METAR,METAR EHRD 230155Z AUTO 18013KT 150V210 2600 -SN FEW013/// SCT015/// BKN023/// M00/M02 Q1013 NOSIG,51.954,4.444,-4,"Rotterdam/The Hague Arpt, ZH, NL",BKN,"[{'cover': 'FEW', 'base': 1300}, {'cover': 'SCT', 'base': 1500}, {'cover': 'BKN', 'base': 2300}]",IFR,-SN,,,,,,,RTM,Rotterdam The Hague Airport,Netherlands,Rotterdam,https://www.worlddata.info/europe/netherlands/airports.php
200,EHVK,2025-11-23 01:56:07.464000+00:00,1763862900,2025-11-23T02:00:00.000Z,-1.0,-8.0,160,8.0,6+,1015.0,2,METAR,METAR EHVK 230155Z AUTO 16008KT 120V180 9999 OVC170 M01/M08 Q1015 BLU,51.658,5.707,20,"Volkel Arpt, NB, NL",OVC,"[{'cover': 'OVC', 'base': 17000}]",VFR,,,,,,,,UDE,Volkel Air Base,Netherlands,Uden,https://www.worlddata.info/europe/netherlands/airports.php
201,EHWO,2025-11-23 02:00:19.185000+00:00,1763863140,2025-11-23T01:59:00.000Z,0.0,-3.0,190,8.0,6+,1014.0,2,SPECI,SPECI EHWO 230159Z AUTO 19008KT 150V230 9999 -FZRA -SN FEW026 BKN035 OVC041 00/M03 Q1014 BLU,51.448,4.342,15,"Woensdrecht, NB, NL",OVC,"[{'cover': 'FEW', 'base': 2600}, {'cover': 'BKN', 'base': 3500}, {'cover': 'OVC', 'base': 4100}]",VFR,-FZRA -SN,,,,,,,WOE,Woensdrecht Air Base,Netherlands,Hoogerheide,https://www.worlddata.info/europe/netherlands/airports.php
202,EICK,2025-11-23 01:33:31.264000+00:00,1763861400,2025-11-23T01:30:00.000Z,9.0,7.0,260,14.0,6+,1001.0,16,METAR,METAR EICK 230130Z 26014KT 9999 FEW018 SCT031 09/07 Q1001 NOSIG,51.848,-8.479,158,"Cork Arpt, M, IE",SCT,"[{'cover': 'FEW', 'base': 1800}, {'cover': 'SCT', 'base': 3100}]",VFR,,,,,,,,ORK,Cork Airport,Ireland,Cork,https://www.worlddata.info/europe/ireland/airports.php
203,EIDW,2025-11-23 01:36:09.060000+00:00,1763861400,2025-11-23T01:30:00.000Z,8.0,8.0,170,8.0,2.17,997.0,0,METAR,METAR EIDW 230130Z 17008KT 140V200 3500 RA FEW007 SCT018 BKN020 08/08 Q0997 BECMG 9999 NSW,53.422,-6.298,75,"Dublin Arpt, L, IE",BKN,"[{'cover': 'FEW', 'base': 700}, {'cover': 'SCT', 'base': 1800}, {'cover': 'BKN', 'base': 2000}]",IFR,RA,,,,,,,DUB,Dublin Airport,Ireland,Dublin,https://www.worlddata.info/europe/ireland/airports.php
204,EINN,2025-11-23 01:36:09.088000+00:00,1763861400,2025-11-23T01:30:00.000Z,8.0,6.0,270,15.0,4.35,1000.0,0,METAR,METAR EINN 230130Z 27015KT 7000 -SHRA FEW011 SCT018CB BKN032 08/06 Q1000 TEMPO SHRA,52.702,-8.925,20,"Shannon Arpt, M, IE",BKN,"[{'cover': 'FEW', 'base': 1100}, {'cover': 'SCT', 'base': 1800}, {'cover': 'BKN', 'base': 3200}]",MVFR,-SHRA,,,,,,,SNN,Shannon Airport,Ireland,Shannon,https://www.worlddata.info/europe/ireland/airports.php
205,EKAH,2025-11-23 01:53:22.216000+00:00,1763862600,2025-11-23T02:00:00.000Z,4.0,-2.0,200,7.0,6+,1012.0,2,METAR,METAR EKAH 230150Z AUTO 20007KT 130V270 9999 OVC075/// 04/M02 Q1012,56.3,10.619,25,"Tirstrup Arpt, MI, DK",OVC,"[{'cover': 'OVC', 'base': 7500}]",VFR,,,,,,,,AAR,Aarhus Airport,Denmark,Aarhus,https://www.worlddata.info/europe/denmark/airports.php
206,EKBI,2025-11-23 01:53:22.084000+00:00,1763862600,2025-11-23T02:00:00.000Z,1.0,-2.0,180,10.0,6+,1012.0,2,METAR,METAR EKBI 230150Z AUTO 18010KT 150V210 9999 BKN057/// BKN078/// 01/M02 Q1012,55.74,9.152,67,"Billund Arpt, SY, DK",BKN,"[{'cover': 'BKN', 'base': 5700}, {'cover': 'BKN', 'base': 7800}]",VFR,,,,,,,,BLL,Billund Airport,Denmark,Billund,https://www.worlddata.info/europe/denmark/airports.php
207,EKCH,2025-11-23 01:53:21.945000+00:00,1763862600,2025-11-23T02:00:00.000Z,3.0,-3.0,210,11.0,6+,1016.0,18,METAR,METAR EKCH 230150Z AUTO 21011KT 9999 SCT170/// 03/M03 Q1016 NOSIG,55.618,12.656,4,"Kobenhavn Intl, HO, DK",SCT,"[{'cover': 'SCT', 'base': 17000}]",VFR,,,,,,,,CPH,Copenhagen Kastrup Airport,Denmark,Copenhagen,https://www.worlddata.info/europe/denmark/airports.php
208,EKEB,2025-11-23 01:53:21.803000+00:00,1763862600,2025-11-23T02:00:00.000Z,4.0,0.0,170,14.0,6+,1011.0,2,METAR,METAR EKEB 230150Z AUTO 17014KT 9999 BKN082/// BKN140/// 04/00 Q1011,55.528,8.563,29,"Esbjerg Arpt, SY, DK",BKN,"[{'cover': 'BKN', 'base': 8200}, {'cover': 'BKN', 'base': 14000}]",VFR,,,,,,,,EBJ,Esbjerg Airport,Denmark,Esbjerg,https://www.worlddata.info/europe/denmark/airports.php
209,EKKA,2025-11-23 01:52:21.904000+00:00,1763862600,2025-11-23T02:00:00.000Z,3.0,0.0,190,12.0,6+,1010.0,2,METAR,METAR EKKA 230150Z AUTO 19012KT 9999 BKN073/// 03/M00 Q1010,56.293,9.114,50,"Karup Arpt, MI, DK",BKN,"[{'cover': 'BKN', 'base': 7300}]",VFR,,,,,,,,KRP,Midtjyllands Airport / Air Base Karup,Denmark,Karup,https://www.worlddata.info/europe/denmark/airports.php
210,EKOD,2025-11-23 01:53:21.304000+00:00,1763862600,2025-11-23T02:00:00.000Z,1.0,-4.0,190,10.0,6+,1014.0,2,METAR,METAR EKOD 230150Z AUTO 19010KT 9999 OVC130/// 01/M04 Q1014,55.475,10.331,13,"Odense Arpt, SY, DK",OVC,"[{'cover': 'OVC', 'base': 13000}]",VFR,,,,,,,,ODE,Odense Hans Christian Andersen Airport,Denmark,Odense,https://www.worlddata.info/europe/denmark/airports.php
211,EKRK,2025-11-23 01:53:22.353000+00:00,1763862600,2025-11-23T02:00:00.000Z,1.0,-4.0,190,11.0,6+,1015.0,2,METAR,METAR EKRK 230150Z AUTO 19011KT 9999 FEW130/// BKN160/// 01/M04 Q1015,55.587,12.136,40,"Koebenhavn/Roskilde Arpt, SJ, DK",BKN,"[{'cover': 'FEW', 'base': 13000}, {'cover': 'BKN', 'base': 16000}]",VFR,,,,,,,,RKE,Copenhagen Roskilde Airport,Denmark,Roskilde,https://www.worlddata.info/europe/denmark/airports.php
212,EKRN,2025-11-23 01:53:21.684000+00:00,1763862600,2025-11-23T02:00:00.000Z,5.0,0.0,210,10.0,6+,1018.0,2,METAR,METAR EKRN 230150Z AUTO 21010KT 170V250 9999 NCD 05/00 Q1018,55.068,14.749,14,"Ronne/Bornholm Arpt, HO, DK",CLR,[],VFR,,,,,,,,RNN,Bornholm Airport,Denmark,Rønne,https://www.worlddata.info/europe/denmark/airports.php
213,EKSB,2025-11-23 01:53:20.984000+00:00,1763862600,2025-11-23T02:00:00.000Z,1.0,-6.0,180,10.0,6+,1014.0,2,METAR,METAR EKSB 230150Z AUTO 18010KT 150V210 9999 SCT120/// 01/M06 Q1014,54.962,9.787,23,"Sønderborg Arpt, SY, DK",SCT,"[{'cover': 'SCT', 'base': 12000}]",VFR,,,,,,,,SGD,Sønderborg Airport,Denmark,Sønderborg,https://www.worlddata.info/europe/denmark/airports.php
214,EKSP,2025-11-23 01:56:08.534000+00:00,1763862600,2025-11-23T02:00:00.000Z,0.0,-5.0,190,13.0,6+,1013.0,0,METAR,METAR EKSP 230150Z 19013KT CAVOK 00/M05 Q1013 RMK FEW091 BKN130,55.225,9.263,40,"Vojens Arpt, SY, DK",CAVOK,[],VFR,,,,,,,,SKS,Skrydstrup Air Base,Denmark,Vojens,https://www.worlddata.info/europe/denmark/airports.php
215,EKVG,2025-11-23 01:56:08.583000+00:00,1763862600,2025-11-23T02:00:00.000Z,1.0,0.0,150,1.0,6+,1000.0,2,METAR,METAR EKVG 230150Z AUTO 15001KT 9999 NCD 01/00 Q1000 RMK NCD WIND SKEID 14005KT,62.065,-7.282,89,"Sørvágur/Vágar Arpt, VG, FO",CLR,[],VFR,,,,,,,,FAE,Vágar Airport,Faroe Islands,Vágar,https://www.worlddata.info/europe/faroe-islands/airports.php
216,EKVJ,2025-11-23 01:56:08.608000+00:00,1763862600,2025-11-23T02:00:00.000Z,5.0,3.0,180,15.0,5.59,1010.0,2,METAR,METAR EKVJ 230150Z AUTO 18015KT 9000 -RA ///////// 05/03 Q1010,55.991,8.354,5,"Stauning Arpt, MI, DK",,,,-RA,,,,,,,STA,Stauning Vestjylland Airport,Denmark,Skjern,https://www.worlddata.info/europe/denmark/airports.php
217,EKYT,2025-11-23 01:53:21.546000+00:00,1763862600,2025-11-23T02:00:00.000Z,4.0,1.0,180,16.0,6+,1009.0,2,METAR,METAR EKYT 230150Z AUTO 18016KT 9999 BKN067/// 04/01 Q1009,57.093,9.879,2,"Aalborg Arpt, NO, DK",BKN,"[{'cover': 'BKN', 'base': 6700}]",VFR,,,,,,,,AAL,Aalborg Airport,Denmark,Aalborg,https://www.worlddata.info/europe/denmark/airports.php
218,ELLX,2025-11-23 01:55:20.030000+00:00,1763862600,2025-11-23T02:00:00.000Z,-6.0,-7.0,190,4.0,4.97,1018.0,18,METAR,METAR ELLX 230150Z AUTO 19004KT 8000 NCD M06/M07 Q1018 NOSIG,49.626,6.204,374,"Luxembourg/Findel Arpt, LL, LU",CLR,[],MVFR,,,,,,,,LUX,Luxembourg-Findel International Airport,Luxembourg,Luxembourg,https://www.worlddata.info/europe/luxembourg/airports.php
219,ENAL,2025-11-23 01:51:14.013000+00:00,1763862600,2025-11-23T02:00:00.000Z,6.0,3.0,190,6.0,6+,1002.0,2,METAR,METAR ENAL 230150Z AUTO 19006KT 9999 OVC024/// 06/03 Q1002,62.562,6.115,21,"Vigra/Alesund Arpt, MR, NO",OVC,"[{'cover': 'OVC', 'base': 2400}]",MVFR,,,,,,,,AES,"Ålesund Airport, Vigra",Norway,Ålesund,https://www.worlddata.info/europe/norway/airports.php
220,ENAN,2025-11-23 01:51:11.429000+00:00,1763862600,2025-11-23T02:00:00.000Z,-10.0,-12.0,220,6.0,6+,1002.0,2,METAR,METAR ENAN 230150Z AUTO 22006KT 9999 NCD M10/M12 Q1002,69.307,16.131,13,"Andøya Arpt, NO, NO",CLR,[],VFR,,,,,,,,ANX,"Andøya Airport, Andenes",Norway,Andenes,https://www.worlddata.info/europe/norway/airports.php
221,ENAT,2025-11-23 01:56:06.945000+00:00,1763862600,2025-11-23T02:00:00.000Z,-17.0,-19.0,200,5.0,6+,1004.0,2,METAR,METAR ENAT 230150Z AUTO 20005KT 9999 NCD M17/M19 Q1004 RMK WIND 700FT 18006KT,69.978,23.358,3,"Alta Arpt, FI, NO",CLR,[],VFR,,,,,,,,ALF,Alta Airport,Norway,Alta,https://www.worlddata.info/europe/norway/airports.php
222,ENBL,2025-11-23 01:56:06.973000+00:00,1763862600,2025-11-23T02:00:00.000Z,2.0,1.0,0,0.0,0.4,1002.0,2,METAR,METAR ENBL 230150Z AUTO 00000KT 0650 R07/1100 OVC009/// 02/01 Q1002,61.391,5.76,313,"Bringeland Arpt, SO, NO",OVC,"[{'cover': 'OVC', 'base': 900}]",LIFR,,,,,,,,FDE,"Førde Airport, Bringeland",Norway,Førde,https://www.worlddata.info/europe/norway/airports.php
223,ENBN,2025-11-23 01:56:07+00:00,1763862600,2025-11-23T02:00:00.000Z,2.0,0.0,70,6.0,6+,998.0,2,METAR,METAR ENBN 230150Z AUTO 07006KT 9999 // NCD 02/00 Q0998,65.458,12.216,3,"Bronnoysund/Bronnoy Arpt, NO, NO",CLR,[],VFR,,,,,,,,BNN,"Brønnøysund Airport, Brønnøy",Norway,Brønnøy,https://www.worlddata.info/europe/norway/airports.php
224,ENBO,2025-11-23 01:51:11.460000+00:00,1763862600,2025-11-23T02:00:00.000Z,-5.0,-9.0,90,13.0,6+,1000.0,2,METAR,METAR ENBO 230150Z AUTO 09013KT 9999 NCD M05/M09 Q1000,67.267,14.359,13,"Bodø Arpt, NO, NO",CLR,[],VFR,,,,,,,,BOO,Bodø Airport,Norway,Bodø,https://www.worlddata.info/europe/norway/airports.php
225,ENBR,2025-11-23 01:56:07.917000+00:00,1763862600,2025-11-23T02:00:00.000Z,5.0,4.0,110,6.0,6+,1003.0,2,METAR,METAR ENBR 230150Z AUTO 11006KT 9999 FEW006/// BKN015/// BKN020/// 05/04 Q1003 RERA RMK WIND 1200FT 13011KT,60.29,5.222,49,"Bergen/Flesland Arpt, HO, NO",BKN,"[{'cover': 'FEW', 'base': 600}, {'cover': 'BKN', 'base': 1500}, {'cover': 'BKN', 'base': 2000}]",MVFR,,,,,,,,BGO,"Bergen Airport, Flesland",Norway,Bergen,https://www.worlddata.info/europe/norway/airports.php
226,ENBS,2025-11-23 01:55:28.681000+00:00,1763862600,2025-11-23T02:00:00.000Z,-6.0,-9.0,210,4.0,6+,999.0,2,METAR,METAR ENBS 230150Z AUTO 21004KT 140V300 9999 NCD M06/M09 Q0999,70.601,29.698,144,"Båtsfjord Arpt, FI, NO",CLR,[],VFR,,,,,,,,BJF,Båtsfjord Airport,Norway,Båtsfjord,https://www.worlddata.info/europe/norway/airports.php
227,ENCN,2025-11-23 01:56:07.980000+00:00,1763862600,2025-11-23T02:00:00.000Z,5.0,4.0,VRB,2.0,0.47,1005.0,2,METAR,METAR ENCN 230150Z AUTO VRB02KT 0750 R03/P2000N R21/P2000N +RA SCT014/// BKN018/// BKN024/// 05/04 Q1005,58.2,8.077,17,"Kristiansand Arpt, VA, NO",BKN,"[{'cover': 'SCT', 'base': 1400}, {'cover': 'BKN', 'base': 1800}, {'cover': 'BKN', 'base': 2400}]",LIFR,+RA,,,,,,,KRS,"Kristiansand Airport, Kjevik",Norway,Kjevik,https://www.worlddata.info/europe/norway/airports.php
228,ENDU,2025-11-23 01:56:07.082000+00:00,1763862600,2025-11-23T02:00:00.000Z,-25.0,-27.0,0,0.0,6+,1002.0,0,METAR,METAR ENDU 230150Z 00000KT CAVOK M25/M27 Q1002 RMK WIND 1374FT VRB02KT WIND 2165FT 11005KT,69.058,18.544,65,"Bardufoss Arpt, TR, NO",CAVOK,[],VFR,,,,,-0.5,,,BDU,Bardufoss Airport,Norway,Målselv,https://www.worlddata.info/europe/norway/airports.php
229,ENEV,2025-11-23 01:56:07.105000+00:00,1763862600,2025-11-23T02:00:00.000Z,-15.0,-16.0,VRB,2.0,6+,1002.0,0,METAR,METAR ENEV 230150Z VRB02KT CAVOK M15/M16 Q1002 RMK WIND 1400FT VRB02KT,68.491,16.683,26,"Evenes Arpt, TR, NO",CAVOK,[],VFR,,,,,,,,EVE,"Harstad/Narvik Airport, Evenes",Norway,Evenes,https://www.worlddata.info/europe/norway/airports.php
230,ENFL,2025-11-23 01:55:21.473000+00:00,1763862600,2025-11-23T02:00:00.000Z,5.0,4.0,90,8.0,6+,1002.0,2,METAR,METAR ENFL 230150Z AUTO 09008KT 9999 -RA OVC016/// 05/04 Q1002 REUP,61.582,5.02,1,"Florø Arpt, SO, NO",OVC,"[{'cover': 'OVC', 'base': 1600}]",MVFR,-RA,,,,,,,FRO,Florø Airport,Norway,Florø,https://www.worlddata.info/europe/norway/airports.php
231,ENGM,2025-11-23 01:51:11.562000+00:00,1763862600,2025-11-23T02:00:00.000Z,4.0,3.0,210,8.0,6+,1004.0,0,METAR,METAR ENGM 230150Z 21008KT 9999 -RA BKN011 04/03 Q1004,60.201,11.08,204,"Oslo/Gardermoen Arpt, AK, NO",BKN,"[{'cover': 'BKN', 'base': 1100}]",MVFR,-RA,,,,,,,OSL,"Oslo Airport, Gardermoen",Norway,Oslo,https://www.worlddata.info/europe/norway/airports.php
232,ENHD,2025-11-23 01:51:14.081000+00:00,1763862600,2025-11-23T02:00:00.000Z,5.0,5.0,110,8.0,6+,1003.0,2,METAR,METAR ENHD 230150Z AUTO 11008KT 9999 NCD 05/05 Q1003,59.341,5.22,22,"Haugesund Arpt, RO, NO",CLR,[],VFR,,,,,,,,HAU,"Haugesund Airport, Karmøy",Norway,Karmøy,https://www.worlddata.info/europe/norway/airports.php
233,ENHF,2025-11-23 01:56:07.165000+00:00,1763862600,2025-11-23T02:00:00.000Z,-9.0,-11.0,0,0.0,6+,1001.0,2,METAR,METAR ENHF 230150Z AUTO 00000KT 9999 NCD M09/M11 Q1001 RMK WIND 1253FT 26007KT,70.681,23.677,79,"Hammerfest Arpt, FI, NO",CLR,[],VFR,,,,,,,,HFT,Hammerfest Airport,Norway,Hammerfest,https://www.worlddata.info/europe/norway/airports.php
234,ENHV,2025-11-23 01:55:28.748000+00:00,1763862600,2025-11-23T02:00:00.000Z,-4.0,-7.0,240,4.0,6+,1001.0,2,METAR,METAR ENHV 230150Z AUTO 24004KT 220V280 9999 NCD M04/M07 Q1001,71.009,25.982,13,"Honningsvag/Valan Arpt, SV, NO",CLR,[],VFR,,,,,,,,HVG,"Honningsvåg Airport, Valan",Norway,Honningsvåg,https://www.worlddata.info/europe/norway/airports.php
235,ENKB,2025-11-23 01:56:07.195000+00:00,1763862600,2025-11-23T02:00:00.000Z,6.0,2.0,240,7.0,6+,1001.0,2,METAR,METAR ENKB 230150Z AUTO 24007KT 200V260 9999 -RA FEW018/// SCT022/// BKN027/// 06/02 Q1001 RMK WIND 745FT 24014KT,63.109,7.816,62,"Kristiansund Arpt, MR, NO",BKN,"[{'cover': 'FEW', 'base': 1800}, {'cover': 'SCT', 'base': 2200}, {'cover': 'BKN', 'base': 2700}]",MVFR,-RA,,,,,,,KSU,"Kristiansund Airport, Kvernberget",Norway,Kvernberget,https://www.worlddata.info/europe/norway/airports.php
236,ENKR,2025-11-23 01:56:08.039000+00:00,1763862600,2025-11-23T02:00:00.000Z,-19.0,-21.0,180,9.0,1.86,1002.0,2,METAR,METAR ENKR 230150Z AUTO 18009KT 3000 -SN NCD M19/M21 Q1002 RMK WIND 731FT 19005KT,69.725,29.898,86,"Kirkenes/Høybuktmoen Arpt, FI, NO",CLR,[],IFR,-SN,,,,,,,KKN,"Kirkenes Airport, Høybuktmoen",Norway,Kirkenes,https://www.worlddata.info/europe/norway/airports.php
237,ENLK,2025-11-23 01:55:28.827000+00:00,1763862600,2025-11-23T02:00:00.000Z,-11.0,-13.0,0,0.0,6+,1001.0,2,METAR,METAR ENLK 230150Z AUTO 00000KT 9999 NCD M11/M13 Q1001,68.155,13.615,26,"Leknes Arpt, NO, NO",CLR,[],VFR,,,,,,,,LKN,Leknes Airport,Norway,Leknes,https://www.worlddata.info/europe/norway/airports.php
238,ENMH,2025-11-23 01:55:28.908000+00:00,1763862600,2025-11-23T02:00:00.000Z,-3.0,-5.0,240,16.0,6+,1000.0,2,METAR,METAR ENMH 230150Z AUTO 24016KT 9999 -SN FEW030/// SCT051/// M03/M05 Q1000,71.029,27.829,10,"Mehamn Arpt, FI, NO",SCT,"[{'cover': 'FEW', 'base': 3000}, {'cover': 'SCT', 'base': 5100}]",VFR,-SN,,,,,,,MEH,Mehamn Airport,Norway,Mehamn,https://www.worlddata.info/europe/norway/airports.php
239,ENML,2025-11-23 01:56:08.229000+00:00,1763862600,2025-11-23T02:00:00.000Z,4.0,2.0,280,3.0,6+,1001.0,2,METAR,METAR ENML 230150Z AUTO 28003KT 240V330 9999 -RA FEW029/// OVC037/// 04/02 Q1001 RMK WIND 1587FT 24013KT,62.744,7.262,3,"Molde/Aro Arpt, MR, NO",OVC,"[{'cover': 'FEW', 'base': 2900}, {'cover': 'OVC', 'base': 3700}]",VFR,-RA,,,,,,,MOL,"Molde Airport, Årø",Norway,Årø,https://www.worlddata.info/europe/norway/airports.php
240,ENMS,2025-11-23 01:56:08.258000+00:00,1763862600,2025-11-23T02:00:00.000Z,-2.0,-2.0,,,6+,999.0,2,METAR,METAR ENMS 230150Z AUTO /////KT 9999 OVC003/// M02/M02 Q0999 RMK WIND 412FT 00000KT WIND RWY 15 05002KT,65.784,13.218,44,"Mosjøen Arpt, NO, NO",OVC,"[{'cover': 'OVC', 'base': 300}]",LIFR,,,,,,,,MJF,"Mosjøen Airport, Kjærstad",Norway,Mosjøen,https://www.worlddata.info/europe/norway/airports.php
241,ENNA,2025-11-23 01:56:08.287000+00:00,1763862600,2025-11-23T02:00:00.000Z,-18.0,-20.0,160,3.0,6+,1003.0,2,METAR,METAR ENNA 230150Z AUTO 16003KT 9999 NCD M18/M20 Q1003 RMK WIND 1800FT /////KT,70.059,24.971,12,"Banak Arpt, FI, NO",CLR,[],VFR,,,,,,,,LKL,"Lakselv Airport, Banak",Norway,Lakselv,https://www.worlddata.info/europe/norway/airports.php
242,ENNM,2025-11-23 01:55:29.007000+00:00,1763862600,2025-11-23T02:00:00.000Z,5.0,2.0,210,5.0,6+,998.0,2,METAR,METAR ENNM 230150Z AUTO 21005KT 170V270 9999 -RA OVC020/// 05/02 Q0998,64.471,11.57,2,"Namsos Arpt, TR, NO",OVC,"[{'cover': 'OVC', 'base': 2000}]",MVFR,-RA,,,,,,,OSY,Namsos Airport,Norway,Namsos,https://www.worlddata.info/europe/norway/airports.php
243,ENOL,2025-11-23 01:51:11.600000+00:00,1763862600,2025-11-23T02:00:00.000Z,6.0,4.0,240,17.0,6+,999.0,0,METAR,METAR ENOL 230150Z 24017KT 9999 FEW017 SCT038 06/04 Q0999,63.703,9.609,9,"Ørland Arpt, TR, NO",SCT,"[{'cover': 'FEW', 'base': 1700}, {'cover': 'SCT', 'base': 3800}]",VFR,,,,,,,,OLA,Ørland Airport,Norway,Ørland,https://www.worlddata.info/europe/norway/airports.php
244,ENOV,2025-11-23 01:56:08.348000+00:00,1763862600,2025-11-23T02:00:00.000Z,1.0,1.0,0,0.0,6+,1002.0,2,METAR,METAR ENOV 230150Z AUTO 00000KT 9999 -DZRA BKN026/// OVC034/// 01/01 Q1002 RMK WIND RWY 24 VRB02KT WIND 2090FT 15009KT,62.18,6.078,72,"Ørsta-Volda Arpt, MR, NO",OVC,"[{'cover': 'BKN', 'base': 2600}, {'cover': 'OVC', 'base': 3400}]",MVFR,-DZ -RA,,,,,,,HOV,"Ørsta-Volda Airport, Hovden",Norway,Ørsta,https://www.worlddata.info/europe/norway/airports.php
245,ENRA,2025-11-23 01:55:22.090000+00:00,1763862600,2025-11-23T02:00:00.000Z,-5.0,-8.0,60,7.0,6+,1001.0,2,METAR,METAR ENRA 230150Z AUTO 06007KT 020V120 9999 FEW013/// OVC017/// M05/M08 Q1001,66.364,14.302,66,"Moirana Arpt, NO, NO",OVC,"[{'cover': 'FEW', 'base': 1300}, {'cover': 'OVC', 'base': 1700}]",MVFR,,,,,,,,MQN,"Mo i Rana Airport, Røssvoll",Norway,Mo i Rana,https://www.worlddata.info/europe/norway/airports.php
246,ENRM,2025-11-23 01:55:20.240000+00:00,1763862600,2025-11-23T02:00:00.000Z,1.0,0.0,80,6.0,1.18,998.0,2,METAR,METAR ENRM 230150Z AUTO 08006KT 050V120 1900 VV007 01/M00 Q0998,64.835,11.141,4,"Rørvik Arpt, TR, NO",OVX,"[{'cover': 'OVX', 'base': 700}]",IFR,,,,7.0,,,,RVK,"Rørvik Airport, Ryum",Norway,Rørvik,https://www.worlddata.info/europe/norway/airports.php
247,ENRO,2025-11-23 01:51:14.111000+00:00,1763862600,2025-11-23T02:00:00.000Z,-10.0,-10.0,0,0.0,6+,1000.0,2,METAR,METAR ENRO 230150Z AUTO 00000KT 9999 NCD M10/M10 Q1000,62.578,11.342,624,"Røros Arpt, TR, NO",CLR,[],VFR,,,,,,,,RRS,Røros Airport,Norway,Røros,https://www.worlddata.info/europe/norway/airports.php
248,ENRS,2025-11-23 01:55:20.347000+00:00,1763862600,2025-11-23T02:00:00.000Z,2.0,-6.0,30,9.0,6+,1000.0,2,METAR,METAR ENRS 230150Z AUTO 03009KT 9999 BKN033/// 02/M06 Q1000,67.527,12.104,4,"Røst Arpt, VE, NO",BKN,"[{'cover': 'BKN', 'base': 3300}]",VFR,,,,,,,,RET,Røst Airport,Norway,Røst,https://www.worlddata.info/europe/norway/airports.php
249,ENRY,2025-11-23 01:51:14.138000+00:00,1763862600,2025-11-23T02:00:00.000Z,7.0,6.0,210,16.0,6+,1005.0,2,METAR,METAR ENRY 230150Z AUTO 21016KT 9999 -RA BKN006/// OVC008/// 07/06 Q1005,59.381,10.783,45,"Moss/Rygge Arpt, OS, NO",OVC,"[{'cover': 'BKN', 'base': 600}, {'cover': 'OVC', 'base': 800}]",IFR,-RA,,,,,,,RYG,"Moss Airport, Rygge",Norway,Oslo,https://www.worlddata.info/europe/norway/airports.php
250,ENSB,2025-11-23 02:01:18.007000+00:00,1763862600,2025-11-23T02:00:00.000Z,-9.0,-14.0,120,9.0,6+,1002.0,0,METAR,METAR ENSB 230150Z 12009KT CAVOK M09/M14 Q1002 RMK WIND 1400FT 00000KT,78.246,15.466,30,"Longyearbyen/Svalbard Arpt, SV, NO",CAVOK,[],VFR,,,,,,,,LYR,"Svalbard Airport, Longyear",Norway,Longyearbyen,https://www.worlddata.info/europe/norway/airports.php
251,ENSD,2025-11-23 01:56:08.381000+00:00,1763862600,2025-11-23T02:00:00.000Z,2.0,2.0,VRB,2.0,6+,1003.0,2,METAR,METAR ENSD 230150Z AUTO VRB02KT 9999 SCT005/// BKN032/// BKN042/// 02/02 Q1003 RMK WIND RWY 26 VRB02KT WIND 1140FT 00000KT,61.829,6.104,61,"Sandane Arpt, SO, NO",BKN,"[{'cover': 'SCT', 'base': 500}, {'cover': 'BKN', 'base': 3200}, {'cover': 'BKN', 'base': 4200}]",VFR,,,,,,,,SDN,"Sandane Airport, Anda",Norway,Sandane,https://www.worlddata.info/europe/norway/airports.php
252,ENSG,2025-11-23 01:56:08.410000+00:00,1763862600,2025-11-23T02:00:00.000Z,0.0,-1.0,VRB,2.0,2.61,1002.0,2,METAR,METAR ENSG 230150Z AUTO VRB02KT 4200 BKN046/// M00/M01 Q1002 REFZRA RMK WIND 3806FT 19012KT,61.158,7.141,493,"Sogndal/Haukasen Arpt, SO, NO",BKN,"[{'cover': 'BKN', 'base': 4600}]",IFR,,,,,,,,SOG,"Sogndal Airport, Haukåsen",Norway,Sogndal,https://www.worlddata.info/europe/norway/airports.php
253,ENSH,2025-11-23 01:56:08.441000+00:00,1763862600,2025-11-23T02:00:00.000Z,-4.0,-8.0,340,5.0,6+,1001.0,2,METAR,METAR ENSH 230150Z AUTO 34005KT 9999 NCD M04/M08 Q1001 RMK WIND 0150FT 02005KT,68.245,14.669,9,"Svolvaer/Helle Arpt, NO, NO",CLR,[],VFR,,,,,,,,SVJ,"Svolvær Airport, Helle",Norway,Svolvær,https://www.worlddata.info/europe/norway/airports.php
254,ENSK,2025-11-23 01:55:20.453000+00:00,1763862600,2025-11-23T02:00:00.000Z,-8.0,-11.0,360,6.0,6+,1001.0,2,METAR,METAR ENSK 230150Z AUTO 36006KT 9999 NCD M08/M11 Q1001,68.58,15.029,3,"Storkmarknes Arpt, NO, NO",CLR,[],VFR,,,,,,,,SKN,"Stokmarknes Airport, Skagen",Norway,Hadsel,https://www.worlddata.info/europe/norway/airports.php
255,ENSR,2025-11-23 01:56:08.467000+00:00,1763862600,2025-11-23T02:00:00.000Z,-15.0,-18.0,170,4.0,6+,1003.0,2,METAR,METAR ENSR 230150Z AUTO 17004KT 140V200 9999 NCD M15/M18 Q1003 RMK WIND RWY 32 VRB02KT WIND 1119FT 14010KT,69.789,20.955,5,"Sørkjosen Arpt, TR, NO",CLR,[],VFR,,,,,,,,SOJ,Sørkjosen Airport,Norway,Sørkjosen,https://www.worlddata.info/europe/norway/airports.php
256,ENSS,2025-11-23 01:55:21.136000+00:00,1763862600,2025-11-23T02:00:00.000Z,-6.0,-10.0,250,12.0,6+,1000.0,2,METAR,METAR ENSS 230150Z AUTO 25012KT 9999 FEW072/// M06/M10 Q1000 RMK WIND 0500FT 25008KT,70.355,31.044,13,"Vardoe Arpt, FI, NO",FEW,"[{'cover': 'FEW', 'base': 7200}]",VFR,,,,,,,,VAW,"Vardø Airport, Svartnes",Norway,Vardø,https://www.worlddata.info/europe/norway/airports.php
257,ENST,2025-11-23 01:56:08.491000+00:00,1763862600,2025-11-23T02:00:00.000Z,0.0,-2.0,60,10.0,6+,999.0,2,METAR,METAR ENST 230150Z AUTO 06010KT 9999 OVC043/// M00/M02 Q0999 RMK WIND 0300FT 06012KT,65.961,12.472,17,"Sandnessjøen Arpt, NO, NO",OVC,"[{'cover': 'OVC', 'base': 4300}]",VFR,,,,,,,,SSJ,"Sandnessjøen Airport, Stokka",Norway,Alstahaug,https://www.worlddata.info/europe/norway/airports.php
258,ENTC,2025-11-23 01:56:08.110000+00:00,1763862600,2025-11-23T02:00:00.000Z,-11.0,-12.0,160,1.0,6+,1002.0,0,METAR,METAR ENTC 230150Z 16001KT 9999 FEW012 M11/M12 Q1002 RMK WIND 2600FT 01006KT,69.675,18.916,9,"Tromsø Arpt, TR, NO",FEW,"[{'cover': 'FEW', 'base': 1200}]",VFR,,,,,,,,TOS,"Tromsø Airport, Langnes",Norway,Tromsø,https://www.worlddata.info/europe/norway/airports.php
259,ENTO,2025-11-23 01:51:14.211000+00:00,1763862600,2025-11-23T02:00:00.000Z,7.0,7.0,210,14.0,6+,1004.0,2,METAR,METAR ENTO 230150Z AUTO 21014KT 9999 DZRA FEW004/// BKN005/// OVC007/// 07/07 Q1004,59.184,10.255,84,"Torp Arpt, VE, NO",OVC,"[{'cover': 'FEW', 'base': 400}, {'cover': 'BKN', 'base': 500}, {'cover': 'OVC', 'base': 700}]",IFR,DZ RA,,,,,,,TRF,"Sandefjord Airport, Torp",Norway,Torp,https://www.worlddata.info/europe/norway/airports.php
260,ENVA,2025-11-23 01:56:08.199000+00:00,1763862600,2025-11-23T02:00:00.000Z,1.0,1.0,VRB,2.0,6+,1001.0,2,METAR,METAR ENVA 230150Z AUTO VRB02KT 9999 BKN050/// 01/01 Q1001 RMK WIND 670FT 21012KT,63.46,10.931,12,"Trondheim Arpt, TR, NO",BKN,"[{'cover': 'BKN', 'base': 5000}]",VFR,,,,,,,-1.2,TRD,"Trondheim Airport, Værnes",Norway,Trondheim,https://www.worlddata.info/europe/norway/airports.php
261,ENVD,2025-11-23 01:55:20.606000+00:00,1763862600,2025-11-23T02:00:00.000Z,-9.0,-13.0,290,12.0,6+,1001.0,2,METAR,METAR ENVD 230150Z AUTO 29012KT 9999 NCD M09/M13 Q1001,70.065,29.835,39,"Vadsø Arpt, FI, NO",CLR,[],VFR,,,,,,,,VDS,Vadsø Airport,Norway,Vadsø,https://www.worlddata.info/europe/norway/airports.php
262,ENZV,2025-11-23 01:51:11.677000+00:00,1763862600,2025-11-23T02:00:00.000Z,4.0,3.0,120,7.0,6+,1004.0,2,METAR,METAR ENZV 230150Z AUTO 12007KT 9999 SCT029/// 04/03 Q1004,58.884,5.637,7,"Stavanger/Sola Arpt, RO, NO",SCT,"[{'cover': 'SCT', 'base': 2900}]",VFR,,,,,,,,SVG,"Stavanger Airport, Sola",Norway,Stavanger,https://www.worlddata.info/europe/norway/airports.php
263,EPBY,2025-11-23 01:32:31.140000+00:00,1763861400,2025-11-23T01:30:00.000Z,-7.0,-8.0,270,6.0,0.31,1023.0,0,METAR,METAR EPBY 230130Z 27006KT 0500 0400E R26/1600N FZFG OVC001 M07/M08 Q1023,53.0962,17.9949,66,"Bydgoszcz Arpt, KP, PL",OVC,"[{'cover': 'OVC', 'base': 100}]",LIFR,FZFG,,,,,,,BZG,Bydgoszcz Ignacy Jan Paderewski Airport,Poland,Białe Błota,https://www.worlddata.info/europe/poland/airports.php
264,EPGD,2025-11-23 01:32:30.218000+00:00,1763861400,2025-11-23T01:30:00.000Z,-5.0,-6.0,200,4.0,6+,1021.0,0,METAR,METAR EPGD 230130Z 20004KT CAVOK M05/M06 Q1021,54.379,18.466,136,"Gdańsk/Wałęsa Arpt, PM, PL",CAVOK,[],VFR,,,,,,,,GDN,Gdańsk Lech Wałęsa Airport,Poland,Gdańsk,https://www.worlddata.info/europe/poland/airports.php
265,EPKK,2025-11-23 01:32:30.362000+00:00,1763861400,2025-11-23T01:30:00.000Z,-1.0,-2.0,20,9.0,0.81,1018.0,0,METAR,METAR EPKK 230130Z 02009KT 1300 R25/P2000N +SN VV009 M01/M02 Q1018,50.078,19.797,237,"Kraków/Paul II Arpt, ML, PL",OVX,"[{'cover': 'OVX', 'base': 900}]",LIFR,+SN,,,9.0,,,,KRK,Kraków John Paul II International Airport,Poland,Balice,https://www.worlddata.info/europe/poland/airports.php
266,EPKT,2025-11-23 01:32:31.294000+00:00,1763861400,2025-11-23T01:30:00.000Z,-2.0,-3.0,360,8.0,1.06,1020.0,0,METAR,METAR EPKT 230130Z 36008KT 1700 SN BR OVC016 M02/M03 Q1020,50.478,19.085,296,"Katowice/Pyrzowice Arpt, SL, PL",OVC,"[{'cover': 'OVC', 'base': 1600}]",IFR,SN BR,,,,,,,KTW,Katowice Wojciech Korfanty International Airport,Poland,Ożarowice,https://www.worlddata.info/europe/poland/airports.php
267,EPLB,2025-11-23 01:32:31.454000+00:00,1763861400,2025-11-23T01:30:00.000Z,0.0,-1.0,30,7.0,5.59,1019.0,0,METAR,METAR EPLB 230130Z 03007KT 9000 BKN003 OVC006 M00/M01 Q1019,51.239,22.714,206,"Lublin Arpt, PM, PL",OVC,"[{'cover': 'BKN', 'base': 300}, {'cover': 'OVC', 'base': 600}]",LIFR,,,,,,,,LUZ,Lublin Airport,Poland,Lublin,https://www.worlddata.info/europe/poland/airports.php
268,EPLL,2025-11-23 01:32:30.542000+00:00,1763861400,2025-11-23T01:30:00.000Z,-5.0,-6.0,240,1.0,2.3,1021.0,0,METAR,METAR EPLL 230130Z 24001KT 3700 BR NSC M05/M06 Q1021,51.724,19.401,176,"Łódź Arpt, LO, PL",CLR,[],IFR,BR,,,,,,,LCJ,Łódź Władysław Reymont Airport,Poland,Łódź,https://www.worlddata.info/europe/poland/airports.php
269,EPMO,2025-11-23 01:32:31.607000+00:00,1763861400,2025-11-23T01:30:00.000Z,-4.0,-5.0,50,2.0,3.73,1023.0,0,METAR,METAR EPMO 230130Z 05002KT 6000 NSC M04/M05 Q1023,52.452,20.642,102,"Modlin Arpt, MZ, PL",CLR,[],MVFR,,,,,,,,WMI,Modlin Airport,Poland,Nowy Dwór Mazowiecki,https://www.worlddata.info/europe/poland/airports.php
270,EPPO,2025-11-23 01:36:08.485000+00:00,1763861400,2025-11-23T01:30:00.000Z,-4.0,-5.0,200,3.0,0.16,1023.0,0,METAR,METAR EPPO 230130Z 20003KT 190V270 0250 R28/1000U FZFG VV002 M04/M05 Q1023,52.417,16.835,87,"Poznań/Ławica Arpt, WP, PL",OVX,"[{'cover': 'OVX', 'base': 200}]",LIFR,FZFG,,,2.0,,,,POZ,Poznań-Ławica Airport,Poland,Poznań,https://www.worlddata.info/europe/poland/airports.php
271,EPRA,2025-11-23 01:32:31.748000+00:00,1763861400,2025-11-23T01:30:00.000Z,-2.0,-3.0,20,4.0,6+,1020.0,0,METAR,METAR EPRA 230130Z 02004KT 9999 SCT030 M02/M03 Q1020,51.39,21.211,182,"Radom Arpt, MZ, PL",SCT,"[{'cover': 'SCT', 'base': 3000}]",VFR,,,,,,,,RDO,Warsaw Radom Airport,Poland,Radom,https://www.worlddata.info/europe/poland/airports.php
272,EPRZ,2025-11-23 01:32:30.819000+00:00,1763861400,2025-11-23T01:30:00.000Z,0.0,0.0,40,9.0,0.81,1017.0,0,METAR,METAR EPRZ 230130Z 04009KT 1300 R27/P2000N SN BR BKN002 M00/M00 Q1017,50.112,22.025,206,"Rzeszów/Jasionka Arpt, PP, PL",BKN,"[{'cover': 'BKN', 'base': 200}]",LIFR,SN BR,,,,,,,RZE,Rzeszów-Jasionka Airport,Poland,Jasionka,https://www.worlddata.info/europe/poland/airports.php
273,EPSC,2025-11-23 01:32:31.901000+00:00,1763861400,2025-11-23T01:30:00.000Z,-3.0,-3.0,150,7.0,1.8,1021.0,0,METAR,METAR EPSC 230130Z 15007KT 2900 BR OVC002 M03/M03 Q1021,53.585,14.902,47,"Szczecin/Golenow Arpt, ZA, PL",OVC,"[{'cover': 'OVC', 'base': 200}]",LIFR,BR,,,,,,,SZZ,Solidarity Szczecin–Goleniów Airport,Poland,Glewice,https://www.worlddata.info/europe/poland/airports.php
274,EPSY,2025-11-23 01:32:32.047000+00:00,1763861400,2025-11-23T01:30:00.000Z,-9.0,-10.0,0,0.0,6+,1022.0,0,METAR,METAR EPSY 230130Z 00000KT CAVOK M09/M10 Q1022,53.482,20.938,136,"Szczytno Intl, WN, PL",CAVOK,[],VFR,,,,,,,,SZY,Olsztyn-Mazury Airport,Poland,Olsztyn,https://www.worlddata.info/europe/poland/airports.php
275,EPWA,2025-11-23 01:32:30.985000+00:00,1763861400,2025-11-23T01:30:00.000Z,-1.0,-3.0,60,5.0,6+,1022.0,16,METAR,METAR EPWA 230130Z 06005KT CAVOK M01/M03 Q1022 NOSIG,52.163,20.961,107,"Warsaw/Chopin Arpt, MZ, PL",CAVOK,[],VFR,,,,,,,,WAW,Warsaw Chopin Airport,Poland,Warsaw,https://www.worlddata.info/europe/poland/airports.php
276,EPWR,2025-11-23 01:32:32.189000+00:00,1763861400,2025-11-23T01:30:00.000Z,-6.0,-7.0,280,3.0,0.43,1023.0,0,METAR,METAR EPWR 230130Z 28003KT 240V310 0700 R29/P2000N FZFG OVC002 M06/M07 Q1023,51.1032,16.8998,118,"Wrocław/Strachowice Arpt, DO, PL",OVC,"[{'cover': 'OVC', 'base': 200}]",LIFR,FZFG,,,,,,,WRO,Copernicus Wrocław Airport,Poland,Wrocław,https://www.worlddata.info/europe/poland/airports.php
277,ESDF,2025-11-23 01:54:14.126000+00:00,1763862600,2025-11-23T02:00:00.000Z,4.0,3.0,210,8.0,6+,1016.0,2,METAR,METAR ESDF 230150Z AUTO 21008KT 9999 SCT021/// 04/03 Q1016,56.266,15.267,52,"Ronneby Arpt, K, SE",SCT,"[{'cover': 'SCT', 'base': 2100}]",VFR,,,,,,,,RNB,Ronneby Airport,Sweden,Ronneby,https://www.worlddata.info/europe/sweden/airports.php
278,ESGG,2025-11-23 01:54:19.851000+00:00,1763862600,2025-11-23T02:00:00.000Z,3.0,2.0,190,14.0,3.11,1011.0,0,METAR,METAR ESGG 230150Z 19014KT 5000 -RA BKN015 BKN021 03/02 Q1011,57.667,12.285,152,"Göteborg/Landvetter Arpt, O, SE",BKN,"[{'cover': 'BKN', 'base': 1500}, {'cover': 'BKN', 'base': 2100}]",MVFR,-RA,,,,,,,GOT,Göteborg Landvetter Airport,Sweden,Göteborg,https://www.worlddata.info/europe/sweden/airports.php
279,ESGJ,2025-11-23 01:54:19.961000+00:00,1763862600,2025-11-23T02:00:00.000Z,2.0,1.0,190,13.0,4.35,1012.0,2,METAR,METAR ESGJ 230150Z AUTO 19013KT 7000 OVC007/// 02/01 Q1012,57.752,14.069,224,"Jönköping Arpt, F, SE",OVC,"[{'cover': 'OVC', 'base': 700}]",IFR,,,,,,,,JKG,Jönköping Airport,Sweden,Jönköping,https://www.worlddata.info/europe/sweden/airports.php
280,ESGP,2025-11-23 01:54:20.078000+00:00,1763862600,2025-11-23T02:00:00.000Z,5.0,2.0,180,13.0,4.97,1010.0,2,METAR,METAR ESGP 230150Z AUTO 18013KT 8000 -SN OVC026/// 05/02 Q1010,57.781,11.869,15,"Goteborg/City Arpt, O, SE",OVC,"[{'cover': 'OVC', 'base': 2600}]",MVFR,-SN,,,,,,,GSE,Säve Airport,Sweden,Göteborg,https://www.worlddata.info/europe/sweden/airports.php
281,ESGT,2025-11-23 01:54:20.164000+00:00,1763862600,2025-11-23T02:00:00.000Z,,,200,13.0,6+,1010.0,2,METAR,METAR ESGT 230150Z AUTO 20013KT 9999 -RA BKN011/// OVC016/// ///// Q1010 REDZ,58.314,12.347,40,"Trollhattan Arpt, O, SE",OVC,"[{'cover': 'BKN', 'base': 1100}, {'cover': 'OVC', 'base': 1600}]",MVFR,-RA,,,,,,,THN,Trollhättan-Vänersborg Airport,Sweden,Trollhättan,https://www.worlddata.info/europe/sweden/airports.php
282,ESKM,2025-11-23 01:55:17.951000+00:00,1763862600,2025-11-23T02:00:00.000Z,4.0,3.0,180,4.0,6+,1004.0,2,METAR,METAR ESKM 230150Z AUTO 18004KT 130V270 9999 OVC011/// 04/03 Q1004 REDZ,60.96,14.507,184,"Mora-Siljan Arpt, W, SE",OVC,"[{'cover': 'OVC', 'base': 1100}]",MVFR,,,,,,,,MXX,Mora Airport,Sweden,Mora,https://www.worlddata.info/europe/sweden/airports.php
283,ESKN,2025-11-23 01:54:18.240000+00:00,1763862600,2025-11-23T02:00:00.000Z,3.0,2.0,210,10.0,6+,1012.0,0,METAR,METAR ESKN 230150Z 21010KT CAVOK 03/02 Q1012,58.786,16.918,41,"Stockholm/Skavsta Arpt, D, SE",CAVOK,[],VFR,,,,,,,,NYO,Stockholm Skavsta Airport,Sweden,Nyköping,https://www.worlddata.info/europe/sweden/airports.php
284,ESKS,2025-11-23 01:54:19.237000+00:00,1763862600,2025-11-23T02:00:00.000Z,1.0,1.0,VRB,2.0,6+,1002.0,2,METAR,METAR ESKS 230150Z AUTO VRB02KT 9999 -DZ OVC002/// 01/01 Q1002,61.165,12.834,503,"Salen/Scandanavian Mtns Arpt, W, SE",OVC,"[{'cover': 'OVC', 'base': 200}]",LIFR,-DZ,,,,,,,SCR,Scandinavian Mountains Airport,Sweden,Malung-Sälen,https://www.worlddata.info/europe/sweden/airports.php
285,ESMK,2025-11-23 01:54:20.253000+00:00,1763862600,2025-11-23T02:00:00.000Z,-2.0,-2.0,180,8.0,6+,1017.0,2,METAR,METAR ESMK 230150Z AUTO 18008KT 9999 NCD M02/M02 Q1017,55.922,14.085,20,"Kristianstad Arpt, S, SE",CLR,[],VFR,,,,,,,,KID,Kristianstad Airport,Sweden,Kristianstad,https://www.worlddata.info/europe/sweden/airports.php
286,ESMQ,2025-11-23 01:54:20.347000+00:00,1763862600,2025-11-23T02:00:00.000Z,-4.0,-4.0,210,4.0,0.06,1017.0,2,METAR,METAR ESMQ 230150Z AUTO 21004KT 0100 R16/0375D R34/P1500N VV001 M04/M04 Q1017,56.685,16.284,3,"Kalmar Arpt, H, SE",OVX,"[{'cover': 'OVX', 'base': 100}]",LIFR,,,,1.0,,,,KLR,Kalmar Airport,Sweden,Kalmar,https://www.worlddata.info/europe/sweden/airports.php
287,ESMS,2025-11-23 01:54:20.439000+00:00,1763862600,2025-11-23T02:00:00.000Z,1.0,-1.0,200,7.0,6+,1016.0,0,METAR,METAR ESMS 230150Z 20007KT CAVOK 01/M01 Q1016,55.539,13.373,68,"Malmo/Sturup Arpt, M, SE",CAVOK,[],VFR,,,,,,,,MMX,Malmö Sturup Airport,Sweden,Malmö,https://www.worlddata.info/europe/sweden/airports.php
288,ESMT,2025-11-23 01:54:20.526000+00:00,1763862600,2025-11-23T02:00:00.000Z,4.0,-1.0,180,12.0,6+,1014.0,2,METAR,METAR ESMT 230150Z AUTO 18012KT 9999 OVC074/// 04/M01 Q1014,56.691,12.82,24,"Halmstad Arpt, N, SE",OVC,"[{'cover': 'OVC', 'base': 7400}]",VFR,,,,,,,,HAD,Halmstad Airport,Sweden,Halmstad,https://www.worlddata.info/europe/sweden/airports.php
289,ESMX,2025-11-23 01:56:12.410000+00:00,1763862600,2025-11-23T02:00:00.000Z,1.0,1.0,180,8.0,4.35,1014.0,2,METAR,METAR ESMX 230150Z AUTO 18008KT 7000 // OVC062/// 01/01 Q1014,56.927,14.73,176,"Växjö Arpt, G, SE",OVC,"[{'cover': 'OVC', 'base': 6200}]",MVFR,,,,,,,,VXO,Växjö Kronoberg Airport,Sweden,Växjö,https://www.worlddata.info/europe/sweden/airports.php
290,ESND,2025-11-23 01:55:18.606000+00:00,1763862600,2025-11-23T02:00:00.000Z,-2.0,-2.0,0,0.0,6+,1002.0,2,METAR,METAR ESND 230150Z AUTO 00000KT 9999 BKN066/// M02/M02 Q1002,62.047,14.416,352,"Sveg Arpt, Z, SE",BKN,"[{'cover': 'BKN', 'base': 6600}]",VFR,,,,,,,,EVG,Sveg Airport,Sweden,Sveg,https://www.worlddata.info/europe/sweden/airports.php
291,ESNG,2025-11-23 01:54:17.419000+00:00,1763862600,2025-11-23T02:00:00.000Z,,,310,4.0,6+,999.0,2,METAR,METAR ESNG 230150Z AUTO 31004KT 9999 OVC011/// ///// Q0999,67.133,20.81,300,"Gällivare Arpt, BD, SE",OVC,"[{'cover': 'OVC', 'base': 1100}]",MVFR,,,,,,,,GEV,Gällivare Airport,Sweden,Gällivare,https://www.worlddata.info/europe/sweden/airports.php
292,ESNK,2025-11-23 01:54:17.502000+00:00,1763862600,2025-11-23T02:00:00.000Z,-6.0,-7.0,0,0.0,6+,1003.0,2,METAR,METAR ESNK 230150Z AUTO 00000KT 9999 BKN110/// M06/M07 Q1003,63.047,17.766,4,"Kramfors/Solleftea Arpt, Y, SE",BKN,"[{'cover': 'BKN', 'base': 11000}]",VFR,,,,,,,,KRF,Kramfors-Sollefteå Höga Kusten Airport,Sweden,Nyland,https://www.worlddata.info/europe/sweden/airports.php
293,ESNL,2025-11-23 01:55:18.076000+00:00,1763862600,2025-11-23T02:00:00.000Z,-8.0,-10.0,330,2.0,6+,1001.0,2,METAR,METAR ESNL 230150Z AUTO 33002KT 9999 OVC016/// M08/M10 Q1001,64.552,18.711,220,"Lycksele Arpt, AC, SE",OVC,"[{'cover': 'OVC', 'base': 1600}]",MVFR,,,,,,,,LYC,Lycksele Airport,Sweden,Lycksele,https://www.worlddata.info/europe/sweden/airports.php
294,ESNN,2025-11-23 01:54:17.582000+00:00,1763862600,2025-11-23T02:00:00.000Z,-5.0,-5.0,340,3.0,6+,1003.0,2,METAR,METAR ESNN 230150Z AUTO 34003KT 9999 BKN100/// OVC130/// M05/M05 Q1003,62.532,17.436,4,"Sundsvall-Timra Arpt, Y, SE",OVC,"[{'cover': 'BKN', 'base': 10000}, {'cover': 'OVC', 'base': 13000}]",VFR,,,,,,,,SDL,Sundsvall-Härnösand Airport,Sweden,Sundsvall/ Härnösand,https://www.worlddata.info/europe/sweden/airports.php
295,ESNO,2025-11-23 01:56:12.433000+00:00,1763862600,2025-11-23T02:00:00.000Z,-5.0,-6.0,70,1.0,0.28,1001.0,2,METAR,METAR ESNO 230150Z AUTO 07001KT 0450 R12/P2000N R30/P2000N NCD M05/M06 Q1001,63.412,18.98,100,"Örnsköldsvik Arpt, Y, SE",CLR,[],LIFR,,,,,,,,OER,Örnsköldsvik Airport,Sweden,Örnsköldsvik,https://www.worlddata.info/europe/sweden/airports.php
296,ESNQ,2025-11-23 01:54:17.776000+00:00,1763862600,2025-11-23T02:00:00.000Z,-11.0,-12.0,VRB,2.0,6+,999.0,2,METAR,METAR ESNQ 230150Z AUTO VRB02KT 9999 BKN013/// OVC049/// M11/M12 Q0999,67.823,20.34,447,"Kiruna Arpt, BD, SE",OVC,"[{'cover': 'BKN', 'base': 1300}, {'cover': 'OVC', 'base': 4900}]",MVFR,,,,,,,,KRN,Kiruna Airport,Sweden,Kiruna,https://www.worlddata.info/europe/sweden/airports.php
297,ESNS,2025-11-23 01:54:17.865000+00:00,1763862600,2025-11-23T02:00:00.000Z,-9.0,-11.0,270,7.0,6+,1002.0,2,METAR,METAR ESNS 230150Z AUTO 27007KT 9999 OVC013/// M09/M11 Q1002,64.625,21.077,41,"Skellefteå Arpt, AC, SE",OVC,"[{'cover': 'OVC', 'base': 1300}]",MVFR,,,,,,,,SFT,Skellefteå Airport,Sweden,Skellefteå,https://www.worlddata.info/europe/sweden/airports.php
298,ESNU,2025-11-23 01:54:17.950000+00:00,1763862600,2025-11-23T02:00:00.000Z,-4.0,-6.0,340,5.0,6+,1003.0,2,METAR,METAR ESNU 230150Z AUTO 34005KT 9999 FEW007/// OVC009/// M04/M06 Q1003,63.789,20.285,8,"Umeå Arpt, AC, SE",OVC,"[{'cover': 'FEW', 'base': 700}, {'cover': 'OVC', 'base': 900}]",IFR,,,,,,,,UME,Umeå Airport,Sweden,Umeå,https://www.worlddata.info/europe/sweden/airports.php
299,ESNV,2025-11-23 01:55:18.161000+00:00,1763862600,2025-11-23T02:00:00.000Z,-7.0,-8.0,VRB,2.0,2.55,999.0,2,METAR,METAR ESNV 230150Z AUTO VRB02KT 4100 -SN OVC011/// M07/M08 Q0999,64.579,16.839,348,"Vilhelmina Arpt, AC, SE",OVC,"[{'cover': 'OVC', 'base': 1100}]",IFR,-SN,,,,,,,VHM,Vilhelmina South Lapland Airport,Sweden,Vilhelmina,https://www.worlddata.info/europe/sweden/airports.php
300,ESNX,2025-11-23 01:55:18.295000+00:00,1763862600,2025-11-23T02:00:00.000Z,-9.0,-10.0,300,9.0,6+,999.0,2,METAR,METAR ESNX 230150Z AUTO 30009KT 9999 OVC007/// M09/M10 Q0999,65.592,19.283,380,"Arvidsjaur Arpt, BD, SE",OVC,"[{'cover': 'OVC', 'base': 700}]",IFR,,,,,,,,AJR,Arvidsjaur Airport,Sweden,Arvidsjaur,https://www.worlddata.info/europe/sweden/airports.php
301,ESNZ,2025-11-23 01:54:18.029000+00:00,1763862600,2025-11-23T02:00:00.000Z,1.0,-2.0,190,7.0,6+,1000.0,2,METAR,METAR ESNZ 230150Z AUTO 19007KT 9999 OVC048/// 01/M02 Q1000,63.199,14.489,360,"Åre Östersund Arpt, Z, SE",OVC,"[{'cover': 'OVC', 'base': 4800}]",VFR,,,,,,,,OSD,Åre Östersund Airport,Sweden,Östersund,https://www.worlddata.info/europe/sweden/airports.php
302,ESOE,2025-11-23 01:54:18.349000+00:00,1763862600,2025-11-23T02:00:00.000Z,4.0,3.0,190,9.0,6+,1009.0,2,METAR,METAR ESOE 230150Z AUTO 19009KT 9999 OVC019/// 04/03 Q1009,59.229,15.046,57,"Örebro Arpt, T, SE",OVC,"[{'cover': 'OVC', 'base': 1900}]",MVFR,,,,,,,,ORB,Örebro Airport,Sweden,Örebro,https://www.worlddata.info/europe/sweden/airports.php
303,ESOH,2025-11-23 01:54:19.124000+00:00,1763862600,2025-11-23T02:00:00.000Z,4.0,3.0,190,11.0,6+,1006.0,2,METAR,METAR ESOH 230150Z AUTO 19011KT 9999 -RA OVC005/// 04/03 Q1006,60.02,13.579,145,"Hagfors Arpt, , SE",OVC,"[{'cover': 'OVC', 'base': 500}]",IFR,-RA,,,,,,,HFS,Hagfors Airport,Sweden,Råda,https://www.worlddata.info/europe/sweden/airports.php
304,ESOK,2025-11-23 01:56:12.453000+00:00,1763862600,2025-11-23T02:00:00.000Z,5.0,4.0,210,12.0,6+,1007.0,2,METAR,METAR ESOK 230150Z AUTO 21012KT 9999 -RA OVC011/// 05/04 Q1007 REDZ,59.442,13.342,101,"Karlstad Arpt, S, SE",OVC,"[{'cover': 'OVC', 'base': 1100}]",MVFR,-RA,,,,,,,KSD,Karlstad Airport,Sweden,Karlstad,https://www.worlddata.info/europe/sweden/airports.php
305,ESOW,2025-11-23 01:54:18.569000+00:00,1763862600,2025-11-23T02:00:00.000Z,4.0,2.0,210,9.0,6+,1010.0,2,METAR,METAR ESOW 230150Z AUTO 21009KT 9999 OVC019/// 04/02 Q1010,59.595,16.638,7,"Stockholm/Västerås Arpt, U, SE",OVC,"[{'cover': 'OVC', 'base': 1900}]",MVFR,,,,,,,,VST,Stockholm Västerås Airport,Sweden,Stockholm / Västerås,https://www.worlddata.info/europe/sweden/airports.php
306,ESPA,2025-11-23 01:54:14.452000+00:00,1763862600,2025-11-23T02:00:00.000Z,-9.0,-11.0,320,8.0,6+,1001.0,0,METAR,METAR ESPA 230150Z 32008KT 9999 OVC009 M09/M11 Q1001,65.541,22.126,12,"Luleå Arpt, BD, SE",OVC,"[{'cover': 'OVC', 'base': 900}]",IFR,,,,,,,,LLA,Luleå Airport,Sweden,Luleå,https://www.worlddata.info/europe/sweden/airports.php
307,ESSA,2025-11-23 01:54:18.673000+00:00,1763862600,2025-11-23T02:00:00.000Z,3.0,2.0,200,10.0,6+,1010.0,16,METAR,METAR ESSA 230150Z 20010KT 9999 BKN013 03/02 Q1010 NOSIG,59.664,17.92,36,"Stockholm/Arlanda Arpt, AB, SE",BKN,"[{'cover': 'BKN', 'base': 1300}]",MVFR,,,,,,,,ARN,Stockholm-Arlanda Airport,Sweden,Stockholm,https://www.worlddata.info/europe/sweden/airports.php
308,ESSB,2025-11-23 01:54:18.757000+00:00,1763862600,2025-11-23T02:00:00.000Z,4.0,2.0,210,10.0,6+,1011.0,2,METAR,METAR ESSB 230150Z AUTO 21010KT 9999 BKN013/// OVC035/// 04/02 Q1011,59.356,17.933,14,"Stockholm/Bromma Arpt, AB, SE",OVC,"[{'cover': 'BKN', 'base': 1300}, {'cover': 'OVC', 'base': 3500}]",MVFR,,,,,,,,BMA,Stockholm-Bromma Airport,Sweden,Stockholm,https://www.worlddata.info/europe/sweden/airports.php
309,ESSD,2025-11-23 01:54:18.838000+00:00,1763862600,2025-11-23T02:00:00.000Z,5.0,3.0,220,11.0,6+,1006.0,2,METAR,METAR ESSD 230150Z AUTO 22011KT 9999 OVC015/// 05/03 Q1006,60.422,15.515,151,"Borlange/Dala Arpt, W, SE",OVC,"[{'cover': 'OVC', 'base': 1500}]",MVFR,,,,,,,,BLE,Dala Airport,Sweden,Borlange,https://www.worlddata.info/europe/sweden/airports.php
310,ESSL,2025-11-23 01:54:14.670000+00:00,1763862600,2025-11-23T02:00:00.000Z,4.0,2.0,200,8.0,6+,1012.0,2,METAR,METAR ESSL 230150Z AUTO 20008KT 9999 BKN019/// BKN094/// 04/02 Q1012,58.406,15.681,51,"Linköping City Arpt, E, SE",BKN,"[{'cover': 'BKN', 'base': 1900}, {'cover': 'BKN', 'base': 9400}]",MVFR,,,,,,,,LPI,Linköping City Airport,Sweden,Linköping,https://www.worlddata.info/europe/sweden/airports.php
311,ESSP,2025-11-23 01:54:18.936000+00:00,1763862600,2025-11-23T02:00:00.000Z,3.0,1.0,210,8.0,6+,1012.0,2,METAR,METAR ESSP 230150Z AUTO 21008KT 9999 NCD 03/01 Q1012,58.584,16.255,3,"Norrköping Arpt, E, SE",CLR,[],VFR,,,,,,,,NRK,Norrköping Airport,Sweden,Norrköping,https://www.worlddata.info/europe/sweden/airports.php
312,ESST,2025-11-23 01:55:18.375000+00:00,1763862600,2025-11-23T02:00:00.000Z,5.0,4.0,160,7.0,4.97,1006.0,2,METAR,METAR ESST 230150Z AUTO 16007KT 8000 DZ BKN012/// OVC018/// 05/04 Q1006,60.158,12.992,110,"Torsby Arpt, S, SE",OVC,"[{'cover': 'BKN', 'base': 1200}, {'cover': 'OVC', 'base': 1800}]",MVFR,DZ,,,,,,,TYF,Torsby Airport,Sweden,Torsby,https://www.worlddata.info/europe/sweden/airports.php
313,ESSV,2025-11-23 01:54:19.025000+00:00,1763862600,2025-11-23T02:00:00.000Z,4.0,2.0,220,16.0,6+,1015.0,2,METAR,METAR ESSV 230150Z AUTO 22016KT 9999 BKN012/// BKN047/// OVC055/// 04/02 Q1015,57.662,18.348,38,"Visby Arpt, I, SE",OVC,"[{'cover': 'BKN', 'base': 1200}, {'cover': 'BKN', 'base': 4700}, {'cover': 'OVC', 'base': 5500}]",MVFR,,,,,,,,VBY,Visby Airport,Sweden,Visby,https://www.worlddata.info/europe/sweden/airports.php
314,ESTA,2025-11-23 01:54:20.711000+00:00,1763862600,2025-11-23T02:00:00.000Z,0.0,-2.0,160,5.0,6+,1015.0,2,METAR,METAR ESTA 230150Z AUTO 16005KT 9999 FEW070/// M00/M02 Q1015,56.294,12.848,19,"Angelholm Arpt, M, SE",FEW,"[{'cover': 'FEW', 'base': 7000}]",VFR,,,,,,,,AGH,Ängelholm-Helsingborg Airport,Sweden,Ängelholm,https://www.worlddata.info/europe/sweden/airports.php
315,ESUP,2025-11-23 01:55:18.490000+00:00,1763862600,2025-11-23T02:00:00.000Z,-14.0,-15.0,VRB,2.0,6+,1000.0,2,METAR,METAR ESUP 230150Z AUTO VRB02KT 9999 SCT012/// OVC015/// M14/M15 Q1000,67.246,23.069,164,"Pajala Arpt, BD, SE",OVC,"[{'cover': 'SCT', 'base': 1200}, {'cover': 'OVC', 'base': 1500}]",MVFR,,,,,,,,PJA,Pajala Airport,Sweden,,https://www.worlddata.info/europe/sweden/airports.php
316,ESUT,2025-11-23 01:54:18.128000+00:00,1763862600,2025-11-23T02:00:00.000Z,-8.0,-8.0,140,8.0,6+,998.0,2,METAR,METAR ESUT 230150Z AUTO 14008KT 110V170 9999 -SN BKN007/// BKN012/// OVC019/// M08/M08 Q0998,65.806,15.083,457,"Hamavan Arpt, AC, SE",OVC,"[{'cover': 'BKN', 'base': 700}, {'cover': 'BKN', 'base': 1200}, {'cover': 'OVC', 'base': 1900}]",IFR,-SN,,,,,,,HMV,Hemavan Airport,Sweden,Hemavan,https://www.worlddata.info/europe/sweden/airports.php
317,ETAR,2025-11-23 01:58:13.399000+00:00,1763862900,2025-11-23T02:00:00.000Z,-10.6,-12.5,0,0.0,6+,1019.7,46,METAR,METAR ETAR 230155Z AUTO 00000KT 9999 CLR M11/M12 A3011 RMK AO2 SLP211 T11061125 TSNO $,49.437,7.6,231,"Ramstein , RP, DE",CLR,[],VFR,,1021.1,,,,,,RMS,Ramstein Air Base,Germany,Ramstein-Miesenbach,https://www.worlddata.info/europe/germany/airports.php
318,ETHC,2025-11-23 01:28:19.914000+00:00,1763860800,2025-11-23T01:20:00.000Z,-3.0,-5.0,140,4.0,6+,1019.0,2,METAR,METAR ETHC 230120Z AUTO 14004KT 9999 // ////// M03/M05 Q1019 ///,52.591,10.022,35,"Celle Arpt, NI, DE",,,,,,,,,,,ZCN,Celle Airport,Germany,Adelheidsdorf,https://www.worlddata.info/europe/germany/airports.php
319,ETHF,2025-11-23 01:28:19.933000+00:00,1763860800,2025-11-23T01:20:00.000Z,-6.0,-7.0,160,5.0,6+,1020.0,2,METAR,METAR ETHF 230120Z AUTO 16005KT 9999 // ////// M06/M07 Q1020 ///,51.114,9.286,171,"Fritzlar Arpt, HE, DE",,,,,,,,,,,FRZ,Fritzlar Army Airfield,Germany,Fritzlar,https://www.worlddata.info/europe/germany/airports.php
320,ETMN,2025-11-23 01:29:31.688000+00:00,1763860800,2025-11-23T01:20:00.000Z,0.0,-7.0,190,10.0,6+,1015.0,2,METAR,METAR ETMN 230120Z AUTO 19010G20KT 9999 // ////// 00/M07 Q1015 ///,53.765,8.658,23,"Nordholz Arpt), NI, DE",,,,,,,,,20.0,,FCN,Sea-Airport Cuxhaven/Nordholz / Nordholz Naval Airbase,Germany,Wurster Nordseeküste,https://www.worlddata.info/europe/germany/airports.php
321,ETNG,2025-11-23 01:54:23.137000+00:00,1763862600,2025-11-23T02:00:00.000Z,2.0,-11.0,190,7.0,6+,1016.0,2,METAR,METAR ETNG 230150Z AUTO 19007KT 140V230 9999 // BKN200/// OVC310/// 02/M11 Q1016,50.964,6.032,76,"Geilenkirchen, NT, DE",OVC,"[{'cover': 'BKN', 'base': 20000}, {'cover': 'OVC', 'base': 31000}]",VFR,,,,,,,,GKE,Geilenkirchen Air Base,Germany,Geilenkirchen,https://www.worlddata.info/europe/germany/airports.php
322,ETNL,2025-11-23 01:29:31.707000+00:00,1763860800,2025-11-23T01:20:00.000Z,-2.0,-5.0,190,6.0,6+,1019.0,2,METAR,METAR ETNL 230120Z AUTO 19006KT 9999 // ////// M02/M05 Q1019 ///,53.916,12.279,40,"Laage Arpt, MV, DE",,,,,,,,,,,RLG,Rostock-Laage Airport,Germany,Laage,https://www.worlddata.info/europe/germany/airports.php
323,ETNS,2025-11-23 01:28:20.043000+00:00,1763860800,2025-11-23T01:20:00.000Z,0.0,-6.0,190,10.0,,1015.0,2,METAR,METAR ETNS 230120Z AUTO 19010KT //// // ////// 00/M06 Q1015 ///,54.457,9.52,22,"Schleswig), SH, DE",,,,,,,,,,,WBG,Schleswig Air Base,Germany,Jagel,https://www.worlddata.info/europe/germany/airports.php
324,ETOU,2025-11-23 01:58:13.521000+00:00,1763862900,2025-11-23T02:00:00.000Z,-3.2,-4.9,150,5.0,5.59,1021.4,14,METAR,METAR ETOU 230155Z AUTO 15005KT 9000 BR OVC005 M03/M05 A3016 RMK AO2 SLP222 T10321049 $,50.048,8.329,141,"Wiesbaden , HE, DE",OVC,"[{'cover': 'OVC', 'base': 500}]",IFR,BR,1022.2,,,,,,WIE,Wiesbaden Army Airfield,Germany,Wiesbaden,https://www.worlddata.info/europe/germany/airports.php
325,ETSI,2025-11-23 01:29:31.723000+00:00,1763860800,2025-11-23T01:20:00.000Z,-9.0,-11.0,0,0.0,6+,1022.0,2,METAR,METAR ETSI 230120Z AUTO 00000KT 9999 // ////// M09/M11 Q1022 ///,48.716,11.534,366,"Ingolstadt-Manching Arpt, BY, DE",,,,,,,,,,,IGS,Ingolstadt Manching Airport,Germany,Manching,https://www.worlddata.info/europe/germany/airports.php
326,EVLA,2025-11-23 01:51:11.728000+00:00,1763862600,2025-11-23T02:00:00.000Z,5.0,0.0,220,12.0,6+,1019.0,2,METAR,METAR EVLA 230150Z AUTO 22012KT 9999 SCT031/// SCT048/// 05/M00 Q1019,56.517,21.097,5,"Liepāja Intl, LP, LV",SCT,"[{'cover': 'SCT', 'base': 3100}, {'cover': 'SCT', 'base': 4800}]",VFR,,,,,,,,LPX,Liepāja International Airport,Latvia,Liepāja,https://www.worlddata.info/europe/latvia/airports.php
327,EVRA,2025-11-23 01:50:18.261000+00:00,1763862600,2025-11-23T02:00:00.000Z,-3.0,-3.0,180,8.0,6+,1020.0,16,METAR,METAR EVRA 230150Z 18008KT 9999 FEW014 M03/M03 Q1020 NOSIG,56.924,23.968,7,"Riga Intl, RG, LV",FEW,"[{'cover': 'FEW', 'base': 1400}]",VFR,,,,,,,,RIX,Riga International Airport,Latvia,Riga,https://www.worlddata.info/europe/latvia/airports.php
328,EVVA,2025-11-23 01:51:11.701000+00:00,1763862600,2025-11-23T02:00:00.000Z,5.0,4.0,240,12.0,6+,1018.0,2,METAR,METAR EVVA 230150Z AUTO 24012KT 9999 -RA FEW019 BKN024 OVC049 05/04 Q1018,57.361,21.545,1,"Ventpils Arpt, VS, LV",OVC,"[{'cover': 'FEW', 'base': 1900}, {'cover': 'BKN', 'base': 2400}, {'cover': 'OVC', 'base': 4900}]",MVFR,-RA,,,,,,,VNT,Ventspils International Airport,Latvia,Ventspils,https://www.worlddata.info/europe/latvia/airports.php
329,EYKA,2025-11-23 01:49:58.601000+00:00,1763862600,2025-11-23T02:00:00.000Z,-5.0,-6.0,0,0.0,4.97,1023.0,0,METAR,METAR EYKA 230150Z 00000KT 8000 NSC M05/M06 Q1023,54.962,24.069,68,"Kaunas Arpt, KI, LT",CLR,[],MVFR,,,,,,,,KUN,Kaunas International Airport,Lithuania,Kaunas,https://www.worlddata.info/europe/lithuania/airports.php
330,EYPA,2025-11-23 01:50:21.357000+00:00,1763862600,2025-11-23T02:00:00.000Z,5.0,-1.0,220,8.0,6+,1021.0,0,METAR,METAR EYPA 230150Z 22008KT 190V270 9999 BKN034 05/M01 Q1021,55.973,21.092,15,"Palanga Intl, KL, LT",BKN,"[{'cover': 'BKN', 'base': 3400}]",VFR,,,,,,,,PLQ,Palanga International Airport,Lithuania,Palanga,https://www.worlddata.info/europe/lithuania/airports.php
331,EYSA,2025-11-23 01:58:20.864000+00:00,1763862600,2025-11-23T02:00:00.000Z,-2.0,-4.0,210,9.0,6+,1022.0,2,METAR,METAR EYSA 230150Z AUTO 21009KT 9999 NSC M02/M04 Q1022,55.894,23.395,135,"Šiauliai Intl, SA, LT",CLR,[],VFR,,,,,,,,SQQ,Šiauliai International Airport,Lithuania,Šiauliai,https://www.worlddata.info/europe/lithuania/airports.php
332,EYVI,2025-11-23 01:51:14.245000+00:00,1763862600,2025-11-23T02:00:00.000Z,-7.0,-8.0,190,2.0,3.11,1023.0,16,METAR,METAR EYVI 230150Z 19002KT 5000 BR SCT001 M07/M08 Q1023 NOSIG,54.634,25.286,180,"Vilnius Intl, VL, LT",SCT,"[{'cover': 'SCT', 'base': 100}]",MVFR,BR,,,,,,,VNO,Vilnius International Airport,Lithuania,Vilnius,https://www.worlddata.info/europe/lithuania/airports.php
333,FABL,2025-11-23 01:53:08.742000+00:00,1763862420,2025-11-23T01:47:00.000Z,16.0,12.0,350,7.0,6+,1017.0,2,SPECI,SPECI FABL 230147Z AUTO 35007KT 9999 ///////// 16/12 Q1017,-29.093,26.302,1348,"Bloemfontein Intl, FS, ZA",,,,,,,,,,,BFN,Bram Fischer International Airport,South Africa,Bloemfontain,https://www.worlddata.info/africa/south-africa/airports.php
334,FAGG,2025-11-23 02:00:19.209000+00:00,1763862780,2025-11-23T01:53:00.000Z,17.0,17.0,150,5.0,3.73,1015.0,2,SPECI,SPECI FAGG 230153Z AUTO 15005KT 6000 -RA FEW005/// BKN011/// OVC036/// 17/17 Q1015,-34.006,22.379,196,"George Arpt, WC, ZA",OVC,"[{'cover': 'FEW', 'base': 500}, {'cover': 'BKN', 'base': 1100}, {'cover': 'OVC', 'base': 3600}]",MVFR,-RA,,,,,,,GRJ,George Airport,South Africa,George,https://www.worlddata.info/africa/south-africa/airports.php
335,FHAW,2025-11-23 01:54:28.347000+00:00,1763862600,2025-11-23T02:00:00.000Z,23.0,18.0,130,11.0,6+,1014.0,0,METAR,METAR FHAW 230150Z 13011KT 9999 FEW020 SCT036 23/18 Q1014 RMK BLU,-7.97,-14.394,79,"Ascension Arpt, HE, SH",SCT,"[{'cover': 'FEW', 'base': 2000}, {'cover': 'SCT', 'base': 3600}]",VFR,,,,,,,,ASI,RAF Ascension Island,"Saint Helena, Ascension and Tristan da Cunha",Cat Hill,https://www.worlddata.info/africa/saint-helena/airports.php
336,FIMP,2025-11-23 02:00:19.937000+00:00,1763863200,2025-11-23T02:00:00.000Z,24.0,21.0,0,0.0,6+,1015.0,0,METAR,METAR FIMP 230200Z 00000KT 9999 FEW019 24/21 Q1015,-20.434,57.684,57,"Mauritius Intl, GP, MU",FEW,"[{'cover': 'FEW', 'base': 1900}]",VFR,,,,,,,,MRU,Sir Seewoosagur Ramgoolam International Airport,Mauritius,Plaine Magnien,https://www.worlddata.info/africa/mauritius/airports.php
337,FIMR,2025-11-23 02:01:18.062000+00:00,1763863200,2025-11-23T02:00:00.000Z,24.0,22.0,70,3.0,6+,1017.0,0,METAR,METAR FIMR 230200Z 07003KT 9999 SCT018 24/22 Q1017,-19.755,63.36,31,"Rodrigues Arpt, RO, MU",SCT,"[{'cover': 'SCT', 'base': 1800}]",VFR,,,,,,,,RRG,Sir Charles Gaetan Duval Airport,Mauritius,Port Mathurin,https://www.worlddata.info/africa/mauritius/airports.php
338,FMCZ,2025-11-23 02:01:00.570000+00:00,1763863200,2025-11-23T02:00:00.000Z,26.0,23.0,300,3.0,6+,1013.0,18,METAR,METAR FMCZ 230200Z AUTO 30003KT CAVOK 26/23 Q1013 NOSIG,-12.805,45.281,7,"Dzaoudzi/Pamandzi Intl, MA, YT",CAVOK,[],VFR,,,,,,,,DZA,Dzaoudzi Pamandzi International Airport,Mayotte,Dzaoudzi,https://www.worlddata.info/africa/mayotte/airports.php
339,FMEE,2025-11-23 01:36:10.623000+00:00,1763861400,2025-11-23T01:30:00.000Z,24.0,23.0,220,4.0,6+,1014.0,2,METAR,METAR FMEE 230130Z AUTO 22004KT 160V280 9999 -RA BKN010/// OVC021/// ///CB 24/23 Q1014 TEMPO 4500 SHRA BKN025TCU,-20.887,55.51,20,"Reunion/St Denis/Garros Arpt, , RE",OVC,"[{'cover': 'BKN', 'base': 1000}, {'cover': 'OVC', 'base': 2100}]",MVFR,-RA,,,,,,,RUN,Roland Garros Airport,Reunion,Sainte-Marie,https://www.worlddata.info/africa/reunion/airports.php
340,FMEP,2025-11-23 01:35:19.848000+00:00,1763861400,2025-11-23T01:30:00.000Z,25.0,21.0,50,4.0,6+,1013.0,2,METAR,METAR FMEP 230130Z AUTO 05004KT 9999 BKN068 OVC078 25/21 Q1013,-21.32,55.425,21,"Reunion/Pierrefonds Arpt, , RE",OVC,"[{'cover': 'BKN', 'base': 6800}, {'cover': 'OVC', 'base': 7800}]",VFR,,,,,,,,ZSE,Pierrefonds Airport,Reunion,Saint-Pierre,https://www.worlddata.info/africa/reunion/airports.php
341,FMMI,2025-11-23 02:00:18.047000+00:00,1763863200,2025-11-23T02:00:00.000Z,16.0,16.0,60,4.0,6+,1019.0,16,METAR,METAR FMMI 230200Z 06004KT 9999 FEW004 16/16 Q1019 NOSIG,-18.797,47.479,1269,"Antananarivo/Ivato Intl, T, MG",FEW,"[{'cover': 'FEW', 'base': 400}]",VFR,,,,,,,,TNR,Ivato Airport,Madagascar,Antananarivo,https://www.worlddata.info/africa/madagascar/airports.php
342,FNLU,2025-11-23 01:56:31.261000+00:00,1763863200,2025-11-23T02:00:00.000Z,25.0,22.0,VRB,3.0,6+,1012.0,0,METAR,METAR FNLU 230200Z VRB03KT 9999 FEW013 BKN020 25/22 Q1012,-8.858,13.231,75,"Luanda Intl, LU, AO",BKN,"[{'cover': 'FEW', 'base': 1300}, {'cover': 'BKN', 'base': 2000}]",MVFR,,,,,,,,LAD,Quatro de Fevereiro International Airport,Angola,Luanda,https://www.worlddata.info/africa/angola/airports.php
343,FQTT,2025-11-23 01:58:14.910000+00:00,1763863200,2025-11-23T02:00:00.000Z,24.0,23.0,170,4.0,6+,1013.0,0,METAR,METAR FQTT 230200Z 17004KT 9999 FEW020 24/23 Q1013,-16.108,33.64,146,"Tete Arpt, TE, MZ",FEW,"[{'cover': 'FEW', 'base': 2000}]",VFR,,,,,,,,TET,Chingozi Airport,Mozambique,Tete,https://www.worlddata.info/africa/mozambique/airports.php
344,FSIA,2025-11-23 02:00:38.465000+00:00,1763863200,2025-11-23T02:00:00.000Z,27.0,23.0,VRB,2.0,6+,1013.0,16,METAR,METAR FSIA 230200Z VRB02KT 9999 SCT021 27/23 Q1013 NOSIG,-4.674,55.522,3,"Seychelles Intl, PL, SC",SCT,"[{'cover': 'SCT', 'base': 2100}]",VFR,,,,,,,,SEZ,Seychelles International Airport,Seychelles,Mahe Island,https://www.worlddata.info/africa/seychelles/airports.php
345,GABS,2025-11-23 01:39:20.844000+00:00,1763861400,2025-11-23T01:30:00.000Z,21.0,7.0,60,6.0,4.97,1014.0,16,METAR,METAR GABS 230130Z 06006KT 8000 NSC 21/07 Q1014 NOSIG,12.534,-7.95,375,"Bamako/Senou Intl, BK, ML",CLR,[],MVFR,,,,,,,,BKO,Modibo Keita International Airport,Mali,Bamako,https://www.worlddata.info/africa/mali/airports.php
346,GCFV,2025-11-23 01:34:23.671000+00:00,1763861400,2025-11-23T01:30:00.000Z,20.0,18.0,10,13.0,4.97,1020.0,2,METAR,METAR GCFV 230130Z AUTO 01013KT 8000 SCT013 20/18 Q1020,28.445,-13.863,11,"Fuerteventura Arpt, CR, ES",SCT,"[{'cover': 'SCT', 'base': 1300}]",MVFR,,,,,,,,FUE,Fuerteventura Airport,Spain,El Matorral,https://www.worlddata.info/europe/spain/airports.php
347,GCGM,2025-11-23 01:34:22.358000+00:00,1763861400,2025-11-23T01:30:00.000Z,18.0,13.0,260,3.0,6+,1020.0,2,METAR,METAR GCGM 230130Z AUTO 26003KT 200V310 CAVOK 18/13 Q1020 RMK R09/32003KT 270V020 ARP/VRB02KT,28.032,-17.211,217,"Alajero/La Gomera Arpt, CR, ES",CAVOK,[],VFR,,,,,,,,GMZ,La Gomera Airport,Spain,"Alajero, La Gomera Island",https://www.worlddata.info/europe/spain/airports.php
348,GCHI,2025-11-23 01:34:22.451000+00:00,1763861400,2025-11-23T01:30:00.000Z,21.0,17.0,40,19.0,6+,1020.0,2,METAR,METAR GCHI 230130Z AUTO 04019KT 9999 BKN025 BKN033 21/17 Q1020,27.819,-17.889,21,"Valverde/Hierro Arpt, CR, ES",BKN,"[{'cover': 'BKN', 'base': 2500}, {'cover': 'BKN', 'base': 3300}]",MVFR,,,,,,,,VDE,El Hierro Airport,Spain,El Hierro Island,https://www.worlddata.info/europe/spain/airports.php
349,GCLA,2025-11-23 01:34:23.770000+00:00,1763861400,2025-11-23T01:30:00.000Z,21.0,16.0,20,8.0,6+,1021.0,2,METAR,METAR GCLA 230130Z AUTO 02008KT 340V070 9999 -RA BKN026 BKN047 BKN067 21/16 Q1021,28.633,-17.755,20,"La Palma Arpt, CR, ES",BKN,"[{'cover': 'BKN', 'base': 2600}, {'cover': 'BKN', 'base': 4700}, {'cover': 'BKN', 'base': 6700}]",MVFR,-RA,,,,,,,SPC,La Palma Airport,Spain,"Sta Cruz de la Palma, La Palma Island",https://www.worlddata.info/europe/spain/airports.php
350,GCLP,2025-11-23 01:34:23.864000+00:00,1763861400,2025-11-23T01:30:00.000Z,20.0,15.0,350,11.0,6+,1020.0,16,METAR,METAR GCLP 230130Z 35011KT 9999 SCT030 20/15 Q1020 NOSIG,27.923,-15.389,16,"Grand Canaria Arpt, CR, ES",SCT,"[{'cover': 'SCT', 'base': 3000}]",VFR,,,,,,,,LPA,Gran Canaria Airport,Spain,Gran Canaria Island,https://www.worlddata.info/europe/spain/airports.php
351,GCRR,2025-11-23 01:34:23.941000+00:00,1763861400,2025-11-23T01:30:00.000Z,20.0,14.0,30,14.0,6+,1020.0,2,METAR,METAR GCRR 230130Z AUTO 03014KT CAVOK 20/14 Q1020,28.952,-13.6,9,"Arrecife/Lanzarote Arpt, CR, ES",CAVOK,[],VFR,,,,,,,,ACE,César Manrique-Lanzarote Airport,Spain,San Bartolomé,https://www.worlddata.info/europe/spain/airports.php
352,GCTS,2025-11-23 01:34:24.029000+00:00,1763861400,2025-11-23T01:30:00.000Z,20.0,13.0,70,17.0,6+,1019.0,16,METAR,METAR GCTS 230130Z 07017KT 9999 FEW030 20/13 Q1019 NOSIG,28.047,-16.561,59,"Tenerife/South Arpt, CR, ES",FEW,"[{'cover': 'FEW', 'base': 3000}]",VFR,,,,,,,,TFS,Tenerife Sur Airport,Spain,Tenerife,https://www.worlddata.info/europe/spain/airports.php
353,GCXO,2025-11-23 01:34:24.117000+00:00,1763861400,2025-11-23T01:30:00.000Z,15.0,14.0,150,4.0,6+,1022.0,2,METAR,METAR GCXO 230130Z AUTO 15004KT 110V180 9999 BKN018 BKN024 15/14 Q1022,28.483,-16.342,623,"Tenerife/North Arpt, CR, ES",BKN,"[{'cover': 'BKN', 'base': 1800}, {'cover': 'BKN', 'base': 2400}]",MVFR,,,,,,,,TFN,Tenerife Norte-Ciudad de La Laguna Airport,Spain,Tenerife,https://www.worlddata.info/europe/spain/airports.php
354,GEML,2025-11-23 01:34:22.169000+00:00,1763861400,2025-11-23T01:30:00.000Z,9.0,5.0,330,4.0,6+,1026.0,2,METAR,METAR GEML 230130Z AUTO 33004KT CAVOK 09/05 Q1026,35.278,-2.956,48,"Melilla Arpt, ML, ES",CAVOK,[],VFR,,,,,,,,MLN,Melilla Airport,Spain,Melilla,https://www.worlddata.info/europe/spain/airports.php
355,GMAD,2025-11-23 01:32:32.465000+00:00,1763861400,2025-11-23T01:30:00.000Z,17.0,5.0,80,7.0,6+,1021.0,16,METAR,METAR GMAD 230130Z 08007KT CAVOK 17/05 Q1021 NOSIG,30.325,-9.413,66,"Agadir/Al Massira Arpt, SM, MA",CAVOK,[],VFR,,,,,,,,AGA,Al Massira Airport,Morocco,Agadir (Temsia),https://www.worlddata.info/africa/morocco/airports.php
356,GMFF,2025-11-23 01:32:32.664000+00:00,1763861400,2025-11-23T01:30:00.000Z,4.0,4.0,180,4.0,6+,1025.0,16,METAR,METAR GMFF 230130Z 18004KT CAVOK 04/04 Q1025 NOSIG,33.929,-4.976,575,"Fes/Saïss Arpt, FE, MA",CAVOK,[],VFR,,,,,,,,FEZ,Fes Saïss International Airport,Morocco,Saïss,https://www.worlddata.info/africa/morocco/airports.php
357,GMFO,2025-11-23 01:36:14.417000+00:00,1763861400,2025-11-23T01:30:00.000Z,5.0,-1.0,210,6.0,6+,1027.0,16,METAR,METAR GMFO 230130Z 21006KT CAVOK 05/M01 Q1027 NOSIG,34.787,-1.924,452,"Oujda/Angads Arpt, RA, MA",CAVOK,[],VFR,,,,,,,,OUD,Oujda Angads Airport,Morocco,Ahl Angad,https://www.worlddata.info/africa/morocco/airports.php
358,GMME,2025-11-23 01:32:32.952000+00:00,1763861400,2025-11-23T01:30:00.000Z,7.0,7.0,0,0.0,3.73,1024.0,16,METAR,METAR GMME 230130Z 00000KT 6000 NSC 07/07 Q1024 NOSIG,34.051,-6.752,84,"Rabat-Salé Arpt, RS, MA",CLR,[],MVFR,,,,,,,,RBA,Rabat-Salé Airport,Morocco,Rabat,https://www.worlddata.info/africa/morocco/airports.php
359,GMMN,2025-11-23 01:32:33.150000+00:00,1763861400,2025-11-23T01:30:00.000Z,8.0,6.0,150,4.0,6+,1025.0,16,METAR,METAR GMMN 230130Z 15004KT 9999 FEW020 08/06 Q1025 NOSIG,33.367,-7.59,196,"Casablanca Intl, ME, MA",FEW,"[{'cover': 'FEW', 'base': 2000}]",VFR,,,,,,,,CMN,Mohammed V International Airport,Morocco,Casablanca,https://www.worlddata.info/africa/morocco/airports.php
360,GMMX,2025-11-23 01:32:33.320000+00:00,1763861400,2025-11-23T01:30:00.000Z,12.0,5.0,VRB,1.0,6+,1024.0,16,METAR,METAR GMMX 230130Z VRB01KT CAVOK 12/05 Q1024 NOSIG,31.607,-8.036,465,"Marrakesh/Menara Intl, ME, MA",CAVOK,[],VFR,,,,,,,,RAK,Menara Airport,Morocco,Marrakech,https://www.worlddata.info/africa/morocco/airports.php
361,GMTT,2025-11-23 01:37:09.240000+00:00,1763861400,2025-11-23T01:30:00.000Z,13.0,10.0,50,6.0,6+,1025.0,18,METAR,METAR GMTT 230130Z AUTO 05006KT CAVOK 13/10 Q1025 NOSIG,35.727,-5.917,19,"Tangier/Batouta Arpt, TA, MA",CAVOK,[],VFR,,,,,,,,TNG,Tangier Ibn Battuta Airport,Morocco,Tangier,https://www.worlddata.info/africa/morocco/airports.php
362,GOBD,2025-11-23 01:39:20.868000+00:00,1763861400,2025-11-23T01:30:00.000Z,26.0,14.0,50,7.0,6+,1013.0,16,METAR,METAR GOBD 230130Z 05007KT CAVOK 26/14 Q1013 NOSIG,14.671,-17.067,90,"Dakar/Diagne Intl, TH, SN",CAVOK,[],VFR,,,,,,,,DSS,Blaise Diagne International Airport,Senegal,Dakar,https://www.worlddata.info/africa/senegal/airports.php
363,GQNO,2025-11-23 01:39:29.709000+00:00,1763861400,2025-11-23T01:30:00.000Z,23.0,12.0,360,8.0,6+,1014.0,16,METAR,METAR GQNO 230130Z 36008KT CAVOK 23/12 Q1014 NOSIG,18.31,-15.97,1,"Nouakchott/Oumtounsy Arpt, TR, MR",CAVOK,[],VFR,,,,,,,,NKC,Nouakchott–Oumtounsy International Airport,Mauritania,Nouakchott,https://www.worlddata.info/africa/mauritania/airports.php
364,GQPP,2025-11-23 02:00:29.554000+00:00,1763863200,2025-11-23T02:00:00.000Z,19.0,15.0,360,8.0,4.97,1016.0,16,METAR,METAR GQPP 230200Z 36008KT 8000 NSC 19/15 Q1016 NOSIG,20.929,-17.031,5,"Nouadhibou Arpt, DN, MR",CLR,[],MVFR,,,,,,,,NDB,Nouadhibou International Airport,Mauritania,Nouadhibou,https://www.worlddata.info/africa/mauritania/airports.php
365,GVAC,2025-11-23 02:00:26.563000+00:00,1763863200,2025-11-23T02:00:00.000Z,24.0,19.0,80,8.0,6+,1015.0,16,METAR,METAR GVAC 230200Z 08008KT 9999 SCT016 BKN200 24/19 Q1015 NOSIG,16.742,-22.949,54,"Sal/Amílcar Cabral, B, CV",BKN,"[{'cover': 'SCT', 'base': 1600}, {'cover': 'BKN', 'base': 20000}]",VFR,,,,,,,,SID,Amílcar Cabral International Airport,Cape Verde,Espargos,https://www.worlddata.info/africa/cape-verde/airports.php
366,HECA,2025-11-23 01:56:37.336000+00:00,1763863200,2025-11-23T02:00:00.000Z,20.0,3.0,100,2.0,6+,1015.0,16,METAR,METAR HECA 230200Z 10002KT CAVOK 20/03 Q1015 NOSIG,30.133,31.405,142,"Cairo Intl, QH, EG",CAVOK,[],VFR,,,,,,,,CAI,Cairo International Airport,Egypt,Cairo,https://www.worlddata.info/africa/egypt/airports.php
367,HKJK,2025-11-23 01:57:55.562000+00:00,1763861400,2025-11-23T01:30:00.000Z,16.0,14.0,50,5.0,6+,1022.0,16,METAR,METAR HKJK 230130Z 05005KT 9999 SCT015 16/14 Q1022 NOSIG,-1.319,36.928,1615,"Nairobi/Kenyatta Intl, NA, KE",SCT,"[{'cover': 'SCT', 'base': 1500}]",VFR,,,,,,,,NBO,Jomo Kenyatta International Airport,Kenya,Nairobi,https://www.worlddata.info/africa/kenya/airports.php
368,HLLM,2025-11-23 01:58:15.067000+00:00,1763863200,2025-11-23T02:00:00.000Z,14.0,,270,10.0,4.35,1024.0,0,METAR,METAR HLLM 230200Z 27010KT 7000 BKN025 14/MO1 Q1024,32.894,13.276,8,"Tripoli/Mitiga Intl, TB, LY",BKN,"[{'cover': 'BKN', 'base': 2500}]",MVFR,,,,,,,,MJI,Mitiga International Airport,Libya,Tripoli,https://www.worlddata.info/africa/libya/airports.php
369,HRYR,2025-11-23 02:01:40.706000+00:00,1763863200,2025-11-23T02:00:00.000Z,18.0,17.0,300,5.0,6+,1020.0,16,METAR,METAR HRYR 230200Z 30005KT 9999 SCT022 18/17 Q1020 NOSIG,-1.969,30.14,1493,"Kigali Intl, KI, RW",SCT,"[{'cover': 'SCT', 'base': 2200}]",VFR,,,,,,,,KGL,Kigali International Airport,Rwanda,Kigali,https://www.worlddata.info/africa/rwanda/airports.php
370,KABE,2025-11-23 01:54:12.813000+00:00,1763862660,2025-11-23T02:00:00.000Z,1.1,-2.8,0,0.0,10+,1017.0,14,METAR,METAR KABE 230151Z AUTO 00000KT 10SM CLR 01/M03 A3003 RMK AO2 SLP170 T00111028 $,40.658,-75.4347,117,"Allentown/Lehigh Valley Intl, PA, US",CLR,[],VFR,,1017.0,,,,,,ABE,Lehigh Valley International Airport,United States of America,Allentown,https://www.worlddata.info/america/usa/airports.php
371,KABI,2025-11-23 02:02:24.834000+00:00,1763862720,2025-11-23T02:00:00.000Z,15.0,8.3,110,4.0,10+,1023.1,12,METAR,METAR KABI 230152Z 11004KT 10SM CLR 15/08 A3021 RMK AO2 SLP223 T01500083 $,32.4106,-99.6821,543,"Abilene Rgnl, TX, US",CLR,[],VFR,,1022.3,,,,,,ABI,Abilene Regional Airport,United States of America,Abilene,https://www.worlddata.info/america/usa/airports.php
372,KABQ,2025-11-23 02:02:24.936000+00:00,1763862720,2025-11-23T02:00:00.000Z,11.1,0.0,110,9.0,10+,1020.7,12,METAR,METAR KABQ 230152Z 11009KT 10SM FEW160 11/00 A3014 RMK AO2 SLP187 T01110000 $,35.0419,-106.6154,1620,"Albuquerque Intl, NM, US",FEW,"[{'cover': 'FEW', 'base': 16000}]",VFR,,1018.7,,,,,,ABQ,Albuquerque International Sunport,United States of America,Albuquerque,https://www.worlddata.info/america/usa/airports.php
373,KACB,2025-11-23 01:40:31.886000+00:00,1763861700,2025-11-23T01:35:00.000Z,6.0,-2.0,200,6.0,10+,1011.6,6,METAR,METAR KACB 230135Z AUTO 20006KT 10SM OVC025 06/M02 A2987 RMK AO2 T00601020,44.9867,-85.2022,189,"Bellaire/Antrim Cnty, MI, US",OVC,"[{'cover': 'OVC', 'base': 2500}]",MVFR,,,,,,,,ACB,Antrim County Airport,United States of America,Bellaire,https://www.worlddata.info/america/usa/airports.php
374,KACV,2025-11-23 01:06:24.238000+00:00,1763859780,2025-11-23T01:03:00.000Z,10.0,7.8,10,3.0,4,1019.0,6,SPECI,SPECI KACV 230103Z AUTO 01003KT 4SM BR BKN011 10/08 A3009 RMK AO2 T01000078,40.9784,-124.1048,63,"Arcata Arpt, CA, US",BKN,"[{'cover': 'BKN', 'base': 1100}]",MVFR,BR,,,,,,,ACV,California Redwood Coast-Humboldt County Airport,United States of America,Arcata/Eureka,https://www.worlddata.info/america/usa/airports.php
375,KACY,2025-11-23 02:02:29.546000+00:00,1763862840,2025-11-23T02:00:00.000Z,5.0,2.2,350,5.0,10+,1016.7,12,METAR,METAR KACY 230154Z 35005KT 10SM CLR 05/02 A3002 RMK AO2 SLP166 T00500022 $,39.452,-74.567,18,"Atlantic City Intl, NJ, US",CLR,[],VFR,,1016.6,,,,,,ACY,Atlantic City International Airport,United States of America,Atlantic City,https://www.worlddata.info/america/usa/airports.php
376,KADH,2025-11-23 01:40:18.924000+00:00,1763861700,2025-11-23T01:35:00.000Z,8.0,8.0,30,4.0,10+,1023.1,6,METAR,METAR KADH 230135Z AUTO 03004KT 10SM CLR 08/08 A3021 RMK AO2,34.8021,-96.6701,301,"Ada Muni, OK, US",CLR,[],VFR,,,,,,,,ADT,Ada Regional Airport,United States of America,Ada,https://www.worlddata.info/america/usa/airports.php
377,KADM,2025-11-23 01:40:18.961000+00:00,1763861700,2025-11-23T01:35:00.000Z,8.0,7.0,0,0.0,10+,1022.8,6,METAR,METAR KADM 230135Z AUTO 00000KT 10SM CLR 08/07 A3020 RMK AO2,34.3007,-97.0089,223,"Ardmore Muni, OK, US",CLR,[],VFR,,,,,,,,ADM,Ardmore Municipal Airport,United States of America,Ardmore,https://www.worlddata.info/america/usa/airports.php
378,KADW,2025-11-23 01:58:11.776000+00:00,1763862900,2025-11-23T02:00:00.000Z,4.5,3.5,0,0.0,10+,1017.0,14,METAR,METAR KADW 230155Z AUTO 00000KT 10SM CLR 05/04 A3003 RMK AO2 SLP177 T00450035 $,38.8215,-76.8654,87,"Andrews AFB, MD, US",CLR,[],VFR,,1017.7,,,,,,ADW,Joint Base Andrews,United States of America,Camp Springs,https://www.worlddata.info/america/usa/airports.php
379,KAEL,2025-11-23 01:40:17.792000+00:00,1763861700,2025-11-23T01:35:00.000Z,6.3,2.1,300,7.0,10+,1016.7,6,METAR,METAR KAEL 230135Z AUTO 30007KT 10SM CLR 06/02 A3002 RMK AO2 T00630021,43.6823,-93.3722,382,"Albert Lea Muni, MN, US",CLR,[],VFR,,,,,,,,AEL,Albert Lea Municipal Airport,United States of America,Albert Lea,https://www.worlddata.info/america/usa/airports.php
380,KAFF,2025-11-23 01:58:11.486000+00:00,1763862900,2025-11-23T02:00:00.000Z,5.3,-2.3,150,7.0,10+,1024.1,6,METAR,METAR KAFF 230155Z AUTO 15007KT 10SM CLR 05/M02 A3024 RMK AO2 SLP252 T00531023,38.971,-104.816,2003,"Air Force Academy Arfld, CO, US",CLR,[],VFR,,1025.2,,,,,,AFF,USAF Academy Airfield,United States of America,Colorado Springs,https://www.worlddata.info/america/usa/airports.php
381,KAFN,2025-11-23 02:02:25.086000+00:00,1763862720,2025-11-23T02:00:00.000Z,-2.2,-6.1,0,0.0,10+,1014.6,6,METAR,METAR KAFN 230152Z AUTO 00000KT 10SM CLR M02/M06 A2996 RMK AO2 SLP161 T10221061,42.8067,-72.0013,308,"Jaffrey Muni, NH, US",CLR,[],VFR,,1016.1,,,,,,AFN,Jaffrey Airfield Silver Ranch Airport,United States of America,Jaffrey,https://www.worlddata.info/america/usa/airports.php
382,KAFO,2025-11-23 01:40:30.062000+00:00,1763861700,2025-11-23T01:35:00.000Z,0.0,-2.0,190,4.0,10+,1023.8,6,METAR,METAR KAFO 230135Z AUTO 19004KT 10SM CLR 00/M02 A3023 RMK AO2,42.7139,-110.9443,1881,"Afton Muni, WY, US",CLR,[],VFR,,,,,,,,AFO,Afton Municipal Airport,United States of America,Afton,https://www.worlddata.info/america/usa/airports.php
383,KAGO,2025-11-23 01:38:25.720000+00:00,1763861700,2025-11-23T01:35:00.000Z,11.0,10.0,0,0.0,10+,1021.1,6,METAR,METAR KAGO 230135Z AUTO 00000KT 10SM SCT037 11/10 A3015 RMK A01,33.2266,-93.2154,91,"Magnolia Muni, AR, US",SCT,"[{'cover': 'SCT', 'base': 3700}]",VFR,,,,,,,,AGO,Magnolia Municipal Airport / Ralph C Weiser Field,United States of America,Magnolia,https://www.worlddata.info/america/usa/airports.php
384,KAHN,2025-11-23 01:54:13.721000+00:00,1763862660,2025-11-23T02:00:00.000Z,19.4,13.9,0,0.0,10+,1016.0,14,METAR,METAR KAHN 230151Z AUTO 00000KT 10SM CLR 19/14 A3000 RMK AO2 SLP154 T01940139 $,33.9477,-83.3274,241,"Athens/Epps Arpt, GA, US",CLR,[],VFR,,1015.4,,,,,,AHN,Athens Ben Epps Airport,United States of America,Athens,https://www.worlddata.info/america/usa/airports.php
385,KAID,2025-11-23 01:50:37.480000+00:00,1763862900,2025-11-23T02:00:00.000Z,5.1,0.0,0,0.0,10+,1017.7,6,METAR,METAR KAID 230155Z AUTO 00000KT 10SM SCT110 05/00 A3005 RMK AO2 T00510000,40.1061,-85.6098,277,"Anderson Muni, IN, US",SCT,"[{'cover': 'SCT', 'base': 11000}]",VFR,,,,,,,,AID,Anderson Municipal Darlington Field,United States of America,Anderson,https://www.worlddata.info/america/usa/airports.php
386,KAIK,2025-11-23 01:40:19.200000+00:00,1763861700,2025-11-23T01:35:00.000Z,16.8,16.1,0,0.0,10+,1015.7,6,METAR,METAR KAIK 230135Z AUTO 00000KT 10SM SCT050 17/16 A2999 RMK AO2 T01680161,33.651,-81.6821,155,"Aiken Muni, GA, US",SCT,"[{'cover': 'SCT', 'base': 5000}]",VFR,,,,,,,,AIK,Aiken Regional Airport,United States of America,Aiken,https://www.worlddata.info/america/usa/airports.php
387,KAIO,2025-11-23 01:40:33.672000+00:00,1763861700,2025-11-23T01:35:00.000Z,8.0,6.0,330,7.0,10+,1019.4,6,METAR,METAR KAIO 230135Z AUTO 33007KT 10SM CLR 08/06 A3010 RMK AO2,41.4059,-95.0465,349,"Atlantic Muni, IA, US",CLR,[],VFR,,,,,,,,AIO,Atlantic Municipal Airport,United States of America,Atlantic,https://www.worlddata.info/america/usa/airports.php
388,KALM,2025-11-23 01:40:21.470000+00:00,1763861700,2025-11-23T01:35:00.000Z,9.0,4.0,10,6.0,10+,1020.1,6,METAR,METAR KALM 230135Z AUTO 01006KT 10SM CLR 09/04 A3012 RMK AO2,32.8351,-105.9941,1267,"Alamogordo/White Sands Rgnl, NM, US",CLR,[],VFR,,,,,,,,ALM,Alamogordo White Sands Regional Airport,United States of America,Alamogordo,https://www.worlddata.info/america/usa/airports.php
389,KALN,2025-11-23 01:45:58.703000+00:00,1763862300,2025-11-23T02:00:00.000Z,6.0,5.0,VRB,3.0,5,1020.7,0,METAR,METAR KALN 230145Z VRB03KT 5SM BR CLR 06/05 A3014,38.8897,-90.0316,159,"Alton/St Louis Rgnl, IL, US",CLR,[],MVFR,BR,,,,,,,ALN,St Louis Regional Airport,United States of America,Alton/St Louis,https://www.worlddata.info/america/usa/airports.php
390,KALO,2025-11-23 02:02:30.033000+00:00,1763862840,2025-11-23T02:00:00.000Z,7.8,5.0,290,9.0,10+,1017.4,6,METAR,METAR KALO 230154Z AUTO 29009KT 10SM CLR 08/05 A3004 RMK AO2 SLP180 T00780050,42.5544,-92.4013,264,"Waterloo Rgnl, IA, US",CLR,[],VFR,,1018.0,,,,,,ALO,Waterloo Regional Airport,United States of America,Waterloo,https://www.worlddata.info/america/usa/airports.php
391,KALS,2025-11-23 02:02:25.192000+00:00,1763862720,2025-11-23T02:00:00.000Z,2.2,-1.1,350,5.0,10+,1025.1,6,METAR,METAR KALS 230152Z AUTO 35005KT 10SM CLR 02/M01 A3027 RMK AO2 SLP261 T00221011,37.4393,-105.8618,2299,"Alamosa/Bergman Fld, CO, US",CLR,[],VFR,,1026.1,,,,,,ALS,San Luis Valley Regional Airport/Bergman Field,United States of America,Alamosa,https://www.worlddata.info/america/usa/airports.php
392,KALX,2025-11-23 01:40:19.343000+00:00,1763861700,2025-11-23T01:35:00.000Z,20.5,20.5,0,0.0,10+,1017.4,6,METAR,METAR KALX 230135Z AUTO 00000KT 10SM CLR 21/21 A3004 RMK AO2 T02050205,32.916,-85.964,198,"Alexander City/Russell Fld, AL, US",CLR,[],VFR,,,,,,,,ALX,Thomas C Russell Field,United States of America,Alexander City,https://www.worlddata.info/america/usa/airports.php
393,KAMN,2025-11-23 01:38:24.486000+00:00,1763861700,2025-11-23T01:35:00.000Z,5.0,-2.0,210,8.0,10+,1013.6,6,METAR,METAR KAMN 230135Z AUTO 21008KT 10SM OVC065 05/M02 A2993 RMK AO2,43.3209,-84.6871,228,"Alma/Gratiot Communi, MI, US",OVC,"[{'cover': 'OVC', 'base': 6500}]",VFR,,,,,,,,AMN,Gratiot Community Airport,United States of America,Alma,https://www.worlddata.info/america/usa/airports.php
394,KANK,2025-11-23 01:40:33.044000+00:00,1763861700,2025-11-23T01:35:00.000Z,5.8,-3.7,240,8.0,10+,1024.5,14,METAR,METAR KANK 230135Z AUTO 24008KT 10SM CLR 06/M04 A3025 RMK AO2 T00581037 $,38.538,-106.049,2293,"Salida/Alexander Fld, CO, US",CLR,[],VFR,,,,,,,,SLT,Salida Airport - Harriet Alexander Field,United States of America,Salida,https://www.worlddata.info/america/usa/airports.php
395,KANW,2025-11-23 01:42:56.868000+00:00,1763861700,2025-11-23T01:35:00.000Z,0.6,-3.8,180,4.0,10+,1021.4,6,METAR,METAR KANW 230135Z AUTO 18004KT 10SM CLR 01/M04 A3016 RMK AO2 T00061038,42.5748,-99.9984,788,"Ainsworth Muni, NE, US",CLR,[],VFR,,,,,,,,ANW,Ainsworth Regional Airport,United States of America,Ainsworth,https://www.worlddata.info/america/usa/airports.php
396,KANY,2025-11-23 01:41:12.026000+00:00,1763861700,2025-11-23T01:35:00.000Z,9.0,7.0,190,6.0,10+,1022.1,6,METAR,METAR KANY 230135Z AUTO 19006KT 10SM CLR 09/07 A3018 RMK AO2,37.154,-98.078,408,"Anthony Muni, KS, US",CLR,[],VFR,,,,,,,,ANY,Anthony Municipal Airport,United States of America,Anthony,https://www.worlddata.info/america/usa/airports.php
397,KAPN,2025-11-23 02:02:30.145000+00:00,1763862840,2025-11-23T02:00:00.000Z,3.3,-3.3,170,9.0,10+,1011.9,6,METAR,METAR KAPN 230154Z AUTO 17009KT 10SM BKN075 OVC090 03/M03 A2988 RMK AO2 SLP127 T00331033,45.0716,-83.5645,208,"Alpena Cnty Rgnl, MI, US",OVC,"[{'cover': 'BKN', 'base': 7500}, {'cover': 'OVC', 'base': 9000}]",VFR,,1012.7,,,,,,APN,Alpena County Regional Airport,United States of America,Alpena,https://www.worlddata.info/america/usa/airports.php
398,KARM,2025-11-23 01:38:23.305000+00:00,1763861700,2025-11-23T01:35:00.000Z,20.9,16.2,50,4.0,10+,1020.4,38,METAR,METAR KARM 230135Z AUTO 05004KT 10SM CLR 21/16 A3013 RMK AO2 T02090162 TSNO,29.2515,-96.1508,29,"Wharton Rgnl, TX, US",CLR,[],VFR,,,,,,,,WHT,Wharton Regional Airport,United States of America,Wharton,https://www.worlddata.info/america/usa/airports.php
399,KARR,2025-11-23 02:02:25.425000+00:00,1763862720,2025-11-23T02:00:00.000Z,6.7,1.7,240,9.0,8,1016.0,4,METAR,METAR KARR 230152Z 24009KT 8SM CLR 07/02 A3000 RMK AO2 SLP163 T00670017,41.7713,-88.4815,213,"Aurora Muni, IL, US",CLR,[],VFR,,1016.3,,,,,,AUZ,Aurora Municipal Airport,United States of America,Chicago/Aurora,https://www.worlddata.info/america/usa/airports.php
400,KARV,2025-11-23 01:40:22.138000+00:00,1763861700,2025-11-23T01:35:00.000Z,4.0,0.0,270,5.0,10+,1009.9,6,METAR,METAR KARV 230135Z AUTO 27005KT 10SM BKN060 04/00 A2982 RMK AO2 T00400000,45.9264,-89.7307,494,"Woodruff/Lakeland Arpt, WI, US",BKN,"[{'cover': 'BKN', 'base': 6000}]",VFR,,,,,,,,ARV,Lakeland Airport Noble F Lee Memorial Field,United States of America,Woodruff,https://www.worlddata.info/america/usa/airports.php
401,KASG,2025-11-23 01:46:30.644000+00:00,1763862480,2025-11-23T02:00:00.000Z,9.0,9.0,0,0.0,6,1023.1,0,METAR,METAR KASG 230148Z 00000KT 6SM BR OVC004 09/09 A3021,36.1802,-94.1176,410,"Springdale Muni, AR, US",OVC,"[{'cover': 'OVC', 'base': 400}]",LIFR,BR,,,,,,,SPZ,Springdale Municipal Airport,United States of America,Springdale,https://www.worlddata.info/america/usa/airports.php
402,KASL,2025-11-23 01:40:21.519000+00:00,1763861700,2025-11-23T01:35:00.000Z,12.1,10.1,0,0.0,10+,1021.4,14,METAR,METAR KASL 230135Z AUTO 00000KT 10SM CLR 12/10 A3016 RMK AO2 T01210101 $,32.5207,-94.3066,104,"Marshall/Harrison Cnty, TX, US",CLR,[],VFR,,,,,,,,ASL,Harrison County Airport,United States of America,Marshall,https://www.worlddata.info/america/usa/airports.php
403,KASN,2025-11-23 01:40:19.628000+00:00,1763861700,2025-11-23T01:35:00.000Z,15.0,14.0,140,1.0,5,1016.7,6,METAR,METAR KASN 230135Z AUTO 14001KT 5SM BR CLR 15/14 A3002 RMK AO2,33.569,-86.0519,159,"Talladega Muni, AL, US",CLR,[],MVFR,BR,,,,,,,ASN,Talladega Municipal Airport,United States of America,Talladega,https://www.worlddata.info/america/usa/airports.php
404,KATL,2025-11-23 02:02:25.564000+00:00,1763862720,2025-11-23T02:00:00.000Z,18.9,12.2,290,6.0,10+,1017.0,12,METAR,METAR KATL 230152Z 29006KT 10SM FEW050 19/12 A3003 RMK AO2 SLP162 T01890122 $,33.6297,-84.4422,309,"Atlanta/Hartsfield-Jackson Intl, GA, US",FEW,"[{'cover': 'FEW', 'base': 5000}]",VFR,,1016.2,,,,,,ATL,Hartsfield Jackson Atlanta International Airport,United States of America,Atlanta,https://www.worlddata.info/america/usa/airports.php
405,KATS,2025-11-23 01:40:17.120000+00:00,1763861700,2025-11-23T01:35:00.000Z,11.0,4.0,310,3.0,10+,1022.4,6,METAR,METAR KATS 230135Z AUTO 31003KT 10SM CLR 11/04 A3019 RMK AO2,32.8524,-104.4644,1073,"Artesia Muni, NM, US",CLR,[],VFR,,,,,,,,ATS,Artesia Municipal Airport,United States of America,Artesia,https://www.worlddata.info/america/usa/airports.php
406,KATW,2025-11-23 01:47:08.352000+00:00,1763862300,2025-11-23T02:00:00.000Z,4.0,-1.0,260,8.0,10+,1012.3,0,METAR,METAR KATW 230145Z 26008KT 10SM SCT120 04/M01 A2989,44.2519,-88.526,266,"Appleton/Outagamie Cnty, WI, US",SCT,"[{'cover': 'SCT', 'base': 12000}]",VFR,,,,,,,,ATW,Appleton International Airport,United States of America,Appleton,https://www.worlddata.info/america/usa/airports.php
407,KAUM,2025-11-23 02:02:30.425000+00:00,1763862900,2025-11-23T02:00:00.000Z,6.0,3.0,290,6.0,10+,1016.7,6,METAR,METAR KAUM 230155Z AUTO 29006KT 10SM CLR 06/03 A3002 RMK AO2,43.6688,-92.9321,376,"Austin Muni, MN, US",CLR,[],VFR,,,,,,,,AUM,Austin Municipal Airport,United States of America,Austin,https://www.worlddata.info/america/usa/airports.php
408,KAUN,2025-11-23 01:40:33.073000+00:00,1763861700,2025-11-23T01:35:00.000Z,11.0,9.0,0,0.0,2.5,1017.7,6,METAR,METAR KAUN 230135Z AUTO 00000KT 2 1/2SM BR CLR 11/09 A3005 RMK A01,38.9553,-121.0865,453,"Auburn Muni, CA, US",CLR,[],IFR,BR,,,,,,,AUN,Auburn Municipal Airport,United States of America,Auburn,https://www.worlddata.info/america/usa/airports.php
409,KAUW,2025-11-23 02:02:30.541000+00:00,1763862840,2025-11-23T02:00:00.000Z,2.8,0.0,290,6.0,10+,1011.9,6,METAR,METAR KAUW 230154Z AUTO 29006KT 10SM SCT040 03/00 A2988 RMK AO2 SLP134 T00280000,44.9265,-89.6248,367,"Wausau Downtown, WI, US",SCT,"[{'cover': 'SCT', 'base': 4000}]",VFR,,1013.4,,,,,,AUW,Wausau Downtown Airport,United States of America,Wausau,https://www.worlddata.info/america/usa/airports.php
410,KAVP,2025-11-23 02:02:30.654000+00:00,1763862840,2025-11-23T02:00:00.000Z,0.6,-2.8,0,0.0,10+,1016.3,4,METAR,METAR KAVP 230154Z 00000KT 10SM CLR 01/M03 A3001 RMK AO2 SLP168 T00061028,41.3335,-75.7227,290,"Wilkes-Barre Scranton Intl, PA, US",CLR,[],VFR,,1016.8,,,,,,AVP,Wilkes Barre Scranton International Airport,United States of America,Wilkes-Barre/Scranton,https://www.worlddata.info/america/usa/airports.php
411,KAVQ,2025-11-23 01:40:30.119000+00:00,1763861700,2025-11-23T01:35:00.000Z,13.0,11.0,350,11.0,3,1012.3,6,METAR,METAR KAVQ 230135Z AUTO 35011KT 3SM VCTS RA BR FEW036 SCT045 BKN055 13/11 A2989 RMK AO2 LTG DSNT S AND NW,32.4112,-111.216,618,"Tucson/Marana Rgnl, AZ, US",BKN,"[{'cover': 'FEW', 'base': 3600}, {'cover': 'SCT', 'base': 4500}, {'cover': 'BKN', 'base': 5500}]",MVFR,VCTS RA BR,,,,,,,AVW,Marana Regional Airport,United States of America,Marana,https://www.worlddata.info/america/usa/airports.php
412,KAXA,2025-11-23 01:40:33.696000+00:00,1763861700,2025-11-23T01:35:00.000Z,4.0,3.0,270,9.0,10+,1018.0,6,METAR,METAR KAXA 230135Z AUTO 27009KT 10SM CLR 04/03 A3006 RMK A01,43.0796,-94.2724,371,"Algona Muni, IA, US",CLR,[],VFR,,,,,,,,AXG,Algona Municipal Airport,United States of America,Algona,https://www.worlddata.info/america/usa/airports.php
413,KAXS,2025-11-23 01:46:10.609000+00:00,1763861760,2025-11-23T01:36:00.000Z,11.0,9.0,150,5.0,10+,1022.8,6,METAR,METAR KAXS 230136Z AUTO 15005KT 10SM CLR 11/09 A3020 RMK AO2,34.6963,-99.3402,433,"Altus/Quartz Mtn Rgnl, OK, US",CLR,[],VFR,,,,,,,,AXS,Altus Quartz Mountain Regional Airport,United States of America,Altus,https://www.worlddata.info/america/usa/airports.php
414,KAXV,2025-11-23 01:40:22.977000+00:00,1763861700,2025-11-23T01:35:00.000Z,2.0,0.0,0,0.0,10+,1017.7,6,METAR,METAR KAXV 230135Z AUTO 00000KT 10SM BKN085 02/00 A3005 RMK AO2,40.4959,-84.2929,278,"Wapakoneta/Armstrong Arpt, OH, US",BKN,"[{'cover': 'BKN', 'base': 8500}]",VFR,,,,,,,,AXV,Neil Armstrong Airport,United States of America,Wapakoneta,https://www.worlddata.info/america/usa/airports.php
415,KAXX,2025-11-23 01:40:33.095000+00:00,1763861700,2025-11-23T01:35:00.000Z,-2.4,-4.4,0,0.0,10+,1026.8,6,METAR,METAR KAXX 230135Z AUTO 00000KT 10SM CLR M02/M04 A3032 RMK AO2 T10241044,36.422,-105.29,2543,"Angel Fire Arpt, NM, US",CLR,[],VFR,,,,,,,,AXX,Angel Fire Airport,United States of America,Angel Fire,https://www.worlddata.info/america/usa/airports.php
416,KAYS,2025-11-23 01:42:03.465000+00:00,1763861700,2025-11-23T01:35:00.000Z,22.9,19.1,240,6.0,10+,1017.0,6,METAR,METAR KAYS 230135Z AUTO 24006KT 10SM SCT048 BKN060 BKN090 23/19 A3003 RMK AO2 T02290191,31.2466,-82.4014,42,"Waycross/Ware Cnty, GA, US",BKN,"[{'cover': 'SCT', 'base': 4800}, {'cover': 'BKN', 'base': 6000}, {'cover': 'BKN', 'base': 9000}]",VFR,,,,,,,,AYS,Waycross Ware County Airport,United States of America,Waycross,https://www.worlddata.info/america/usa/airports.php
417,KBAB,2025-11-23 02:00:50.199000+00:00,1763862900,2025-11-23T02:00:00.000Z,10.6,9.0,120,5.0,8,1017.0,14,METAR,METAR KBAB 230155Z AUTO 12005KT 8SM CLR 11/09 A3003 RMK AO2 VIS 1 1/8 RWY33 SLP172 T01060090 $,39.145,-121.436,31,"Beale AFB, CA, US",CLR,[],VFR,,1017.2,,,,,,BAB,Beale Air Force Base,United States of America,Beale Air Force Base,https://www.worlddata.info/america/usa/airports.php
418,KBAD,2025-11-23 01:58:11.814000+00:00,1763862900,2025-11-23T02:00:00.000Z,14.7,9.3,310,4.0,10+,1021.8,14,METAR,METAR KBAD 230155Z AUTO 31004KT 10SM CLR 15/09 A3017 RMK AO2 SLP220 T01470093 $,32.488,-93.658,49,"Barksdale AFB, LA, US",CLR,[],VFR,,1022.0,,,,,,BAD,Barksdale Air Force Base,United States of America,Bossier City,https://www.worlddata.info/america/usa/airports.php
419,KBAK,2025-11-23 01:45:29.627000+00:00,1763862300,2025-11-23T02:00:00.000Z,3.0,3.0,0,0.0,10+,1019.0,0,METAR,METAR KBAK 230145Z 00000KT 10SM CLR 03/03 A3009,39.2664,-85.8926,199,"Columbus Muni, IN, US",CLR,[],VFR,,,,,,,,CLU,Columbus Municipal Airport,United States of America,Columbus,https://www.worlddata.info/america/usa/airports.php
420,KBAM,2025-11-23 01:38:23.375000+00:00,1763861700,2025-11-23T01:35:00.000Z,4.0,0.0,140,3.0,10+,1022.1,6,METAR,METAR KBAM 230135Z AUTO 14003KT 10SM CLR 04/00 A3018 RMK AO1,40.6048,-116.8719,1381,"Battle Mountain Arpt, NV, US",CLR,[],VFR,,,,,,,,BAM,Battle Mountain Airport,United States of America,Battle Mountain,https://www.worlddata.info/america/usa/airports.php
421,KBBB,2025-11-23 01:40:22.201000+00:00,1763861700,2025-11-23T01:35:00.000Z,0.0,-4.0,260,7.0,10+,1017.7,6,METAR,METAR KBBB 230135Z AUTO 26007KT 10SM CLR M00/M04 A3005 RMK AO2,45.331,-95.6469,315,"Benson Muni, MN, US",CLR,[],VFR,,,,,,,,BBB,Benson Municipal Airport,United States of America,Benson,https://www.worlddata.info/america/usa/airports.php
422,KBBD,2025-11-23 01:43:02.286000+00:00,1763861700,2025-11-23T01:35:00.000Z,16.0,9.0,60,6.0,10+,1022.1,6,METAR,METAR KBBD 230135Z AUTO 06006KT 10SM OVC050 16/09 A3018 RMK AO2,31.1766,-99.3229,554,"Brady/Curtis Fld, TX, US",OVC,"[{'cover': 'OVC', 'base': 5000}]",VFR,,,,,,,,BBD,Curtis Field,United States of America,Brady,https://www.worlddata.info/america/usa/airports.php
423,KBBP,2025-11-23 01:38:17.458000+00:00,1763861700,2025-11-23T01:35:00.000Z,18.0,18.0,210,3.0,7,1014.0,6,METAR,METAR KBBP 230135Z AUTO 21003KT 7SM SCT048 BKN060 OVC075 18/18 A2994 RMK AO2,34.6228,-79.7354,44,"Bennettsville/Marlboro Jetport, SC, US",OVC,"[{'cover': 'SCT', 'base': 4800}, {'cover': 'BKN', 'base': 6000}, {'cover': 'OVC', 'base': 7500}]",VFR,,,,,,,,BTN,Marlboro County Jetport - H E Avent Field Airport,United States of America,Bennettsville,https://www.worlddata.info/america/usa/airports.php
424,KBCB,2025-11-23 01:36:12.928000+00:00,1763861700,2025-11-23T01:35:00.000Z,11.7,8.5,0,0.0,10+,1018.0,6,METAR,METAR KBCB 230135Z AUTO 00000KT 10SM BKN035 BKN050 12/09 A3006 RMK AO2 T01170085,37.208,-80.4127,642,"Blacksburg/VA Tech Montgomery Exec, VA, US",BKN,"[{'cover': 'BKN', 'base': 3500}, {'cover': 'BKN', 'base': 5000}]",VFR,,,,,,,,BCB,Virginia Tech Montgomery Executive Airport,United States of America,Blacksburg,https://www.worlddata.info/america/usa/airports.php
425,KBCT,2025-11-23 01:50:49.548000+00:00,1763862780,2025-11-23T02:00:00.000Z,22.0,19.0,VRB,4.0,10+,1019.0,0,METAR,METAR KBCT 230153Z VRB04KT 10SM FEW045 22/19 A3009,26.379,-80.106,3,"Boca Raton Arpt, FL, US",FEW,"[{'cover': 'FEW', 'base': 4500}]",VFR,,,,,,,,BCT,Boca Raton Airport,United States of America,Boca Raton,https://www.worlddata.info/america/usa/airports.php
426,KBDG,2025-11-23 01:40:21.570000+00:00,1763861700,2025-11-23T01:35:00.000Z,7.6,4.7,320,6.0,10+,1022.1,6,METAR,METAR KBDG 230135Z AUTO 32006KT 10SM OVC140 08/05 A3018 RMK AO2 T00760047,37.587,-109.481,1778,"Blanding Muni, UT, US",OVC,"[{'cover': 'OVC', 'base': 14000}]",VFR,,,,,,,,BDG,Blanding Municipal Airport,United States of America,Blanding,https://www.worlddata.info/america/usa/airports.php
427,KBDL,2025-11-23 01:56:15.372000+00:00,1763862660,2025-11-23T02:00:00.000Z,1.7,-3.9,310,9.0,10+,1016.0,12,METAR,METAR KBDL 230151Z 31009KT 10SM CLR 02/M04 A3000 RMK AO2 SLP160 T00171039 $,41.9374,-72.682,52,"Hartford/Bradley Intl, CT, US",CLR,[],VFR,,1016.0,,,,,,BDL,Bradley International Airport,United States of America,Hartford,https://www.worlddata.info/america/usa/airports.php
428,KBDR,2025-11-23 02:02:25.664000+00:00,1763862720,2025-11-23T02:00:00.000Z,4.4,-3.3,360,5.0,10+,1016.7,4,METAR,METAR KBDR 230152Z 36005KT 10SM CLR 04/M03 A3002 RMK AO2 SLP165 T00441033,41.1642,-73.1266,5,"Bridgeport/Sikorsky Mem, CT, US",CLR,[],VFR,,1016.5,,,,,,BDR,Igor I Sikorsky Memorial Airport,United States of America,Bridgeport,https://www.worlddata.info/america/usa/airports.php
429,KBDU,2025-11-23 01:40:33.121000+00:00,1763861700,2025-11-23T01:35:00.000Z,7.0,0.0,210,4.0,10+,1022.8,6,METAR,METAR KBDU 230135Z AUTO 21004KT 10SM CLR 07/00 A3020 RMK AO2,40.0377,-105.2274,1614,"Boulder Muni, CO, US",CLR,[],VFR,,,,,,,,WBU,Boulder Municipal Airport,United States of America,Boulder,https://www.worlddata.info/america/usa/airports.php
430,KBEC,2025-11-23 01:42:57.187000+00:00,1763861700,2025-11-23T01:35:00.000Z,9.7,5.5,200,3.0,10+,1022.1,6,METAR,METAR KBEC 230135Z AUTO 20003KT 10SM CLR 10/06 A3018 RMK AO2 T00970055,37.694,-97.215,421,"Wichita/Beech Factory Arpt, KS, US",CLR,[],VFR,,,,,,,,BEC,Beech Factory Airport,United States of America,Wichita,https://www.worlddata.info/america/usa/airports.php
431,KBFL,2025-11-23 02:02:30.783000+00:00,1763862840,2025-11-23T02:00:00.000Z,13.3,9.4,0,0.0,8,1018.0,6,METAR,METAR KBFL 230154Z AUTO 00000KT 8SM FEW026 13/09 A3006 RMK AO2 SLP177 T01330094,35.4342,-119.0552,146,"Bakersfield/Meadows Arpt, CA, US",FEW,"[{'cover': 'FEW', 'base': 2600}]",VFR,,1017.7,,,,,,BFL,Meadows Field,United States of America,Bakersfield,https://www.worlddata.info/america/usa/airports.php
432,KBFR,2025-11-23 01:42:57.220000+00:00,1763861700,2025-11-23T01:35:00.000Z,8.0,2.0,290,3.0,10+,1019.7,6,METAR,METAR KBFR 230135Z AUTO 29003KT 10SM CLR 08/02 A3011 RMK AO2,38.8383,-86.446,223,"Bedford/Grissom Arpt, IN, US",CLR,[],VFR,,,,,,,,BFR,Virgil I Grissom Municipal Airport,United States of America,Bedford,https://www.worlddata.info/america/usa/airports.php
433,KBGD,2025-11-23 01:54:12.875000+00:00,1763862660,2025-11-23T02:00:00.000Z,11.1,6.7,150,5.0,10+,1023.5,6,METAR,METAR KBGD 230151Z AUTO 15005KT 10SM CLR 11/07 A3022 RMK AO2 SLP231 T01110067,35.695,-101.3955,928,"Borger/Hutchinson Cnty, TX, US",CLR,[],VFR,,1023.1,,,,,,BGD,Hutchinson County Airport,United States of America,Borger,https://www.worlddata.info/america/usa/airports.php
434,KBGE,2025-11-23 01:38:26.046000+00:00,1763861700,2025-11-23T01:35:00.000Z,22.1,19.4,260,6.0,,1017.7,134,METAR,METAR KBGE 230135Z AUTO 26006KT SCT039 22/19 A3005 RMK AO2 PWINO T02210194,30.9709,-84.6344,40,"Bainbridge/Decatur Cnty, GA, US",SCT,"[{'cover': 'SCT', 'base': 3900}]",,,,,,,,,BGE,Decatur County Industrial Air Park,United States of America,Bainbridge,https://www.worlddata.info/america/usa/airports.php
435,KBIE,2025-11-23 01:42:57.400000+00:00,1763861700,2025-11-23T01:35:00.000Z,6.3,4.1,0,0.0,10+,1020.7,6,METAR,METAR KBIE 230135Z AUTO 00000KT 10SM CLR 06/04 A3014 RMK AO2 T00630041,40.3005,-96.7517,398,"Beatrice Muni, NE, US",CLR,[],VFR,,,,,,,,BIE,Beatrice Municipal Airport,United States of America,Beatrice,https://www.worlddata.info/america/usa/airports.php
436,KBIF,2025-11-23 01:56:45.688000+00:00,1763862900,2025-11-23T02:00:00.000Z,14.3,0.5,70,6.0,10+,1018.7,14,METAR,METAR KBIF 230155Z AUTO 07006KT 10SM FEW170 14/01 A3008 RMK AO2 SLP160 T01430005 $,31.861,-106.369,1201,"Biggs, TX, US",FEW,"[{'cover': 'FEW', 'base': 17000}]",VFR,,1016.0,,,,,,BIF,Biggs Army Air Field (Fort Bliss),United States of America,Fort Bliss/El Paso,https://www.worlddata.info/america/usa/airports.php
437,KBIS,2025-11-23 02:02:25.784000+00:00,1763862720,2025-11-23T02:00:00.000Z,1.1,-3.3,0,0.0,10+,1017.7,6,METAR,METAR KBIS 230152Z AUTO 00000KT 10SM CLR 01/M03 A3005 RMK AO2 SLP194 T00111033,46.7823,-100.7575,506,"Bismarck Arpt, ND, US",CLR,[],VFR,,1019.4,,,,,,BIS,Bismarck Municipal Airport,United States of America,Bismarck,https://www.worlddata.info/america/usa/airports.php
438,KBIX,2025-11-23 01:58:11.830000+00:00,1763862900,2025-11-23T02:00:00.000Z,22.7,20.4,230,8.0,10+,1017.7,6,METAR,METAR KBIX 230155Z AUTO 23008KT 10SM FEW035 SCT049 23/20 A3005 RMK AO2 SLP179 T02270204,30.415,-88.922,4,"Biloxi/Keesler AFB, MS, US",SCT,"[{'cover': 'FEW', 'base': 3500}, {'cover': 'SCT', 'base': 4900}]",VFR,,1017.9,,,,,,BIX,Keesler Air Force Base,United States of America,Biloxi,https://www.worlddata.info/america/usa/airports.php
439,KBJC,2025-11-23 01:45:58.753000+00:00,1763862300,2025-11-23T02:00:00.000Z,7.0,-1.0,250,4.0,10+,1023.5,0,METAR,METAR KBJC 230145Z 25004KT 10SM SKC 07/M01 A3022,39.9008,-105.1042,1694,"Rocky Mtn Metro, CO, US",SKC,[],VFR,,,,,,,,BJC,Rocky Mountain Metropolitan Airport,United States of America,Denver,https://www.worlddata.info/america/usa/airports.php
440,KBJI,2025-11-23 01:40:17.858000+00:00,1763861700,2025-11-23T01:35:00.000Z,2.9,-1.0,280,11.0,10+,1014.6,6,METAR,METAR KBJI 230135Z AUTO 28011KT 10SM CLR 03/M01 A2996 RMK AO2 T00291010,47.5076,-94.9279,422,"Bemidji Municip, MN, US",CLR,[],VFR,,,,,,,,BJI,Bemidji Regional Airport,United States of America,Bemidji,https://www.worlddata.info/america/usa/airports.php
441,KBKD,2025-11-23 01:38:23.490000+00:00,1763861700,2025-11-23T01:35:00.000Z,15.1,9.0,140,3.0,,1022.8,6,METAR,METAR KBKD 230135Z AUTO 14003KT CLR 15/09 A3020 RMK AO2 P0001 T01510090,32.7206,-98.8931,383,"Breckenridge/Stephens Cnty, TX, US",CLR,[],,,,0.01,,,,,BKD,Stephens County Airport,United States of America,Breckenridge,https://www.worlddata.info/america/usa/airports.php
442,KBKT,2025-11-23 01:58:08.188000+00:00,1763862900,2025-11-23T02:00:00.000Z,9.3,9.0,0,0.0,10+,1016.3,6,METAR,METAR KBKT 230155Z AUTO 00000KT 10SM CLR 09/09 A3001 RMK AO2 SLP165 T00930090,37.082,-77.953,134,"Blackstone/Perkinson, VA, US",CLR,[],VFR,,1016.5,,,,,,BKT,Allen C Perkinson Blackstone Army Air Field,United States of America,Blackstone,https://www.worlddata.info/america/usa/airports.php
443,KBKW,2025-11-23 01:54:12.913000+00:00,1763862660,2025-11-23T02:00:00.000Z,7.8,6.1,330,5.0,10+,1017.7,6,METAR,METAR KBKW 230151Z AUTO 33005KT 10SM SCT008 OVC015 08/06 A3005 RMK AO2 SLP174 T00780061,37.7836,-81.1228,762,"Beckley/Raleigh Cnty, WV, US",OVC,"[{'cover': 'SCT', 'base': 800}, {'cover': 'OVC', 'base': 1500}]",MVFR,,1017.4,,,,,,BKW,Raleigh County Memorial Airport,United States of America,Beaver,https://www.worlddata.info/america/usa/airports.php
444,KBLF,2025-11-23 02:02:25.926000+00:00,1763862720,2025-11-23T02:00:00.000Z,8.3,7.2,300,5.0,10+,1017.7,6,METAR,METAR KBLF 230152Z AUTO 30005KT 10SM OVC006 08/07 A3005 RMK AO2 SLP166 T00830072,37.2978,-81.2036,871,"Bluefield/Mercer Cnty, WV, US",OVC,"[{'cover': 'OVC', 'base': 600}]",IFR,,1016.6,,,,,,BLF,Mercer County Airport,United States of America,Bluefield,https://www.worlddata.info/america/usa/airports.php
445,KBLH,2025-11-23 02:02:26.019000+00:00,1763862720,2025-11-23T02:00:00.000Z,15.6,11.7,270,4.0,10+,1013.0,14,METAR,METAR KBLH 230152Z AUTO 27004KT 10SM OVC075 16/12 A2991 RMK AO2 SLP124 T01560117 $,33.6188,-114.7145,119,"Blythe Arpt, CA, US",OVC,"[{'cover': 'OVC', 'base': 7500}]",VFR,,1012.4,,,,,,BLH,Blythe Airport,United States of America,Blythe,https://www.worlddata.info/america/usa/airports.php
446,KBLU,2025-11-23 02:02:26.174000+00:00,1763862720,2025-11-23T02:00:00.000Z,7.8,-1.7,60,3.0,10+,1019.7,6,METAR,METAR KBLU 230152Z AUTO 06003KT 10SM CLR 08/M02 A3011 RMK AO2 SLP172 T00781017,39.2762,-120.7093,1605,"Blue Canyon/Nyack Arpt, CA, US",CLR,[],VFR,,1017.2,,,,,,BLU,Blue Canyon Nyack Airport,United States of America,Emigrant Gap,https://www.worlddata.info/america/usa/airports.php
447,KBLV,2025-11-23 01:58:08.716000+00:00,1763862900,2025-11-23T02:00:00.000Z,6.4,4.7,0,0.0,8,1020.4,14,METAR,METAR KBLV 230155Z AUTO 00000KT 8SM CLR 06/05 A3013 RMK AO2 SLP208 T00640047 $,38.54,-89.845,134,"Belleville/Scott AFB, IL, US",CLR,[],VFR,,1020.8,,,,,,BLV,Scott AFB/Midamerica Airport,United States of America,Belleville,https://www.worlddata.info/america/usa/airports.php
448,KBMC,2025-11-23 01:42:57.510000+00:00,1763861700,2025-11-23T01:35:00.000Z,4.0,3.0,330,7.0,10+,1023.5,6,METAR,METAR KBMC 230135Z AUTO 33007KT 10SM CLR 04/03 A3022 RMK AO2,41.5463,-112.06,1289,"Brigham City Arpt, UT, US",CLR,[],VFR,,,,,,,,BMC,Brigham City Regional Airport,United States of America,Brigham City,https://www.worlddata.info/america/usa/airports.php
449,KBMG,2025-11-23 02:02:04.081000+00:00,1763862780,2025-11-23T02:00:00.000Z,2.8,0.6,150,3.0,10+,1018.7,4,METAR,METAR KBMG 230153Z 15003KT 10SM CLR 03/01 A3008 RMK AO2 SLP190 T00280006,39.1431,-86.6168,254,"Bloomington/Monroe Cnty, IN, US",CLR,[],VFR,,1019.0,,,,,,BMG,Monroe County Airport,United States of America,Bloomington,https://www.worlddata.info/america/usa/airports.php
450,KBML,2025-11-23 02:02:26.331000+00:00,1763862720,2025-11-23T02:00:00.000Z,-1.1,-6.1,290,4.0,10+,1012.6,14,METAR,METAR KBML 230152Z AUTO 29004KT 10SM BKN034 M01/M06 A2990 RMK AO2 SLP140 T10111061 $,44.576,-71.1782,344,"Berlin Muni, NH, US",BKN,"[{'cover': 'BKN', 'base': 3400}]",VFR,,1014.0,,,,,,BML,Berlin Regional Airport,United States of America,Berlin,https://www.worlddata.info/america/usa/airports.php
451,KBMT,2025-11-23 01:40:30.146000+00:00,1763861700,2025-11-23T01:35:00.000Z,17.6,14.1,0,0.0,10+,1019.7,6,METAR,METAR KBMT 230135Z AUTO 00000KT 10SM CLR 18/14 A3011 RMK AO2 T01760141,30.0686,-94.2155,8,"Beaumont Muni, TX, US",CLR,[],VFR,,,,,,,,BMT,Beaumont Municipal Airport,United States of America,Beaumont,https://www.worlddata.info/america/usa/airports.php
452,KBNA,2025-11-23 02:02:04.132000+00:00,1763862780,2025-11-23T02:00:00.000Z,13.9,10.6,330,8.0,10+,1019.7,12,METAR,METAR KBNA 230153Z 33008KT 10SM BKN016 14/11 A3011 RMK AO2 SLP194 T01390106 $,36.1105,-86.6881,168,"Nashville Intl, TN, US",BKN,"[{'cover': 'BKN', 'base': 1600}]",MVFR,,1019.4,,,,,,BNA,Nashville International Airport,United States of America,Nashville,https://www.worlddata.info/america/usa/airports.php
453,KBNL,2025-11-23 01:42:57.645000+00:00,1763861700,2025-11-23T01:35:00.000Z,18.0,17.0,0,0.0,10+,1015.3,6,METAR,METAR KBNL 230135Z AUTO 00000KT 10SM CLR 18/17 A2998 RMK AO2,33.2601,-81.387,76,"Barnwell Cnty, SC, US",CLR,[],VFR,,,,,,,,BNL,Barnwell Regional Airport,United States of America,Barnwell,https://www.worlddata.info/america/usa/airports.php
454,KBNO,2025-11-23 02:02:04.161000+00:00,1763862780,2025-11-23T02:00:00.000Z,0.0,-1.1,0,0.0,10+,1021.1,6,METAR,METAR KBNO 230153Z AUTO 00000KT 10SM CLR 00/M01 A3015 RMK AO2 SLP241 T00001011,43.5949,-118.9579,1263,"Burns Muni, OR, US",CLR,[],VFR,,1024.1,,,,,,BNO,Burns Municipal Airport,United States of America,Burns,https://www.worlddata.info/america/usa/airports.php
455,KBNW,2025-11-23 01:44:11.231000+00:00,1763861700,2025-11-23T01:35:00.000Z,9.0,9.0,300,8.0,10+,1018.4,6,METAR,METAR KBNW 230135Z AUTO 30008KT 10SM CLR 09/09 A3007 RMK AO2,42.0486,-93.8486,350,"Boone Muni, IA, US",CLR,[],VFR,,,,,,,,BNW,Boone Municipal Airport,United States of America,Boone,https://www.worlddata.info/america/usa/airports.php
456,KBOI,2025-11-23 02:02:04.179000+00:00,1763862780,2025-11-23T02:00:00.000Z,6.7,2.2,130,6.0,10+,1022.8,14,METAR,METAR KBOI 230153Z AUTO 13006KT 10SM CLR 07/02 A3020 RMK AO2 SLP238 T00670022 $,43.567,-116.2406,860,"Boise Arpt, ID, US",CLR,[],VFR,,1023.8,,,,,,BOI,Boise Air Terminal/Gowen Field,United States of America,Boise,https://www.worlddata.info/america/usa/airports.php
457,KBOS,2025-11-23 02:02:30.919000+00:00,1763862840,2025-11-23T02:00:00.000Z,4.4,-5.0,340,11.0,10+,1015.3,12,METAR,METAR KBOS 230154Z 34011KT 10SM CLR 04/M05 A2998 RMK AO2 SLP150 T00441050 $,42.3606,-71.0097,4,"Boston/Logan Intl, MA, US",CLR,[],VFR,,1015.0,,,,,,BOS,Logan International Airport,United States of America,Boston,https://www.worlddata.info/america/usa/airports.php
458,KBOW,2025-11-23 01:54:05.655000+00:00,1763862900,2025-11-23T02:00:00.000Z,21.0,16.0,0,0.0,10+,1019.7,134,METAR,METAR KBOW 230155Z AUTO 00000KT 10SM CLR 21/16 A3011 RMK AO2 PWINO,27.9472,-81.7811,38,"Bartow Muni, FL, US",CLR,[],VFR,,,,,,,,BOW,Bartow Executive Airport,United States of America,Bartow,https://www.worlddata.info/america/usa/airports.php
459,KBPG,2025-11-23 01:40:30.173000+00:00,1763861700,2025-11-23T01:35:00.000Z,14.9,4.3,0,0.0,10+,1022.4,6,METAR,METAR KBPG 230135Z AUTO 00000KT 10SM CLR 15/04 A3019 RMK AO2 T01490043,32.2097,-101.5247,782,"Big Springs/McMahon , TX, US",CLR,[],VFR,,,,,,,,HCA,Big Spring Mc Mahon-Wrinkle Airport,United States of America,Big Spring,https://www.worlddata.info/america/usa/airports.php
460,KBPI,2025-11-23 02:02:04.202000+00:00,1763862780,2025-11-23T02:00:00.000Z,-2.8,-4.4,350,8.0,10+,1023.8,6,METAR,METAR KBPI 230153Z AUTO 35008KT 10SM CLR M03/M04 A3023 RMK AO2 SLP263 T10281044,42.578,-110.1098,2120,"Big Piney Arpt, WY, US",CLR,[],VFR,,1026.3,,,,,,BPI,Miley Memorial Field,United States of America,Big Piney,https://www.worlddata.info/america/usa/airports.php
461,KBPK,2025-11-23 02:02:04.219000+00:00,1763862780,2025-11-23T02:00:00.000Z,11.7,10.0,0,0.0,10+,1022.1,142,METAR,METAR KBPK 230153Z AUTO 00000KT 10SM BKN014 OVC018 12/10 A3018 RMK AO2 SLP216 T01170100 PWINO $,36.3706,-92.4719,279,"Mountain Home/Baxter Cnty, AR, US",OVC,"[{'cover': 'BKN', 'base': 1400}, {'cover': 'OVC', 'base': 1800}]",MVFR,,1021.6,,,,,,WMH,Ozark Regional Airport,United States of America,Mountain Home,https://www.worlddata.info/america/usa/airports.php
462,KBPT,2025-11-23 02:02:04.245000+00:00,1763862780,2025-11-23T02:00:00.000Z,20.0,15.0,0,0.0,10+,1019.7,4,METAR,METAR KBPT 230153Z 00000KT 10SM CLR 20/15 A3011 RMK AO2 SLP196 T02000150,29.9521,-94.0262,6,"Beaumont/SE Texas Rgnl, TX, US",CLR,[],VFR,,1019.6,,,,,,BPT,Jack Brooks Regional Airport,United States of America,Beaumont/Port Arthur,https://www.worlddata.info/america/usa/airports.php
463,KBQK,2025-11-23 01:40:20.321000+00:00,1763861700,2025-11-23T01:35:00.000Z,21.3,18.9,230,5.0,10+,1016.7,6,METAR,METAR KBQK 230135Z AUTO 23005KT 10SM CLR 21/19 A3002 RMK AO2 T02130189,31.2567,-81.4754,7,"Brunswick/Golden Isles Arpt, GA, US",CLR,[],VFR,,,,,,,,BQK,Brunswick Golden Isles Airport,United States of America,Brunswick,https://www.worlddata.info/america/usa/airports.php
464,KBRD,2025-11-23 02:02:04.269000+00:00,1763862780,2025-11-23T02:00:00.000Z,5.0,-1.1,280,8.0,10+,1015.3,6,METAR,METAR KBRD 230153Z AUTO 28008KT 10SM CLR 05/M01 A2998 RMK AO2 SLP167 T00501011,46.4021,-94.1273,372,"Brainerd/Lakes Rgnl, MN, US",CLR,[],VFR,,1016.7,,,,,,BRD,Brainerd Lakes Regional Airport,United States of America,Brainerd,https://www.worlddata.info/america/usa/airports.php
465,KBRL,2025-11-23 02:02:04.298000+00:00,1763862780,2025-11-23T02:00:00.000Z,7.2,5.6,240,8.0,10+,1018.4,6,METAR,METAR KBRL 230153Z AUTO 24008KT 10SM CLR 07/06 A3007 RMK AO2 SLP187 T00720056,40.7729,-91.1255,208,"Burlington/SE Iowa Rgnl, IA, US",CLR,[],VFR,,1018.7,,,,,,BRL,Southeast Iowa Regional Airport,United States of America,Burlington,https://www.worlddata.info/america/usa/airports.php
466,KBRO,2025-11-23 02:02:04.317000+00:00,1763862780,2025-11-23T02:00:00.000Z,26.1,22.8,70,5.0,10+,1018.0,4,METAR,METAR KBRO 230153Z 07005KT 10SM CLR 26/23 A3006 RMK AO2 SLP179 T02610228,25.9146,-97.4231,6,"Brownsville Intl, TX, US",CLR,[],VFR,,1017.9,,,,,,BRO,Brownsville South Padre Island International Airport,United States of America,Brownsville,https://www.worlddata.info/america/usa/airports.php
467,KBRY,2025-11-23 01:38:26.180000+00:00,1763861700,2025-11-23T01:35:00.000Z,5.4,5.4,0,0.0,0.25,1019.4,14,METAR,METAR KBRY 230135Z AUTO 00000KT M1/4SM FG VV001 05/05 A3010 RMK AO2 T00540054 $,37.8079,-85.5011,192,"Bardstown/Samuel Fld, KY, US",OVX,"[{'cover': 'OVX', 'base': 100}]",LIFR,FG,,,1.0,,,,BRY,Samuels Field,United States of America,Bardstown,https://www.worlddata.info/america/usa/airports.php
468,KBTM,2025-11-23 02:02:04.356000+00:00,1763862780,2025-11-23T02:00:00.000Z,1.1,-3.3,160,4.0,10+,1019.4,6,METAR,METAR KBTM 230153Z AUTO 16004KT 10SM 01/M03 A3010 RMK AO2 SLP222 T00111033,45.9644,-112.5015,1680,"Butte/Mooney Arpt, MT, US",,,,,1022.2,,,,,,BTM,Bert Mooney Airport,United States of America,Butte,https://www.worlddata.info/america/usa/airports.php
469,KBTN,2025-11-23 01:46:10.955000+00:00,1763861700,2025-11-23T01:35:00.000Z,4.0,-4.0,320,7.0,10+,1017.4,6,METAR,METAR KBTN 230135Z AUTO 32007KT 10SM CLR 04/M04 A3004 RMK AO2,45.8186,-97.7457,400,"Britton Muni, SD, US",CLR,[],VFR,,,,,,,,TTO,Britton Municipal Airport,United States of America,Britton,https://www.worlddata.info/america/usa/airports.php
470,KBTR,2025-11-23 02:02:04.385000+00:00,1763862780,2025-11-23T02:00:00.000Z,21.7,16.7,0,0.0,10+,1019.7,4,METAR,METAR KBTR 230153Z 00000KT 10SM CLR 22/17 A3011 RMK AO2 SLP194 T02170167,30.5378,-91.1468,20,"Baton Rouge/Ryan Fld, LA, US",CLR,[],VFR,,1019.4,,,,,,BTR,Baton Rouge Metropolitan Airport,United States of America,Baton Rouge,https://www.worlddata.info/america/usa/airports.php
471,KBTV,2025-11-23 02:02:31.041000+00:00,1763862840,2025-11-23T02:00:00.000Z,-1.7,-5.6,0,0.0,10+,1015.7,4,METAR,METAR KBTV 230154Z 00000KT 10SM CLR M02/M06 A2999 RMK AO2 SLP159 T10171056,44.4682,-73.1499,101,"Burlington Intl, VT, US",CLR,[],VFR,,1015.9,,,,,,BTV,Burlington International Airport,United States of America,South Burlington,https://www.worlddata.info/america/usa/airports.php
472,KBUR,2025-11-23 02:02:04.412000+00:00,1763862780,2025-11-23T02:00:00.000Z,19.4,4.4,70,8.0,10+,1014.0,4,METAR,METAR KBUR 230153Z 07008G16KT 020V100 10SM CLR 19/04 A2994 RMK AO2 SLP129 T01940044,34.1996,-118.3654,221,"Burbank/Bob Hope Arpt, CA, US",CLR,[],VFR,,1012.9,,,,16.0,,BUR,Hollywood Burbank Airport,United States of America,Burbank,https://www.worlddata.info/america/usa/airports.php
473,KBVI,2025-11-23 01:40:32+00:00,1763861700,2025-11-23T01:35:00.000Z,5.0,0.0,310,3.0,10+,1017.4,6,METAR,METAR KBVI 230135Z AUTO 31003KT 10SM CLR 05/00 A3004 RMK AO2 T00500000,40.7735,-80.3825,387,"Beaver Falls Arpt, PA, US",CLR,[],VFR,,,,,,,,BFP,Beaver County Airport,United States of America,Beaver Falls,https://www.worlddata.info/america/usa/airports.php
474,KBVS,2025-11-23 01:42:57.927000+00:00,1763861700,2025-11-23T01:35:00.000Z,12.0,12.0,VRB,7.0,10+,1016.7,6,METAR,METAR KBVS 230135Z AUTO VRB07KT 10SM OVC019 12/12 A3002 RMK A01,48.4696,-122.4189,31,"Burlington/Skagit Rgnl, WA, US",OVC,"[{'cover': 'OVC', 'base': 1900}]",MVFR,,,,,,,,MVW,Skagit Regional Airport,United States of America,Burlington,https://www.worlddata.info/america/usa/airports.php
475,KBWD,2025-11-23 01:40:33.151000+00:00,1763861700,2025-11-23T01:35:00.000Z,15.2,10.3,70,3.0,9,1022.4,6,METAR,METAR KBWD 230135Z AUTO 07003KT 9SM CLR 15/10 A3019 RMK AO2 T01520103,31.7898,-98.9522,420,"Brownwood Muni, TX, US",CLR,[],VFR,,,,,,,,BWD,Brownwood Regional Airport,United States of America,Brownwood,https://www.worlddata.info/america/usa/airports.php
476,KBWG,2025-11-23 02:02:04.442000+00:00,1763862780,2025-11-23T02:00:00.000Z,12.8,8.9,20,4.0,10+,1020.1,6,METAR,METAR KBWG 230153Z AUTO 02004KT 10SM OVC015 13/09 A3012 RMK AO2 SLP199 T01280089,36.9647,-86.4238,159,"Bowling Green/Warren Cnty, KY, US",OVC,"[{'cover': 'OVC', 'base': 1500}]",MVFR,,1019.9,,,,,,BWG,Bowling Green Warren County Regional Airport,United States of America,Bowling Green,https://www.worlddata.info/america/usa/airports.php
477,KBWI,2025-11-23 02:02:31.242000+00:00,1763862840,2025-11-23T02:00:00.000Z,5.0,5.0,0,0.0,10+,1017.0,4,METAR,METAR KBWI 230154Z 00000KT 10SM FEW008 FEW040 05/05 A3003 RMK AO2 SLP169 T00500050,39.1733,-76.684,42,"Baltimore-Washington Intl, MD, US",FEW,"[{'cover': 'FEW', 'base': 800}, {'cover': 'FEW', 'base': 4000}]",VFR,,1016.9,,,,,,BWI,Baltimore/Washington International Thurgood Marshall Airport,United States of America,Baltimore,https://www.worlddata.info/america/usa/airports.php
478,KBWP,2025-11-23 01:40:23.019000+00:00,1763861700,2025-11-23T01:35:00.000Z,1.0,-6.0,260,5.0,10+,1016.7,6,METAR,METAR KBWP 230135Z AUTO 26005KT 10SM CLR 01/M06 A3002 RMK AO2,46.2444,-96.6046,294,"Breckenridge-Wahpeton/Stern Arpt, ND, US",CLR,[],VFR,,,,,,,,WAH,Harry Stern Airport,United States of America,Wahpeton,https://www.worlddata.info/america/usa/airports.php
479,KBWW,2025-11-23 01:40:32.025000+00:00,1763861700,2025-11-23T01:35:00.000Z,4.0,0.0,240,8.0,10+,1017.7,6,METAR,METAR KBWW 230135Z AUTO 24008KT 10SM CLR 04/00 A3005 RMK AO2,46.1656,-103.2964,911,"Bowman Rgnl, ND, US",CLR,[],VFR,,,,,,,,BWM,Bowman Regional Airport,United States of America,Bowman,https://www.worlddata.info/america/usa/airports.php
480,KBXA,2025-11-23 01:38:17.628000+00:00,1763861700,2025-11-23T01:35:00.000Z,21.0,20.2,330,3.0,7,1019.0,6,METAR,METAR KBXA 230135Z AUTO 33003KT 7SM CLR 21/20 A3009 RMK AO2 T02100202,30.8104,-89.8628,35,"Bogalusa/Carr Arfld, LA, US",CLR,[],VFR,,,,,,,,BXA,George R Carr Memorial Air Field,United States of America,Bogalusa,https://www.worlddata.info/america/usa/airports.php
481,KBXK,2025-11-23 01:40:17.243000+00:00,1763861700,2025-11-23T01:35:00.000Z,14.0,14.0,350,8.0,10+,1013.3,6,METAR,METAR KBXK 230135Z AUTO 35008KT 10SM BKN080 14/14 A2992 RMK AO2,33.4178,-112.6884,303,"Buckeye Muni, AZ, US",BKN,"[{'cover': 'BKN', 'base': 8000}]",VFR,,,,,,,,BXK,Buckeye Municipal Airport,United States of America,Buckeye,https://www.worlddata.info/america/usa/airports.php
482,KBYI,2025-11-23 02:02:04.470000+00:00,1763862780,2025-11-23T02:00:00.000Z,3.9,0.6,60,5.0,10+,1022.4,6,METAR,METAR KBYI 230153Z AUTO 06005KT 10SM CLR 04/01 A3019 RMK AO2 SLP236 T00390006,42.5453,-113.7686,1263,"Burley Muni, ID, US",CLR,[],VFR,,1023.6,,,,,,BYI,Burley Municipal Airport,United States of America,Burley,https://www.worlddata.info/america/usa/airports.php
483,KBYS,2025-11-23 01:58:08.082000+00:00,1763862900,2025-11-23T02:00:00.000Z,14.2,4.8,300,13.0,10+,1015.3,14,METAR,METAR KBYS 230155Z AUTO 30013KT 10SM CLR 14/05 A2998 RMK AO2 SLPNO T01420048 $,35.271,-116.634,717,"Bicycle Lake , CA, US",CLR,[],VFR,,,,,,,,BYS,Bicycle Lake Army Air Field,United States of America,Fort Irwin/Barstow,https://www.worlddata.info/america/usa/airports.php
484,KBYY,2025-11-23 01:40:21.636000+00:00,1763861700,2025-11-23T01:35:00.000Z,20.4,19.1,40,5.0,10+,1018.7,14,METAR,METAR KBYY 230135Z AUTO 04005KT 10SM CLR 20/19 A3008 RMK AO2 T02040191 $,28.9717,-95.8584,12,"Bay City Muni, TX, US",CLR,[],VFR,,,,,,,,BBC,Bay City Regional Airport,United States of America,Bay City,https://www.worlddata.info/america/usa/airports.php
485,KCAD,2025-11-23 01:40:14.678000+00:00,1763861700,2025-11-23T01:35:00.000Z,4.0,1.0,220,12.0,10+,1011.3,6,METAR,METAR KCAD 230135Z AUTO 22012KT 10SM OVC014 04/01 A2986 RMK AO2,44.2785,-85.4207,397,"Cadillac/Wexford Cnty, MI, US",OVC,"[{'cover': 'OVC', 'base': 1400}]",MVFR,,,,,,,,CAD,Wexford County Airport,United States of America,Cadillac,https://www.worlddata.info/america/usa/airports.php
486,KCAK,2025-11-23 01:56:15.389000+00:00,1763862660,2025-11-23T02:00:00.000Z,0.0,-0.6,300,5.0,8,1017.7,4,METAR,METAR KCAK 230151Z 30005KT 8SM SCT250 00/M01 A3005 RMK AO2 SLP185 T00001006,40.9181,-81.4434,369,"Akron/Canton Rgnl, OH, US",SCT,"[{'cover': 'SCT', 'base': 25000}]",VFR,,1018.5,,,,,,CAK,Akron Canton Regional Airport,United States of America,Akron,https://www.worlddata.info/america/usa/airports.php
487,KCAR,2025-11-23 02:02:31.383000+00:00,1763862840,2025-11-23T02:00:00.000Z,-2.8,-5.6,260,4.0,10+,1008.2,6,METAR,METAR KCAR 230154Z AUTO 26004KT 10SM CLR M03/M06 A2977 RMK AO2 SLP093 T10281056,46.8705,-68.0172,189,"Caribou Muni, ME, US",CLR,[],VFR,,1009.3,,,,,,CAR,Caribou Municipal Airport,United States of America,Caribou,https://www.worlddata.info/america/usa/airports.php
488,KCBE,2025-11-23 01:43:03.536000+00:00,1763861700,2025-11-23T01:35:00.000Z,4.7,2.3,10,3.0,10+,1018.4,6,METAR,METAR KCBE 230135Z AUTO 01003KT 10SM CLR 05/02 A3007 RMK AO2 T00470023,39.6182,-78.7598,226,"Cumberland Arpt, MD, US",CLR,[],VFR,,,,,,,,CBE,Greater Cumberland Regional Airport,United States of America,Wiley Ford,https://www.worlddata.info/america/usa/airports.php
489,KCBF,2025-11-23 01:40:31.531000+00:00,1763861700,2025-11-23T01:35:00.000Z,10.0,4.0,320,10.0,10+,1019.7,6,METAR,METAR KCBF 230135Z AUTO 32010G15KT 10SM CLR 10/04 A3011 RMK AO2,41.2611,-95.7604,379,"Council Bluffs Muni, IA, US",CLR,[],VFR,,,,,,15.0,,CBF,Council Bluffs Municipal Airport,United States of America,Council Bluffs,https://www.worlddata.info/america/usa/airports.php
490,KCBK,2025-11-23 01:42:39.182000+00:00,1763861700,2025-11-23T01:35:00.000Z,8.2,3.4,20,6.0,10+,1022.8,6,METAR,METAR KCBK 230135Z AUTO 02006KT 10SM CLR 08/03 A3020 RMK AO2 T00820034,39.4301,-101.0512,970,"Colby/Shaltz Fld, KS, US",CLR,[],VFR,,,,,,,,CBK,Shalz Field,United States of America,Colby,https://www.worlddata.info/america/usa/airports.php
491,KCBM,2025-11-23 01:58:11.265000+00:00,1763862900,2025-11-23T02:00:00.000Z,18.3,12.5,300,5.0,10+,1017.0,14,METAR,METAR KCBM 230155Z AUTO 30005KT 10SM CLR 18/13 A3003 RMK AO2 SLP170 T01830125 $,33.6519,-88.4567,59,"Columbus AFB, MS, US",CLR,[],VFR,,1017.0,,,,,,CBM,Columbus Air Force Base,United States of America,Columbus,https://www.worlddata.info/america/usa/airports.php
492,KCCR,2025-11-23 02:02:04.512000+00:00,1763862780,2025-11-23T02:00:00.000Z,14.4,9.4,0,0.0,10+,1017.0,4,METAR,METAR KCCR 230153Z 00000KT 10SM CLR 14/09 A3003 RMK AO2 SLP154 T01440094,37.9916,-122.0527,6,"Concord/Buchanan Fld, CA, US",CLR,[],VFR,,1015.4,,,,,,CCR,Buchanan Field,United States of America,Concord,https://www.worlddata.info/america/usa/airports.php
493,KCCY,2025-11-23 01:44:11.259000+00:00,1763861700,2025-11-23T01:35:00.000Z,6.0,5.0,290,9.0,10+,1017.0,6,METAR,METAR KCCY 230135Z AUTO 29009KT 10SM CLR 06/05 A3003 RMK AO2,43.073,-92.6132,340,"Charles City/NE Iowa Rgnl, IA, US",CLR,[],VFR,,,,,,,,CCY,Northeast Iowa Regional Airport,United States of America,Charles City,https://www.worlddata.info/america/usa/airports.php
494,KCDC,2025-11-23 02:02:04.537000+00:00,1763862780,2025-11-23T02:00:00.000Z,4.4,1.1,0,0.0,10+,1021.1,6,METAR,METAR KCDC 230153Z AUTO 00000KT 10SM CLR 04/01 A3015 RMK AO2 SLP209 T00440011,37.7067,-113.097,1703,"Cedar City Muni, UT, US",CLR,[],VFR,,1020.9,,,,,,CDC,Cedar City Regional Airport,United States of America,Cedar City,https://www.worlddata.info/america/usa/airports.php
495,KCDH,2025-11-23 01:38:17.769000+00:00,1763861700,2025-11-23T01:35:00.000Z,14.0,11.0,0,0.0,10+,1021.4,6,METAR,METAR KCDH 230135Z AUTO 00000KT 10SM CLR 14/11 A3016 RMK AO2,33.619,-92.765,38,"Camden/Harrell Fld, AR, US",CLR,[],VFR,,,,,,,,CDH,Harrell Field,United States of America,Camden,https://www.worlddata.info/america/usa/airports.php
496,KCDN,2025-11-23 01:42:58.282000+00:00,1763861700,2025-11-23T01:35:00.000Z,20.0,17.0,210,4.0,10+,1014.6,6,METAR,METAR KCDN 230135Z AUTO 21004KT 10SM CLR 20/17 A2996 RMK AO2,34.2815,-80.5636,90,"Camden/Woodward Fld, SC, US",CLR,[],VFR,,,,,,,,CDN,Woodward Field,United States of America,Camden,https://www.worlddata.info/america/usa/airports.php
497,KCDS,2025-11-23 02:02:04.569000+00:00,1763862780,2025-11-23T02:00:00.000Z,11.1,6.7,110,4.0,10+,1023.5,6,METAR,METAR KCDS 230153Z AUTO 11004KT 10SM CLR 11/07 A3022 RMK AO2 SLP231 T01110067,34.4275,-100.2839,595,"Childress Muni, TX, US",CLR,[],VFR,,1023.1,,,,,,CDS,Childress Municipal Airport,United States of America,Childress,https://www.worlddata.info/america/usa/airports.php
498,KCDW,2025-11-23 02:02:04.611000+00:00,1763862780,2025-11-23T02:00:00.000Z,5.0,-3.3,0,0.0,10+,1017.0,4,METAR,METAR KCDW 230153Z 00000KT 10SM CLR 05/M03 A3003 RMK AO2 SLP174 T00501033,40.8764,-74.2828,52,"Caldwell/Essex Cnty, NJ, US",CLR,[],VFR,,1017.4,,,,,,CDW,Essex County Airport,United States of America,Caldwell,https://www.worlddata.info/america/usa/airports.php
499,KCEF,2025-11-23 01:58:08.760000+00:00,1763862900,2025-11-23T02:00:00.000Z,2.0,-5.2,340,4.0,10+,1015.0,6,METAR,METAR KCEF 230155Z AUTO 34004KT 10SM CLR 02/M05 A2997 RMK AO2 SLP154 T00201052,42.201,-72.525,72,"Chicopee/Westover AFB, MA, US",CLR,[],VFR,,1015.4,,,,,,CEF,Westover Metropolitan Airport / Westover Air Reserve Base,United States of America,Chicopee,https://www.worlddata.info/america/usa/airports.php
500,KCEW,2025-11-23 02:02:04.644000+00:00,1763862780,2025-11-23T02:00:00.000Z,20.0,18.3,230,3.0,10+,1019.0,6,METAR,METAR KCEW 230153Z AUTO 23003KT 10SM CLR 20/18 A3009 RMK AO2 SLP187 T02000183,30.7771,-86.5194,47,"Crestview/Sikes Arpt, FL, US",CLR,[],VFR,,1018.7,,,,,,CEW,Bob Sikes Airport,United States of America,Crestview,https://www.worlddata.info/america/usa/airports.php
501,KCEY,2025-11-23 01:46:11.052000+00:00,1763861700,2025-11-23T01:35:00.000Z,11.0,10.0,360,5.0,10+,1020.7,6,METAR,METAR KCEY 230135Z AUTO 36005KT 10SM OVC012 11/10 A3014 RMK AO2,36.664,-88.372,172,"Murray/Oakley Fld, KY, US",OVC,"[{'cover': 'OVC', 'base': 1200}]",MVFR,,,,,,,,CEY,Murray-Calloway County Airport Kyle-Oakley Field,United States of America,Murray,https://www.worlddata.info/america/usa/airports.php
502,KCFS,2025-11-23 01:38:28.034000+00:00,1763861700,2025-11-23T01:35:00.000Z,4.0,-2.0,180,4.0,10+,1014.0,6,METAR,METAR KCFS 230135Z AUTO 18004KT 10SM OVC065 04/M02 A2994 RMK AO2,43.4624,-83.4428,214,"Tuscola Area Arpt, MI, US",OVC,"[{'cover': 'OVC', 'base': 6500}]",VFR,,,,,,,,TZC,Tuscola Area Airport,United States of America,Caro,https://www.worlddata.info/america/usa/airports.php
503,KCFV,2025-11-23 02:02:26.675000+00:00,1763862720,2025-11-23T02:00:00.000Z,8.9,6.7,210,3.0,10+,1023.1,6,METAR,METAR KCFV 230152Z AUTO 21003KT 10SM OVC009 09/07 A3021 RMK AO2 SLP231 T00890067,37.0912,-95.5726,228,"Coffeyville Muni, KS, US",OVC,"[{'cover': 'OVC', 'base': 900}]",IFR,,1023.1,,,,,,CFV,Coffeyville Municipal Airport,United States of America,Coffeyville,https://www.worlddata.info/america/usa/airports.php
504,KCGE,2025-11-23 01:42:58.323000+00:00,1763861700,2025-11-23T01:35:00.000Z,6.0,6.0,0,0.0,0.25,1016.7,6,METAR,METAR KCGE 230135Z AUTO 00000KT 1/4SM FG VV002 06/06 A3002 RMK A01,38.5371,-76.0309,5,"Cambridge/Dorchester Rgnl, MD, US",OVX,"[{'cover': 'OVX', 'base': 200}]",LIFR,FG,,,2.0,,,,CGE,Cambridge Dorchester Airport,United States of America,Cambridge,https://www.worlddata.info/america/usa/airports.php
505,KCGF,2025-11-23 01:48:48.029000+00:00,1763862300,2025-11-23T02:00:00.000Z,3.0,1.0,0,0.0,10+,1017.0,0,METAR,METAR KCGF 230145Z 00000KT 10SM CLR 03/01 A3003,41.566,-81.4827,265,"Cleveland/Cuyahoga Cnty, OH, US",CLR,[],VFR,,,,,,,,CGF,Cuyahoga County Airport,United States of America,Cleveland,https://www.worlddata.info/america/usa/airports.php
506,KCGI,2025-11-23 02:02:04.672000+00:00,1763862780,2025-11-23T02:00:00.000Z,6.7,6.7,250,3.0,5,1021.1,6,METAR,METAR KCGI 230153Z AUTO 25003KT 5SM BR CLR 07/07 A3015 RMK AO2 SLP210 T00670067,37.2254,-89.5785,103,"Cape Girardeau Rgnl, MO, US",CLR,[],MVFR,BR,1021.0,,,,,,CGI,Cape Girardeau Regional Airport,United States of America,Cape Girardeau,https://www.worlddata.info/america/usa/airports.php
507,KCGS,2025-11-23 01:42:58.361000+00:00,1763861700,2025-11-23T01:35:00.000Z,5.3,4.8,0,0.0,5,1017.4,6,METAR,METAR KCGS 230135Z AUTO 00000KT 5SM BR CLR 05/05 A3004 RMK AO2 T00530048,38.9806,-76.9251,15,"College Park Arpt, MD, US",CLR,[],MVFR,BR,,,,,,,CGS,College Park Airport,United States of America,College Park,https://www.worlddata.info/america/usa/airports.php
508,KCHA,2025-11-23 02:02:04.700000+00:00,1763862780,2025-11-23T02:00:00.000Z,17.2,12.8,340,9.0,10+,1017.7,12,METAR,METAR KCHA 230153Z 34009KT 10SM FEW070 17/13 A3005 RMK AO2 SLP171 T01720128 $,35.0336,-85.2004,203,"Chattanooga Metro, TN, US",FEW,"[{'cover': 'FEW', 'base': 7000}]",VFR,,1017.1,,,,,,CHA,Chattanooga Metropolitan Airport (Lovell Field),United States of America,Chattanooga,https://www.worlddata.info/america/usa/airports.php
509,KCHK,2025-11-23 01:42:58.454000+00:00,1763861700,2025-11-23T01:35:00.000Z,8.2,6.6,0,0.0,10+,1022.1,6,METAR,METAR KCHK 230135Z AUTO 00000KT 10SM CLR 08/07 A3018 RMK AO2 T00820066,35.0927,-97.9709,346,"Chickasha Muni, OK, US",CLR,[],VFR,,,,,,,,CHK,Chickasha Municipal Airport,United States of America,Chickasha,https://www.worlddata.info/america/usa/airports.php
510,KCHO,2025-11-23 01:12:04.394000+00:00,1763860080,2025-11-23T01:08:00.000Z,9.4,8.9,0,0.0,6,1016.3,12,SPECI,SPECI KCHO 230108Z 00000KT 6SM BR OVC034 09/09 A3001 RMK AO2 T00940089 $,38.1374,-78.4551,193,"Charlottesville/Albemarle Arpt, VA, US",OVC,"[{'cover': 'OVC', 'base': 3400}]",VFR,BR,,,,,,,CHO,Charlottesville Albemarle Airport,United States of America,Charlottesville,https://www.worlddata.info/america/usa/airports.php
511,KCHS,2025-11-23 02:00:42.571000+00:00,1763862960,2025-11-23T02:00:00.000Z,17.8,17.2,200,6.0,10+,1015.7,12,METAR,METAR KCHS 230156Z 20006KT 10SM SCT080 18/17 A2999 RMK AO2 SLP155 T01780172 $,32.8995,-80.0407,12,"Charleston Intl, SC, US",SCT,"[{'cover': 'SCT', 'base': 8000}]",VFR,,1015.5,,,,,,CHS,Charleston International Airport,United States of America,Charleston,https://www.worlddata.info/america/usa/airports.php
512,KCID,2025-11-23 02:02:26.779000+00:00,1763862720,2025-11-23T02:00:00.000Z,7.2,5.0,290,9.0,10+,1017.0,4,METAR,METAR KCID 230152Z 29009KT 10SM CLR 07/05 A3003 RMK AO2 SLP177 T00720050,41.8829,-91.7246,257,"Cedar Rapids/E Iowa Arpt, IA, US",CLR,[],VFR,,1017.7,,,,,,CID,The Eastern Iowa Airport,United States of America,Cedar Rapids,https://www.worlddata.info/america/usa/airports.php
513,KCIN,2025-11-23 01:42:58.488000+00:00,1763861700,2025-11-23T01:35:00.000Z,4.0,4.0,280,8.0,10+,1019.4,6,METAR,METAR KCIN 230135Z AUTO 28008KT 10SM CLR 04/04 A3010 RMK AO2,42.0444,-94.7888,365,"Carroll/Neu Arpt, IA, US",CLR,[],VFR,,,,,,,,CIN,Arthur N Neu Airport,United States of America,Carroll,https://www.worlddata.info/america/usa/airports.php
514,KCIR,2025-11-23 01:44:09.447000+00:00,1763861700,2025-11-23T01:35:00.000Z,8.3,8.0,0,0.0,4,1021.4,6,METAR,METAR KCIR 230135Z AUTO 00000KT 4SM CLR 08/08 A3016 RMK AO2 T00830080,37.0639,-89.2232,96,"Cairo Rgnl, IL, US",CLR,[],MVFR,,,,,,,,CIR,Cairo Regional Airport,United States of America,Cairo,https://www.worlddata.info/america/usa/airports.php
515,KCKB,2025-11-23 02:02:04.730000+00:00,1763862780,2025-11-23T02:00:00.000Z,4.4,3.9,0,0.0,10+,1017.7,4,METAR,METAR KCKB 230153Z 00000KT 10SM FEW035 04/04 A3005 RMK AO2 SLP176 T00440039,39.3022,-80.2239,368,"Clarksburg/NC West Virginia Arpt, WV, US",FEW,"[{'cover': 'FEW', 'base': 3500}]",VFR,,1017.6,,,,,,CKB,North Central West Virginia Airport,United States of America,Bridgeport,https://www.worlddata.info/america/usa/airports.php
516,KCKC,2025-11-23 02:02:31.869000+00:00,1763862900,2025-11-23T02:00:00.000Z,3.0,1.0,300,7.0,10+,1006.5,6,METAR,METAR KCKC 230155Z AUTO 30007G20KT 253V023 10SM DZ BKN017 OVC023 03/01 A2972 RMK AO2,47.8366,-90.3864,544,"Grand Marais Muni, MN, US",OVC,"[{'cover': 'BKN', 'base': 1700}, {'cover': 'OVC', 'base': 2300}]",MVFR,DZ,,,,,20.0,,GRM,Grand Marais Cook County Airport,United States of America,Grand Marais,https://www.worlddata.info/america/usa/airports.php
517,KCKM,2025-11-23 01:38:26.367000+00:00,1763861700,2025-11-23T01:35:00.000Z,,,310,6.0,10+,1020.4,6,METAR,METAR KCKM 230135Z AUTO 31006KT 10SM A3013 RMK A01,34.2945,-90.5146,52,"Clarksdale/Fletcher Fld, MS, US",,,,,,,,,,,CKM,Fletcher Field,United States of America,Clarksdale,https://www.worlddata.info/america/usa/airports.php
518,KCKN,2025-11-23 02:02:32.104000+00:00,1763862900,2025-11-23T02:00:00.000Z,1.0,-2.0,250,8.0,10+,1015.7,6,METAR,METAR KCKN 230155Z AUTO 25008KT 10SM CLR 01/M02 A2999 RMK AO2,47.8404,-96.6201,272,"Crookston Muni, MN, US",CLR,[],VFR,,,,,,,,CKN,Crookston Municipal Kirkwood Field,United States of America,Crookston,https://www.worlddata.info/america/usa/airports.php
519,KCKV,2025-11-23 02:02:26.916000+00:00,1763862720,2025-11-23T02:00:00.000Z,11.1,8.9,360,7.0,10+,1020.4,6,METAR,METAR KCKV 230152Z AUTO 36007KT 10SM OVC011 11/09 A3013 RMK AO2 SLP201 T01110089,36.6169,-87.4117,166,"Clarksville/Outlaw Fld, TN, US",OVC,"[{'cover': 'OVC', 'base': 1100}]",MVFR,,1020.1,,,,,,CKV,Clarksville–Montgomery County Regional Airport,United States of America,Clarksville,https://www.worlddata.info/america/usa/airports.php
520,KCLE,2025-11-23 01:56:13.225000+00:00,1763862660,2025-11-23T02:00:00.000Z,0.0,-0.6,150,7.0,9,1016.0,4,METAR,METAR KCLE 230151Z 15007KT 9SM SCT250 00/M01 A3000 RMK AO2 SLP181 T00001006,41.4057,-81.8519,237,"Cleveland/Hopkins Intl, OH, US",SCT,"[{'cover': 'SCT', 'base': 25000}]",VFR,,1018.1,,,,,,CLE,Cleveland Hopkins International Airport,United States of America,Cleveland,https://www.worlddata.info/america/usa/airports.php
521,KCLI,2025-11-23 01:40:28.482000+00:00,1763861700,2025-11-23T01:35:00.000Z,1.6,-2.7,270,5.0,10+,1012.6,6,METAR,METAR KCLI 230135Z AUTO 27005KT 10SM CLR 02/M03 A2990 RMK AO2 T00161027,44.6152,-88.7313,248,"Clintonville Muni, WI, US",CLR,[],VFR,,,,,,,,CLI,Clintonville Municipal Airport,United States of America,Clintonville,https://www.worlddata.info/america/usa/airports.php
522,KCLK,2025-11-23 01:52:03.518000+00:00,1763862900,2025-11-23T02:00:00.000Z,10.0,7.0,90,6.0,10+,1023.5,6,METAR,METAR KCLK 230155Z AUTO 09006KT 10SM CLR 10/07 A3022 RMK AO2,35.5381,-98.9336,489,"Clinton Rgnl, OK, US",CLR,[],VFR,,,,,,,,CLK,Clinton Regional Airport,United States of America,Clinton,https://www.worlddata.info/america/usa/airports.php
523,KCLL,2025-11-23 02:02:04.758000+00:00,1763862780,2025-11-23T02:00:00.000Z,16.1,11.1,360,6.0,10+,1021.4,4,METAR,METAR KCLL 230153Z 36006KT 10SM CLR 16/11 A3016 RMK AO2 SLP209 T01610111,30.5912,-96.3631,96,"College Station/Easterwood Arpt, TX, US",CLR,[],VFR,,1020.9,,,,,,CLL,Easterwood Field,United States of America,College Station,https://www.worlddata.info/america/usa/airports.php
524,KCLM,2025-11-23 02:02:04.779000+00:00,1763862780,2025-11-23T02:00:00.000Z,8.3,7.2,260,3.0,10+,1015.7,6,METAR,METAR KCLM 230153Z AUTO 26003KT 10SM SCT060 08/07 A2999 RMK AO2 SLP157 T00830072,48.1219,-123.5066,81,"Port Angeles Intl, WA, US",SCT,"[{'cover': 'SCT', 'base': 6000}]",VFR,,1015.7,,,,,,CLM,William R Fairchild International Airport,United States of America,Port Angeles,https://www.worlddata.info/america/usa/airports.php
525,KCLS,2025-11-23 02:02:27.152000+00:00,1763862900,2025-11-23T02:00:00.000Z,10.0,9.0,180,6.0,10+,1019.7,6,METAR,METAR KCLS 230155Z AUTO 18006KT 10SM SCT030 BKN037 OVC044 10/09 A3011 RMK AO2,46.6775,-122.9857,52,"Chehalis-Centralia Arpt, WA, US",OVC,"[{'cover': 'SCT', 'base': 3000}, {'cover': 'BKN', 'base': 3700}, {'cover': 'OVC', 'base': 4400}]",VFR,,,,,,,,CLS,Chehalis Centralia Airport,United States of America,Chehalis,https://www.worlddata.info/america/usa/airports.php
526,KCLT,2025-11-23 02:02:27.253000+00:00,1763862720,2025-11-23T02:00:00.000Z,18.3,9.4,20,4.0,10+,1015.3,4,METAR,METAR KCLT 230152Z 02004KT 10SM SCT070 SCT085 18/09 A2998 RMK AO2 SLP159 T01830094,35.2225,-80.9543,223,"Charlotte/Douglas Intl, NC, US",SCT,"[{'cover': 'SCT', 'base': 7000}, {'cover': 'SCT', 'base': 8500}]",VFR,,1015.9,,,,,,CLT,Charlotte Douglas International Airport,United States of America,Charlotte,https://www.worlddata.info/america/usa/airports.php
527,KCLW,2025-11-23 01:38:26.427000+00:00,1763861700,2025-11-23T01:35:00.000Z,20.0,18.0,310,3.0,10+,1019.4,6,METAR,METAR KCLW 230135Z AUTO 31003KT 10SM CLR 20/18 A3010 RMK AO2,27.9741,-82.7563,21,"Clearwater Air Park, FL, US",CLR,[],VFR,,,,,,,,CLW,Clearwater Air Park,United States of America,Clearwater,https://www.worlddata.info/america/usa/airports.php
528,KCMH,2025-11-23 01:54:12.936000+00:00,1763862660,2025-11-23T02:00:00.000Z,2.8,0.0,140,3.0,10+,1018.0,4,METAR,METAR KCMH 230151Z 14003KT 10SM CLR 03/00 A3006 RMK AO2 SLP184 T00280000,39.9907,-82.877,257,"Columbus/Glenn Intl, OH, US",CLR,[],VFR,,1018.4,,,,,,CMH,John Glenn Columbus International Airport,United States of America,Columbus,https://www.worlddata.info/america/usa/airports.php
529,KCMX,2025-11-23 02:02:04.806000+00:00,1763862780,2025-11-23T02:00:00.000Z,6.7,1.7,290,18.0,10+,1006.9,6,METAR,METAR KCMX 230153Z AUTO 29018G30KT 10SM FEW019 OVC026 07/02 A2973 RMK AO2 PK WND 29036/0100 SLP076 T00670017,47.1705,-88.4854,326,"Houghton Cnty Mem, MI, US",OVC,"[{'cover': 'FEW', 'base': 1900}, {'cover': 'OVC', 'base': 2600}]",MVFR,,1007.6,,,,30.0,,CMX,Houghton County Memorial Airport,United States of America,Hancock,https://www.worlddata.info/america/usa/airports.php
530,KCMY,2025-11-23 01:56:06.217000+00:00,1763862900,2025-11-23T02:00:00.000Z,-0.9,-1.5,0,0.0,10+,1014.0,14,METAR,METAR KCMY 230155Z AUTO 00000KT 10SM CLR M01/M01 A2994 RMK AO2 SLP153 T10091015 $,43.9581,-90.7398,253,"Sparta/Ft McCoy Arpt, WI, US",CLR,[],VFR,,1015.3,,,,,,CMY,Sparta Fort McCoy Airport,United States of America,Sparta,https://www.worlddata.info/america/usa/airports.php
531,KCNO,2025-11-23 02:02:04.829000+00:00,1763862780,2025-11-23T02:00:00.000Z,18.9,5.6,80,3.0,10+,1013.6,12,METAR,METAR KCNO 230153Z 08003KT 10SM SCT110 19/06 A2993 RMK AO2 SLP132 T01890056 $,33.9756,-117.6249,191,"Chino Arpt, CA, US",SCT,"[{'cover': 'SCT', 'base': 11000}]",VFR,,1013.2,,,,,,CNO,Chino Airport,United States of America,Chino,https://www.worlddata.info/america/usa/airports.php
532,KCNU,2025-11-23 02:02:27.367000+00:00,1763862720,2025-11-23T02:00:00.000Z,7.8,6.7,190,7.0,8,1022.8,6,METAR,METAR KCNU 230152Z AUTO 19007KT 8SM OVC006 08/07 A3020 RMK AO2 SLP229 T00780067,37.6705,-95.4846,301,"Chanute/Johnson Arpt, KS, US",OVC,"[{'cover': 'OVC', 'base': 600}]",IFR,,1022.9,,,,,,CNU,Chanute Martin Johnson Airport,United States of America,Chanute,https://www.worlddata.info/america/usa/airports.php
533,KCNW,2025-11-23 01:41:49.380000+00:00,1763862900,2025-11-23T02:00:00.000Z,16.0,11.0,20,4.0,10+,1022.1,0,METAR,METAR KCNW 230155Z 02004KT 10SM CLR 16/11 A3018,31.637,-97.071,139,"Waco/Texas State Tech Arpt, TX, US",CLR,[],VFR,,,,,,,,CNW,TSTC Waco Airport,United States of America,Waco,https://www.worlddata.info/america/usa/airports.php
534,KCNY,2025-11-23 02:02:04.856000+00:00,1763862780,2025-11-23T02:00:00.000Z,5.6,4.4,260,6.0,10+,1022.1,6,METAR,METAR KCNY 230153Z AUTO 26006KT 10SM CLR 06/04 A3018 RMK AO2 SLP226 T00560044,38.7501,-109.7627,1392,"Moab/Canyonland Fld, UT, US",CLR,[],VFR,,1022.6,,,,,,CNY,Canyonlands Regional Airport,United States of America,Moab,https://www.worlddata.info/america/usa/airports.php
535,KCOF,2025-11-23 01:58:11.852000+00:00,1763862900,2025-11-23T02:00:00.000Z,21.8,19.3,180,4.0,10+,1017.7,14,METAR,METAR KCOF 230155Z AUTO 18004KT 10SM CLR 22/19 A3005 RMK AO2 SLP180 T02180193 $,28.242,-80.608,1,"Cocoa Beach/Patrick, FL, US",CLR,[],VFR,,1018.0,,,,,,COF,Patrick Space Force Base,United States of America,Cocoa Beach,https://www.worlddata.info/america/usa/airports.php
536,KCOM,2025-11-23 01:42:58.970000+00:00,1763861700,2025-11-23T01:35:00.000Z,14.6,8.8,0,0.0,10+,1022.8,134,METAR,METAR KCOM 230135Z AUTO 00000KT 10SM CLR 15/09 A3020 RMK AO2 T01460088 PWINO,31.8415,-99.4058,516,"Coleman Muni, TX, US",CLR,[],VFR,,,,,,,,COM,Coleman Municipal Airport,United States of America,Coleman,https://www.worlddata.info/america/usa/airports.php
537,KCON,2025-11-23 01:56:15.411000+00:00,1763862660,2025-11-23T02:00:00.000Z,-1.7,-7.8,310,6.0,10+,1014.6,14,METAR,METAR KCON 230151Z AUTO 31006KT 10SM CLR M02/M08 A2996 RMK AO2 SLP151 T10171078 $,43.2049,-71.5026,102,"Concord Muni, NH, US",CLR,[],VFR,,1015.1,,,,,,CON,Concord Municipal Airport,United States of America,Concord,https://www.worlddata.info/america/usa/airports.php
538,KCOS,2025-11-23 02:02:32.452000+00:00,1763862840,2025-11-23T02:00:00.000Z,6.1,-1.1,110,6.0,10+,1024.8,12,METAR,METAR KCOS 230154Z 11006KT 10SM CLR 06/M01 A3026 RMK AO2 SLP254 T00611011 $,38.8095,-104.6887,1886,"Colorado Spring Arpt, CO, US",CLR,[],VFR,,1025.4,,,,,,COS,City of Colorado Springs Municipal Airport,United States of America,Colorado Springs,https://www.worlddata.info/america/usa/airports.php
539,KCOT,2025-11-23 02:02:04.876000+00:00,1763862780,2025-11-23T02:00:00.000Z,25.0,18.9,100,10.0,10+,1019.0,14,METAR,METAR KCOT 230153Z AUTO 10010KT 10SM CLR 25/19 A3009 RMK AO2 SLP182 T02500189 $,28.4585,-99.2228,144,"Cotulla/LaSalle Cnty, TX, US",CLR,[],VFR,,1018.2,,,,,,COT,Cotulla-La Salle County Airport,United States of America,Cotulla,https://www.worlddata.info/america/usa/airports.php
540,KCOU,2025-11-23 02:02:32.616000+00:00,1763862840,2025-11-23T02:00:00.000Z,7.8,7.2,220,5.0,10+,1021.8,12,METAR,METAR KCOU 230154Z 22005KT 10SM OVC004 08/07 A3017 RMK AO2 SLP218 T00780072 $,38.8171,-92.2148,272,"Columbia Rgnl, MO, US",OVC,"[{'cover': 'OVC', 'base': 400}]",LIFR,,1021.8,,,,,,COU,Columbia Regional Airport,United States of America,Columbia,https://www.worlddata.info/america/usa/airports.php
541,KCPS,2025-11-23 02:02:04.901000+00:00,1763862780,2025-11-23T02:00:00.000Z,8.3,6.7,220,3.0,10+,1020.7,4,METAR,METAR KCPS 230153Z 22003KT 10SM CLR 08/07 A3014 RMK AO2 SLP209 T00830067,38.57,-90.156,125,"St Louis/Downtown Arpt, IL, US",CLR,[],VFR,,1020.9,,,,,,CPS,St Louis Downtown Airport,United States of America,Cahokia/St Louis,https://www.worlddata.info/america/usa/airports.php
542,KCQW,2025-11-23 01:38:13.747000+00:00,1763861700,2025-11-23T01:35:00.000Z,19.0,18.0,0,0.0,7,1014.0,6,METAR,METAR KCQW 230135Z AUTO 00000KT 7SM FEW048 BKN055 OVC090 19/18 A2994 RMK AO2,34.7128,-79.9622,67,"Cheraw Muni, SC, US",OVC,"[{'cover': 'FEW', 'base': 4800}, {'cover': 'BKN', 'base': 5500}, {'cover': 'OVC', 'base': 9000}]",VFR,,,,,,,,HCW,Cheraw Municipal Airport/Lynch Bellinger Field,United States of America,Cheraw,https://www.worlddata.info/america/usa/airports.php
543,KCRE,2025-11-23 02:02:04.924000+00:00,1763862780,2025-11-23T02:00:00.000Z,18.3,16.7,230,5.0,10+,1014.3,14,METAR,METAR KCRE 230153Z AUTO 23005KT 10SM CLR 18/17 A2995 RMK AO1 SLP141 T01830167 $,33.8162,-78.7204,9,"North Myrtle Beach/Grand Strand Arpt, SC, US",CLR,[],VFR,,1014.1,,,,,,CRE,Grand Strand Airport,United States of America,North Myrtle Beach,https://www.worlddata.info/america/usa/airports.php
544,KCRG,2025-11-23 02:02:04.958000+00:00,1763862780,2025-11-23T02:00:00.000Z,22.8,16.1,240,4.0,10+,1017.7,6,METAR,METAR KCRG 230153Z AUTO 24004KT 10SM CLR 23/16 A3005 RMK AO2 SLP175 T02280161,30.3371,-81.5128,12,"Jacksonville/Executive at Craig Arpt, FL, US",CLR,[],VFR,,1017.5,,,,,,CRG,Jacksonville Executive at Craig Airport,United States of America,Jacksonville,https://www.worlddata.info/america/usa/airports.php
545,KCRP,2025-11-23 01:54:12.970000+00:00,1763862660,2025-11-23T02:00:00.000Z,25.0,23.3,90,8.0,10+,1018.7,12,METAR,METAR KCRP 230151Z 09008KT 10SM FEW008 SCT065 BKN250 25/23 A3008 RMK AO2 SLP186 T02500233 $,27.7734,-97.513,11,"Corpus Christi Intl, TX, US",BKN,"[{'cover': 'FEW', 'base': 800}, {'cover': 'SCT', 'base': 6500}, {'cover': 'BKN', 'base': 25000}]",VFR,,1018.6,,,,,,CRP,Corpus Christi International Airport,United States of America,Corpus Christi,https://www.worlddata.info/america/usa/airports.php
546,KCRQ,2025-11-23 02:02:54.451000+00:00,1763862780,2025-11-23T02:00:00.000Z,17.8,10.0,VRB,3.0,10+,1013.0,4,METAR,METAR KCRQ 230153Z VRB03KT 10SM BKN100 OVC120 18/10 A2991 RMK AO2 SLP126 T01780100,33.1299,-117.2765,96,"Carlsbad/Palomar Arpt, CA, US",OVC,"[{'cover': 'BKN', 'base': 10000}, {'cover': 'OVC', 'base': 12000}]",VFR,,1012.6,,,,,,CLD,McClellan-Palomar Airport,United States of America,Carlsbad,https://www.worlddata.info/america/usa/airports.php
547,KCRS,2025-11-23 02:02:54.522000+00:00,1763862780,2025-11-23T02:00:00.000Z,15.6,9.4,20,3.0,10+,1022.8,6,METAR,METAR KCRS 230153Z AUTO 02003KT 10SM CLR 16/09 A3020 RMK AO2 SLP224 T01560094,32.0316,-96.3994,136,"Corsicana Muni, TX, US",CLR,[],VFR,,1022.4,,,,,,CRS,C David Campbell Field Corsicana Municipal Airport,United States of America,Corsicana,https://www.worlddata.info/america/usa/airports.php
548,KCRW,2025-11-23 02:02:33.079000+00:00,1763862840,2025-11-23T02:00:00.000Z,9.4,7.2,0,0.0,10+,1018.4,12,METAR,METAR KCRW 230154Z 00000KT 10SM FEW025 OVC038 09/07 A3007 RMK AO2 SLP182 T00940072 $,38.3795,-81.5911,278,"Charleston/Yeager Arpt, WV, US",OVC,"[{'cover': 'FEW', 'base': 2500}, {'cover': 'OVC', 'base': 3800}]",VFR,,1018.2,,,,,,CRW,Yeager Airport,United States of America,Charleston,https://www.worlddata.info/america/usa/airports.php
549,KCRX,2025-11-23 01:46:11.092000+00:00,1763861700,2025-11-23T01:35:00.000Z,16.0,14.0,330,4.0,10+,1019.4,6,METAR,METAR KCRX 230135Z AUTO 33004KT 10SM BKN044 16/14 A3010 RMK AO2,34.9209,-88.6071,128,"Corinth/Turner Fld, MS, US",BKN,"[{'cover': 'BKN', 'base': 4400}]",VFR,,,,,,,,CRX,Roscoe Turner Airport,United States of America,Corinth,https://www.worlddata.info/america/usa/airports.php
550,KCSG,2025-11-23 01:54:13.766000+00:00,1763862660,2025-11-23T02:00:00.000Z,20.0,17.8,260,3.0,10+,1017.0,4,METAR,METAR KCSG 230151Z 26003KT 10SM CLR 20/18 A3003 RMK AO2 SLP165 T02000178,32.5163,-84.9422,120,"Columbus Arpt, GA, US",CLR,[],VFR,,1016.5,,,,,,CSG,Columbus Metropolitan Airport,United States of America,Columbus,https://www.worlddata.info/america/usa/airports.php
551,KCSQ,2025-11-23 01:42:59.231000+00:00,1763861700,2025-11-23T01:35:00.000Z,8.0,6.0,290,6.0,10+,1019.0,6,METAR,METAR KCSQ 230135Z AUTO 29006KT 10SM CLR 08/06 A3009 RMK AO2,41.0189,-94.361,394,"Creston Muni, IA, US",CLR,[],VFR,,,,,,,,CSQ,Creston Municipal Airport,United States of America,Creston,https://www.worlddata.info/america/usa/airports.php
552,KCSV,2025-11-23 02:02:54.638000+00:00,1763862780,2025-11-23T02:00:00.000Z,12.8,11.7,0,0.0,10+,1018.7,6,METAR,METAR KCSV 230153Z AUTO 00000KT 10SM SCT060 13/12 A3008 RMK AO2 SLP177 T01280117,35.951,-85.0814,569,"Crossville/Whitson Fld, TN, US",SCT,"[{'cover': 'SCT', 'base': 6000}]",VFR,,1017.7,,,,,,CSV,Crossville Memorial Airport Whitson Field,United States of America,Crossville,https://www.worlddata.info/america/usa/airports.php
553,KCTY,2025-11-23 01:42:03.576000+00:00,1763861700,2025-11-23T01:35:00.000Z,20.0,20.0,200,6.0,8,1018.4,6,METAR,METAR KCTY 230135Z AUTO 20006KT 8SM FEW003 FEW080 20/20 A3007 RMK AO2,29.6334,-83.1055,12,"Cross City Arpt, FL, US",FEW,"[{'cover': 'FEW', 'base': 300}, {'cover': 'FEW', 'base': 8000}]",VFR,,,,,,,,CTY,Cross City Airport,United States of America,Cross City,https://www.worlddata.info/america/usa/airports.php
554,KCTZ,2025-11-23 01:42:59.434000+00:00,1763861700,2025-11-23T01:35:00.000Z,19.6,18.9,0,0.0,10+,1014.0,6,METAR,METAR KCTZ 230135Z AUTO 00000KT 10SM SCT070 BKN080 BKN090 20/19 A2994 RMK AO2 T01960189,34.9752,-78.3628,43,"Clinton/Sampson Cnty, NC, US",BKN,"[{'cover': 'SCT', 'base': 7000}, {'cover': 'BKN', 'base': 8000}, {'cover': 'BKN', 'base': 9000}]",VFR,,,,,,,,CTZ,Sampson County Airport,United States of America,Clinton,https://www.worlddata.info/america/usa/airports.php
555,KCUB,2025-11-23 02:02:54.723000+00:00,1763862780,2025-11-23T02:00:00.000Z,17.2,16.1,0,0.0,9,1015.0,6,METAR,METAR KCUB 230153Z AUTO 00000KT 9SM CLR 17/16 A2997 RMK AO2 SLP145 T01720161,33.972,-80.9938,55,"Columbia/Downtown Arpt, SC, US",CLR,[],VFR,,1014.5,,,,,,CUB,Jim Hamilton L.B. Owens Airport,United States of America,Columbia,https://www.worlddata.info/america/usa/airports.php
556,KCVG,2025-11-23 02:02:27.599000+00:00,1763862720,2025-11-23T02:00:00.000Z,5.0,3.3,280,4.0,8,1019.0,12,METAR,METAR KCVG 230152Z 28004KT 8SM CLR 05/03 A3009 RMK AO2 SLP190 T00500033 $,39.0444,-84.6724,264,"Cincinnati Intl, KY, US",CLR,[],VFR,,1019.0,,,,,,CVG,Cincinnati Northern Kentucky International Airport,United States of America,Cincinnati / Covington,https://www.worlddata.info/america/usa/airports.php
557,KCVS,2025-11-23 01:58:10.384000+00:00,1763862900,2025-11-23T02:00:00.000Z,10.0,4.2,110,6.0,10+,1022.8,14,METAR,METAR KCVS 230155Z AUTO 11006KT 10SM CLR 10/04 A3020 RMK AO2 SLP221 T01000042 $,34.381,-103.322,1305,"Clovis/Cannon AFB, NM, US",CLR,[],VFR,,1022.1,,,,,,CVS,Cannon Air Force Base,United States of America,Clovis,https://www.worlddata.info/america/usa/airports.php
558,KCWA,2025-11-23 01:53:40.682000+00:00,1763862600,2025-11-23T02:00:00.000Z,1.0,0.0,260,6.0,10+,1011.9,0,METAR,METAR KCWA 230150Z 26006KT 10SM CLR 01/00 A2988,44.7795,-89.671,387,"Mosinee/C Wisconsin Arpt, WI, US",CLR,[],VFR,,,,,,,,CWA,Central Wisconsin Airport,United States of America,Mosinee,https://www.worlddata.info/america/usa/airports.php
559,KCWC,2025-11-23 01:40:17.277000+00:00,1763861700,2025-11-23T01:35:00.000Z,12.5,7.6,100,8.0,10+,1023.5,134,METAR,METAR KCWC 230135Z AUTO 10008KT 10SM CLR 13/08 A3022 RMK AO2 T01250076 PWINO,33.8629,-98.4914,304,"Wichita Falls/Kickapoo Arpt, TX, US",CLR,[],VFR,,,,,,,,KIP,Kickapoo Downtown Airport,United States of America,Wichita Falls,https://www.worlddata.info/america/usa/airports.php
560,KCWF,2025-11-23 01:50:49.305000+00:00,1763862300,2025-11-23T02:00:00.000Z,21.0,14.0,350,3.0,10+,1020.1,0,METAR,METAR KCWF 230145Z 35003KT 10SM CLR 21/14 A3012,30.2216,-93.1467,4,"Chenault Intl, LA, US",CLR,[],VFR,,,,,,,,CWF,Chennault International Airport,United States of America,Lake Charles,https://www.worlddata.info/america/usa/airports.php
561,KCXO,2025-11-23 02:02:54.816000+00:00,1763862780,2025-11-23T02:00:00.000Z,17.2,11.7,350,3.0,10+,1021.1,4,METAR,METAR KCXO 230153Z 35003KT 10SM CLR 17/12 A3015 RMK AO2 SLP207 T01720117,30.3611,-95.4176,69,"Conroe/Executive Arpt, TX, US",CLR,[],VFR,,1020.7,,,,,,CXO,Conroe-North Houston Regional Airport,United States of America,Houston,https://www.worlddata.info/america/usa/airports.php
562,KCXP,2025-11-23 01:52:03.087000+00:00,1763861700,2025-11-23T01:35:00.000Z,8.0,2.0,50,8.0,10+,1022.1,6,METAR,METAR KCXP 230135Z AUTO 05008KT 10SM CLR 08/02 A3018 RMK AO2,39.1905,-119.7319,1431,"Carson City Arpt, NV, US",CLR,[],VFR,,,,,,,,CSN,Carson Airport,United States of America,Carson City,https://www.worlddata.info/america/usa/airports.php
563,KCZT,2025-11-23 01:40:30.212000+00:00,1763861700,2025-11-23T01:35:00.000Z,25.0,14.0,80,6.0,10+,1019.0,6,METAR,METAR KCZT 230135Z AUTO 08006KT 10SM SCT050 OVC070 25/14 A3009 RMK AO2,28.5204,-99.8192,176,"Carrizo Springs Arpt, TX, US",OVC,"[{'cover': 'SCT', 'base': 5000}, {'cover': 'OVC', 'base': 7000}]",VFR,,,,,,,,CZT,Dimmit County Airport,United States of America,Carrizo Springs,https://www.worlddata.info/america/usa/airports.php
564,KDAA,2025-11-23 01:58:11.307000+00:00,1763862900,2025-11-23T02:00:00.000Z,5.4,4.5,310,3.0,10+,1016.3,14,METAR,METAR KDAA 230155Z AUTO 31003KT 10SM CLR 05/05 A3001 RMK AO2 SLP165 T00540045 $,38.714,-77.178,17,"Fort Belvoir/Davison, VA, US",CLR,[],VFR,,1016.5,,,,,,DAA,Davison Army Air Field,United States of America,Fort Belvoir,https://www.worlddata.info/america/usa/airports.php
565,KDAB,2025-11-23 02:00:42.589000+00:00,1763862780,2025-11-23T02:00:00.000Z,20.0,15.6,250,7.0,10+,1018.7,4,METAR,METAR KDAB 230153Z 25007KT 10SM CLR 20/16 A3008 RMK AO2 SLP184 T02000156,29.1735,-81.0719,8,"Daytona Beach Intl, FL, US",CLR,[],VFR,,1018.4,,,,,,DAB,Daytona Beach International Airport,United States of America,Daytona Beach,https://www.worlddata.info/america/usa/airports.php
566,KDAG,2025-11-23 01:54:10.926000+00:00,1763862600,2025-11-23T02:00:00.000Z,14.4,7.2,160,3.0,10+,1015.7,6,METAR,METAR KDAG 230150Z AUTO 16003KT 10SM SCT110 14/07 A2999 RMK AO2 SLP147 T01440072,34.8537,-116.787,584,"Barstow/Daggett Cnty, CA, US",SCT,"[{'cover': 'SCT', 'base': 11000}]",VFR,,1014.7,,,,,,DAG,Barstow Daggett Airport,United States of America,Daggett,https://www.worlddata.info/america/usa/airports.php
567,KDAL,2025-11-23 02:02:54.890000+00:00,1763862780,2025-11-23T02:00:00.000Z,14.4,8.9,0,0.0,10+,1022.8,4,METAR,METAR KDAL 230153Z 00000KT 10SM BKN250 14/09 A3020 RMK AO2 SLP223 T01440089,32.8384,-96.8358,148,"Dallas/Love Fld, TX, US",BKN,"[{'cover': 'BKN', 'base': 25000}]",VFR,,1022.3,,,,,,DAL,Dallas Love Field,United States of America,Dallas,https://www.worlddata.info/america/usa/airports.php
568,KDBN,2025-11-23 01:38:26.811000+00:00,1763861700,2025-11-23T01:35:00.000Z,20.8,19.0,250,4.0,10+,1016.3,14,METAR,METAR KDBN 230135Z AUTO 25004KT 10SM CLR 21/19 A3001 RMK AO2 T02080190 $,32.5632,-82.9855,90,"Dublin/Barron Arpt, GA, US",CLR,[],VFR,,,,,,,,DBN,W H 'Bud' Barron Airport,United States of America,Dublin,https://www.worlddata.info/america/usa/airports.php
569,KDBQ,2025-11-23 01:58:07.391000+00:00,1763862780,2025-11-23T02:00:00.000Z,3.3,1.1,250,6.0,10+,1016.0,12,METAR,METAR KDBQ 230153Z 25006KT 10SM CLR 03/01 A3000 RMK AO2 SLP169 T00330011 $,42.3984,-90.7091,317,"Dubuque Rgnl, IA, US",CLR,[],VFR,,1016.9,,,,,,DBQ,Dubuque Regional Airport,United States of America,Dubuque,https://www.worlddata.info/america/usa/airports.php
570,KDCA,2025-11-23 02:02:27.944000+00:00,1763862720,2025-11-23T02:00:00.000Z,8.3,6.7,,,,1017.0,12,METAR,METAR KDCA 230152Z FEW042 08/07 A3003 RMK AO2 SLP170 T00830067 $,38.8472,-77.0345,4,"Washington/Reagan-National Arpt, VA, US",FEW,"[{'cover': 'FEW', 'base': 4200}]",,,1017.0,,,,,,DCA,Ronald Reagan Washington National Airport,United States of America,Washington,https://www.worlddata.info/america/usa/airports.php
571,KDCU,2025-11-23 02:02:54.977000+00:00,1763862780,2025-11-23T02:00:00.000Z,17.2,13.3,10,8.0,10+,1018.0,14,METAR,METAR KDCU 230153Z AUTO 01008KT 10SM CLR 17/13 A3006 RMK AO2 SLP174 T01720133 $,34.658,-86.9434,180,"Decatur/Pryor Fld, AL, US",CLR,[],VFR,,1017.4,,,,,,DCU,Pryor Field Regional Airport,United States of America,Decatur,https://www.worlddata.info/america/usa/airports.php
572,KDDC,2025-11-23 02:02:28.074000+00:00,1763862720,2025-11-23T02:00:00.000Z,8.9,6.1,220,5.0,9,1022.4,6,METAR,METAR KDDC 230152Z AUTO 22005KT 9SM CLR 09/06 A3019 RMK AO2 SLP227 T00890061,37.7711,-99.9692,786,"Dodge City Arpt, KS, US",CLR,[],VFR,,1022.7,,,,,,DDC,Dodge City Regional Airport,United States of America,Dodge City,https://www.worlddata.info/america/usa/airports.php
573,KDEC,2025-11-23 02:02:33.588000+00:00,1763862840,2025-11-23T02:00:00.000Z,7.2,4.4,240,8.0,10+,1019.0,4,METAR,METAR KDEC 230154Z 24008KT 10SM CLR 07/04 A3009 RMK AO2 SLP194 T00720044,39.8308,-88.8719,205,"Decatur Arpt, IL, US",CLR,[],VFR,,1019.4,,,,,,DEC,Decatur Airport,United States of America,Decatur,https://www.worlddata.info/america/usa/airports.php
574,KDEH,2025-11-23 01:43:00.404000+00:00,1763861700,2025-11-23T01:35:00.000Z,7.0,5.0,0,0.0,10+,1015.3,6,METAR,METAR KDEH 230135Z AUTO 00000KT 10SM CLR 07/05 A2998 RMK AO2,43.2755,-91.7433,348,"Decorah Muni, IA, US",CLR,[],VFR,,,,,,,,DEH,Decorah Municipal Airport,United States of America,Decorah,https://www.worlddata.info/america/usa/airports.php
575,KDET,2025-11-23 02:02:55.192000+00:00,1763862780,2025-11-23T02:00:00.000Z,5.6,-2.2,210,8.0,10+,1016.0,4,METAR,METAR KDET 230153Z 21008KT 10SM OVC065 06/M02 A3000 RMK AO2 SLP162 T00561022,42.4072,-83.009,190,"Detroit/C Young Arpt, MI, US",OVC,"[{'cover': 'OVC', 'base': 6500}]",VFR,,1016.2,,,,,,DET,Coleman A. Young Municipal Airport,United States of America,Detroit,https://www.worlddata.info/america/usa/airports.php
576,KDFI,2025-11-23 02:02:55.356000+00:00,1763862780,2025-11-23T02:00:00.000Z,5.6,-0.6,200,8.0,10+,1016.3,6,METAR,METAR KDFI 230153Z AUTO 20008KT 10SM SCT065 BKN110 06/M01 A3001 RMK AO2 SLP167 T00561006,41.3357,-84.4285,215,"Defiance Mem Arpt, OH, US",BKN,"[{'cover': 'SCT', 'base': 6500}, {'cover': 'BKN', 'base': 11000}]",VFR,,1016.7,,,,,,DFI,Defiance Memorial Airport,United States of America,Defiance,https://www.worlddata.info/america/usa/airports.php
577,KDFW,2025-11-23 02:02:55.436000+00:00,1763862780,2025-11-23T02:00:00.000Z,13.9,8.3,0,0.0,10+,1022.4,4,METAR,METAR KDFW 230153Z 00000KT 10SM BKN250 14/08 A3019 RMK AO2 SLP219 T01390083,32.8974,-97.022,168,"Dallas-Ft Worth Intl, TX, US",BKN,"[{'cover': 'BKN', 'base': 25000}]",VFR,,1021.9,,,,,,DFW,Dallas Fort Worth International Airport,United States of America,Dallas-Fort Worth,https://www.worlddata.info/america/usa/airports.php
578,KDGW,2025-11-23 02:02:19.730000+00:00,1763862780,2025-11-23T02:00:00.000Z,1.7,-3.3,0,0.0,10+,1019.7,6,METAR,METAR KDGW 230153Z AUTO 00000KT 10SM CLR 02/M03 A3011 RMK AO2 SLP217 T00171033,42.796,-105.38,1503,"Douglas/Converse Cnty, WY, US",CLR,[],VFR,,1021.7,,,,,,DGW,Converse County Airport,United States of America,Douglas,https://www.worlddata.info/america/usa/airports.php
579,KDHN,2025-11-23 02:02:55.518000+00:00,1763862780,2025-11-23T02:00:00.000Z,21.1,17.2,240,5.0,10+,1019.0,6,METAR,METAR KDHN 230153Z AUTO 24005KT 10SM CLR 21/17 A3009 RMK AO1 SLP184 T02110172,31.3177,-85.4432,113,"Dothan Rgnl, AL, US",CLR,[],VFR,,1018.4,,,,,,DHN,Dothan Regional Airport,United States of America,Dothan,https://www.worlddata.info/america/usa/airports.php
580,KDHT,2025-11-23 02:02:19.872000+00:00,1763862780,2025-11-23T02:00:00.000Z,6.7,2.8,170,6.0,10+,1023.5,6,METAR,METAR KDHT 230153Z AUTO 17006KT 10SM CLR 07/03 A3022 RMK AO2 SLP236 T00670028,36.0252,-102.5487,1217,"Dalhart Muni, TX, US",CLR,[],VFR,,1023.6,,,,,,DHT,Dalhart Municipal Airport,United States of America,Dalhart,https://www.worlddata.info/america/usa/airports.php
581,KDKK,2025-11-23 02:02:55.615000+00:00,1763862780,2025-11-23T02:00:00.000Z,3.9,-1.7,200,5.0,10+,1016.3,6,METAR,METAR KDKK 230153Z AUTO 20005KT 10SM OVC036 04/M02 A3001 RMK AO2 SLP168 T00391017,42.4932,-79.2762,205,"Dunkirk/Chautauqua Cnty, NY, US",OVC,"[{'cover': 'OVC', 'base': 3600}]",VFR,,1016.8,,,,,,DKK,Chautauqua County-Dunkirk Airport,United States of America,Dunkirk,https://www.worlddata.info/america/usa/airports.php
582,KDLF,2025-11-23 01:58:11.078000+00:00,1763862900,2025-11-23T02:00:00.000Z,24.2,14.8,100,8.0,10+,1018.0,14,METAR,METAR KDLF 230155Z AUTO 10008KT 10SM BKN040 BKN090 24/15 A3006 RMK AO2 SLP173 T02420148 $,29.3666,-100.7847,328,"Laughlin AFB, TX, US",BKN,"[{'cover': 'BKN', 'base': 4000}, {'cover': 'BKN', 'base': 9000}]",VFR,,1017.3,,,,,,DLF,Laughlin Air Force Base,United States of America,Del Rio,https://www.worlddata.info/america/usa/airports.php
583,KDLN,2025-11-23 02:02:55.696000+00:00,1763862780,2025-11-23T02:00:00.000Z,1.1,-3.3,220,11.0,10+,1020.1,6,METAR,METAR KDLN 230153Z AUTO 22011KT 10SM CLR 01/M03 A3012 RMK AO2 SLP218 T00111033,45.2584,-112.5546,1586,"Dillon Arpt, MT, US",CLR,[],VFR,,1021.8,,,,,,DLN,Dillon Airport,United States of America,Dillon,https://www.worlddata.info/america/usa/airports.php
584,KDLS,2025-11-23 02:02:55.738000+00:00,1763862780,2025-11-23T02:00:00.000Z,4.4,3.3,0,0.0,10+,1019.4,14,METAR,METAR KDLS 230153Z AUTO 00000KT 10SM CLR 04/03 A3010 RMK AO2 SLP194 T00440033 $,45.619,-121.1657,71,"The Dalles Muni, OR, US",CLR,[],VFR,,1019.4,,,,,,DLS,Columbia Gorge Regional Airport,United States of America,Dallesport / The Dalles,https://www.worlddata.info/america/usa/airports.php
585,KDMA,2025-11-23 01:58:04.600000+00:00,1763862900,2025-11-23T02:00:00.000Z,12.0,10.6,0,0.0,10+,1014.0,14,METAR,METAR KDMA 230155Z AUTO 00000KT 10SM VCTS FEW060 BKN070 BKN090 12/11 A2994 RMK AO2 RAB0055E21DZB21E24RAB31E34 TSB03E24 SLP162 P0005 T01200106 $,32.165,-110.887,804,"Tucson/Davis AFB, AZ, US",BKN,"[{'cover': 'FEW', 'base': 6000}, {'cover': 'BKN', 'base': 7000}, {'cover': 'BKN', 'base': 9000}]",VFR,VCTS,1016.2,0.05,,,,,DMA,Davis Monthan Air Force Base,United States of America,Tucson,https://www.worlddata.info/america/usa/airports.php
586,KDMN,2025-11-23 02:02:19.979000+00:00,1763862780,2025-11-23T02:00:00.000Z,13.3,2.8,60,11.0,10+,1018.0,6,METAR,METAR KDMN 230153Z AUTO 06011KT 10SM CLR 13/03 A3006 RMK AO2 SLP149 T01330028,32.2592,-107.7206,1310,"Deming Muni, NM, US",CLR,[],VFR,,1014.9,,,,,,DMN,Deming Municipal Airport,United States of America,Deming,https://www.worlddata.info/america/usa/airports.php
587,KDMO,2025-11-23 02:02:55.807000+00:00,1763862780,2025-11-23T02:00:00.000Z,7.8,6.7,210,8.0,10+,1021.8,6,METAR,METAR KDMO 230153Z AUTO 21008KT 10SM CLR 08/07 A3017 RMK AO2 SLP221 T00780067,38.712,-93.1747,271,"Sedalia Mem, MO, US",CLR,[],VFR,,1022.1,,,,,,DMO,Sedalia Memorial Airport,United States of America,Sedalia,https://www.worlddata.info/america/usa/airports.php
588,KDNL,2025-11-23 02:02:55.874000+00:00,1763862780,2025-11-23T02:00:00.000Z,21.7,16.7,310,5.0,10+,1015.3,6,METAR,METAR KDNL 230153Z AUTO 31005KT 10SM FEW060 22/17 A2998 RMK AO2 SLP148 T02170167,33.4668,-82.0385,126,"Augusta/Daniel Fld, GA, US",FEW,"[{'cover': 'FEW', 'base': 6000}]",VFR,,1014.8,,,,,,DNL,Daniel Field,United States of America,Augusta,https://www.worlddata.info/america/usa/airports.php
589,KDNN,2025-11-23 01:38:13.976000+00:00,1763861700,2025-11-23T01:35:00.000Z,15.9,14.9,0,0.0,10+,1017.7,6,METAR,METAR KDNN 230135Z AUTO 00000KT 10SM CLR 16/15 A3005 RMK AO2 T01590149,34.727,-84.8733,216,"Dalton Muni, GA, US",CLR,[],VFR,,,,,,,,DNN,Dalton Municipal Airport,United States of America,Dalton,https://www.worlddata.info/america/usa/airports.php
590,KDNS,2025-11-23 01:43:00.784000+00:00,1763861700,2025-11-23T01:35:00.000Z,8.0,4.0,0,0.0,10+,1020.4,6,METAR,METAR KDNS 230135Z AUTO 00000KT 10SM BKN013 08/04 A3013 RMK AO2,41.9842,-95.38,382,"Denison Muni, IA, US",BKN,"[{'cover': 'BKN', 'base': 1300}]",MVFR,,,,,,,,DNS,Denison Municipal Airport,United States of America,Denison,https://www.worlddata.info/america/usa/airports.php
591,KDOV,2025-11-23 02:00:50.226000+00:00,1763862900,2025-11-23T02:00:00.000Z,5.6,3.6,0,0.0,7,1016.3,4,METAR,METAR KDOV 230155Z 00000KT 7SM CLR 06/04 A3001 RMK AO2A SLP166 T00560036,39.13,-75.465,6,"Dover AFB, DE, US",CLR,[],VFR,,1016.6,,,,,,DOV,Dover Air Force Base,United States of America,Dover,https://www.worlddata.info/america/usa/airports.php
592,KDPA,2025-11-23 02:02:28.188000+00:00,1763862720,2025-11-23T02:00:00.000Z,6.7,1.1,230,9.0,10+,1015.7,4,METAR,METAR KDPA 230152Z 23009KT 10SM CLR 07/01 A2999 RMK AO2 SLP160 T00670011,41.8964,-88.2512,228,"Dupage Cnty Arpt, IL, US",CLR,[],VFR,,1016.0,,,,,,DPA,Dupage Airport,United States of America,Chicago/West Chicago,https://www.worlddata.info/america/usa/airports.php
593,KDRA,2025-11-23 01:58:07.226000+00:00,1763862780,2025-11-23T02:00:00.000Z,12.2,3.9,80,7.0,10+,1017.7,6,METAR,METAR KDRA 230153Z AUTO 08007KT 10SM CLR 12/04 A3005 RMK AO2 SLP155 T01220039,36.621,-116.029,988,"Mercury/Desert Rock, NV, US",CLR,[],VFR,,1015.5,,,,,,DRA,Desert Rock Airport,United States of America,Mercury,https://www.worlddata.info/america/usa/airports.php
594,KDRI,2025-11-23 01:38:14.004000+00:00,1763861700,2025-11-23T01:35:00.000Z,15.6,15.6,0,0.0,10+,1020.7,14,METAR,METAR KDRI 230135Z AUTO 00000KT 10SM CLR 16/16 A3014 RMK AO2 T01560156 $,30.8344,-93.3358,59,"Deridder/Beauregard Rgnl, LA, US",CLR,[],VFR,,,,,,,,DRI,Beauregard Regional Airport,United States of America,DeRidder,https://www.worlddata.info/america/usa/airports.php
595,KDRM,2025-11-23 02:02:33.809000+00:00,1763862900,2025-11-23T02:00:00.000Z,4.1,-1.2,180,8.0,10+,1010.6,6,METAR,METAR KDRM 230155Z AUTO 18008KT 10SM OVC080 04/M01 A2984 RMK AO2 T00411012,46.009,-83.743,201,"Drummond Island Arpt, MI, US",OVC,"[{'cover': 'OVC', 'base': 8000}]",VFR,,,,,,,,DRE,Drummond Island Airport,United States of America,Drummond Island,https://www.worlddata.info/america/usa/airports.php
596,KDRO,2025-11-23 02:02:20.111000+00:00,1763862780,2025-11-23T02:00:00.000Z,6.1,0.0,50,6.0,10+,1022.8,6,METAR,METAR KDRO 230153Z AUTO 05006KT 10SM CLR 06/00 A3020 RMK AO2 SLP235 T00610000,37.1431,-107.7602,2021,"Durango/La Plata Cnty, CO, US",CLR,[],VFR,,1023.5,,,,,,DRO,Durango La Plata County Airport,United States of America,Durango,https://www.worlddata.info/america/usa/airports.php
597,KDRT,2025-11-23 02:02:55.944000+00:00,1763862780,2025-11-23T02:00:00.000Z,24.4,15.6,100,8.0,10+,1019.0,6,METAR,METAR KDRT 230153Z AUTO 10008KT 10SM BKN044 OVC070 24/16 A3009 RMK AO2 SLP184 T02440156,29.3784,-100.927,303,"Del Rio Intl, TX, US",OVC,"[{'cover': 'BKN', 'base': 4400}, {'cover': 'OVC', 'base': 7000}]",VFR,,1018.4,,,,,,DRT,Del Rio International Airport,United States of America,Del Rio,https://www.worlddata.info/america/usa/airports.php
598,KDSM,2025-11-23 02:02:33.913000+00:00,1763862840,2025-11-23T02:00:00.000Z,9.4,6.1,310,6.0,10+,1019.0,4,METAR,METAR KDSM 230154Z 31006KT 10SM FEW250 09/06 A3009 RMK AO2 SLP197 T00940061,41.5339,-93.6531,286,"Des Moines Intl, IA, US",FEW,"[{'cover': 'FEW', 'base': 25000}]",VFR,,1019.7,,,,,,DSM,Des Moines International Airport,United States of America,Des Moines,https://www.worlddata.info/america/usa/airports.php
599,KDTA,2025-11-23 01:38:23.842000+00:00,1763861700,2025-11-23T01:35:00.000Z,6.0,1.0,80,8.0,10+,1022.4,6,METAR,METAR KDTA 230135Z AUTO 08008KT 10SM CLR 06/01 A3019 RMK AO1,39.3879,-112.5041,1452,"Delta Muni, UT, US",CLR,[],VFR,,,,,,,,DTA,Delta Municipal Airport,United States of America,Delta,https://www.worlddata.info/america/usa/airports.php
600,KDTL,2025-11-23 01:38:27.472000+00:00,1763861700,2025-11-23T01:35:00.000Z,4.3,-2.4,290,8.0,10+,1015.3,6,METAR,METAR KDTL 230135Z AUTO 29008KT 10SM CLR 04/M02 A2998 RMK AO2 T00431024,46.8286,-95.8857,425,"Detroit Lakes Arpt, MN, US",CLR,[],VFR,,,,,,,,DTL,Detroit Lakes Airport,United States of America,Detroit Lakes,https://www.worlddata.info/america/usa/airports.php
601,KDTN,2025-11-23 02:02:56.029000+00:00,1763862780,2025-11-23T02:00:00.000Z,15.6,9.4,340,5.0,10+,1022.1,14,METAR,METAR KDTN 230153Z AUTO 34005KT 10SM CLR 16/09 A3018 RMK AO2 SLP217 T01560094 $,32.5429,-93.745,53,"Shreveport/Downtown Arpt, LA, US",CLR,[],VFR,,1021.7,,,,,,DTN,Shreveport Downtown Airport,United States of America,Shreveport,https://www.worlddata.info/america/usa/airports.php
602,KDTS,2025-11-23 02:02:56.194000+00:00,1763862780,2025-11-23T02:00:00.000Z,22.2,21.1,0,0.0,10+,1018.4,4,METAR,METAR KDTS 230153Z 00000KT 10SM CLR 22/21 A3007 RMK AO2 SLP183 T02220211,30.3933,-86.4674,5,"Destin Arpt, FL, US",CLR,[],VFR,,1018.3,,,,,,DSI,Destin Executive Airport,United States of America,Destin,https://www.worlddata.info/america/usa/airports.php
603,KDTW,2025-11-23 01:54:10.449000+00:00,1763862780,2025-11-23T02:00:00.000Z,5.0,-1.0,190,10.0,9,1016.0,0,METAR,METAR KDTW 230153Z 19010KT 9SM -RASN BKN060 OVC090 05/M01 A3000 RMK RAB32SNB32 SLPNO T00501010,42.2311,-83.3312,192,"Detroit/Metro Wayne Cnty, MI, US",OVC,"[{'cover': 'BKN', 'base': 6000}, {'cover': 'OVC', 'base': 9000}]",VFR,-RA -SN,,,,,,,DTW,Detroit Metropolitan Wayne County Airport,United States of America,Detroit,https://www.worlddata.info/america/usa/airports.php
604,KDUA,2025-11-23 01:43:02.367000+00:00,1763861700,2025-11-23T01:35:00.000Z,10.0,9.0,30,6.0,6,1023.8,6,METAR,METAR KDUA 230135Z AUTO 03006KT 6SM BR CLR 10/09 A3023 RMK AO2,33.9427,-96.3967,209,"Durant/Eaker Fld, OK, US",CLR,[],VFR,BR,,,,,,,DUA,Durant Regional Airport - Eaker Field,United States of America,Durant,https://www.worlddata.info/america/usa/airports.php
605,KDUC,2025-11-23 01:43:01.015000+00:00,1763861700,2025-11-23T01:35:00.000Z,11.0,7.0,70,4.0,10+,1022.8,6,METAR,METAR KDUC 230135Z AUTO 07004KT 10SM CLR 11/07 A3020 RMK AO2,34.4778,-97.9616,339,"Duncan/Halliburton Fld, OK, US",CLR,[],VFR,,,,,,,,DUC,Halliburton Field,United States of America,Duncan,https://www.worlddata.info/america/usa/airports.php
606,KDUJ,2025-11-23 02:02:20.332000+00:00,1763862780,2025-11-23T02:00:00.000Z,1.1,-2.8,300,3.0,10+,1016.3,6,METAR,METAR KDUJ 230153Z AUTO 30003KT 10SM CLR 01/M03 A3001 RMK AO2 SLP174 T00111028,41.1795,-78.8933,552,"Du Bois Rgnl, PA, US",CLR,[],VFR,,1017.4,,,,,,DUJ,DuBois Regional Airport,United States of America,Dubois,https://www.worlddata.info/america/usa/airports.php
607,KDVN,2025-11-23 02:02:28.531000+00:00,1763862720,2025-11-23T02:00:00.000Z,9.4,5.0,220,9.0,10+,,14,METAR,METAR KDVN 230152Z AUTO 22009KT 10SM CLR 09/05 RMK AO2 SLPNO T00940050 $,41.6133,-90.5948,227,"Davenport Muni, IA, US",CLR,[],VFR,,,,,,,,DVN,Davenport Municipal Airport,United States of America,Davenport,https://www.worlddata.info/america/usa/airports.php
608,KDVO,2025-11-23 01:43:01.112000+00:00,1763861700,2025-11-23T01:35:00.000Z,12.0,9.0,360,5.0,10+,1017.0,6,METAR,METAR KDVO 230135Z AUTO 36005KT 10SM CLR 12/09 A3003 RMK AO2,38.1417,-122.5547,1,"Novato/Gnoss Fld, CA, US",CLR,[],VFR,,,,,,,,NOT,Marin County Airport - Gnoss Field,United States of America,Novato,https://www.worlddata.info/america/usa/airports.php
609,KDVP,2025-11-23 01:56:13.236000+00:00,1763862780,2025-11-23T02:00:00.000Z,5.6,4.9,290,7.0,10+,1019.0,6,METAR,METAR KDVP 230153Z AUTO 29007KT 10SM CLR 06/05 A3009 RMK AO2 T00560049,43.9905,-95.781,493,"Slayton Muni, MN, US",CLR,[],VFR,,,,,,,,NSL,Slayton Municipal Airport,United States of America,Slayton,https://www.worlddata.info/america/usa/airports.php
610,KDVT,2025-11-23 02:02:56.287000+00:00,1763862780,2025-11-23T02:00:00.000Z,14.4,10.0,70,7.0,10+,1013.6,4,METAR,METAR KDVT 230153Z 07007KT 10SM FEW100 14/10 A2993 RMK AO2 RAE17 SLP124 P0000 T01440100,33.6902,-112.0662,454,"Phoenix/Deer Valley Arpt, AZ, US",FEW,"[{'cover': 'FEW', 'base': 10000}]",VFR,,1012.4,0.005,,,,,DVT,Phoenix Deer Valley Airport,United States of America,Phoenix,https://www.worlddata.info/america/usa/airports.php
611,KDWH,2025-11-23 02:02:56.363000+00:00,1763862780,2025-11-23T02:00:00.000Z,20.0,10.6,360,3.0,10+,1020.7,4,METAR,METAR KDWH 230153Z 36003KT 10SM CLR 20/11 A3014 RMK AO2 SLP202 T02000106,30.068,-95.5563,46,"Houston/Hooks Mem, TX, US",CLR,[],VFR,,1020.2,,,,,,DWH,David Wayne Hooks Memorial Airport,United States of America,Houston,https://www.worlddata.info/america/usa/airports.php
612,KDXR,2025-11-23 02:02:56.440000+00:00,1763862780,2025-11-23T02:00:00.000Z,1.1,-3.3,250,3.0,10+,1016.7,12,METAR,METAR KDXR 230153Z 25003KT 10SM CLR 01/M03 A3002 RMK AO2 SLP167 T00111033 $,41.3721,-73.4834,138,"Danbury Muni, CT, US",CLR,[],VFR,,1016.7,,,,,,DXR,Danbury Municipal Airport,United States of America,Danbury,https://www.worlddata.info/america/usa/airports.php
613,KDYL,2025-11-23 02:02:34.165000+00:00,1763862840,2025-11-23T02:00:00.000Z,4.4,-1.7,10,4.0,10+,1016.3,6,METAR,METAR KDYL 230154Z AUTO 01004KT 10SM CLR 04/M02 A3001 RMK AO2 SLP167 T00441017,40.3302,-75.1228,121,"Doylestown Arpt, PA, US",CLR,[],VFR,,1016.7,,,,,,DYL,Doylestown Airport,United States of America,Doylestown,https://www.worlddata.info/america/usa/airports.php
614,KDYS,2025-11-23 01:58:04.632000+00:00,1763862900,2025-11-23T02:00:00.000Z,13.8,8.4,70,5.0,10+,1022.1,14,METAR,METAR KDYS 230155Z AUTO 07005KT 10SM CLR 14/08 A3018 RMK AO2 SLP217 T01380084 $,32.406,-99.85,544,"Abilene/Dyess AFB, TX, US",CLR,[],VFR,,1021.7,,,,,,DYS,Dyess Air Force Base,United States of America,Abilene,https://www.worlddata.info/america/usa/airports.php
615,KEAN,2025-11-23 01:46:05.024000+00:00,1763861700,2025-11-23T01:35:00.000Z,7.6,-2.1,210,4.0,10+,1020.7,6,METAR,METAR KEAN 230135Z AUTO 21004KT 10SM CLR 08/M02 A3014 RMK AO2 T00761021,42.0563,-104.9386,1452,"Wheatland/Phifer Fld, WY, US",CLR,[],VFR,,,,,,,,EAN,Phifer Airfield,United States of America,Wheatland,https://www.worlddata.info/america/usa/airports.php
616,KEBS,2025-11-23 01:22:10.222000+00:00,1763860500,2025-11-23T01:15:00.000Z,6.0,6.0,300,9.0,10+,1017.7,6,METAR,METAR KEBS 230115Z AUTO 30009KT 10SM CLR 06/06 A3005 RMK AO2,42.4372,-93.8725,340,"Webster City Muni, IA, US",CLR,[],VFR,,,,,,,,EBS,Webster City Municipal Airport,United States of America,Webster City,https://www.worlddata.info/america/usa/airports.php
617,KECG,2025-11-23 02:02:34.286000+00:00,1763862840,2025-11-23T02:00:00.000Z,12.8,11.7,20,7.0,10+,1016.3,4,METAR,METAR KECG 230154Z 02007KT 10SM OVC009 13/12 A3001 RMK AO2 CIG 005V012 SLP161 T01280117,36.2572,-76.1716,2,"Elizabeth City Rgnl, NC, US",OVC,"[{'cover': 'OVC', 'base': 900}]",IFR,,1016.1,,,,,,ECG,Elizabeth City Regional Airport & Coast Guard Air Station,United States of America,Elizabeth City,https://www.worlddata.info/america/usa/airports.php
618,KECP,2025-11-23 02:02:56.532000+00:00,1763862780,2025-11-23T02:00:00.000Z,21.1,21.1,0,0.0,6,1018.0,4,METAR,METAR KECP 230153Z 00000KT 6SM BR CLR 21/21 A3006 RMK AO2 SLP191 T02110211,30.3487,-85.7883,17,"Panama City/NW Florida Beaches Intl, FL, US",CLR,[],VFR,BR,1019.1,,,,,,ECP,Northwest Florida Beaches International Airport,United States of America,Panama City Beach,https://www.worlddata.info/america/usa/airports.php
619,KECS,2025-11-23 01:40:17.347000+00:00,1763861700,2025-11-23T01:35:00.000Z,5.0,-3.0,80,4.0,10+,1020.4,6,METAR,METAR KECS 230135Z AUTO 08004KT 10SM CLR 05/M03 A3013 RMK AO2,43.8845,-104.312,1273,"Newcastle/Mondell Arpt, WY, US",CLR,[],VFR,,,,,,,,ECS,Mondell Field,United States of America,Newcastle,https://www.worlddata.info/america/usa/airports.php
620,KEDE,2025-11-23 01:40:25.997000+00:00,1763861700,2025-11-23T01:35:00.000Z,13.7,12.3,30,7.0,10+,1016.3,6,METAR,METAR KEDE 230135Z AUTO 03007KT 10SM OVC023 14/12 A3001 RMK AO2 T01370123,36.0286,-76.5668,4,"Edenton/Northeast Rgnl, NC, US",OVC,"[{'cover': 'OVC', 'base': 2300}]",MVFR,,,,,,,,EDE,Northeastern Regional Airport,United States of America,Edenton,https://www.worlddata.info/america/usa/airports.php
621,KEDN,2025-11-23 01:38:18.115000+00:00,1763861700,2025-11-23T01:35:00.000Z,20.5,17.6,0,0.0,10+,1018.0,6,METAR,METAR KEDN 230135Z AUTO 00000KT 10SM CLR 21/18 A3006 RMK AO1 T02050176,31.299,-85.9,103,"Enterprise Muni, AL, US",CLR,[],VFR,,,,,,,,ETS,Enterprise Municipal Airport,United States of America,Enterprise,https://www.worlddata.info/america/usa/airports.php
622,KEDW,2025-11-23 02:00:50.248000+00:00,1763862900,2025-11-23T02:00:00.000Z,13.2,6.1,50,5.0,30,1016.0,4,METAR,METAR KEDW 230155Z 05005KT 30SM SCT075 BKN150 13/06 A3000 RMK AO2A SLP155 T01320061,34.908,-117.874,698,"Edwards AFB, CA, US",BKN,"[{'cover': 'SCT', 'base': 7500}, {'cover': 'BKN', 'base': 15000}]",VFR,,1015.5,,,,,,EDW,Edwards Air Force Base,United States of America,Edwards,https://www.worlddata.info/america/usa/airports.php
623,KEFD,2025-11-23 01:43:48.986000+00:00,1763862840,2025-11-23T02:00:00.000Z,21.0,14.0,360,4.0,10+,1019.7,0,METAR,METAR KEFD 230154Z 36004KT 10SM CLR 21/14 A3011,29.606,-95.16,9,"Houston/Ellington Arpt, TX, US",CLR,[],VFR,,,,,,,,EFD,Ellington Airport,United States of America,Houston,https://www.worlddata.info/america/usa/airports.php
624,KEFK,2025-11-23 01:42:22.364000+00:00,1763861700,2025-11-23T01:35:00.000Z,-3.1,-6.3,0,0.0,10+,1014.3,6,METAR,METAR KEFK 230135Z AUTO 00000KT 10SM SCT035 M03/M06 A2995 RMK AO2 T10311063,44.8886,-72.2296,282,"Newport/Northeast Kingdom Intl, VT, US",SCT,"[{'cover': 'SCT', 'base': 3500}]",VFR,,,,,,,,EFK,Northeast Kingdom International Airport,United States of America,Newport,https://www.worlddata.info/america/usa/airports.php
625,KEGI,2025-11-23 01:56:21.153000+00:00,1763862900,2025-11-23T02:00:00.000Z,21.8,19.7,220,5.0,10+,1018.0,14,METAR,METAR KEGI 230155Z AUTO 22005KT 10SM CLR 22/20 A3006 RMK AO2 SLP179 T02180197 $,30.653,-86.525,59,"Eglin AFB/Duke Fld, FL, US",CLR,[],VFR,,1017.9,,,,,,EGI,Duke Field,United States of America,Crestview,https://www.worlddata.info/america/usa/airports.php
626,KEGV,2025-11-23 01:40:31.559000+00:00,1763861700,2025-11-23T01:35:00.000Z,3.5,-0.8,250,6.0,10+,1009.9,6,METAR,METAR KEGV 230135Z AUTO 25006KT 10SM SCT046 OVC050 04/M01 A2982 RMK AO2 T00351008,45.9309,-89.267,499,"Eagle River/Union Arpt, WI, US",OVC,"[{'cover': 'SCT', 'base': 4600}, {'cover': 'OVC', 'base': 5000}]",VFR,,,,,,,,EGV,Eagle River Union Airport,United States of America,Eagle River,https://www.worlddata.info/america/usa/airports.php
627,KEKM,2025-11-23 01:40:23.052000+00:00,1763861700,2025-11-23T01:35:00.000Z,6.6,1.0,230,5.0,10+,1015.7,14,METAR,METAR KEKM 230135Z AUTO 23005KT 10SM BKN065 BKN085 07/01 A2999 RMK AO2 T00660010 $,41.7222,-86.0,236,"Elkhart Muni, IN, US",BKN,"[{'cover': 'BKN', 'base': 6500}, {'cover': 'BKN', 'base': 8500}]",VFR,,,,,,,,EKI,Elkhart Municipal Airport,United States of America,Elkhart,https://www.worlddata.info/america/usa/airports.php
628,KEKN,2025-11-23 02:02:28.696000+00:00,1763862660,2025-11-23T02:00:00.000Z,7.2,6.1,200,4.0,10+,1017.7,14,METAR,METAR KEKN 230151Z AUTO 20004KT 10SM OVC020 07/06 A3005 RMK AO2 SLP185 T00720061 $,38.8899,-79.8554,596,"Elkins Arpt, WV, US",OVC,"[{'cover': 'OVC', 'base': 2000}]",MVFR,,1018.5,,,,,,EKN,Elkins-Randolph County Regional Airport,United States of America,Elkins,https://www.worlddata.info/america/usa/airports.php
629,KEKX,2025-11-23 01:38:26.838000+00:00,1763861700,2025-11-23T01:35:00.000Z,5.5,5.2,0,0.0,3,1019.7,6,METAR,METAR KEKX 230135Z AUTO 00000KT 3SM BR CLR 06/05 A3011 RMK AO2 T00550052,37.6924,-85.9204,234,"Elizabethtown/Addington Fld, KY, US",CLR,[],MVFR,BR,,,,,,,EKX,Addington Field / Elizabethtown Regional Airport,United States of America,Elizabethtown,https://www.worlddata.info/america/usa/airports.php
630,KELA,2025-11-23 01:44:09.974000+00:00,1763861700,2025-11-23T01:35:00.000Z,17.6,12.0,20,4.0,10+,1020.7,6,METAR,METAR KELA 230135Z AUTO 02004KT 10SM CLR 18/12 A3014 RMK AO2 T01760120,29.602,-96.3239,56,"Eagle Lake Arpt, TX, US",CLR,[],VFR,,,,,,,,ELA,Eagle Lake Airport,United States of America,Eagle Lake,https://www.worlddata.info/america/usa/airports.php
631,KELD,2025-11-23 02:02:56.724000+00:00,1763862780,2025-11-23T02:00:00.000Z,12.2,10.0,330,3.0,10+,1021.8,6,METAR,METAR KELD 230153Z AUTO 33003KT 10SM CLR 12/10 A3017 RMK AO2 SLP215 T01220100,33.2207,-92.814,76,"El Dorado/S Arkansas Rgnl, AR, US",CLR,[],VFR,,1021.5,,,,,,ELD,South Arkansas Regional Airport at Goodwin Field,United States of America,El Dorado,https://www.worlddata.info/america/usa/airports.php
632,KELK,2025-11-23 01:38:14.097000+00:00,1763861700,2025-11-23T01:35:00.000Z,10.8,8.1,200,3.0,10+,1022.1,14,METAR,METAR KELK 230135Z AUTO 20003KT 10SM 11/08 A3018 RMK AO2 T01080081 $,35.4261,-99.3926,603,"Elk City Rgnl, OK, US",,,,,,,,,,,ELK,Elk City Regional Business Airport,United States of America,Elk City,https://www.worlddata.info/america/usa/airports.php
633,KELM,2025-11-23 02:02:56.850000+00:00,1763862780,2025-11-23T02:00:00.000Z,-2.8,-4.4,0,0.0,10+,1017.0,6,METAR,METAR KELM 230153Z AUTO 00000KT 10SM CLR M03/M04 A3003 RMK AO2 SLP179 T10281044,42.1601,-76.89,287,"Elmira-Corning Rgnl, NY, US",CLR,[],VFR,,1017.9,,,,,,ELM,Elmira Corning Regional Airport,United States of America,Elmira/Corning,https://www.worlddata.info/america/usa/airports.php
634,KELN,2025-11-23 02:02:56.973000+00:00,1763862780,2025-11-23T02:00:00.000Z,3.3,1.7,0,0.0,10+,1017.4,6,METAR,METAR KELN 230153Z AUTO 00000KT 10SM CLR 03/02 A3004 RMK AO2 SLP186 T00330017,47.0338,-120.5314,532,"Ellensburg/Bowers Fld, WA, US",CLR,[],VFR,,1018.6,,,,,,ELN,Bowers Field,United States of America,Ellensburg,https://www.worlddata.info/america/usa/airports.php
635,KELO,2025-11-23 02:02:34.510000+00:00,1763862900,2025-11-23T02:00:00.000Z,4.0,-5.0,300,12.0,10+,1010.2,6,METAR,METAR KELO 230155Z AUTO 30012G24KT 10SM BKN032 04/M05 A2983 RMK AO2,47.8287,-91.8371,438,"Ely Muni, MN, US",BKN,"[{'cover': 'BKN', 'base': 3200}]",VFR,,,,,,24.0,,LYU,Ely Municipal Airport,United States of America,Ely,https://www.worlddata.info/america/usa/airports.php
636,KELP,2025-11-23 01:54:13.005000+00:00,1763862660,2025-11-23T02:00:00.000Z,15.6,0.6,80,7.0,10+,1018.4,4,METAR,METAR KELP 230151Z 08007KT 10SM FEW200 FEW250 16/01 A3007 RMK AO2 SLP150 T01560006,31.8123,-106.3774,1205,"El Paso Intl, TX, US",FEW,"[{'cover': 'FEW', 'base': 20000}, {'cover': 'FEW', 'base': 25000}]",VFR,,1015.0,,,,,,ELP,El Paso International Airport,United States of America,El Paso,https://www.worlddata.info/america/usa/airports.php
637,KELY,2025-11-23 01:58:07.149000+00:00,1763862780,2025-11-23T02:00:00.000Z,2.8,-4.4,180,8.0,10+,1022.1,38,METAR,METAR KELY 230153Z AUTO 18008KT 10SM CLR 03/M04 A3018 RMK AO2 SLP236 T00281044 TSNO,39.2954,-114.8466,1906,"Ely/Yelland Fld, NV, US",CLR,[],VFR,,1023.6,,,,,,ELY,Ely Airport Yelland Field,United States of America,Ely,https://www.worlddata.info/america/usa/airports.php
638,KEMM,2025-11-23 01:46:05.376000+00:00,1763861700,2025-11-23T01:35:00.000Z,0.0,-5.0,340,6.0,10+,1023.8,6,METAR,METAR KEMM 230135Z AUTO 34006KT 10SM 00/M05 A3023 RMK AO2,41.8224,-110.5555,2219,"Kemmerer Muni, WY, US",,,,,,,,,,,EMM,Kemmerer Municipal Airport,United States of America,Kemmerer,https://www.worlddata.info/america/usa/airports.php
639,KEMP,2025-11-23 02:02:57.042000+00:00,1763862780,2025-11-23T02:00:00.000Z,8.3,6.7,200,6.0,10+,1022.1,6,METAR,METAR KEMP 230153Z AUTO 20006KT 10SM CLR 08/07 A3018 RMK AO2 SLP227 T00830067,38.3291,-96.1945,366,"Emporia Muni, KS, US",CLR,[],VFR,,1022.7,,,,,,EMP,Emporia Municipal Airport,United States of America,Emporia,https://www.worlddata.info/america/usa/airports.php
640,KEMT,2025-11-23 01:47:38.574000+00:00,1763862300,2025-11-23T02:00:00.000Z,18.0,9.0,0,0.0,10+,1013.3,0,METAR,METAR KEMT 230145Z 00000KT 10SM FEW065 18/09 A2992,34.0883,-118.0342,84,"El Monte Arpt, CA, US",FEW,"[{'cover': 'FEW', 'base': 6500}]",VFR,,,,,,,,EMT,San Gabriel Valley Airport,United States of America,El Monte,https://www.worlddata.info/america/usa/airports.php
641,KEND,2025-11-23 01:58:11.517000+00:00,1763862900,2025-11-23T02:00:00.000Z,8.3,6.6,190,6.0,10+,1021.4,6,METAR,METAR KEND 230155Z AUTO 19006KT 10SM CLR 08/07 A3016 RMK AO2 SLP218 T00830066,36.338,-97.919,392,"Enid/Vance AFB, OK, US",CLR,[],VFR,,1021.8,,,,,,END,Vance Air Force Base,United States of America,Enid,https://www.worlddata.info/america/usa/airports.php
642,KENW,2025-11-23 02:02:28.754000+00:00,1763862780,2025-11-23T02:00:00.000Z,7.0,1.0,250,11.0,10+,1014.0,0,METAR,METAR KENW 230153Z 25011KT 10SM SCT070 07/01 A2994,42.5953,-87.9383,222,"Kenosha Rgnl, WI, US",SCT,"[{'cover': 'SCT', 'base': 7000}]",VFR,,,,,,,,ENW,Kenosha Regional Airport,United States of America,Kenosha,https://www.worlddata.info/america/usa/airports.php
643,KEOK,2025-11-23 01:44:11.350000+00:00,1763861700,2025-11-23T01:35:00.000Z,8.0,6.0,230,9.0,10+,1018.7,6,METAR,METAR KEOK 230135Z AUTO 23009KT 10SM CLR 08/06 A3008 RMK A01,40.4615,-91.4274,206,"Keokuk Muni, IA, US",CLR,[],VFR,,,,,,,,EOK,Keokuk Municipal Airport,United States of America,Keokuk,https://www.worlddata.info/america/usa/airports.php
644,KEPH,2025-11-23 02:02:57.126000+00:00,1763862780,2025-11-23T02:00:00.000Z,3.9,2.2,0,0.0,7,1018.0,6,METAR,METAR KEPH 230153Z AUTO 00000KT 7SM OVC007 04/02 A3006 RMK AO2 SLP188 T00390022,47.3078,-119.5155,382,"Ephrata Muni, WA, US",OVC,"[{'cover': 'OVC', 'base': 700}]",IFR,,1018.8,,,,,,EPH,Ephrata Municipal Airport,United States of America,Ephrata,https://www.worlddata.info/america/usa/airports.php
645,KEQA,2025-11-23 01:38:14.165000+00:00,1763861700,2025-11-23T01:35:00.000Z,10.0,7.0,170,5.0,10+,1022.1,6,METAR,METAR KEQA 230135Z AUTO 17005KT 10SM CLR 10/07 A3018 RMK AO2,37.7753,-96.8145,422,"El Dorado/Thomas Mem, KS, US",CLR,[],VFR,,,,,,,,EDK,Captain Jack Thomas El Dorado Airport,United States of America,El Dorado,https://www.worlddata.info/america/usa/airports.php
646,KERI,2025-11-23 01:56:13.254000+00:00,1763862660,2025-11-23T02:00:00.000Z,0.6,-2.2,0,0.0,10+,1017.0,12,METAR,METAR KERI 230151Z 00000KT 10SM CLR 01/M02 A3003 RMK AO2 SLP175 T00061022 $,42.0803,-80.1824,222,"Erie Intl, PA, US",CLR,[],VFR,,1017.5,,,,,,ERI,Erie International Tom Ridge Field,United States of America,Erie,https://www.worlddata.info/america/usa/airports.php
647,KERV,2025-11-23 01:40:17.388000+00:00,1763861700,2025-11-23T01:35:00.000Z,20.0,9.4,70,4.0,10+,1021.8,6,METAR,METAR KERV 230135Z AUTO 07004KT 10SM BKN044 20/09 A3017 RMK AO2 T02000094,29.9779,-99.0872,483,"Kerrville Muni, TX, US",BKN,"[{'cover': 'BKN', 'base': 4400}]",VFR,,,,,,,,ERV,Kerrville / Kerr County Airport at Louis Schreiner Field,United States of America,Kerrville,https://www.worlddata.info/america/usa/airports.php
648,KESF,2025-11-23 02:02:50.010000+00:00,1763862780,2025-11-23T02:00:00.000Z,13.3,12.8,250,3.0,10+,1020.1,6,METAR,METAR KESF 230153Z AUTO 25003KT 10SM CLR 13/13 A3012 RMK AO2 SLP198 T01330128,31.3963,-92.2828,27,"Alexandria/Esler Rgnl, LA, US",CLR,[],VFR,,1019.8,,,,,,ESF,Esler Army Airfield / Esler Regional Airport,United States of America,Alexandria,https://www.worlddata.info/america/usa/airports.php
649,KESN,2025-11-23 01:47:08.385000+00:00,1763862300,2025-11-23T02:00:00.000Z,6.0,6.0,0,0.0,8,1017.0,0,METAR,METAR KESN 230145Z 00000KT 8SM CLR 06/06 A3003,38.804,-76.069,14,"Easton Muni, MD, US",CLR,[],VFR,,,,,,,,ESN,Easton Airport / Newnam Field,United States of America,Easton,https://www.worlddata.info/america/usa/airports.php
650,KEST,2025-11-23 02:02:28.843000+00:00,1763862720,2025-11-23T02:00:00.000Z,3.9,1.7,280,10.0,10+,1018.7,6,METAR,METAR KEST 230152Z AUTO 28010KT 10SM CLR 04/02 A3008 RMK AO2 SLP198 T00390017,43.4008,-94.7476,401,"Estherville Muni, IA, US",CLR,[],VFR,,1019.8,,,,,,EST,Estherville Municipal Airport,United States of America,Estherville,https://www.worlddata.info/america/usa/airports.php
651,KETB,2025-11-23 01:40:28.850000+00:00,1763861700,2025-11-23T01:35:00.000Z,7.0,1.0,250,9.0,10+,1013.0,6,METAR,METAR KETB 230135Z AUTO 25009KT 10SM CLR 07/01 A2991 RMK AO2,43.4225,-88.1326,269,"West Bend Muni, WI, US",CLR,[],VFR,,,,,,,,ETB,West Bend Municipal Airport,United States of America,West Bend,https://www.worlddata.info/america/usa/airports.php
652,KETN,2025-11-23 01:46:05.409000+00:00,1763861400,2025-11-23T01:30:00.000Z,9.7,8.0,0,0.0,10+,1023.1,6,METAR,METAR KETN 230130Z AUTO 00000KT 10SM CLR 10/08 A3021 RMK AO2 T00970080,32.4164,-98.8113,445,"Eastland Muni, TX, US",CLR,[],VFR,,,,,,,,ETN,Eastland Municipal Airport,United States of America,Eastland,https://www.worlddata.info/america/usa/airports.php
653,KEUF,2025-11-23 02:01:04.255000+00:00,1763863080,2025-11-23T02:00:00.000Z,20.0,18.3,250,3.0,10+,1017.7,6,METAR,METAR KEUF 230158Z AUTO 25003KT 10SM CLR 20/18 A3005 RMK AO1 SLP174 T02000183,31.9516,-85.1312,87,"Eufaula/Weedon Fld, AL, US",CLR,[],VFR,,1017.4,,,,,,EUF,Weedon Field,United States of America,Eufaula,https://www.worlddata.info/america/usa/airports.php
654,KEUG,2025-11-23 01:38:24.790000+00:00,1763861700,2025-11-23T01:35:00.000Z,4.4,4.4,10,4.0,0.5,1021.4,12,SPECI,SPECI KEUG 230135Z 01004KT 1/2SM FG VV002 04/04 A3016 RMK AO2 T00440044 RVRNO $,44.1331,-123.2156,109,"Eugene/Mahlon Sweet Fld, OR, US",OVX,"[{'cover': 'OVX', 'base': 200}]",LIFR,FG,,,2.0,,,,EUG,Mahlon Sweet Field,United States of America,Eugene,https://www.worlddata.info/america/usa/airports.php
655,KEVM,2025-11-23 01:38:27.496000+00:00,1763861700,2025-11-23T01:35:00.000Z,4.9,0.3,290,10.0,10+,1011.9,6,METAR,METAR KEVM 230135Z AUTO 29010G19KT 10SM OVC033 05/00 A2988 RMK AO2 T00490003,47.4274,-92.4972,419,"Eveleth Muni, MN, US",OVC,"[{'cover': 'OVC', 'base': 3300}]",VFR,,,,,,19.0,,EVM,Eveleth–Virginia Municipal Airport,United States of America,Eveleth,https://www.worlddata.info/america/usa/airports.php
656,KEVV,2025-11-23 02:02:34.622000+00:00,1763862840,2025-11-23T02:00:00.000Z,6.7,6.1,340,3.0,10+,1020.4,12,METAR,METAR KEVV 230154Z 34003KT 10SM CLR 07/06 A3013 RMK AO2 SLP205 T00670061 $,38.0502,-87.5147,123,"Evansville Rgnl, IN, US",CLR,[],VFR,,1020.5,,,,,,EVV,Evansville Regional Airport,United States of America,Evansville,https://www.worlddata.info/america/usa/airports.php
657,KEVW,2025-11-23 02:02:50.108000+00:00,1763862780,2025-11-23T02:00:00.000Z,0.0,-1.7,360,5.0,10+,1024.1,14,METAR,METAR KEVW 230153Z AUTO 36005KT 10SM CLR 00/M02 A3024 RMK AO2 SLP252 T00001017 $,41.2727,-111.0305,2178,"Evanston/Uinta Cnty, WY, US",CLR,[],VFR,,1025.2,,,,,,EVW,Evanston-Uinta County Airport-Burns Field,United States of America,Evanston,https://www.worlddata.info/america/usa/airports.php
658,KEWB,2025-11-23 02:02:20.883000+00:00,1763862780,2025-11-23T02:00:00.000Z,2.8,-1.1,0,0.0,10+,1014.6,4,METAR,METAR KEWB 230153Z 00000KT 10SM CLR 03/M01 A2996 RMK AO2 SLP144 T00281011,41.6791,-70.9591,22,"New Bedford Rgnl, MA, US",CLR,[],VFR,,1014.4,,,,,,EWB,New Bedford Regional Airport,United States of America,New Bedford,https://www.worlddata.info/america/usa/airports.php
659,KEWN,2025-11-23 01:18:13.225000+00:00,1763860440,2025-11-23T01:14:00.000Z,17.2,16.1,100,7.0,10+,1014.6,12,SPECI,SPECI KEWN 230114Z 10007KT 10SM BKN036 OVC065 17/16 A2996 RMK AO2 RAE03 P0000 T01720161 $,35.0684,-77.0478,3,"New Bern/Coastal Carolina Rgnl, NC, US",OVC,"[{'cover': 'BKN', 'base': 3600}, {'cover': 'OVC', 'base': 6500}]",VFR,,,0.005,,,,,EWN,Coastal Carolina Regional Airport,United States of America,New Bern,https://www.worlddata.info/america/usa/airports.php
660,KEWR,2025-11-23 01:54:13.032000+00:00,1763862660,2025-11-23T02:00:00.000Z,7.2,-3.9,330,10.0,10+,1016.7,12,METAR,METAR KEWR 230151Z 33010G19KT 10SM CLR 07/M04 A3002 RMK AO2 SLP165 T00721039 $,40.6828,-74.1692,2,"Newark Intl, NJ, US",CLR,[],VFR,,1016.5,,,,19.0,,EWR,Newark Liberty International Airport,United States of America,Newark,https://www.worlddata.info/america/usa/airports.php
661,KEYW,2025-11-23 02:02:50.314000+00:00,1763862780,2025-11-23T02:00:00.000Z,23.3,21.7,0,0.0,10+,1019.0,4,METAR,METAR KEYW 230153Z 00000KT 10SM CLR 23/22 A3009 RMK AO2 SLP194 T02330217,24.5571,-81.7554,1,"Key West Intl, FL, US",CLR,[],VFR,,1019.4,,,,,,EYW,Key West International Airport,United States of America,Key West,https://www.worlddata.info/america/usa/airports.php
662,KFAM,2025-11-23 01:48:04.807000+00:00,1763862300,2025-11-23T01:45:00.000Z,7.0,7.0,300,3.0,7,1021.8,14,SPECI,SPECI KFAM 230145Z AUTO 30003KT 7SM SCT007 07/07 A3017 RMK AO2 $,37.7631,-90.4292,276,"Farmington Rgnl, MO, US",SCT,"[{'cover': 'SCT', 'base': 700}]",VFR,,,,,,,,FAM,Farmington Regional Airport,United States of America,Farmington,https://www.worlddata.info/america/usa/airports.php
663,KFAR,2025-11-23 02:02:50.398000+00:00,1763862780,2025-11-23T02:00:00.000Z,1.1,-4.4,260,4.0,10+,1016.7,12,METAR,METAR KFAR 230153Z 26004KT 10SM CLR 01/M04 A3002 RMK AO2 SLP176 T00111044 $,46.9242,-96.8119,276,"Fargo/Hector Intl, ND, US",CLR,[],VFR,,1017.6,,,,,,FAR,Hector International Airport,United States of America,Fargo,https://www.worlddata.info/america/usa/airports.php
664,KFAT,2025-11-23 02:02:50.476000+00:00,1763862780,2025-11-23T02:00:00.000Z,13.3,8.9,300,3.0,7,1018.4,4,METAR,METAR KFAT 230153Z 30003KT 7SM SCT200 13/09 A3007 RMK AO2 SLP182 T01330089,36.78,-119.7202,102,"Fresno/Yosemite Intl, CA, US",SCT,"[{'cover': 'SCT', 'base': 20000}]",VFR,,1018.2,,,,,,FAT,Fresno Yosemite International Airport,United States of America,Fresno,https://www.worlddata.info/america/usa/airports.php
665,KFAY,2025-11-23 02:02:20.997000+00:00,1763862780,2025-11-23T02:00:00.000Z,18.9,16.7,0,0.0,10+,1014.0,4,METAR,METAR KFAY 230153Z 00000KT 10SM FEW042 SCT080 BKN100 19/17 A2994 RMK AO2 LTG DSNT S SLP132 T01890167,34.9895,-78.88,57,"Fayetteville Rgnl, NC, US",BKN,"[{'cover': 'FEW', 'base': 4200}, {'cover': 'SCT', 'base': 8000}, {'cover': 'BKN', 'base': 10000}]",VFR,,1013.2,,,,,,FAY,Fayetteville Regional Airport - Grannis Field,United States of America,Fayetteville,https://www.worlddata.info/america/usa/airports.php
666,KFBG,2025-11-23 01:58:04.071000+00:00,1763862900,2025-11-23T02:00:00.000Z,17.8,16.6,20,3.0,10+,1013.3,14,METAR,METAR KFBG 230155Z AUTO 02003KT 10SM SCT055 BKN080 18/17 A2992 RMK AO2 SLP134 T01780166 $,35.131,-78.932,69,"Fort Bragg/Simmons AAF, NC, US",BKN,"[{'cover': 'SCT', 'base': 5500}, {'cover': 'BKN', 'base': 8000}]",VFR,,1013.4,,,,,,FBG,Simmons Army Air Field,United States of America,Fort Bragg,https://www.worlddata.info/america/usa/airports.php
667,KFBL,2025-11-23 01:38:28.085000+00:00,1763861700,2025-11-23T01:35:00.000Z,6.0,2.0,260,6.0,10+,1016.7,6,METAR,METAR KFBL 230135Z AUTO 26006KT 10SM CLR 06/02 A3002 RMK AO2,44.3298,-93.3119,318,"Faribault Muni, MN, US",CLR,[],VFR,,,,,,,,FBL,Faribault Municipal Airport-Liz Wall Strohfus Field,United States of America,Faribault,https://www.worlddata.info/america/usa/airports.php
668,KFBR,2025-11-23 01:40:33.208000+00:00,1763861700,2025-11-23T01:35:00.000Z,2.9,-2.7,270,4.0,10+,1024.8,6,METAR,METAR KFBR 230135Z AUTO 27004KT 10SM CLR 03/M03 A3026 RMK AO2 T00291027,41.3941,-110.406,2140,"Fort Bridger Arpt, WY, US",CLR,[],VFR,,,,,,,,FBR,Fort Bridger Airport,United States of America,Fort Bridger,https://www.worlddata.info/america/usa/airports.php
669,KFCH,2025-11-23 01:52:03.160000+00:00,1763861700,2025-11-23T01:35:00.000Z,14.0,10.0,0,0.0,10+,1018.7,6,METAR,METAR KFCH 230135Z AUTO 00000KT 10SM BKN023 14/10 A3008 RMK A01,36.7338,-119.8204,85,"Fresno/Chandler Exec, CA, US",BKN,"[{'cover': 'BKN', 'base': 2300}]",MVFR,,,,,,,,FCH,Fresno Chandler Executive Airport,United States of America,Fresno,https://www.worlddata.info/america/usa/airports.php
670,KFCM,2025-11-23 02:02:50.563000+00:00,1763862780,2025-11-23T02:00:00.000Z,7.8,-0.6,280,7.0,10+,1016.3,4,METAR,METAR KFCM 230153Z 28007KT 10SM CLR 08/M01 A3001 RMK AO2 SLP169 T00781006,44.8321,-93.4705,276,"Eden Prairie/Flying, MN, US",CLR,[],VFR,,1016.9,,,,,,FCM,Flying Cloud Airport,United States of America,Minneapolis,https://www.worlddata.info/america/usa/airports.php
671,KFCS,2025-11-23 01:58:04.659000+00:00,1763862900,2025-11-23T02:00:00.000Z,7.3,-1.7,210,6.0,10+,1024.1,6,METAR,METAR KFCS 230155Z AUTO 21006KT 10SM CLR 07/M02 A3024 RMK AO2 SLP264 T00731017,38.6756,-104.751,1789,"Fort Carson/Butts AAF, CO, US",CLR,[],VFR,,1026.4,,,,,,FCS,Butts AAF (Fort Carson) Air Field,United States of America,Fort Carson,https://www.worlddata.info/america/usa/airports.php
672,KFDK,2025-11-23 01:46:30.700000+00:00,1763862300,2025-11-23T02:00:00.000Z,4.0,4.0,0,0.0,8,1017.7,0,METAR,METAR KFDK 230145Z 00000KT 8SM CLR 04/04 A3005,39.4177,-77.3696,82,"Frederick Muni, MD, US",CLR,[],VFR,,,,,,,,FDK,Frederick Municipal Airport,United States of America,Frederick,https://www.worlddata.info/america/usa/airports.php
673,KFDR,2025-11-23 02:02:50.632000+00:00,1763862780,2025-11-23T02:00:00.000Z,10.0,7.8,320,4.0,10+,1021.8,6,METAR,METAR KFDR 230153Z AUTO 32004KT 10SM CLR 10/08 A3017 RMK AO2 SLP216 T01000078,34.3531,-98.9876,378,"Frederick Rgnl, OK, US",CLR,[],VFR,,1021.6,,,,,,FDR,Frederick Regional Airport,United States of America,Frederick,https://www.worlddata.info/america/usa/airports.php
674,KFDY,2025-11-23 02:02:50.748000+00:00,1763862780,2025-11-23T02:00:00.000Z,1.7,-0.6,200,4.0,10+,1017.0,6,METAR,METAR KFDY 230153Z AUTO 20004KT 10SM BKN080 02/M01 A3003 RMK AO2 SLP172 T00171006,41.0137,-83.6681,247,"Findlay Arpt, OH, US",BKN,"[{'cover': 'BKN', 'base': 8000}]",VFR,,1017.2,,,,,,FDY,Findlay Airport,United States of America,Findlay,https://www.worlddata.info/america/usa/airports.php
675,KFET,2025-11-23 01:42:51.342000+00:00,1763861700,2025-11-23T01:35:00.000Z,5.7,0.7,330,5.0,10+,1021.1,6,METAR,METAR KFET 230135Z AUTO 33005KT 10SM CLR 06/01 A3015 RMK AO2 T00570007,41.4489,-96.5237,366,"Fremont Muni, NE, US",CLR,[],VFR,,,,,,,,FET,Fremont Municipal Airport,United States of America,Fremont,https://www.worlddata.info/america/usa/airports.php
676,KFFA,2025-11-23 01:38:18.322000+00:00,1763861700,2025-11-23T01:35:00.000Z,13.2,13.2,360,5.0,10+,1015.3,6,METAR,METAR KFFA 230135Z AUTO 36005KT 10SM OVC008 13/13 A2998 RMK AO2 T01320132,36.0165,-75.6739,2,"First Flight Airport, NC, US",OVC,"[{'cover': 'OVC', 'base': 800}]",IFR,,,,,,,,FFA,First Flight Airport,United States of America,Kill Devil Hills,https://www.worlddata.info/america/usa/airports.php
677,KFFL,2025-11-23 01:40:32.275000+00:00,1763861700,2025-11-23T01:35:00.000Z,10.0,7.0,230,8.0,10+,1018.0,6,METAR,METAR KFFL 230135Z AUTO 23008KT 10SM FEW044 10/07 A3006 RMK A01,41.0521,-91.9834,240,"Fairfield Muni, IA, US",FEW,"[{'cover': 'FEW', 'base': 4400}]",VFR,,,,,,,,FFL,Fairfield Municipal Airport,United States of America,Fairfield,https://www.worlddata.info/america/usa/airports.php
678,KFFM,2025-11-23 02:02:34.803000+00:00,1763862900,2025-11-23T02:00:00.000Z,2.0,-3.0,330,5.0,10+,1017.0,6,METAR,METAR KFFM 230155Z AUTO 33005KT 10SM CLR 02/M03 A3003 RMK AO2,46.2865,-96.1534,362,"Fergus Falls/Mickelson Fld, MN, US",CLR,[],VFR,,,,,,,,FFM,Fergus Falls Municipal Airport - Einar Mickelson Field,United States of America,Fergus Falls,https://www.worlddata.info/america/usa/airports.php
679,KFFO,2025-11-23 01:58:08.819000+00:00,1763862900,2025-11-23T02:00:00.000Z,2.5,0.4,0,0.0,10+,1018.0,6,METAR,METAR KFFO 230155Z AUTO 00000KT 10SM BKN100 03/00 A3006 RMK AO2 SLP187 T00250004,39.837,-84.035,250,"Wright Patterson AFB, OH, US",BKN,"[{'cover': 'BKN', 'base': 10000}]",VFR,,1018.7,,,,,,FFO,Wright-Patterson Air Force Base,United States of America,Dayton,https://www.worlddata.info/america/usa/airports.php
680,KFFT,2025-11-23 02:02:50.885000+00:00,1763862780,2025-11-23T02:00:00.000Z,,,,,,1019.4,198,METAR,METAR KFFT 230153Z AUTO A3010 RMK AO2 SLPNO PWINO FZRANO,38.1846,-84.9039,235,"Frankfort/Capital City Arpt, KY, US",,,,,,,,,,,FFT,Capital City Airport,United States of America,Frankfort,https://www.worlddata.info/america/usa/airports.php
681,KFHR,2025-11-23 02:02:50.964000+00:00,1763862780,2025-11-23T02:00:00.000Z,10.6,8.9,140,4.0,10+,1016.0,14,METAR,METAR KFHR 230153Z AUTO 14004KT 10SM SCT026 OVC060 11/09 A3000 RMK AO2 SLP159 T01060089 $,48.52,-123.0264,34,"Friday Harbor Arpt, WA, US",OVC,"[{'cover': 'SCT', 'base': 2600}, {'cover': 'OVC', 'base': 6000}]",VFR,,1015.9,,,,,,FRD,Friday Harbor Airport,United States of America,Friday Harbor,https://www.worlddata.info/america/usa/airports.php
682,KFHU,2025-11-23 01:58:10.431000+00:00,1763862900,2025-11-23T02:00:00.000Z,15.9,7.4,150,19.0,10+,1014.3,6,METAR,METAR KFHU 230155Z AUTO 15019G27KT 10SM VCTS -RA FEW024 FEW043 SCT050 BKN060 BKN080 OVC140 16/07 A2995 RMK AO2 PK WND 16031/13 RAB50 SLP114 P0000 T01590074,31.586,-110.348,1424,"Fort Huachuca/Libby AAF, AZ, US",BKN,"[{'cover': 'FEW', 'base': 2400}, {'cover': 'FEW', 'base': 4300}, {'cover': 'SCT', 'base': 5000}, {'cover': 'BKN', 'base': 6000}]",VFR,VCTS -RA,1011.4,0.005,,,27.0,,FHU,Sierra Vista Municipal Airport / Libby Army Air Field,United States of America,Fort Huachuca / Sierra Vista,https://www.worlddata.info/america/usa/airports.php
683,KFKN,2025-11-23 01:38:18.404000+00:00,1763861700,2025-11-23T01:35:00.000Z,11.2,8.7,30,4.0,10+,1017.0,6,METAR,METAR KFKN 230135Z AUTO 03004KT 10SM OVC012 11/09 A3003 RMK AO2 T01120087,36.6984,-76.9032,9,"Franklin/Rose Arpt, VA, US",OVC,"[{'cover': 'OVC', 'base': 1200}]",MVFR,,,,,,,,FKN,Franklin Regional Airport,United States of America,Franklin,https://www.worlddata.info/america/usa/airports.php
684,KFLD,2025-11-23 02:02:21.112000+00:00,1763862780,2025-11-23T02:00:00.000Z,2.2,-1.7,220,7.0,10+,1013.0,6,METAR,METAR KFLD 230153Z AUTO 22007KT 10SM CLR 02/M02 A2991 RMK AO2 SLP140 T00221017,43.7695,-88.4907,242,"Fond Du Lac Cnty Arpt, WI, US",CLR,[],VFR,,1014.0,,,,,,FLD,Fond du Lac County Airport,United States of America,Fond du Lac,https://www.worlddata.info/america/usa/airports.php
685,KFLL,2025-11-23 02:02:51.046000+00:00,1763862780,2025-11-23T02:00:00.000Z,25.0,18.9,140,6.0,10+,1018.7,12,METAR,METAR KFLL 230153Z 14006KT 10SM FEW120 25/19 A3008 RMK AO2 SLP186 T02500189 $,26.0787,-80.1622,1,"Ft Lauderdale-Hollywood Intl, FL, US",FEW,"[{'cover': 'FEW', 'base': 12000}]",VFR,,1018.6,,,,,,FLL,Fort Lauderdale Hollywood International Airport,United States of America,Fort Lauderdale,https://www.worlddata.info/america/usa/airports.php
686,KFLO,2025-11-23 02:02:51.138000+00:00,1763862780,2025-11-23T02:00:00.000Z,18.9,17.2,220,5.0,9,1014.3,4,METAR,METAR KFLO 230153Z 22005KT 9SM CLR 19/17 A2995 RMK AO2 SLP138 T01890172,34.1877,-79.7308,43,"Florence Rgnl, SC, US",CLR,[],VFR,,1013.8,,,,,,FLO,Florence Regional Airport,United States of America,Florence,https://www.worlddata.info/america/usa/airports.php
687,KFME,2025-11-23 01:43:03.625000+00:00,1763861700,2025-11-23T01:35:00.000Z,3.0,3.0,0,0.0,5,1018.0,6,METAR,METAR KFME 230135Z AUTO 00000KT 5SM CLR 03/03 A3006 RMK AO1,39.086,-76.757,43,"Fort Meade/Tipton Fld, MD, US",CLR,[],MVFR,,,,,,,,FME,Tipton Airport,United States of America,Fort Meade(Odenton),https://www.worlddata.info/america/usa/airports.php
688,KFMH,2025-11-23 01:50:49.335000+00:00,1763862900,2025-11-23T02:00:00.000Z,4.0,1.0,310,6.0,10+,1014.6,0,METAR,METAR KFMH 230155Z 31006KT 10SM CLR 04/01 A2996,41.6608,-70.5221,35,"Otis ANGB, MA, US",CLR,[],VFR,,,,,,,,FMH,Cape Cod Coast Guard Air Station,United States of America,Falmouth,https://www.worlddata.info/america/usa/airports.php
689,KFMN,2025-11-23 02:02:21.227000+00:00,1763862780,2025-11-23T02:00:00.000Z,11.1,0.6,120,7.0,10+,1020.7,4,METAR,METAR KFMN 230153Z 12007KT 10SM CLR 11/01 A3014 RMK AO2 SLP202 T01110006,36.7435,-108.2293,1677,"Farmington/Four Corners Rgnl, NM, US",CLR,[],VFR,,1020.2,,,,,,FMN,Four Corners Regional Airport,United States of America,Farmington,https://www.worlddata.info/america/usa/airports.php
690,KFMY,2025-11-23 02:02:51.211000+00:00,1763862780,2025-11-23T02:00:00.000Z,21.7,18.3,310,4.0,10+,1019.0,12,METAR,METAR KFMY 230153Z 31004KT 10SM CLR 22/18 A3009 RMK AO2 SLP192 T02170183 $,26.584,-81.8615,4,"Fort Myers/Page Fld, FL, US",CLR,[],VFR,,1019.2,,,,,,FMY,Page Field,United States of America,Fort Myers,https://www.worlddata.info/america/usa/airports.php
691,KFNT,2025-11-23 02:02:51.362000+00:00,1763862780,2025-11-23T02:00:00.000Z,3.9,-1.1,170,5.0,10+,1014.6,4,METAR,METAR KFNT 230153Z 17005KT 10SM OVC065 04/M01 A2996 RMK AO2 RAE19 SLP153 P0000 T00391011,42.9669,-83.75,235,"Flint/Bishop Intl, MI, US",OVC,"[{'cover': 'OVC', 'base': 6500}]",VFR,,1015.3,0.005,,,,,FNT,Bishop International Airport,United States of America,Flint,https://www.worlddata.info/america/usa/airports.php
692,KFOE,2025-11-23 02:02:51.452000+00:00,1763862780,2025-11-23T02:00:00.000Z,8.9,6.1,210,7.0,10+,1021.4,4,METAR,METAR KFOE 230153Z 21007KT 10SM CLR 09/06 A3016 RMK AO2 SLP218 T00890061,38.9414,-95.6513,315,"Topeka/Forbes Fld, KS, US",CLR,[],VFR,,1021.8,,,,,,FOE,Topeka Regional Airport,United States of America,Topeka,https://www.worlddata.info/america/usa/airports.php
693,KFOK,2025-11-23 02:02:51.541000+00:00,1763862780,2025-11-23T02:00:00.000Z,5.0,-2.8,350,4.0,10+,1016.7,4,METAR,METAR KFOK 230153Z 35004KT 10SM CLR 05/M03 A3002 RMK AO2 SLP164 T00501028,40.8505,-72.6193,13,"Westhampton/Gabreski Arpt, NY, US",CLR,[],VFR,,1016.4,,,,,,FOK,Francis S Gabreski Airport,United States of America,Westhampton Beach,https://www.worlddata.info/america/usa/airports.php
694,KFOM,2025-11-23 01:41:27.265000+00:00,1763861700,2025-11-23T01:35:00.000Z,3.0,1.0,150,4.0,10+,1023.1,6,METAR,METAR KFOM 230135Z AUTO 15004KT 10SM CLR 03/01 A3021 RMK AO2,38.9618,-112.36,1519,"Fillmore Muni, UT, US",CLR,[],VFR,,,,,,,,FIL,Fillmore Municipal Airport,United States of America,Fillmore,https://www.worlddata.info/america/usa/airports.php
695,KFPR,2025-11-23 02:02:51.620000+00:00,1763862780,2025-11-23T02:00:00.000Z,17.2,17.2,0,0.0,10+,1019.0,6,METAR,METAR KFPR 230153Z AUTO 00000KT 10SM CLR 17/17 A3009 RMK AO2 SLP188 T01720172,27.4981,-80.3763,7,"Ft Pierce/Treasure Coast Intl, FL, US",CLR,[],VFR,,1018.8,,,,,,FPR,St Lucie County International Airport,United States of America,Fort Pierce,https://www.worlddata.info/america/usa/airports.php
696,KFRG,2025-11-23 02:02:51.695000+00:00,1763862780,2025-11-23T02:00:00.000Z,6.7,-1.7,350,5.0,10+,1016.3,4,METAR,METAR KFRG 230153Z 35005KT 10SM CLR 07/M02 A3001 RMK AO2 SLP162 T00671017,40.7344,-73.4164,23,"Farmingdale/Republic Arpt, NY, US",CLR,[],VFR,,1016.2,,,,,,FRG,Republic Airport,United States of America,Farmingdale,https://www.worlddata.info/america/usa/airports.php
697,KFRH,2025-11-23 02:02:13.052000+00:00,1763862900,2025-11-23T02:00:00.000Z,8.0,3.0,0,0.0,10+,1019.7,6,METAR,METAR KFRH 230155Z AUTO 00000KT 10SM CLR 08/03 A3011 RMK AO1,38.5034,-86.6442,241,"French Lick Muni, IN, US",CLR,[],VFR,,,,,,,,FRH,French Lick Municipal Airport,United States of America,French Lick,https://www.worlddata.info/america/usa/airports.php
698,KFRI,2025-11-23 01:58:04.402000+00:00,1763862900,2025-11-23T02:00:00.000Z,10.6,7.5,0,0.0,10+,1021.4,14,METAR,METAR KFRI 230155Z AUTO 00000KT 10SM CLR 11/08 A3016 RMK AO2 SLP217 T01060075 $,39.0568,-96.7617,232,"Ft Riley/Marshall Fld, KS, US",CLR,[],VFR,,1021.7,,,,,,FRI,Marshall Army Air Field,United States of America,Fort Riley (Junction City),https://www.worlddata.info/america/usa/airports.php
699,KFRR,2025-11-23 01:36:13.327000+00:00,1763861700,2025-11-23T01:35:00.000Z,8.0,4.1,0,0.0,10+,1016.3,6,METAR,METAR KFRR 230135Z AUTO 00000KT 10SM SCT048 08/04 A3001 RMK AO2 T00800041,38.9169,-78.2487,213,"Front Royal/Warren Cnty, VA, US",SCT,"[{'cover': 'SCT', 'base': 4800}]",VFR,,,,,,,,FRR,Front Royal Warren County Airport,United States of America,Front Royal,https://www.worlddata.info/america/usa/airports.php
700,KFSK,2025-11-23 01:40:26.645000+00:00,1763861700,2025-11-23T01:35:00.000Z,6.9,6.4,210,6.0,10+,1022.8,6,METAR,METAR KFSK 230135Z AUTO 21006KT 10SM CLR 07/06 A3020 RMK AO2 T00690064,37.796,-94.7676,276,"Fort Scott Muni, KS, US",CLR,[],VFR,,,,,,,,FSK,Fort Scott Municipal Airport,United States of America,Fort Scott,https://www.worlddata.info/america/usa/airports.php
701,KFSM,2025-11-23 02:02:51.787000+00:00,1763862780,2025-11-23T02:00:00.000Z,12.8,8.9,VRB,6.0,10+,1023.1,12,METAR,METAR KFSM 230153Z VRB06KT 10SM OVC016 13/09 A3021 RMK AO2 SLP228 T01280089 $,35.3335,-94.3653,136,"Fort Smith Rgnl, AR, US",OVC,"[{'cover': 'OVC', 'base': 1600}]",MVFR,,1022.8,,,,,,FSM,Fort Smith Regional Airport,United States of America,Fort Smith,https://www.worlddata.info/america/usa/airports.php
702,KFST,2025-11-23 02:02:21.329000+00:00,1763862780,2025-11-23T02:00:00.000Z,18.9,4.4,110,10.0,10+,1020.7,6,METAR,METAR KFST 230153Z AUTO 11010KT 10SM CLR 19/04 A3014 RMK AO2 SLP179 T01890044,30.9119,-102.9171,917,"Fort Stockton/Pecos Cnty, TX, US",CLR,[],VFR,,1017.9,,,,,,FST,Fort Stockton Pecos County Airport,United States of America,Fort Stockton,https://www.worlddata.info/america/usa/airports.php
703,KFSW,2025-11-23 01:42:52.238000+00:00,1763861700,2025-11-23T01:35:00.000Z,9.0,6.0,200,11.0,10+,1018.4,6,METAR,METAR KFSW 230135Z AUTO 20011KT 10SM CLR 09/06 A3007 RMK AO2,40.6615,-91.3267,219,"Fort Madison Muni, IA, US",CLR,[],VFR,,,,,,,,FMS,Fort Madison Municipal Airport,United States of America,Fort Madison,https://www.worlddata.info/america/usa/airports.php
704,KFTW,2025-11-23 02:02:51.852000+00:00,1763862780,2025-11-23T02:00:00.000Z,14.4,8.3,40,7.0,10+,1022.4,12,METAR,METAR KFTW 230153Z 04007KT 10SM CLR 14/08 A3019 RMK AO2 SLP222 T01440083 $,32.8248,-97.364,213,"Fort Worth/Meacham Intl, TX, US",CLR,[],VFR,,1022.2,,,,,,FTW,Fort Worth Meacham International Airport,United States of America,Fort Worth,https://www.worlddata.info/america/usa/airports.php
705,KFTY,2025-11-23 02:02:51.948000+00:00,1763862780,2025-11-23T02:00:00.000Z,17.8,12.2,0,0.0,10+,1016.7,4,METAR,METAR KFTY 230153Z 00000KT 10SM CLR 18/12 A3002 RMK AO2 SLP161 T01780122,33.7776,-84.5246,245,"Atlanta/Fulton Cnty, GA, US",CLR,[],VFR,,1016.1,,,,,,FTY,Fulton County Airport Brown Field,United States of America,Atlanta,https://www.worlddata.info/america/usa/airports.php
706,KFUL,2025-11-23 02:02:52.018000+00:00,1763862780,2025-11-23T02:00:00.000Z,16.7,9.4,0,0.0,10+,1013.0,4,METAR,METAR KFUL 230153Z 00000KT 10SM FEW120 17/09 A2991 RMK AO2 SLP127 T01670094,33.8715,-117.9856,23,"Fullerton Muni, CA, US",FEW,"[{'cover': 'FEW', 'base': 12000}]",VFR,,1012.7,,,,,,FUL,Fullerton Municipal Airport,United States of America,Fullerton,https://www.worlddata.info/america/usa/airports.php
707,KFVE,2025-11-23 02:02:21.554000+00:00,1763862780,2025-11-23T02:00:00.000Z,-2.8,-4.4,260,9.0,10+,1007.2,6,METAR,METAR KFVE 230153Z AUTO 26009KT 10SM BKN050 M03/M04 A2974 RMK AO2 SLP083 T10281044,47.2852,-68.3072,299,"Frenchville/N Aroostook Rgnl, ME, US",BKN,"[{'cover': 'BKN', 'base': 5000}]",VFR,,1008.3,,,,,,WFK,Northern Aroostook Regional Airport,United States of America,Frenchville,https://www.worlddata.info/america/usa/airports.php
708,KFWA,2025-11-23 02:02:34.895000+00:00,1763862840,2025-11-23T02:00:00.000Z,5.0,0.0,200,8.0,10+,1016.7,4,METAR,METAR KFWA 230154Z 20008KT 10SM BKN100 05/00 A3002 RMK AO2 SLP171 T00500000,40.9725,-85.2064,243,"Fort Wayne Intl, IN, US",BKN,"[{'cover': 'BKN', 'base': 10000}]",VFR,,1017.1,,,,,,FWA,Fort Wayne International Airport,United States of America,Fort Wayne,https://www.worlddata.info/america/usa/airports.php
709,KFXY,2025-11-23 01:46:04.083000+00:00,1763861700,2025-11-23T01:35:00.000Z,1.0,0.0,260,3.0,10+,1017.7,6,METAR,METAR KFXY 230135Z AUTO 26003KT 10SM CLR 01/00 A3005 RMK AO2,43.2323,-93.6237,366,"Forest City Muni, IA, US",CLR,[],VFR,,,,,,,,FXY,Forest City Municipal Airport,United States of America,Forest City,https://www.worlddata.info/america/usa/airports.php
710,KFYM,2025-11-23 01:46:11.828000+00:00,1763861700,2025-11-23T01:35:00.000Z,15.0,14.0,10,8.0,10+,1018.4,6,METAR,METAR KFYM 230135Z AUTO 01008KT 10SM CLR 15/14 A3007 RMK A01,35.0603,-86.5656,297,"Fayetteville Muni, TN, US",CLR,[],VFR,,,,,,,,FYM,Fayetteville Municipal Airport,United States of America,Fayetteville,https://www.worlddata.info/america/usa/airports.php
711,KFYV,2025-11-23 02:02:52.191000+00:00,1763862780,2025-11-23T02:00:00.000Z,10.0,8.9,300,3.0,8,1022.8,4,METAR,METAR KFYV 230153Z 30003KT 8SM OVC005 10/09 A3020 RMK AO2 SLP226 T01000089,36.0103,-94.1624,377,"Fayetteville/Drake Fld, AR, US",OVC,"[{'cover': 'OVC', 'base': 500}]",IFR,,1022.6,,,,,,FYV,Drake Field,United States of America,Fayetteville,https://www.worlddata.info/america/usa/airports.php
712,KGAG,2025-11-23 02:02:52.277000+00:00,1763862780,2025-11-23T02:00:00.000Z,8.3,6.7,160,5.0,10+,1022.4,6,METAR,METAR KGAG 230153Z AUTO 16005KT 10SM CLR 08/07 A3019 RMK AO2 SLP225 T00830067,36.2966,-99.7686,670,"Gage Arpt, OK, US",CLR,[],VFR,,1022.5,,,,,,GAG,Gage Heibeck Airport,United States of America,Gage,https://www.worlddata.info/america/usa/airports.php
713,KGBG,2025-11-23 01:44:11.375000+00:00,1763861700,2025-11-23T01:35:00.000Z,6.2,6.2,220,9.0,7,1018.0,6,METAR,METAR KGBG 230135Z AUTO 22009KT 7SM CLR 06/06 A3006 RMK AO2 T00620062,40.9329,-90.4334,230,"Galesburg Muni, IL, US",CLR,[],VFR,,,,,,,,GBG,Galesburg Municipal Airport,United States of America,Galesburg,https://www.worlddata.info/america/usa/airports.php
714,KGCC,2025-11-23 02:02:21.675000+00:00,1763862780,2025-11-23T02:00:00.000Z,2.2,-3.9,170,3.0,10+,1018.4,6,METAR,METAR KGCC 230153Z AUTO 17003KT 10SM CLR 02/M04 A3007 RMK AO2 SLP201 T00221039,44.3398,-105.5416,1328,"Gillette/Campbell Cnty, WY, US",CLR,[],VFR,,1020.1,,,,,,GCC,Northeast Wyoming Regional Airport,United States of America,Gillette,https://www.worlddata.info/america/usa/airports.php
715,KGCD,2025-11-23 01:42:52.605000+00:00,1763861700,2025-11-23T01:35:00.000Z,5.6,0.1,130,6.0,10+,1020.1,6,METAR,METAR KGCD 230135Z AUTO 13006KT 10SM CLR 06/00 A3012 RMK AO2 T00560001,44.4029,-118.9672,1122,"John Day/Grant Cnty, OR, US",CLR,[],VFR,,,,,,,,JDA,Grant County Regional Airport / Ogilvie Field,United States of America,John Day,https://www.worlddata.info/america/usa/airports.php
716,KGCK,2025-11-23 02:02:00.088000+00:00,1763862840,2025-11-23T02:00:00.000Z,7.8,5.6,240,3.0,10+,1022.4,4,METAR,METAR KGCK 230154Z 24003KT 10SM CLR 08/06 A3019 RMK AO2 SLP232 T00780056,37.9221,-100.723,877,"Garden City Rgnl, KS, US",CLR,[],VFR,,1023.2,,,,,,GCK,Garden City Regional Airport,United States of America,Garden City,https://www.worlddata.info/america/usa/airports.php
717,KGCN,2025-11-23 02:02:00.116000+00:00,1763862840,2025-11-23T02:00:00.000Z,6.1,1.1,150,5.0,10+,1020.1,6,METAR,METAR KGCN 230154Z AUTO 15005KT 10SM BKN055 OVC065 06/01 A3012 RMK AO2 SLP167 T00610011,35.9458,-112.1554,1993,"Grand Canyon Park Arpt, AZ, US",OVC,"[{'cover': 'BKN', 'base': 5500}, {'cover': 'OVC', 'base': 6500}]",VFR,,1016.7,,,,,,GCN,Grand Canyon National Park Airport,United States of America,Grand Canyon - Tusayan,https://www.worlddata.info/america/usa/airports.php
718,KGCY,2025-11-23 01:46:11.860000+00:00,1763861700,2025-11-23T01:35:00.000Z,15.0,10.0,290,4.0,10+,1017.0,6,METAR,METAR KGCY 230135Z AUTO 29004KT 10SM BKN044 OVC050 15/10 A3003 RMK A01,36.1924,-82.8135,488,"Greeneville/Greene Cnty, TN, US",OVC,"[{'cover': 'BKN', 'base': 4400}, {'cover': 'OVC', 'base': 5000}]",VFR,,,,,,,,GCY,Greeneville Municipal Airport,United States of America,Greeneville,https://www.worlddata.info/america/usa/airports.php
719,KGED,2025-11-23 02:02:00.141000+00:00,1763862840,2025-11-23T02:00:00.000Z,,,,,,1016.7,206,METAR,METAR KGED 230154Z AUTO A3002 RMK AO2 SLPNO PWINO FZRANO $,38.6898,-75.3625,15,"Georgetown/Sussex Cnty, DE, US",,,,,,,,,,,GED,Delaware Coastal Airport,United States of America,Georgetown,https://www.worlddata.info/america/usa/airports.php
720,KGEG,2025-11-23 02:02:52.376000+00:00,1763862780,2025-11-23T02:00:00.000Z,7.2,3.9,150,6.0,10+,1017.4,12,METAR,METAR KGEG 230153Z 15006KT 10SM FEW035 BKN047 OVC120 07/04 A3004 RMK AO2 SLP187 T00720039 $,47.6217,-117.528,718,"Spokane Intl, WA, US",OVC,"[{'cover': 'FEW', 'base': 3500}, {'cover': 'BKN', 'base': 4700}, {'cover': 'OVC', 'base': 12000}]",VFR,,1018.7,,,,,,GEG,Spokane International Airport,United States of America,Spokane,https://www.worlddata.info/america/usa/airports.php
721,KGEY,2025-11-23 02:02:52.443000+00:00,1763862780,2025-11-23T02:00:00.000Z,4.4,-2.8,110,4.0,10+,1018.0,6,METAR,METAR KGEY 230153Z AUTO 11004KT 10SM CLR 04/M03 A3006 RMK AO2 SLP210 T00441028,44.5174,-108.0752,1191,"Greybull/South Big Horn Arpt, WY, US",CLR,[],VFR,,1021.0,,,,,,GEY,South Big Horn County Airport,United States of America,Greybull,https://www.worlddata.info/america/usa/airports.php
722,KGFK,2025-11-23 02:02:52.600000+00:00,1763862780,2025-11-23T02:00:00.000Z,1.7,-2.8,240,8.0,10+,1015.7,4,METAR,METAR KGFK 230153Z 24008KT 10SM CLR 02/M03 A2999 RMK AO2 SLP165 T00171028,47.9428,-97.1829,256,"Grand Forks Intl, ND, US",CLR,[],VFR,,1016.5,,,,,,GFK,Grand Forks International Airport,United States of America,Grand Forks,https://www.worlddata.info/america/usa/airports.php
723,KGFL,2025-11-23 02:02:21.807000+00:00,1763862780,2025-11-23T02:00:00.000Z,-5.0,-7.2,0,0.0,10+,1016.3,6,METAR,METAR KGFL 230153Z AUTO 00000KT 10SM CLR M05/M07 A3001 RMK AO2 SLP170 T10501072,43.3385,-73.6102,99,"Glens Falls/Warren Cnty, NY, US",CLR,[],VFR,,1017.0,,,,,,GFL,Floyd Bennett Memorial Airport,United States of America,Glens Falls,https://www.worlddata.info/america/usa/airports.php
724,KGGE,2025-11-23 01:40:26.754000+00:00,1763861700,2025-11-23T01:35:00.000Z,19.0,18.0,220,7.0,10+,1015.3,6,METAR,METAR KGGE 230135Z AUTO 22007KT 10SM CLR 19/18 A2998 RMK AO2,33.3138,-79.3187,9,"Georgetown Cnty, SC, US",CLR,[],VFR,,,,,,,,GGE,Georgetown County Airport,United States of America,Georgetown,https://www.worlddata.info/america/usa/airports.php
725,KGGG,2025-11-23 02:02:52.676000+00:00,1763862780,2025-11-23T02:00:00.000Z,15.0,9.4,0,0.0,10+,1021.8,4,METAR,METAR KGGG 230153Z 00000KT 10SM CLR 15/09 A3017 RMK AO2 SLP215 T01500094,32.3909,-94.714,107,"Longview/Gregg Cnty, TX, US",CLR,[],VFR,,1021.5,,,,,,GGG,East Texas Regional Airport,United States of America,Longview,https://www.worlddata.info/america/usa/airports.php
726,KGGW,2025-11-23 01:55:14.707000+00:00,1763862780,2025-11-23T02:00:00.000Z,5.6,-0.6,150,10.0,10+,1013.3,38,METAR,METAR KGGW 230153Z AUTO 15010KT 10SM CLR 06/M01 A2992 RMK AO2 SLP154 T00561006 TSNO ,48.2142,-106.6214,698,"Glasgow Intl Arpt, MT, US",CLR,[],VFR,,1015.4,,,,,,GGW,Glasgow Valley County Airport Wokal Field,United States of America,Glasgow,https://www.worlddata.info/america/usa/airports.php
727,KGIF,2025-11-23 02:02:52.749000+00:00,1763862780,2025-11-23T02:00:00.000Z,21.1,16.1,320,6.0,10+,1019.7,14,METAR,METAR KGIF 230153Z AUTO 32006KT 10SM CLR 21/16 A3011 RMK AO1 SLP194 T02110161 $,28.0614,-81.7568,44,"Winter Haven Rgnl, FL, US",CLR,[],VFR,,1019.4,,,,,,GIF,Winter Haven Regional Airport - Gilbert Field,United States of America,Winter Haven,https://www.worlddata.info/america/usa/airports.php
728,KGJT,2025-11-23 02:02:21.922000+00:00,1763862780,2025-11-23T02:00:00.000Z,9.4,2.8,340,6.0,10+,1022.1,4,METAR,METAR KGJT 230153Z 34006KT 10SM CLR 09/03 A3018 RMK AO2 SLP207 T00940028,39.1344,-108.5408,1475,"Grand Junction Rgnl, CO, US",CLR,[],VFR,,1020.7,,,,,,GJT,Grand Junction Regional Airport,United States of America,Grand Junction,https://www.worlddata.info/america/usa/airports.php
729,KGKJ,2025-11-23 02:02:42.734000+00:00,1763862780,2025-11-23T02:00:00.000Z,0.6,-2.8,0,0.0,10+,1016.3,6,METAR,METAR KGKJ 230153Z AUTO 00000KT 10SM CLR 01/M03 A3001 RMK AO2 SLP172 T00061028,41.6258,-80.2123,428,"Meadville Arpt, PA, US",CLR,[],VFR,,1017.2,,,,,,MEJ,Port Meadville Airport,United States of America,Meadville,https://www.worlddata.info/america/usa/airports.php
730,KGKT,2025-11-23 01:46:11.940000+00:00,1763861760,2025-11-23T01:36:00.000Z,16.0,13.0,VRB,4.0,10+,1017.7,6,METAR,METAR KGKT 230136Z AUTO VRB04KT 10SM BKN055 16/13 A3005 RMK A01,35.8568,-83.5333,305,"Gatlinburg-Pigeon Forge Arpt, TN, US",BKN,"[{'cover': 'BKN', 'base': 5500}]",VFR,,,,,,,,GKT,Gatlinburg-Pigeon Forge Airport,United States of America,Sevierville,https://www.worlddata.info/america/usa/airports.php
731,KGLD,2025-11-23 02:02:42.912000+00:00,1763862780,2025-11-23T02:00:00.000Z,2.2,0.0,0,0.0,10+,1022.4,6,METAR,METAR KGLD 230153Z AUTO 00000KT 10SM CLR 02/00 A3019 RMK AO2 SLP237 T00220000,39.3673,-101.6932,1111,"Goodland/Renner Fld, KS, US",CLR,[],VFR,,1023.7,,,,,,GLD,Goodland Municipal Airport,United States of America,Goodland,https://www.worlddata.info/america/usa/airports.php
732,KGLH,2025-11-23 02:02:43.014000+00:00,1763862780,2025-11-23T02:00:00.000Z,15.6,11.1,320,5.0,10+,1020.1,6,METAR,METAR KGLH 230153Z AUTO 32005KT 10SM CLR 16/11 A3012 RMK AO2 SLP208 T01560111,33.4772,-90.9847,40,"Greenville/Mid Delta Arpt, MS, US",CLR,[],VFR,,1020.8,,,,,,GLH,Mid Delta Regional Airport,United States of America,Greenville,https://www.worlddata.info/america/usa/airports.php
733,KGLR,2025-11-23 02:02:43.120000+00:00,1763862780,2025-11-23T02:00:00.000Z,2.8,-2.8,200,12.0,10+,1010.6,6,METAR,METAR KGLR 230153Z AUTO 20012KT 10SM BKN025 OVC032 03/M03 A2984 RMK AO2 SLP117 T00281028,45.0166,-84.6894,403,"Gaylord Rgnl, MI, US",OVC,"[{'cover': 'BKN', 'base': 2500}, {'cover': 'OVC', 'base': 3200}]",MVFR,,1011.7,,,,,,GLR,Gaylord Regional Airport,United States of America,Gaylord,https://www.worlddata.info/america/usa/airports.php
734,KGLW,2025-11-23 01:42:52.961000+00:00,1763861700,2025-11-23T01:35:00.000Z,10.2,8.6,20,4.0,10+,1020.1,6,METAR,METAR KGLW 230135Z AUTO 02004KT 10SM OVC012 10/09 A3012 RMK AO2 T01020086,37.0337,-85.9523,216,"Glasgow Muni, KY, US",OVC,"[{'cover': 'OVC', 'base': 1200}]",MVFR,,,,,,,,GLW,Glasgow Municipal Airport,United States of America,Glasgow,https://www.worlddata.info/america/usa/airports.php
735,KGMU,2025-11-23 02:02:43.200000+00:00,1763862780,2025-11-23T02:00:00.000Z,17.8,11.7,0,0.0,10+,1015.7,4,METAR,METAR KGMU 230153Z 00000KT 10SM CLR 18/12 A2999 RMK AO2 SLP150 T01780117,34.8487,-82.35,309,"Greenville/Downtown Arpt, SC, US",CLR,[],VFR,,1015.0,,,,,,GMU,Greenville Downtown Airport,United States of America,Greenville,https://www.worlddata.info/america/usa/airports.php
736,KGNG,2025-11-23 01:52:04.345000+00:00,1763861700,2025-11-23T01:35:00.000Z,5.0,3.0,70,9.0,10+,1023.8,6,METAR,METAR KGNG 230135Z AUTO 07009KT 10SM CLR 05/03 A3023 RMK AO2,42.9155,-114.7655,1128,"Gooding Muni, ID, US",CLR,[],VFR,,,,,,,,GNG,Gooding Municipal Airport,United States of America,Gooding,https://www.worlddata.info/america/usa/airports.php
737,KGNT,2025-11-23 02:02:13.337000+00:00,1763862900,2025-11-23T02:00:00.000Z,7.3,-1.0,180,8.0,10+,1021.4,6,METAR,METAR KGNT 230155Z AUTO 18008KT 10SM SCT065 07/M01 A3016 RMK AO2 T00731010,35.1653,-107.9021,1988,"Grants-Milan Muni, NM, US",SCT,"[{'cover': 'SCT', 'base': 6500}]",VFR,,,,,,,,GNT,Grants-Milan Municipal Airport,United States of America,Grants,https://www.worlddata.info/america/usa/airports.php
738,KGNV,2025-11-23 02:02:43.290000+00:00,1763862780,2025-11-23T02:00:00.000Z,21.1,19.4,220,5.0,10+,1019.4,4,METAR,METAR KGNV 230153Z 22005KT 10SM CLR 21/19 A3010 RMK AO2 SLP190 T02110194,29.6917,-82.276,41,"Gainesville Rgnl, FL, US",CLR,[],VFR,,1019.0,,,,,,GNV,Gainesville Regional Airport,United States of America,Gainesville,https://www.worlddata.info/america/usa/airports.php
739,KGOK,2025-11-23 02:02:43.364000+00:00,1763862780,2025-11-23T02:00:00.000Z,7.8,5.6,120,3.0,4,1022.8,6,METAR,METAR KGOK 230153Z AUTO 12003KT 4SM BR CLR 08/06 A3020 RMK AO2 SLP231 T00780056,35.8517,-97.4142,326,"Guthrie-Edmond Rgnl, OK, US",CLR,[],MVFR,BR,1023.1,,,,,,GOK,Guthrie-Edmond Regional Airport,United States of America,Guthrie,https://www.worlddata.info/america/usa/airports.php
740,KGPT,2025-11-23 02:02:43.480000+00:00,1763862780,2025-11-23T02:00:00.000Z,21.1,20.0,0,0.0,8,1018.7,6,METAR,METAR KGPT 230153Z AUTO 00000KT 8SM BKN036 BKN045 21/20 A3008 RMK AO2 SLP184 T02110200,30.4121,-89.0809,5,"Gulfport-Biloxi Intl, MS, US",BKN,"[{'cover': 'BKN', 'base': 3600}, {'cover': 'BKN', 'base': 4500}]",VFR,,1018.4,,,,,,GPT,Gulfport Biloxi International Airport,United States of America,Gulfport,https://www.worlddata.info/america/usa/airports.php
741,KGRB,2025-11-23 02:02:43.586000+00:00,1763862780,2025-11-23T02:00:00.000Z,3.3,-2.8,240,6.0,10+,1012.3,4,METAR,METAR KGRB 230153Z 24006KT 10SM CLR 03/M03 A2989 RMK AO2 SLP129 T00331028,44.4796,-88.137,209,"Green Bay/Straubel Intl, WI, US",CLR,[],VFR,,1012.9,,,,,,GRB,Austin Straubel International Airport,United States of America,Green Bay,https://www.worlddata.info/america/usa/airports.php
742,KGRF,2025-11-23 01:58:09.386000+00:00,1763862900,2025-11-23T02:00:00.000Z,11.3,8.0,150,7.0,10+,1017.7,14,METAR,METAR KGRF 230155Z AUTO 15007KT 10SM OVC045 11/08 A3005 RMK AO2 SLP181 T01130080 $,47.079,-122.58,91,"Fort Lewis/Gray AAF, WA, US",OVC,"[{'cover': 'OVC', 'base': 4500}]",VFR,,1018.1,,,,,,GRF,Gray Army Air Field,United States of America,Fort Lewis/Tacoma,https://www.worlddata.info/america/usa/airports.php
743,KGRI,2025-11-23 02:02:43.677000+00:00,1763862780,2025-11-23T02:00:00.000Z,5.0,-0.6,0,0.0,10+,1022.1,4,METAR,METAR KGRI 230153Z 00000KT 10SM CLR 05/M01 A3018 RMK AO2 SLP234 T00501006,40.9615,-98.313,562,"Grand Island Rgnl, NE, US",CLR,[],VFR,,1023.4,,,,,,GRI,Central Nebraska Regional Airport,United States of America,Grand Island,https://www.worlddata.info/america/usa/airports.php
744,KGRK,2025-11-23 01:58:02.826000+00:00,1763862600,2025-11-23T01:50:00.000Z,16.0,12.0,0,0.0,7,1022.1,4,SPECI,SPECI KGRK 230150Z 00000KT 7SM CLR 16/12 A3018 RMK AO2A SLP218,31.0779,-97.8323,311,"Killeen-Ft Hood Rgnl, TX, US",CLR,[],VFR,,1021.8,,,,,,GRK,Killeen Regional Airport / Robert Gray Army Airfield,United States of America,Fort Cavazos,https://www.worlddata.info/america/usa/airports.php
745,KGRN,2025-11-23 01:40:15.415000+00:00,1763861700,2025-11-23T01:35:00.000Z,-1.2,-4.4,0,0.0,10+,1020.4,6,METAR,METAR KGRN 230135Z AUTO 00000KT 10SM CLR M01/M04 A3013 RMK AO2 T10121044,42.8039,-102.181,1080,"Gordon Muni, NE, US",CLR,[],VFR,,,,,,,,GRN,Gordon Municipal Airport,United States of America,Gordon,https://www.worlddata.info/america/usa/airports.php
746,KGRR,2025-11-23 02:02:22.034000+00:00,1763862780,2025-11-23T02:00:00.000Z,5.6,-1.1,210,10.0,10+,1014.0,12,METAR,METAR KGRR 230153Z 21010KT 10SM BKN042 BKN100 06/M01 A2994 RMK AO2 SLP146 T00561011 $,42.8821,-85.523,239,"Grand Rapids Intl, MI, US",BKN,"[{'cover': 'BKN', 'base': 4200}, {'cover': 'BKN', 'base': 10000}]",VFR,,1014.6,,,,,,GRR,Gerald R. Ford International Airport,United States of America,Grand Rapids,https://www.worlddata.info/america/usa/airports.php
747,KGSB,2025-11-23 01:58:11.884000+00:00,1763862900,2025-11-23T02:00:00.000Z,17.7,17.0,50,4.0,10+,1014.0,14,METAR,METAR KGSB 230155Z AUTO 05004KT 10SM BKN065 18/17 A2994 RMK AO2 SLP142 T01770170 $,35.3445,-77.9458,33,"Goldsboro/Johnson AFB, NC, US",BKN,"[{'cover': 'BKN', 'base': 6500}]",VFR,,1014.2,,,,,,GSB,Seymour Johnson Air Force Base,United States of America,Goldsboro,https://www.worlddata.info/america/usa/airports.php
748,KGSH,2025-11-23 02:02:22.147000+00:00,1763862780,2025-11-23T02:00:00.000Z,6.1,0.6,220,10.0,10+,1015.3,6,METAR,METAR KGSH 230153Z AUTO 22010KT 10SM BKN065 BKN080 OVC090 06/01 A2998 RMK AO2 SLP159 T00610006,41.5265,-85.7872,252,"Goshen Muni, IN, US",OVC,"[{'cover': 'BKN', 'base': 6500}, {'cover': 'BKN', 'base': 8000}, {'cover': 'OVC', 'base': 9000}]",VFR,,1015.9,,,,,,GSH,Goshen Municipal Airport,United States of America,Goshen,https://www.worlddata.info/america/usa/airports.php
749,KGSO,2025-11-23 02:02:00.168000+00:00,1763862840,2025-11-23T02:00:00.000Z,15.6,9.4,30,5.0,10+,1015.3,4,METAR,METAR KGSO 230154Z 03005KT 10SM FEW065 16/09 A2998 RMK AO2 SLP147 T01560094,36.0969,-79.9432,275,"Greensboro Intl, NC, US",FEW,"[{'cover': 'FEW', 'base': 6500}]",VFR,,1014.7,,,,,,GSO,Piedmont Triad International Airport,United States of America,Greensboro,https://www.worlddata.info/america/usa/airports.php
750,KGSP,2025-11-23 02:02:43.795000+00:00,1763862780,2025-11-23T02:00:00.000Z,16.1,11.1,0,0.0,10+,1015.3,4,METAR,METAR KGSP 230153Z 00000KT 10SM CLR 16/11 A2998 RMK AO2 SLP146 T01610111,34.8842,-82.2209,285,"Greenville-Spartanburg Intl, SC, US",CLR,[],VFR,,1014.6,,,,,,GSP,Greenville Spartanburg International Airport,United States of America,Greer,https://www.worlddata.info/america/usa/airports.php
751,KGTF,2025-11-23 02:02:43.890000+00:00,1763862780,2025-11-23T02:00:00.000Z,10.0,-2.2,230,17.0,10+,1014.3,12,METAR,METAR KGTF 230153Z 23017KT 10SM CLR 10/M02 A2995 RMK AO2 PK WND 23029/0128 SLP155 T01001022 $,47.4733,-111.3828,1117,"Great Falls Intl, MT, US",CLR,[],VFR,,1015.5,,,,,,GTF,Great Falls International Airport,United States of America,Great Falls,https://www.worlddata.info/america/usa/airports.php
752,KGUP,2025-11-23 02:02:22.248000+00:00,1763862780,2025-11-23T02:00:00.000Z,8.3,-1.1,70,12.0,10+,1020.4,6,METAR,METAR KGUP 230153Z AUTO 07012KT 10SM CLR 08/M01 A3013 RMK AO2 SLP178 T00831011,35.5086,-108.7932,1972,"Gallup Muni, NM, US",CLR,[],VFR,,1017.8,,,,,,GUP,Gallup Municipal Airport,United States of America,Gallup,https://www.worlddata.info/america/usa/airports.php
753,KGUS,2025-11-23 01:58:04.430000+00:00,1763862900,2025-11-23T02:00:00.000Z,7.3,1.6,210,7.0,10+,1016.7,14,METAR,METAR KGUS 230155Z AUTO 21007KT 10SM FEW100 07/02 A3002 RMK AO2 RAB08E31 SLP174 P0000 T00730016 $,40.6375,-86.1631,245,"Peru/Grissom ARB, IN, US",FEW,"[{'cover': 'FEW', 'base': 10000}]",VFR,,1017.4,0.005,,,,,GUS,Grissom Air Reserve Base,United States of America,Peru,https://www.worlddata.info/america/usa/airports.php
754,KGUY,2025-11-23 02:02:44.001000+00:00,1763862780,2025-11-23T02:00:00.000Z,8.9,5.6,0,0.0,10+,1022.8,6,METAR,METAR KGUY 230153Z AUTO 00000KT 10SM CLR 09/06 A3020 RMK AO2 SLP223 T00890056,36.6819,-101.5052,950,"Guymon Muni, OK, US",CLR,[],VFR,,1022.3,,,,,,GUY,Guymon Municipal Airport,United States of America,Guymon,https://www.worlddata.info/america/usa/airports.php
755,KGVL,2025-11-23 02:02:44.104000+00:00,1763862780,2025-11-23T02:00:00.000Z,18.9,11.7,280,7.0,10+,1017.0,6,METAR,METAR KGVL 230153Z AUTO 28007KT 10SM CLR 19/12 A3003 RMK AO2 SLP158 T01890117,34.2721,-83.8304,387,"Gainesville/Gilmer Mem, GA, US",CLR,[],VFR,,1015.8,,,,,,GVL,Lee Gilmer Memorial Airport,United States of America,Gainesville,https://www.worlddata.info/america/usa/airports.php
756,KGVT,2025-11-23 01:46:05.535000+00:00,1763861400,2025-11-23T01:30:00.000Z,11.0,10.0,320,3.0,10+,1022.8,6,METAR,METAR KGVT 230130Z AUTO 32003KT 10SM CLR 11/10 A3020 RMK AO2,33.0669,-96.0614,165,"Greenville/Majors Arpt, TX, US",CLR,[],VFR,,,,,,,,GVT,Majors Airport,United States of America,Greenville,https://www.worlddata.info/america/usa/airports.php
757,KGWO,2025-11-23 02:02:44.246000+00:00,1763862780,2025-11-23T02:00:00.000Z,16.1,11.7,350,3.0,10+,1019.7,6,METAR,METAR KGWO 230153Z AUTO 35003KT 10SM CLR 16/12 A3011 RMK AO2 SLP196 T01610117,33.4961,-90.0894,42,"Greenwood/Leflore Arpt, MS, US",CLR,[],VFR,,1019.6,,,,,,GWO,Greenwood–Leflore Airport,United States of America,Greenwood,https://www.worlddata.info/america/usa/airports.php
758,KGYH,2025-11-23 01:47:38.677000+00:00,1763862420,2025-11-23T02:00:00.000Z,18.0,12.0,230,5.0,10+,1015.7,0,METAR,METAR KGYH 230147Z 23005KT 10SM CLR 18/12 A2999,34.763,-82.375,283,"Greenville/Donaldson Fld, SC, US",CLR,[],VFR,,,,,,,,GDC,Donaldson Field Airport,United States of America,Greenville,https://www.worlddata.info/america/usa/airports.php
759,KGYI,2025-11-23 01:44:10.128000+00:00,1763861700,2025-11-23T01:35:00.000Z,10.6,7.6,40,7.0,10+,1023.1,14,METAR,METAR KGYI 230135Z AUTO 04007KT 10SM CLR 11/08 A3021 RMK AO2 T01060076 $,33.7231,-96.6714,227,"Dennison/N Texas Rgnl, TX, US",CLR,[],VFR,,,,,,,,PNX,North Texas Regional Airport Perrin Field,United States of America,Denison,https://www.worlddata.info/america/usa/airports.php
760,KGYR,2025-11-23 01:48:10.230000+00:00,1763862420,2025-11-23T02:00:00.000Z,16.0,13.0,0,0.0,10+,1014.3,0,METAR,METAR KGYR 230147Z 00000KT 10SM SCT050 BKN080 OVC100 16/13 A2995,33.428,-112.368,292,"Phoenix/Goodyear Muni, AZ, US",OVC,"[{'cover': 'SCT', 'base': 5000}, {'cover': 'BKN', 'base': 8000}, {'cover': 'OVC', 'base': 10000}]",VFR,,,,,,,,GYR,Phoenix Goodyear Airport,United States of America,Goodyear,https://www.worlddata.info/america/usa/airports.php
761,KGYY,2025-11-23 01:51:29.391000+00:00,1763862600,2025-11-23T02:00:00.000Z,9.0,4.0,230,9.0,10+,1015.7,0,METAR,METAR KGYY 230150Z 23009KT 10SM FEW080 09/04 A2999,41.6121,-87.4091,179,"Gary Intl, IN, US",FEW,"[{'cover': 'FEW', 'base': 8000}]",VFR,,,,,,,,GYY,Gary Chicago International Airport,United States of America,Gary,https://www.worlddata.info/america/usa/airports.php
762,KHAF,2025-11-23 02:02:00.207000+00:00,1763862900,2025-11-23T02:00:00.000Z,11.0,11.0,320,5.0,6,1018.0,6,METAR,METAR KHAF 230155Z AUTO 32005KT 6SM BR OVC005 11/11 A3006 RMK AO2,37.5136,-122.4996,11,"Half Moon Bay Arpt, CA, US",OVC,"[{'cover': 'OVC', 'base': 500}]",IFR,BR,,,,,,,HAF,Half Moon Bay Airport,United States of America,Half Moon Bay,https://www.worlddata.info/america/usa/airports.php
763,KHAI,2025-11-23 01:38:14.541000+00:00,1763861700,2025-11-23T01:35:00.000Z,6.0,0.0,220,6.0,10+,1015.3,4,METAR,METAR KHAI 230135Z 22006KT 10SM OVC050 06/00 A2998 RMK AO2,41.9591,-85.5933,250,"Three Rivers Muni, MI, US",OVC,"[{'cover': 'OVC', 'base': 5000}]",VFR,,,,,,,,HAI,Three Rivers Municipal Dr Haines Airport,United States of America,Three Rivers,https://www.worlddata.info/america/usa/airports.php
764,KHAO,2025-11-23 02:02:44.449000+00:00,1763862780,2025-11-23T02:00:00.000Z,0.6,0.0,0,0.0,7,1019.4,6,METAR,METAR KHAO 230153Z AUTO 00000KT 7SM CLR 01/00 A3010 RMK AO2 SLP196 T00060000,39.3612,-84.5206,185,"Hamilton/Butler Cnty, OH, US",CLR,[],VFR,,1019.6,,,,,,HAO,Butler Co Regional Airport - Hogan Field,United States of America,Hamilton,https://www.worlddata.info/america/usa/airports.php
765,KHBG,2025-11-23 02:02:44.568000+00:00,1763862780,2025-11-23T02:00:00.000Z,21.1,19.4,0,0.0,9,1019.0,142,METAR,METAR KHBG 230153Z AUTO 00000KT 9SM BKN039 21/19 A3009 RMK AO2 SLP187 T02110194 PWINO $,31.2648,-89.2561,45,"Hattiesburg/Chain Muni, MS, US",BKN,"[{'cover': 'BKN', 'base': 3900}]",VFR,,1018.7,,,,,,HBG,Hattiesburg Bobby L Chain Municipal Airport,United States of America,Hattiesburg,https://www.worlddata.info/america/usa/airports.php
766,KHBR,2025-11-23 02:02:44.665000+00:00,1763862780,2025-11-23T02:00:00.000Z,10.0,6.7,210,8.0,10+,1023.1,6,METAR,METAR KHBR 230153Z AUTO 21008KT 10SM CLR 10/07 A3021 RMK AO2 SLP229 T01000067,34.9891,-99.0528,475,"Hobart Muni, OK, US",CLR,[],VFR,,1022.9,,,,,,HBR,Hobart Regional Airport,United States of America,Hobart,https://www.worlddata.info/america/usa/airports.php
767,KHDE,2025-11-23 01:40:31.628000+00:00,1763861700,2025-11-23T01:35:00.000Z,6.5,1.0,0,0.0,10+,1021.8,6,METAR,METAR KHDE 230135Z AUTO 00000KT 10SM CLR 07/01 A3017 RMK AO2 T00650010,40.4496,-99.3363,703,"Holdrege/Brewster Fld, NE, US",CLR,[],VFR,,,,,,,,HDE,Brewster Field,United States of America,Holdrege,https://www.worlddata.info/america/usa/airports.php
768,KHFD,2025-11-23 02:02:22.395000+00:00,1763862780,2025-11-23T02:00:00.000Z,4.4,-4.4,310,6.0,10+,1016.0,4,METAR,METAR KHFD 230153Z 31006KT 10SM CLR 04/M04 A3000 RMK AO2 SLP158 T00441044,41.7352,-72.6512,3,"Hartford/Brainard Arpt, CT, US",CLR,[],VFR,,1015.8,,,,,,HFD,Hartford Brainard Airport,United States of America,Hartford,https://www.worlddata.info/america/usa/airports.php
769,KHFF,2025-11-23 02:00:50.275000+00:00,1763862900,2025-11-23T02:00:00.000Z,15.9,15.1,350,5.0,10+,1013.3,14,METAR,METAR KHFF 230155Z AUTO 35005KT 10SM BKN070 16/15 A2992 RMK AO2 SLP133 T01590151 $,35.0424,-79.4973,100,"Mackall, NC, US",BKN,"[{'cover': 'BKN', 'base': 7000}]",VFR,,1013.3,,,,,,HFF,Mackall Army Air Field,United States of America,Hoffman,https://www.worlddata.info/america/usa/airports.php
770,KHGR,2025-11-23 02:02:22.527000+00:00,1763862780,2025-11-23T02:00:00.000Z,6.7,1.1,0,0.0,10+,1017.0,12,METAR,METAR KHGR 230153Z 00000KT 10SM CLR 07/01 A3003 RMK AO2 SLP182 T00670011 $,39.7062,-77.7304,206,"Hagerstown Rgnl, MD, US",CLR,[],VFR,,1018.2,,,,,,HGR,Hagerstown Regional Richard A Henson Field,United States of America,Hagerstown,https://www.worlddata.info/america/usa/airports.php
771,KHHR,2025-11-23 02:02:44.872000+00:00,1763862780,2025-11-23T02:00:00.000Z,17.8,11.1,0,0.0,10+,1013.6,4,METAR,METAR KHHR 230153Z 00000KT 10SM CLR 18/11 A2993 RMK AO2 SLP134 T01780111,33.9235,-118.3329,21,"Hawthorne Muni, CA, US",CLR,[],VFR,,1013.4,,,,,,HHR,Jack Northrop Field Hawthorne Municipal Airport,United States of America,Hawthorne,https://www.worlddata.info/america/usa/airports.php
772,KHHW,2025-11-23 01:43:04.388000+00:00,1763861700,2025-11-23T01:35:00.000Z,11.0,8.0,10,4.0,10+,1022.8,6,METAR,METAR KHHW 230135Z AUTO 01004KT 10SM SCT024 11/08 A3020 RMK AO2,34.0308,-95.5401,178,"Hugo/Stamper Muni, OK, US",SCT,"[{'cover': 'SCT', 'base': 2400}]",VFR,,,,,,,,HUJ,Stan Stamper Municipal Airport,United States of America,Hugo,https://www.worlddata.info/america/usa/airports.php
773,KHIB,2025-11-23 02:02:44.975000+00:00,1763862780,2025-11-23T02:00:00.000Z,4.4,-0.6,300,12.0,10+,1011.9,6,METAR,METAR KHIB 230153Z AUTO 30012G19KT 10SM CLR 04/M01 A2988 RMK AO2 SLP134 T00441006,47.3804,-92.8325,409,"Hibbing/Chisholm Arpt, MN, US",CLR,[],VFR,,1013.4,,,,19.0,,HIB,Range Regional Airport,United States of America,Hibbing,https://www.worlddata.info/america/usa/airports.php
774,KHIE,2025-11-23 02:02:13.488000+00:00,1763862720,2025-11-23T02:00:00.000Z,-5.6,-6.7,0,0.0,10+,1013.6,6,METAR,METAR KHIE 230152Z AUTO 00000KT 10SM CLR M06/M07 A2993 RMK AO2 SLP153 I1001 T10561067,44.3659,-71.5522,321,"Mt Washington Rgnl, NH, US",CLR,[],VFR,,1015.3,,,,,,HIE,Mount Washington Regional Airport,United States of America,Whitefield,https://www.worlddata.info/america/usa/airports.php
775,KHIF,2025-11-23 01:58:04.694000+00:00,1763862900,2025-11-23T02:00:00.000Z,6.2,2.5,330,3.0,10+,1023.1,6,METAR,METAR KHIF 230155Z AUTO 33003KT 10SM CLR 06/03 A3021 RMK AO2 SLP226 T00620025,41.111,-111.962,1461,"Ogden/Hill AFB, UT, US",CLR,[],VFR,,1022.6,,,,,,HIF,Hill Air Force Base,United States of America,Ogden,https://www.worlddata.info/america/usa/airports.php
776,KHII,2025-11-23 01:42:53.778000+00:00,1763861700,2025-11-23T01:35:00.000Z,18.0,9.0,360,5.0,10+,1012.3,6,METAR,METAR KHII 230135Z AUTO 36005KT 10SM FEW070 BKN080 OVC110 18/09 A2989 RMK AO2,34.5659,-114.3522,241,"Lake Havasu City Arpt, AZ, US",OVC,"[{'cover': 'FEW', 'base': 7000}, {'cover': 'BKN', 'base': 8000}, {'cover': 'OVC', 'base': 11000}]",VFR,,,,,,,,HII,Lake Havasu City International Airport,United States of America,Lake Havasu City,https://www.worlddata.info/america/usa/airports.php
777,KHIO,2025-11-23 02:02:45.104000+00:00,1763862780,2025-11-23T02:00:00.000Z,5.0,4.4,180,4.0,3,1021.1,4,METAR,METAR KHIO 230153Z 18004KT 3SM BR OVC003 05/04 A3015 RMK AO2 SLP212 T00500044,45.5476,-122.9557,62,"Portland/Hillsboro Arpt, OR, US",OVC,"[{'cover': 'OVC', 'base': 300}]",LIFR,BR,1021.2,,,,,,HIO,Portland Hillsboro Airport,United States of America,Portland,https://www.worlddata.info/america/usa/airports.php
778,KHKS,2025-11-23 02:02:45.398000+00:00,1763862780,2025-11-23T02:00:00.000Z,17.8,10.6,320,5.0,10+,1019.4,4,METAR,METAR KHKS 230153Z 32005KT 10SM CLR 18/11 A3010 RMK AO2 SLP186 T01780106,32.3376,-90.2214,103,"Jackson/Hawkins Fld, MS, US",CLR,[],VFR,,1018.6,,,,,,HKS,Hawkins Field,United States of America,Jackson,https://www.worlddata.info/america/usa/airports.php
779,KHKY,2025-11-23 02:02:45.520000+00:00,1763862780,2025-11-23T02:00:00.000Z,15.0,8.3,250,3.0,10+,1015.3,6,METAR,METAR KHKY 230153Z AUTO 25003KT 10SM FEW085 15/08 A2998 RMK AO2 SLP137 T01500083,35.742,-81.3822,357,"Hickory Rgnl, NC, US",FEW,"[{'cover': 'FEW', 'base': 8500}]",VFR,,1013.7,,,,,,HKY,Hickory Regional Airport,United States of America,Hickory,https://www.worlddata.info/america/usa/airports.php
780,KHLB,2025-11-23 01:46:12.371000+00:00,1763861700,2025-11-23T01:35:00.000Z,3.0,3.0,0,0.0,6,1018.7,6,METAR,METAR KHLB 230135Z AUTO 00000KT 6SM BR SCT100 03/03 A3008 RMK A01,39.3463,-85.2602,297,"Batesville Arpt, IN, US",SCT,"[{'cover': 'SCT', 'base': 10000}]",VFR,BR,,,,,,,HLB,Hillenbrand Industries Airport,United States of America,Batesville,https://www.worlddata.info/america/usa/airports.php
781,KHLC,2025-11-23 02:02:45.625000+00:00,1763862780,2025-11-23T02:00:00.000Z,4.4,2.8,330,3.0,10+,1022.1,6,METAR,METAR KHLC 230153Z AUTO 33003KT 10SM CLR 04/03 A3018 RMK AO2 SLP232 T00440028,39.3741,-99.8299,667,"Hill City Muni, KS, US",CLR,[],VFR,,1023.2,,,,,,HLC,Hill City Municipal Airport,United States of America,Hill City,https://www.worlddata.info/america/usa/airports.php
782,KHLG,2025-11-23 02:02:22.649000+00:00,1763862780,2025-11-23T02:00:00.000Z,5.0,-0.6,0,0.0,10+,1017.4,6,METAR,METAR KHLG 230153Z AUTO 00000KT 10SM FEW034 05/M01 A3004 RMK AO2 SLP181 T00501006,40.1699,-80.6441,365,"Wheeling/Ohio Cnty, WV, US",FEW,"[{'cover': 'FEW', 'base': 3400}]",VFR,,1018.1,,,,,,HLG,Wheeling Ohio County Airport,United States of America,Wheeling,https://www.worlddata.info/america/usa/airports.php
783,KHLN,2025-11-23 02:02:45.738000+00:00,1763862780,2025-11-23T02:00:00.000Z,4.4,-1.1,170,4.0,10+,1017.0,4,METAR,METAR KHLN 230153Z 17004KT 10SM CLR 04/M01 A3003 RMK AO2 SLP209 T00441011,46.6045,-111.9892,1178,"Helena Rgnl, MT, US",CLR,[],VFR,,1020.9,,,,,,HLN,Helena Regional Airport,United States of America,Helena,https://www.worlddata.info/america/usa/airports.php
784,KHMT,2025-11-23 01:39:42.630000+00:00,1763861700,2025-11-23T01:35:00.000Z,15.0,6.0,320,6.0,10+,1014.3,6,METAR,METAR KHMT 230135Z AUTO 32006KT 10SM SCT070 OVC100 15/06 A2995 RMK AO2,33.7303,-117.0272,462,"Hemet/Ryan Arpt, CA, US",OVC,"[{'cover': 'SCT', 'base': 7000}, {'cover': 'OVC', 'base': 10000}]",VFR,,,,,,,,HMT,Hemet Ryan Airport,United States of America,Hemet,https://www.worlddata.info/america/usa/airports.php
785,KHOB,2025-11-23 01:40:17.484000+00:00,1763861700,2025-11-23T01:35:00.000Z,12.0,4.0,100,6.0,10+,1022.8,6,METAR,METAR KHOB 230135Z AUTO 10006KT 10SM CLR 12/04 A3020 RMK AO2,32.6797,-103.2222,1112,"Hobbs Arpt, NM, US",CLR,[],VFR,,,,,,,,HOB,Lea County Regional Airport,United States of America,Hobbs,https://www.worlddata.info/america/usa/airports.php
786,KHOP,2025-11-23 02:00:50.294000+00:00,1763862900,2025-11-23T02:00:00.000Z,11.3,9.0,10,5.0,10+,1019.7,6,METAR,METAR KHOP 230155Z AUTO 01005KT 10SM OVC013 11/09 A3011 RMK AO2 SLP198 T01130090,36.672,-87.495,170,"Fort Campbell, KY, US",OVC,"[{'cover': 'OVC', 'base': 1300}]",MVFR,,1019.8,,,,,,HOP,Campbell Army Airfield (Fort Campbell),United States of America,Fort Campbell,https://www.worlddata.info/america/usa/airports.php
787,KHOT,2025-11-23 02:02:45.869000+00:00,1763862780,2025-11-23T02:00:00.000Z,15.0,10.0,320,6.0,10+,1021.8,14,METAR,METAR KHOT 230153Z AUTO 32006KT 10SM OVC039 15/10 A3017 RMK AO2 SLP213 T01500100 $,34.4755,-93.1041,153,"Hot Springs Mem, AR, US",OVC,"[{'cover': 'OVC', 'base': 3900}]",VFR,,1021.3,,,,,,HOT,Memorial Field Airport,United States of America,Hot Springs,https://www.worlddata.info/america/usa/airports.php
788,KHOU,2025-11-23 02:02:45.975000+00:00,1763862780,2025-11-23T02:00:00.000Z,22.2,15.0,40,4.0,10+,1020.1,4,METAR,METAR KHOU 230153Z 04004KT 10SM CLR 22/15 A3012 RMK AO2 SLP203 T02220150,29.6458,-95.2821,13,"Houston/Hobby Arpt, TX, US",CLR,[],VFR,,1020.3,,,,,,HOU,William P Hobby Airport,United States of America,Houston,https://www.worlddata.info/america/usa/airports.php
789,KHPT,2025-11-23 01:42:23.007000+00:00,1763861700,2025-11-23T01:35:00.000Z,3.0,2.0,280,8.0,10+,1017.7,6,METAR,METAR KHPT 230135Z AUTO 28008KT 10SM CLR 03/02 A3005 RMK AO2,42.7175,-93.2244,354,"Hampton Muni, IA, US",CLR,[],VFR,,,,,,,,HPT,Hampton Municipal Airport,United States of America,Hampton,https://www.worlddata.info/america/usa/airports.php
790,KHQM,2025-11-23 02:02:46.143000+00:00,1763862780,2025-11-23T02:00:00.000Z,11.1,10.0,190,7.0,10+,1018.4,6,METAR,METAR KHQM 230153Z AUTO 19007KT 10SM BKN011 OVC043 11/10 A3007 RMK AO2 CIG 008V013 SLP186 T01110100,46.9729,-123.9308,4,"Hoquiam/Bowerman Arpt, WA, US",OVC,"[{'cover': 'BKN', 'base': 1100}, {'cover': 'OVC', 'base': 4300}]",MVFR,,1018.6,,,,,,HQM,Bowerman Airport,United States of America,Hoquiam,https://www.worlddata.info/america/usa/airports.php
791,KHRI,2025-11-23 02:02:46.217000+00:00,1763862780,2025-11-23T02:00:00.000Z,2.2,2.2,140,3.0,5,1019.0,6,METAR,METAR KHRI 230153Z AUTO 14003KT 5SM BR CLR 02/02 A3009 RMK AO2 SLP193 T00220022,45.8259,-119.2612,194,"Hermiston Muni, OR, US",CLR,[],MVFR,BR,1019.3,,,,,,HES,Hermiston Municipal Airport,United States of America,Hermiston,https://www.worlddata.info/america/usa/airports.php
792,KHRL,2025-11-23 02:02:13.622000+00:00,1763862720,2025-11-23T02:00:00.000Z,25.0,22.8,140,10.0,10+,1017.4,12,METAR,METAR KHRL 230152Z 14010KT 10SM CLR 25/23 A3004 RMK AO2 SLP173 T02500228 $,26.2303,-97.6556,9,"Harlingen/Valley Intl, TX, US",CLR,[],VFR,,1017.3,,,,,,HRL,Valley International Airport,United States of America,Harlingen,https://www.worlddata.info/america/usa/airports.php
793,KHRO,2025-11-23 02:02:03.180000+00:00,1763862780,2025-11-23T02:00:00.000Z,11.1,8.9,VRB,5.0,10+,1022.4,6,METAR,METAR KHRO 230153Z AUTO VRB05KT 10SM OVC009 11/09 A3019 RMK AO2 SLP222 T01110089,36.2673,-93.1566,417,"Harrison/Boone Cnty, AR, US",OVC,"[{'cover': 'OVC', 'base': 900}]",IFR,,1022.2,,,,,,HRO,Boone County Airport,United States of America,Harrison,https://www.worlddata.info/america/usa/airports.php
794,KHSB,2025-11-23 01:40:28.953000+00:00,1763861700,2025-11-23T01:35:00.000Z,6.2,5.4,0,0.0,1.25,1020.7,6,METAR,METAR KHSB 230135Z AUTO 00000KT 1 1/4SM BR SCT003 06/05 A3014 RMK AO2 T00620054,37.8128,-88.5449,118,"Harrisburg/Raleigh Arpt, IL, US",SCT,"[{'cover': 'SCT', 'base': 300}]",IFR,BR,,,,,,,HSB,Harrisburg-Raleigh Airport,United States of America,Harrisburg,https://www.worlddata.info/america/usa/airports.php
795,KHSE,2025-11-23 01:54:13.063000+00:00,1763862660,2025-11-23T02:00:00.000Z,15.0,14.4,VRB,5.0,10+,1015.0,14,METAR,METAR KHSE 230151Z AUTO VRB05KT 10SM BKN008 OVC080 15/14 A2997 RMK AO2 SLP150 T01500144 $,35.2324,-75.6223,4,"Hatteras/Mitchell Fld, NC, US",OVC,"[{'cover': 'BKN', 'base': 800}, {'cover': 'OVC', 'base': 8000}]",IFR,,1015.0,,,,,,HNC,Billy Mitchell Airport,United States of America,Hatteras,https://www.worlddata.info/america/usa/airports.php
796,KHSG,2025-11-23 01:42:54.261000+00:00,1763861700,2025-11-23T01:35:00.000Z,1.0,-4.9,0,0.0,10+,1019.0,6,METAR,METAR KHSG 230135Z AUTO 00000KT 10SM CLR 01/M05 A3009 RMK AO2 T00101049,43.7178,-108.3851,1497,"Thermopolis/Hot Springs Cnty, WY, US",CLR,[],VFR,,,,,,,,THP,Hot Springs County Airport,United States of America,Thermopolis,https://www.worlddata.info/america/usa/airports.php
797,KHSI,2025-11-23 02:02:03.210000+00:00,1763862780,2025-11-23T02:00:00.000Z,3.9,0.0,350,6.0,10+,1021.8,6,METAR,METAR KHSI 230153Z AUTO 35006KT 10SM CLR 04/00 A3017 RMK AO2 SLP230 T00390000,40.6002,-98.4264,592,"Hastings Muni, NE, US",CLR,[],VFR,,1023.0,,,,,,HSI,Hastings Municipal Airport,United States of America,Hastings,https://www.worlddata.info/america/usa/airports.php
798,KHSP,2025-11-23 01:40:27.196000+00:00,1763861700,2025-11-23T01:35:00.000Z,6.5,5.0,290,10.0,10+,1016.3,6,METAR,METAR KHSP 230135Z AUTO 29010G16KT 10SM SCT011 OVC021 07/05 A3001 RMK AO2 T00650050,37.9531,-79.8285,1148,"Hot Springs/Ingalls Fld, VA, US",OVC,"[{'cover': 'SCT', 'base': 1100}, {'cover': 'OVC', 'base': 2100}]",MVFR,,,,,,16.0,,HSP,Ingalls Field,United States of America,Hot Springs,https://www.worlddata.info/america/usa/airports.php
799,KHST,2025-11-23 02:00:42.649000+00:00,1763862900,2025-11-23T02:00:00.000Z,21.1,18.1,0,0.0,10+,1019.0,6,METAR,METAR KHST 230155Z AUTO 00000KT 10SM CLR 21/18 A3009 RMK AO2 SLP193 T02110181,25.49,-80.379,1,"Homestead AFB, FL, US",CLR,[],VFR,,1019.3,,,,,,HST,Homestead ARB Airport,United States of America,Homestead,https://www.worlddata.info/america/usa/airports.php
800,KHSV,2025-11-23 02:02:03.231000+00:00,1763862780,2025-11-23T02:00:00.000Z,17.8,13.9,30,11.0,10+,1017.7,12,METAR,METAR KHSV 230153Z 03011KT 10SM FEW055 18/14 A3005 RMK AO2 SLP172 T01780139 $,34.6441,-86.7862,190,"Huntsville Intl, AL, US",FEW,"[{'cover': 'FEW', 'base': 5500}]",VFR,,1017.2,,,,,,HSV,Huntsville International Carl T Jones Field,United States of America,Huntsville,https://www.worlddata.info/america/usa/airports.php
801,KHTH,2025-11-23 01:46:09.643000+00:00,1763861700,2025-11-23T01:35:00.000Z,7.0,4.0,130,3.0,10+,1022.1,6,METAR,METAR KHTH 230135Z AUTO 13003KT 10SM CLR 07/04 A3018 RMK A01,38.5448,-118.6314,1281,"Hawthorne Muni, NV, US",CLR,[],VFR,,,,,,,,HTH,Hawthorne Industrial Airport,United States of America,Hawthorne,https://www.worlddata.info/america/usa/airports.php
802,KHTL,2025-11-23 02:02:03.264000+00:00,1763862780,2025-11-23T02:00:00.000Z,3.3,-2.2,200,6.0,10+,1011.9,6,METAR,METAR KHTL 230153Z AUTO 20006KT 10SM SCT033 BKN055 OVC120 03/M02 A2988 RMK AO2 SLP131 T00331022,44.359,-84.6739,350,"Houghton Lake/Blodgett Mem, MI, US",OVC,"[{'cover': 'SCT', 'base': 3300}, {'cover': 'BKN', 'base': 5500}, {'cover': 'OVC', 'base': 12000}]",VFR,,1013.1,,,,,,HTL,Roscommon County - Blodgett Memorial Airport,United States of America,Houghton Lake,https://www.worlddata.info/america/usa/airports.php
803,KHTS,2025-11-23 01:54:13.103000+00:00,1763862660,2025-11-23T02:00:00.000Z,10.0,5.0,0,0.0,10+,1018.4,12,METAR,METAR KHTS 230151Z 00000KT 10SM CLR 10/05 A3007 RMK AO2 SLP184 T01000050 $,38.3653,-82.5548,252,"Huntington/Ferguson Fld, WV, US",CLR,[],VFR,,1018.4,,,,,,HTS,Tri-State Airport / Milton J. Ferguson Field,United States of America,Huntington,https://www.worlddata.info/america/usa/airports.php
804,KHUF,2025-11-23 02:02:03.294000+00:00,1763862780,2025-11-23T02:00:00.000Z,3.9,1.7,0,0.0,10+,1019.4,4,METAR,METAR KHUF 230153Z 00000KT 10SM CLR 04/02 A3010 RMK AO2 SLP196 T00390017,39.4429,-87.3221,174,"Terre Haute/Hulman Fld, IN, US",CLR,[],VFR,,1019.6,,,,,,HUF,"Terre Haute Regional Airport, Hulman Field",United States of America,Terre Haute,https://www.worlddata.info/america/usa/airports.php
805,KHUL,2025-11-23 02:02:22.789000+00:00,1763862780,2025-11-23T02:00:00.000Z,-2.2,-5.6,250,3.0,10+,1009.6,6,METAR,METAR KHUL 230153Z AUTO 25003KT 10SM CLR M02/M06 A2981 RMK AO2 SLP101 T10221056,46.1185,-67.7929,148,"Houlton Intl, ME, US",CLR,[],VFR,,1010.1,,,,,,HUL,Houlton International Airport,United States of America,Houlton,https://www.worlddata.info/america/usa/airports.php
806,KHUT,2025-11-23 02:02:13.741000+00:00,1763862720,2025-11-23T02:00:00.000Z,8.9,6.7,170,3.0,10+,1022.1,4,METAR,METAR KHUT 230152Z 17003KT 10SM CLR 09/07 A3018 RMK AO2 SLP219 T00890067,38.0682,-97.8607,464,"Hutchinson Muni, KS, US",CLR,[],VFR,,1021.9,,,,,,HUT,Hutchinson Municipal Airport,United States of America,Hutchinson,https://www.worlddata.info/america/usa/airports.php
807,KHVE,2025-11-23 01:46:05.586000+00:00,1763861700,2025-11-23T01:35:00.000Z,7.0,3.0,350,4.0,10+,1023.8,6,METAR,METAR KHVE 230135Z AUTO 35004KT 10SM CLR 07/03 A3023 RMK AO2,38.418,-110.7041,1351,"Hanksville Arpt, UT, US",CLR,[],VFR,,,,,,,,HVE,Hanksville Airport,United States of America,Hanksville,https://www.worlddata.info/america/usa/airports.php
808,KHVN,2025-11-23 02:02:03.317000+00:00,1763862780,2025-11-23T02:00:00.000Z,6.1,-2.2,VRB,3.0,10+,1016.3,4,METAR,METAR KHVN 230153Z VRB03KT 10SM CLR 06/M02 A3001 RMK AO2 SLP162 T00611022,41.259,-72.8891,4,"New Haven/Tweed Arpt, CT, US",CLR,[],VFR,,1016.2,,,,,,HVN,Tweed New Haven Airport,United States of America,New Haven,https://www.worlddata.info/america/usa/airports.php
809,KHVR,2025-11-23 02:02:03.342000+00:00,1763862780,2025-11-23T02:00:00.000Z,9.4,-2.8,220,14.0,10+,1011.3,6,METAR,METAR KHVR 230153Z AUTO 22014KT 10SM CLR 09/M03 A2986 RMK AO2 SLP125 T00941028,48.5425,-109.7644,789,"Havre/City Arpt, MT, US",CLR,[],VFR,,1012.5,,,,,,HVR,Havre City County Airport,United States of America,Havre,https://www.worlddata.info/america/usa/airports.php
810,KHVS,2025-11-23 01:42:54.421000+00:00,1763861700,2025-11-23T01:35:00.000Z,17.0,16.0,0,0.0,10+,1014.0,6,METAR,METAR KHVS 230135Z AUTO 00000KT 10SM SCT040 BKN047 BKN055 17/16 A2994 RMK AO2,34.4065,-80.1198,110,"Hartsville Rgnl, SC, US",BKN,"[{'cover': 'SCT', 'base': 4000}, {'cover': 'BKN', 'base': 4700}, {'cover': 'BKN', 'base': 5500}]",VFR,,,,,,,,HVS,Hartsville Regional Airport,United States of America,Hartsville,https://www.worlddata.info/america/usa/airports.php
811,KHWO,2025-11-23 02:02:03.363000+00:00,1763862780,2025-11-23T02:00:00.000Z,22.2,17.8,140,3.0,10+,1019.0,142,METAR,METAR KHWO 230153Z AUTO 14003KT 10SM CLR 22/18 A3009 RMK AO2 SLP186 T02220178 PWINO $,25.9996,-80.2412,2,"Hollywood/North Perry Arpt, FL, US",CLR,[],VFR,,1018.6,,,,,,HWO,North Perry Airport,United States of America,Hollywood,https://www.worlddata.info/america/usa/airports.php
812,KHXD,2025-11-23 01:51:29.409000+00:00,1763862600,2025-11-23T02:00:00.000Z,18.0,18.0,210,5.0,9,1016.0,0,METAR,METAR KHXD 230150Z 21005KT 9SM CLR 18/18 A3000,32.2263,-80.6949,5,"Hilton Head Arpt, SC, US",CLR,[],VFR,,,,,,,,HHH,Hilton Head Airport,United States of America,Hilton Head Island,https://www.worlddata.info/america/usa/airports.php
813,KHYR,2025-11-23 02:02:03.393000+00:00,1763862780,2025-11-23T02:00:00.000Z,6.1,-0.6,290,8.0,10+,1012.6,6,METAR,METAR KHYR 230153Z AUTO 29008KT 250V320 10SM CLR 06/M01 A2990 RMK AO2 SLP136 T00611006,46.0303,-91.4427,369,"Hayward Muni, WI, US",CLR,[],VFR,,1013.6,,,,,,HYR,Sawyer County Airport,United States of America,Hayward,https://www.worlddata.info/america/usa/airports.php
814,KHZL,2025-11-23 01:42:23.240000+00:00,1763861700,2025-11-23T01:35:00.000Z,2.0,-3.0,340,3.0,10+,1016.7,6,METAR,METAR KHZL 230135Z AUTO 34003KT 10SM CLR 02/M03 A3002 RMK AO2,40.9845,-75.9901,481,"Hazleton Muni, PA, US",CLR,[],VFR,,,,,,,,HZL,Hazleton Municipal Airport,United States of America,Hazleton,https://www.worlddata.info/america/usa/airports.php
815,KHZY,2025-11-23 02:02:03.418000+00:00,1763862780,2025-11-23T02:00:00.000Z,-1.1,-2.2,0,0.0,10+,1017.0,6,METAR,METAR KHZY 230153Z AUTO 00000KT 10SM CLR M01/M02 A3003 RMK AO2 SLP177 T10111022,41.7794,-80.6968,279,"Ashtabula/NE Ohio Rgnl, OH, US",CLR,[],VFR,,1017.7,,,,,,JFN,Northeast Ohio Regional Airport,United States of America,Ashtabula,https://www.worlddata.info/america/usa/airports.php
816,KIAB,2025-11-23 02:00:50.315000+00:00,1763862900,2025-11-23T02:00:00.000Z,11.2,6.3,220,5.0,10+,1021.8,14,METAR,METAR KIAB 230155Z AUTO 22005KT 10SM CLR 11/06 A3017 RMK AO2 SLP222 T01120063 $,37.622,-97.268,413,"McConnell AFB, KS, US",CLR,[],VFR,,1022.2,,,,,,IAB,McConnell Air Force Base,United States of America,Wichita,https://www.worlddata.info/america/usa/airports.php
817,KIAD,2025-11-23 02:02:13.874000+00:00,1763862720,2025-11-23T02:00:00.000Z,9.4,5.0,310,6.0,10+,1017.4,12,METAR,METAR KIAD 230152Z 31006KT 10SM BKN050 09/05 A3004 RMK AO2 SLP173 T00940050 $,38.9348,-77.4473,90,"Washington/Dulles Intl, VA, US",BKN,"[{'cover': 'BKN', 'base': 5000}]",VFR,,1017.3,,,,,,IAD,Washington Dulles International Airport,United States of America,Dulles,https://www.worlddata.info/america/usa/airports.php
818,KIAG,2025-11-23 02:02:03.445000+00:00,1763862780,2025-11-23T02:00:00.000Z,-0.6,-2.8,0,0.0,10+,1016.3,4,METAR,METAR KIAG 230153Z 00000KT 10SM CLR M01/M03 A3001 RMK AO2 SLP175 T10061028,43.1083,-78.9382,179,"Niagara Falls Intl, NY, US",CLR,[],VFR,,1017.5,,,,,,IAG,Niagara Falls International Airport,United States of America,Niagara Falls,https://www.worlddata.info/america/usa/airports.php
819,KIAH,2025-11-23 02:02:03.467000+00:00,1763862780,2025-11-23T02:00:00.000Z,18.3,15.0,350,3.0,10+,1020.4,12,METAR,METAR KIAH 230153Z 35003KT 10SM FEW250 18/15 A3013 RMK AO2 SLP203 T01830150 $,29.9844,-95.3607,27,"Houston/Bush Intl, TX, US",FEW,"[{'cover': 'FEW', 'base': 25000}]",VFR,,1020.3,,,,,,IAH,George Bush Intercontinental Houston Airport,United States of America,Houston,https://www.worlddata.info/america/usa/airports.php
820,KICL,2025-11-23 01:40:29.105000+00:00,1763861700,2025-11-23T01:35:00.000Z,8.0,7.0,VRB,4.0,10+,1020.1,6,METAR,METAR KICL 230135Z AUTO VRB04KT 10SM CLR 08/07 A3012 RMK AO2,40.7242,-95.0222,299,"Clarinda/Schenck Fld, IA, US",CLR,[],VFR,,,,,,,,ICL,Schenck Field,United States of America,Clarinda,https://www.worlddata.info/america/usa/airports.php
821,KICT,2025-11-23 02:02:03.529000+00:00,1763862780,2025-11-23T02:00:00.000Z,8.9,6.1,200,5.0,10+,1022.1,4,METAR,METAR KICT 230153Z 20005KT 10SM CLR 09/06 A3018 RMK AO2 SLP224 T00890061,37.6475,-97.43,428,"Wichita/Eisenhower Arpt, KS, US",CLR,[],VFR,,1022.4,,,,,,ICT,Wichita Eisenhower National Airport,United States of America,Wichita,https://www.worlddata.info/america/usa/airports.php
822,KIDA,2025-11-23 02:02:03.555000+00:00,1763862780,2025-11-23T02:00:00.000Z,-1.1,-3.3,0,0.0,10+,1024.5,4,METAR,METAR KIDA 230153Z 00000KT 10SM CLR M01/M03 A3025 RMK AO2 SLP264 T10111033,43.5204,-112.0675,1444,"Idaho Falls Rgnl, ID, US",CLR,[],VFR,,1026.4,,,,,,IDA,Idaho Falls Regional Airport,United States of America,Idaho Falls,https://www.worlddata.info/america/usa/airports.php
823,KIDI,2025-11-23 01:40:23.144000+00:00,1763861700,2025-11-23T01:35:00.000Z,1.0,0.0,0,0.0,10+,1017.0,6,METAR,METAR KIDI 230135Z AUTO 00000KT 10SM FEW039 01/M00 A3003 RMK A01,40.6337,-79.1036,425,"Indiana/Stewart Arpt, PA, US",FEW,"[{'cover': 'FEW', 'base': 3900}]",VFR,,,,,,,,IDI,Indiana County–Jimmy Stewart Airport,United States of America,Indiana,https://www.worlddata.info/america/usa/airports.php
824,KIDP,2025-11-23 01:42:55.116000+00:00,1763861700,2025-11-23T01:35:00.000Z,7.0,6.0,170,5.0,10+,1022.8,6,METAR,METAR KIDP 230135Z AUTO 17005KT 10SM CLR 07/06 A3020 RMK AO2,37.1566,-95.7792,252,"Independence Muni, KS, US",CLR,[],VFR,,,,,,,,IDP,Independence Municipal Airport,United States of America,Independence,https://www.worlddata.info/america/usa/airports.php
825,KIFP,2025-11-23 01:46:12.500000+00:00,1763861700,2025-11-23T01:35:00.000Z,19.0,7.0,20,19.0,10+,1011.9,6,METAR,METAR KIFP 230135Z AUTO 02019G25KT 10SM OVC100 19/07 A2988 RMK AO2,35.1487,-114.5611,210,"Bullhead City Intl, AZ, US",OVC,"[{'cover': 'OVC', 'base': 10000}]",VFR,,,,,,25.0,,IFP,Laughlin Bullhead International Airport,United States of America,Bullhead City,https://www.worlddata.info/america/usa/airports.php
826,KIGM,2025-11-23 01:56:15.234000+00:00,1763862660,2025-11-23T02:00:00.000Z,11.1,6.1,50,7.0,10+,1015.7,6,METAR,METAR KIGM 230151Z AUTO 05007KT 10SM SCT075 11/06 A2999 RMK AO2 SLP120 T01110061,35.2575,-113.9341,1045,"Kingman Arpt, AZ, US",SCT,"[{'cover': 'SCT', 'base': 7500}]",VFR,,1012.0,,,,,,IGM,Kingman Airport,United States of America,Kingman,https://www.worlddata.info/america/usa/airports.php
827,KILE,2025-11-23 01:52:09.621000+00:00,1763862600,2025-11-23T01:50:00.000Z,,,60,3.0,4,1022.4,78,SPECI,SPECI KILE 230150Z AUTO 06003KT 4SM HZ CLR A3019 RMK AO2 RAB10E19UPB19E39 P0000 FZRANO $,31.084,-97.6885,256,"Killeen/Skylark Fld, TX, US",CLR,[],MVFR,HZ,,0.005,,,,,ILE,Skylark Field,United States of America,Killeen,https://www.worlddata.info/america/usa/airports.php
828,KILG,2025-11-23 01:56:13.271000+00:00,1763862660,2025-11-23T02:00:00.000Z,5.0,2.2,10,3.0,10+,1017.0,12,METAR,METAR KILG 230151Z 01003KT 10SM CLR 05/02 A3003 RMK AO2 SLP168 T00500022 $,39.6744,-75.6057,22,"Wilmington/New Castle Arpt, DE, US",CLR,[],VFR,,1016.8,,,,,,ILG,Wilmington Airport,United States of America,Wilmington,https://www.worlddata.info/america/usa/airports.php
829,KILM,2025-11-23 02:02:22.955000+00:00,1763862780,2025-11-23T02:00:00.000Z,19.4,17.2,220,3.0,10+,1013.6,4,METAR,METAR KILM 230153Z 22003KT 10SM SCT043 SCT070 19/17 A2993 RMK AO2 LTG DSNT E SLP135 T01940172,34.2668,-77.8999,9,"Wilmington Intl, NC, US",SCT,"[{'cover': 'SCT', 'base': 4300}, {'cover': 'SCT', 'base': 7000}]",VFR,,1013.5,,,,,,ILM,Wilmington International Airport,United States of America,Wilmington,https://www.worlddata.info/america/usa/airports.php
830,KILN,2025-11-23 02:02:00.244000+00:00,1763862840,2025-11-23T02:00:00.000Z,2.2,1.7,220,3.0,10+,1018.4,6,METAR,METAR KILN 230154Z AUTO 22003KT 10SM CLR 02/02 A3007 RMK AO2 SLP202 T00220017,39.4308,-83.777,325,"Wilmington Arpt, OH, US",CLR,[],VFR,,1020.2,,,,,,ILN,Wilmington Airpark,United States of America,Wilmington,https://www.worlddata.info/america/usa/airports.php
831,KIML,2025-11-23 02:02:23.054000+00:00,1763862780,2025-11-23T02:00:00.000Z,5.0,1.7,,,10+,1022.1,6,METAR,METAR KIML 230153Z AUTO 10SM CLR 05/02 A3018 RMK AO2 SLP236 T00500017,40.5106,-101.6243,997,"Imperial Muni, NE, US",CLR,[],VFR,,1023.6,,,,,,IML,Imperial Municipal Airport,United States of America,Imperial,https://www.worlddata.info/america/usa/airports.php
832,KIMM,2025-11-23 01:46:12.534000+00:00,1763861700,2025-11-23T01:35:00.000Z,18.0,18.0,0,0.0,10+,1019.0,6,METAR,METAR KIMM 230135Z AUTO 00000KT 10SM CLR 18/18 A3009 RMK AO2,26.4321,-81.4073,11,"Immokalee Rgnl, FL, US",CLR,[],VFR,,,,,,,,IMM,Immokalee Regional Airport,United States of America,Immokalee,https://www.worlddata.info/america/usa/airports.php
833,KIMS,2025-11-23 01:42:55.441000+00:00,1763861700,2025-11-23T01:35:00.000Z,5.0,5.0,0,0.0,10+,1020.1,6,METAR,METAR KIMS 230135Z AUTO 00000KT 10SM CLR 05/05 A3012 RMK AO2,38.7515,-85.4689,244,"Madison Muni, IN, US",CLR,[],VFR,,,,,,,,MDN,Madison Municipal Airport,United States of America,Madison,https://www.worlddata.info/america/usa/airports.php
834,KIMT,2025-11-23 02:02:00.271000+00:00,1763862840,2025-11-23T02:00:00.000Z,4.4,-0.6,260,5.0,10+,1008.5,6,METAR,METAR KIMT 230154Z AUTO 26005KT 10SM BKN039 OVC048 04/M01 A2978 RMK AO2 SLP100 T00441006,45.8134,-88.1129,343,"Iron Mountain/Ford Arpt, MI, US",OVC,"[{'cover': 'BKN', 'base': 3900}, {'cover': 'OVC', 'base': 4800}]",VFR,,1010.0,,,,,,IMT,Ford Airport,United States of America,Kingsford,https://www.worlddata.info/america/usa/airports.php
835,KIND,2025-11-23 02:02:00.304000+00:00,1763862840,2025-11-23T02:00:00.000Z,6.7,0.6,230,6.0,10+,1018.4,12,METAR,METAR KIND 230154Z 23006KT 10SM SCT100 SCT250 07/01 A3007 RMK AO2 SLP186 T00670006 $,39.7252,-86.2816,242,"Indianapolis Intl, IN, US",SCT,"[{'cover': 'SCT', 'base': 10000}, {'cover': 'SCT', 'base': 25000}]",VFR,,1018.6,,,,,,IND,Indianapolis International Airport,United States of America,Indianapolis,https://www.worlddata.info/america/usa/airports.php
836,KINL,2025-11-23 02:02:00.328000+00:00,1763862840,2025-11-23T02:00:00.000Z,2.2,-0.6,270,7.0,10+,1011.3,6,METAR,METAR KINL 230154Z AUTO 27007KT 10SM CLR 02/M01 A2986 RMK AO2 SLP126 T00221006,48.5594,-93.3955,353,"International Falls/Einarson Fld, MN, US",CLR,[],VFR,,1012.6,,,,,,INL,Falls International Airport,United States of America,International Falls,https://www.worlddata.info/america/usa/airports.php
837,KINS,2025-11-23 01:58:11.353000+00:00,1763862900,2025-11-23T02:00:00.000Z,13.0,3.9,180,4.0,10+,1017.4,14,METAR,METAR KINS 230155Z AUTO 18004KT 10SM OVC150 13/04 A3004 RMK AO2 SLP155 T01300039 $,36.586,-115.69,954,"Indian Springs/Creech AFB, NV, US",OVC,"[{'cover': 'OVC', 'base': 15000}]",VFR,,1015.5,,,,,,INS,Creech Air Force Base,United States of America,Indian Springs,https://www.worlddata.info/america/usa/airports.php
838,KIOW,2025-11-23 02:02:14.146000+00:00,1763862720,2025-11-23T02:00:00.000Z,7.8,2.2,270,3.0,10+,1018.0,6,METAR,METAR KIOW 230152Z AUTO 27003KT 10SM CLR 08/02 A3006 RMK AO2 SLP184 T00780022,41.6394,-91.5446,199,"Iowa City Muni, IA, US",CLR,[],VFR,,1018.4,,,,,,IOW,Iowa City Municipal Airport,United States of America,Iowa City,https://www.worlddata.info/america/usa/airports.php
839,KIPL,2025-11-23 02:02:03.575000+00:00,1763862780,2025-11-23T02:00:00.000Z,14.4,11.7,290,7.0,10+,1013.0,6,METAR,METAR KIPL 230153Z AUTO 29007KT 10SM OVC080 14/12 A2991 RMK AO2 SLP127 T01440117,32.8346,-115.5766,-16,"Imperial Cnty Arpt, CA, US",OVC,"[{'cover': 'OVC', 'base': 8000}]",VFR,,1012.7,,,,,,IPL,Imperial County Airport,United States of America,Imperial,https://www.worlddata.info/america/usa/airports.php
840,KIPT,2025-11-23 02:02:00.356000+00:00,1763862840,2025-11-23T02:00:00.000Z,1.1,-0.6,0,0.0,10+,1016.7,4,METAR,METAR KIPT 230154Z 00000KT 10SM CLR 01/M01 A3002 RMK AO2 SLP171 T00111006,41.243,-76.9217,160,"Williamsport Rgnl, PA, US",CLR,[],VFR,,1017.1,,,,,,IPT,Williamsport Regional Airport,United States of America,Williamsport,https://www.worlddata.info/america/usa/airports.php
841,KIRK,2025-11-23 01:54:13.163000+00:00,1763862660,2025-11-23T02:00:00.000Z,7.8,7.2,220,7.0,4,1020.1,6,METAR,METAR KIRK 230151Z AUTO 22007KT 4SM BR BKN003 08/07 A3012 RMK AO2 SLP208 T00780072,40.0966,-92.5469,292,"Kirksville Rgnl, MO, US",BKN,"[{'cover': 'BKN', 'base': 300}]",LIFR,BR,1020.8,,,,,,IRK,Kirksville Regional Airport,United States of America,Kirksville,https://www.worlddata.info/america/usa/airports.php
842,KIRS,2025-11-23 01:40:15.660000+00:00,1763861700,2025-11-23T01:35:00.000Z,6.0,0.0,230,6.0,10+,1015.3,6,METAR,METAR KIRS 230135Z AUTO 23006KT 10SM OVC060 06/M00 A2998 RMK AO2,41.8154,-85.4376,282,"Sturgis/Kirsh Muni, MI, US",OVC,"[{'cover': 'OVC', 'base': 6000}]",VFR,,,,,,,,IRS,Kirsch Municipal Airport,United States of America,Sturgis,https://www.worlddata.info/america/usa/airports.php
843,KISO,2025-11-23 01:24:39.269000+00:00,1763860980,2025-11-23T01:23:00.000Z,17.0,16.0,60,3.0,0.5,1014.3,0,SPECI,SPECI KISO 230123Z 06003KT 1/2SM FG SCT002 BKN060 BKN090 17/16 A2995,35.324,-77.6187,27,"Kinston Rgnl, NC, US",BKN,"[{'cover': 'SCT', 'base': 200}, {'cover': 'BKN', 'base': 6000}, {'cover': 'BKN', 'base': 9000}]",LIFR,FG,,,,,,,ISO,Kinston Regional Jetport At Stallings Field,United States of America,Kinston,https://www.worlddata.info/america/usa/airports.php
844,KISQ,2025-11-23 01:38:27.607000+00:00,1763861700,2025-11-23T01:35:00.000Z,5.8,0.0,240,6.0,10+,1008.9,6,METAR,METAR KISQ 230135Z AUTO 24006KT 10SM OVC037 06/00 A2979 RMK AO2 T00580000,45.9729,-86.1728,206,"Manistique/Schoolcraft Cnty, MI, US",OVC,"[{'cover': 'OVC', 'base': 3700}]",VFR,,,,,,,,ISQ,Schoolcraft County Airport,United States of America,Manistique,https://www.worlddata.info/america/usa/airports.php
845,KISW,2025-11-23 02:02:00.377000+00:00,1763862840,2025-11-23T02:00:00.000Z,3.9,1.1,260,4.0,10+,1013.3,6,METAR,METAR KISW 230154Z AUTO 26004KT 10SM CLR 04/01 A2992 RMK AO2 SLP143 T00390011,44.3591,-89.837,311,"Wisconsin Rapids/S Wood Cnty, WI, US",CLR,[],VFR,,1014.3,,,,,,ISW,Alexander Field South Wood County Airport,United States of America,Wisconsin Rapids,https://www.worlddata.info/america/usa/airports.php
846,KIWA,2025-11-23 01:56:13.126000+00:00,1763862540,2025-11-23T02:00:00.000Z,14.0,12.0,10,8.0,10+,1014.0,0,METAR,METAR KIWA 230149Z 01008G14KT 10SM -RA BKN080 OVC100 14/12 A2994 RMK LTG DSNT E S,33.3008,-111.6437,420,"Phoenix/Mesa Gateway Arpt, AZ, US",OVC,"[{'cover': 'BKN', 'base': 8000}, {'cover': 'OVC', 'base': 10000}]",VFR,-RA,,,,,14.0,,AZA,Phoenix–Mesa Gateway Airport,United States of America,Mesa,https://www.worlddata.info/america/usa/airports.php
847,KIWI,2025-11-23 02:02:23.292000+00:00,1763862780,2025-11-23T02:00:00.000Z,0.0,-5.6,290,3.0,10+,1014.0,6,METAR,METAR KIWI 230153Z AUTO 29003KT 10SM CLR 00/M06 A2994 RMK AO2 SLP140 T00001056,43.9639,-69.7114,16,"Wiscasset Arpt, ME, US",CLR,[],VFR,,1014.0,,,,,,ISS,Wiscasset Airport,United States of America,Wiscasset,https://www.worlddata.info/america/usa/airports.php
848,KIXD,2025-11-23 02:02:03.600000+00:00,1763862780,2025-11-23T02:00:00.000Z,9.4,7.8,200,8.0,10+,1021.8,12,METAR,METAR KIXD 230153Z 20008KT 10SM CLR 09/08 A3017 RMK AO2 SLP221 T00940078 $,38.8221,-94.8902,322,"Olathe/New Century Arpt, KS, US",CLR,[],VFR,,1022.1,,,,,,JCI,New Century AirCenter Airport,United States of America,New Century,https://www.worlddata.info/america/usa/airports.php
849,KIZA,2025-11-23 01:42:04.084000+00:00,1763861700,2025-11-23T01:35:00.000Z,16.0,9.0,250,7.0,10+,1015.3,6,METAR,METAR KIZA 230135Z AUTO 25007KT 10SM CLR 16/09 A2998 RMK AO2,34.6059,-120.0761,200,"Santa Ynez Arpt, CA, US",CLR,[],VFR,,,,,,,,SQA,Santa Ynez Airport,United States of America,Santa Ynez,https://www.worlddata.info/america/usa/airports.php
850,KIZG,2025-11-23 02:02:00.399000+00:00,1763862840,2025-11-23T02:00:00.000Z,-3.3,-7.2,0,0.0,10+,1013.3,6,METAR,METAR KIZG 230154Z AUTO 00000KT 10SM CLR M03/M07 A2992 RMK AO2 SLP138 T10331072,43.9899,-70.9501,138,"Fryeburg/Eastern Slopes Rgnl, ME, US",CLR,[],VFR,,1013.8,,,,,,FRY,Eastern Slopes Regional Airport,United States of America,Fryeburg,https://www.worlddata.info/america/usa/airports.php
851,KJAN,2025-11-23 02:02:00.428000+00:00,1763862840,2025-11-23T02:00:00.000Z,18.9,11.7,0,0.0,10+,1019.4,12,METAR,METAR KJAN 230154Z 00000KT 10SM CLR 19/12 A3010 RMK AO2 SLP188 T01890117 $,32.3198,-90.0778,92,"Jackson/Evers Intl, MS, US",CLR,[],VFR,,1018.8,,,,,,JAN,Jackson-Medgar Wiley Evers International Airport,United States of America,Jackson,https://www.worlddata.info/america/usa/airports.php
852,KJAS,2025-11-23 01:42:55.675000+00:00,1763861700,2025-11-23T01:35:00.000Z,15.0,14.0,0,0.0,10+,1020.4,6,METAR,METAR KJAS 230135Z AUTO 00000KT 10SM CLR 15/14 A3013 RMK AO2,30.8904,-94.0332,60,"Jasper/Bell Fld, TX, US",CLR,[],VFR,,,,,,,,JAS,Jasper County Airport Bell Field,United States of America,Jasper,https://www.worlddata.info/america/usa/airports.php
853,KJBR,2025-11-23 02:02:03.623000+00:00,1763862780,2025-11-23T02:00:00.000Z,13.9,10.6,20,4.0,10+,1021.4,14,METAR,METAR KJBR 230153Z AUTO 02004KT 10SM OVC025 14/11 A3016 RMK AO2 SLP212 T01390106 $,35.8357,-90.6442,79,"Jonesboro Muni, AR, US",OVC,"[{'cover': 'OVC', 'base': 2500}]",MVFR,,1021.2,,,,,,JBR,Jonesboro Municipal Airport,United States of America,Jonesboro,https://www.worlddata.info/america/usa/airports.php
854,KJCT,2025-11-23 01:54:13.180000+00:00,1763862660,2025-11-23T02:00:00.000Z,17.2,10.6,70,5.0,10+,1022.4,6,METAR,METAR KJCT 230151Z AUTO 07005KT 10SM CLR 17/11 A3019 RMK AO2 SLP202 T01720106,30.5105,-99.7665,522,"Junction/Kimble Cnty, TX, US",CLR,[],VFR,,1020.2,,,,,,JCT,Kimble County Airport,United States of America,Junction,https://www.worlddata.info/america/usa/airports.php
855,KJDN,2025-11-23 01:54:04.438000+00:00,1763862480,2025-11-23T02:00:00.000Z,4.4,-2.2,0,0.0,,1014.0,6,METAR,METAR KJDN 230148Z AUTO 00000KT 04/M02 A2994 RMK AO1 SLP166 T00441022,47.3259,-106.9488,802,"Jordan Arpt, MT, US",,,,,1016.6,,,,,,JDN,Jordan Airport,United States of America,Jordan,https://www.worlddata.info/america/usa/airports.php
856,KJEF,2025-11-23 02:02:03.647000+00:00,1763862780,2025-11-23T02:00:00.000Z,8.9,7.8,0,0.0,10+,1021.8,12,METAR,METAR KJEF 230153Z 00000KT 10SM SCT009 09/08 A3017 RMK AO2 SLP208 T00890078 $,38.5945,-92.1567,167,"Jefferson City Mem, MO, US",SCT,"[{'cover': 'SCT', 'base': 900}]",VFR,,1020.8,,,,,,JEF,Jefferson City Memorial Airport,United States of America,Jefferson City,https://www.worlddata.info/america/usa/airports.php
857,KJFK,2025-11-23 01:58:08.021000+00:00,1763862660,2025-11-23T02:00:00.000Z,6.7,-2.8,340,9.0,10+,1016.7,4,METAR,METAR KJFK 230151Z 34009KT 10SM FEW250 07/M03 A3002 RMK AO2 SLP163 T00671028,40.6392,-73.7639,3,"New York/JF Kennedy Intl, NY, US",FEW,"[{'cover': 'FEW', 'base': 25000}]",VFR,,1016.3,,,,,,JFK,John F Kennedy International Airport,United States of America,New York,https://www.worlddata.info/america/usa/airports.php
858,KJLN,2025-11-23 02:02:03.691000+00:00,1763862780,2025-11-23T02:00:00.000Z,9.4,7.8,220,3.0,10+,1023.1,4,METAR,METAR KJLN 230153Z 22003KT 10SM OVC008 09/08 A3021 RMK AO2 SLP232 T00940078,37.1522,-94.4952,297,"Joplin Rgnl, MO, US",OVC,"[{'cover': 'OVC', 'base': 800}]",IFR,,1023.2,,,,,,JLN,Joplin Regional Airport,United States of America,Joplin,https://www.worlddata.info/america/usa/airports.php
859,KJOT,2025-11-23 01:40:31.718000+00:00,1763861700,2025-11-23T01:35:00.000Z,9.5,4.0,230,7.0,10+,1016.7,6,METAR,METAR KJOT 230135Z AUTO 23007KT 10SM CLR 10/04 A3002 RMK AO2 T00950040,41.5175,-88.179,175,"Joliet Rgnl, IL, US",CLR,[],VFR,,,,,,,,JOT,Joliet Regional Airport,United States of America,Joliet,https://www.worlddata.info/america/usa/airports.php
860,KJQF,2025-11-23 01:52:00.236000+00:00,1763862600,2025-11-23T02:00:00.000Z,17.0,9.0,0,0.0,10+,1016.0,0,METAR,METAR KJQF 230150Z 00000KT 10SM BKN075 17/09 A3000,35.3896,-80.7074,204,"Concord Rgnl, NC, US",BKN,"[{'cover': 'BKN', 'base': 7500}]",VFR,,,,,,,,USA,Concord-Padgett Regional Airport,United States of America,Concord,https://www.worlddata.info/america/usa/airports.php
861,KJSO,2025-11-23 01:40:21.755000+00:00,1763861700,2025-11-23T01:35:00.000Z,15.3,10.7,360,3.0,10+,1021.1,14,METAR,METAR KJSO 230135Z AUTO 36003KT 10SM CLR 15/11 A3015 RMK AO2 T01530107 $,31.869,-95.2145,204,"Jacksonvil0e/Cherokee Cnty, TX, US",CLR,[],VFR,,,,,,,,JKV,Cherokee County Airport,United States of America,Jacksonville,https://www.worlddata.info/america/usa/airports.php
862,KJVL,2025-11-23 01:45:29.709000+00:00,1763862300,2025-11-23T02:00:00.000Z,5.0,1.0,260,5.0,10+,1015.0,0,METAR,METAR KJVL 230145Z 26005KT 10SM CLR 05/01 A2997,42.6213,-89.0419,244,"Janesville/S Wisconsin Rgnl, WI, US",CLR,[],VFR,,,,,,,,JVL,Southern Wisconsin Regional Airport,United States of America,Janesville,https://www.worlddata.info/america/usa/airports.php
863,KLAA,2025-11-23 02:02:23.545000+00:00,1763862780,2025-11-23T02:00:00.000Z,3.9,2.2,0,0.0,10+,1023.1,6,METAR,METAR KLAA 230153Z AUTO 00000KT 10SM CLR 04/02 A3021 RMK AO2 SLP239 T00390022,38.0718,-102.6875,1129,"Lamar Muni, CO, US",CLR,[],VFR,,1023.9,,,,,,LAA,Southeast Colorado Regional Airport,United States of America,Lamar,https://www.worlddata.info/america/usa/airports.php
864,KLAF,2025-11-23 02:02:00.525000+00:00,1763862840,2025-11-23T02:00:00.000Z,8.3,2.8,230,5.0,10+,1018.0,14,METAR,METAR KLAF 230154Z AUTO 23005KT 10SM OVC085 08/03 A3006 RMK AO2 SLP182 T00830028 $,40.4124,-86.9474,182,"Lafayette/Purdue Univ Arpt, IN, US",OVC,"[{'cover': 'OVC', 'base': 8500}]",VFR,,1018.2,,,,,,LAF,Purdue University Airport,United States of America,West Lafayette,https://www.worlddata.info/america/usa/airports.php
865,KLAM,2025-11-23 01:42:42.104000+00:00,1763861700,2025-11-23T01:35:00.000Z,7.2,-2.6,260,7.0,10+,1023.8,14,METAR,METAR KLAM 230135Z AUTO 26007KT 10SM CLR 07/M03 A3023 RMK AO2 T00721026 $,35.8789,-106.2621,2166,"Los Alamos Arpt, NM, US",CLR,[],VFR,,,,,,,,LAM,Los Alamos Airport,United States of America,Los Alamos,https://www.worlddata.info/america/usa/airports.php
866,KLAN,2025-11-23 02:02:03.717000+00:00,1763862780,2025-11-23T02:00:00.000Z,5.6,-2.2,200,9.0,10+,1014.6,12,METAR,METAR KLAN 230153Z 20009KT 10SM OVC060 06/M02 A2996 RMK AO2 SLP154 T00561022 $,42.7761,-84.5997,261,"Lansing/Capital City Arpt, MI, US",OVC,"[{'cover': 'OVC', 'base': 6000}]",VFR,,1015.4,,,,,,LAN,Capital City Airport,United States of America,Lansing,https://www.worlddata.info/america/usa/airports.php
867,KLAR,2025-11-23 02:02:23.656000+00:00,1763862780,2025-11-23T02:00:00.000Z,-0.6,-5.0,180,10.0,10+,1023.1,6,METAR,METAR KLAR 230153Z AUTO 18010KT 10SM CLR M01/M05 A3021 RMK AO2 SLP236 T10061050,41.3165,-105.6729,2217,"Laramie Rgnl, WY, US",CLR,[],VFR,,1023.6,,,,,,LAR,Laramie Regional Airport,United States of America,Laramie,https://www.worlddata.info/america/usa/airports.php
868,KLAX,2025-11-23 02:02:03.743000+00:00,1763862780,2025-11-23T02:00:00.000Z,19.4,6.7,350,4.0,10+,1013.6,4,METAR,METAR KLAX 230153Z 35004KT 10SM SCT070 BKN120 19/07 A2993 RMK AO2 SLP134 T01940067,33.9382,-118.3866,30,"Los Angeles Intl, CA, US",BKN,"[{'cover': 'SCT', 'base': 7000}, {'cover': 'BKN', 'base': 12000}]",VFR,,1013.4,,,,,,LAX,Los Angeles International Airport,United States of America,Los Angeles,https://www.worlddata.info/america/usa/airports.php
869,KLBB,2025-11-23 02:02:03.764000+00:00,1763862780,2025-11-23T02:00:00.000Z,11.1,1.1,120,7.0,10+,1023.1,12,METAR,METAR KLBB 230153Z 12007KT 10SM FEW260 11/01 A3021 RMK AO2 SLP221 T01110011 $,33.6658,-101.8233,996,"Lubbock Intl Arpt, TX, US",FEW,"[{'cover': 'FEW', 'base': 26000}]",VFR,,1022.1,,,,,,LBB,Lubbock Preston Smith International Airport,United States of America,Lubbock,https://www.worlddata.info/america/usa/airports.php
870,KLBE,2025-11-23 01:47:08.438000+00:00,1763862300,2025-11-23T02:00:00.000Z,2.0,1.0,0,0.0,10+,1018.0,0,METAR,METAR KLBE 230145Z 00000KT 10SM CLR 02/01 A3006,40.2767,-79.4039,345,"Latrobe/Palmer Rgnl, PA, US",CLR,[],VFR,,,,,,,,LBE,Arnold Palmer Regional Airport,United States of America,Latrobe,https://www.worlddata.info/america/usa/airports.php
871,KLBF,2025-11-23 02:02:03.791000+00:00,1763862780,2025-11-23T02:00:00.000Z,2.8,-1.7,0,0.0,10+,1022.1,6,METAR,METAR KLBF 230153Z AUTO 00000KT 10SM CLR 03/M02 A3018 RMK AO2 SLP239 T00281017,41.122,-100.6689,843,"N Platte/Lee Bird Fld, NE, US",CLR,[],VFR,,1023.9,,,,,,LBF,North Platte Regional Airport Lee Bird Field,United States of America,North Platte,https://www.worlddata.info/america/usa/airports.php
872,KLBT,2025-11-23 01:52:04.093000+00:00,1763862480,2025-11-23T01:48:00.000Z,17.8,17.2,170,5.0,10+,1014.0,6,SPECI,SPECI KLBT 230148Z AUTO 17005KT 10SM VCTS -RA FEW025 OVC070 18/17 A2994 RMK AO2 LTG DSNT E TSB04E42 P0076 T01780172,34.6082,-79.059,37,"Lumberton Muni, NC, US",OVC,"[{'cover': 'FEW', 'base': 2500}, {'cover': 'OVC', 'base': 7000}]",VFR,VCTS -RA,,0.76,,,,,LBT,Lumberton Regional Airport,United States of America,Lumberton,https://www.worlddata.info/america/usa/airports.php
873,KLBX,2025-11-23 02:02:03.816000+00:00,1763862780,2025-11-23T02:00:00.000Z,20.6,16.1,60,3.0,10+,1020.4,6,METAR,METAR KLBX 230153Z AUTO 06003KT 10SM CLR 21/16 A3013 RMK AO2 SLP202 T02060161,29.1154,-95.4632,4,"Angleton/Texas Gulf Coast Rgnl, TX, US",CLR,[],VFR,,1020.2,,,,,,LJN,Texas Gulf Coast Regional Airport,United States of America,Angleton,https://www.worlddata.info/america/usa/airports.php
874,KLCH,2025-11-23 02:02:03.846000+00:00,1763862780,2025-11-23T02:00:00.000Z,19.4,13.9,20,3.0,10+,1019.7,6,METAR,METAR KLCH 230153Z AUTO 02003KT 10SM CLR 19/14 A3011 RMK AO2 SLP204 T01940139,30.1255,-93.2277,2,"Lake Charles Rgnl, LA, US",CLR,[],VFR,,1020.4,,,,,,LCH,Lake Charles Regional Airport,United States of America,Lake Charles,https://www.worlddata.info/america/usa/airports.php
875,KLCQ,2025-11-23 01:42:42.443000+00:00,1763861700,2025-11-23T01:35:00.000Z,20.0,18.0,240,4.0,10+,1018.4,6,METAR,METAR KLCQ 230135Z AUTO 24004KT 10SM BKN015 20/18 A3007 RMK AO2,30.1838,-82.5684,59,"Lake City/Gateway Arpt, FL, US",BKN,"[{'cover': 'BKN', 'base': 1500}]",MVFR,,,,,,,,LCQ,Lake City Gateway Airport,United States of America,Lake City,https://www.worlddata.info/america/usa/airports.php
876,KLDJ,2025-11-23 01:54:08.201000+00:00,1763862900,2025-11-23T02:00:00.000Z,5.9,-3.3,320,6.0,10+,1017.0,6,METAR,METAR KLDJ 230155Z AUTO 32006KT 10SM CLR 06/M03 A3003 RMK AO2 T00591033,40.6162,-74.2451,6,"Linden Arpt, NJ, US",CLR,[],VFR,,,,,,,,LDJ,Linden Airport,United States of America,Linden,https://www.worlddata.info/america/usa/airports.php
877,KLDM,2025-11-23 01:38:27.665000+00:00,1763861700,2025-11-23T01:35:00.000Z,8.0,3.0,230,14.0,10+,1012.6,6,METAR,METAR KLDM 230135Z AUTO 23014G19KT 10SM BKN120 08/03 A2990 RMK AO2,43.9614,-86.4107,194,"Ludington/Mason Cnty, MI, US",BKN,"[{'cover': 'BKN', 'base': 12000}]",VFR,,,,,,19.0,,LDM,Mason County Airport,United States of America,Ludington,https://www.worlddata.info/america/usa/airports.php
878,KLEB,2025-11-23 02:02:23.815000+00:00,1763862780,2025-11-23T02:00:00.000Z,-2.8,-6.7,0,0.0,10+,1015.0,4,METAR,METAR KLEB 230153Z 00000KT 10SM CLR M03/M07 A2997 RMK AO2 SLP157 T10281067,43.6271,-72.3054,169,"Lebanon Muni, NH, US",CLR,[],VFR,,1015.7,,,,,,LEB,Lebanon Municipal Airport,United States of America,Lebanon,https://www.worlddata.info/america/usa/airports.php
879,KLEE,2025-11-23 02:02:03.912000+00:00,1763862780,2025-11-23T02:00:00.000Z,20.0,17.8,290,7.0,10+,1019.4,6,METAR,METAR KLEE 230153Z AUTO 29007KT 10SM CLR 20/18 A3010 RMK AO2 SLP192 T02000178,28.8214,-81.8006,21,"Leesburg Muni, FL, US",CLR,[],VFR,,1019.2,,,,,,LEE,Leesburg International Airport,United States of America,Leesburg,https://www.worlddata.info/america/usa/airports.php
880,KLEX,2025-11-23 02:02:00.557000+00:00,1763862840,2025-11-23T02:00:00.000Z,6.1,5.6,220,4.0,10+,1019.4,12,METAR,METAR KLEX 230154Z 22004KT 10SM CLR 06/06 A3010 RMK AO2 SLP195 T00610056 $,38.0339,-84.6114,294,"Lexington/Blue Grass Arpt, KY, US",CLR,[],VFR,,1019.5,,,,,,LEX,Blue Grass Airport,United States of America,Lexington,https://www.worlddata.info/america/usa/airports.php
881,KLFI,2025-11-23 01:58:11.914000+00:00,1763862900,2025-11-23T02:00:00.000Z,11.1,8.8,30,3.0,9,1016.7,14,METAR,METAR KLFI 230155Z AUTO 03003KT 9SM OVC060 11/09 A3002 RMK AO2 SLP172 T01110088 $,37.088,-76.349,2,"Langley AFB, VA, US",OVC,"[{'cover': 'OVC', 'base': 6000}]",VFR,,1017.2,,,,,,LFI,Langley Air Force Base,United States of America,Hampton,https://www.worlddata.info/america/usa/airports.php
882,KLFK,2025-11-23 02:02:03.951000+00:00,1763862780,2025-11-23T02:00:00.000Z,15.6,12.8,0,0.0,10+,1021.4,6,METAR,METAR KLFK 230153Z AUTO 00000KT 10SM CLR 16/13 A3016 RMK AO2 SLP210 T01560128,31.2359,-94.7546,87,"Lufkin/Angelina Cnty, TX, US",CLR,[],VFR,,1021.0,,,,,,LFK,Angelina County Airport,United States of America,Lufkin,https://www.worlddata.info/america/usa/airports.php
883,KLFT,2025-11-23 02:02:03.975000+00:00,1763862780,2025-11-23T02:00:00.000Z,22.2,14.4,330,4.0,10+,1019.7,4,METAR,METAR KLFT 230153Z 33004KT 10SM CLR 22/14 A3011 RMK AO2 SLP196 T02220144,30.1986,-91.9896,9,"Lafayette Rgnl, LA, US",CLR,[],VFR,,1019.6,,,,,,LFT,Lafayette Regional Airport,United States of America,Lafayette,https://www.worlddata.info/america/usa/airports.php
884,KLGA,2025-11-23 02:02:15.738000+00:00,1763862660,2025-11-23T02:00:00.000Z,7.2,-4.4,330,6.0,10+,1016.3,12,METAR,METAR KLGA 230151Z 33006KT 10SM FEW250 07/M04 A3001 RMK AO2 SLP163 T00721044 $,40.7794,-73.8803,9,"New York/La Guardia Arpt, NY, US",FEW,"[{'cover': 'FEW', 'base': 25000}]",VFR,,1016.3,,,,,,LGA,LaGuardia Airport,United States of America,New York,https://www.worlddata.info/america/usa/airports.php
885,KLGB,2025-11-23 02:02:03.998000+00:00,1763862780,2025-11-23T02:00:00.000Z,18.3,8.3,0,0.0,10+,1013.3,4,METAR,METAR KLGB 230153Z 00000KT 10SM CLR 18/08 A2992 RMK AO2 SLP129 T01830083,33.8118,-118.1472,10,"Long Beach Arpt, CA, US",CLR,[],VFR,,1012.9,,,,,,LGB,Long Beach Airport (Daugherty Field),United States of America,Long Beach,https://www.worlddata.info/america/usa/airports.php
886,KLGC,2025-11-23 01:40:06.628000+00:00,1763861700,2025-11-23T01:35:00.000Z,19.0,17.0,270,3.0,10+,1017.4,6,METAR,METAR KLGC 230135Z AUTO 27003KT 10SM BKN065 19/17 A3004 RMK AO2,33.0093,-85.0717,209,"La Grange/Callaway Arpt, GA, US",BKN,"[{'cover': 'BKN', 'base': 6500}]",VFR,,,,,,,,LGC,LaGrange Callaway Airport,United States of America,LaGrange,https://www.worlddata.info/america/usa/airports.php
887,KLGF,2025-11-23 01:56:44.807000+00:00,1763862900,2025-11-23T02:00:00.000Z,13.3,12.7,0,0.0,10+,1012.6,14,METAR,METAR KLGF 230155Z AUTO 00000KT 10SM CLR 13/13 A2990 RMK AO2 SLP126 T01330127 $,32.868,-114.393,118,"Laguna, AZ, US",CLR,[],VFR,,1012.6,,,,,,LGF,Laguna Army Airfield,United States of America,Yuma Proving Ground(Yuma),https://www.worlddata.info/america/usa/airports.php
888,KLGU,2025-11-23 01:56:13.159000+00:00,1763862660,2025-11-23T02:00:00.000Z,1.7,0.6,330,3.0,10+,1024.1,6,METAR,METAR KLGU 230151Z AUTO 33003KT 10SM OVC018 02/01 A3024 RMK AO2 SLP249 T00170006,41.7865,-111.8519,1359,"Logan/Cache Arpt, UT, US",OVC,"[{'cover': 'OVC', 'base': 1800}]",MVFR,,1024.9,,,,,,LGU,Logan-Cache Airport,United States of America,Logan,https://www.worlddata.info/america/usa/airports.php
889,KLHW,2025-11-23 02:00:50.330000+00:00,1763862900,2025-11-23T02:00:00.000Z,22.4,18.8,210,3.0,10+,1016.0,6,METAR,METAR KLHW 230155Z AUTO 21003KT 10SM CLR 22/19 A3000 RMK AO2 SLP162 T02240188,31.8872,-81.5625,14,"Ft Stewart/Mid Coast Rgnl, GA, US",CLR,[],VFR,,1016.2,,,,,,LIY,MidCoast Regional Airport at Wright Army Airfield,United States of America,Hinesville,https://www.worlddata.info/america/usa/airports.php
890,KLHZ,2025-11-23 01:42:42.780000+00:00,1763861700,2025-11-23T01:35:00.000Z,13.0,11.0,30,6.0,10+,1016.3,6,METAR,METAR KLHZ 230135Z AUTO 03006KT 10SM OVC008 13/11 A3001 RMK AO2,36.0229,-78.3341,104,"Louisburg/Franklin Cnty, NC, US",OVC,"[{'cover': 'OVC', 'base': 800}]",IFR,,,,,,,,LFN,Triangle North Executive Airport,United States of America,Louisburg,https://www.worlddata.info/america/usa/airports.php
891,KLIT,2025-11-23 02:02:04.052000+00:00,1763862780,2025-11-23T02:00:00.000Z,15.6,10.6,360,4.0,10+,1021.4,12,METAR,METAR KLIT 230153Z 36004KT 10SM OVC031 16/11 A3016 RMK AO2 SLP214 T01560106 $,34.7273,-92.2358,77,"Little Rock/Clinton Natl, AR, US",OVC,"[{'cover': 'OVC', 'base': 3100}]",VFR,,1021.4,,,,,,LIT,Bill & Hillary Clinton National Airport/Adams Field,United States of America,Little Rock,https://www.worlddata.info/america/usa/airports.php
892,KLKP,2025-11-23 01:41:09.177000+00:00,1763861700,2025-11-23T01:35:00.000Z,-6.0,-7.0,0,0.0,10+,1014.0,6,METAR,METAR KLKP 230135Z AUTO 00000KT 10SM CLR M06/M07 A2994 RMK AO2,44.265,-73.963,533,"Lake Placid Arpt, NY, US",CLR,[],VFR,,,,,,,,LKP,Lake Placid Airport,United States of America,Lake Placid,https://www.worlddata.info/america/usa/airports.php
893,KLKU,2025-11-23 01:38:15.997000+00:00,1763861700,2025-11-23T01:35:00.000Z,7.6,7.6,0,0.0,4,1017.0,6,METAR,METAR KLKU 230135Z AUTO 00000KT 4SM BR OVC050 08/08 A3003 RMK AO2 T00760076,38.0085,-77.9681,146,"Louisa/Freeman Fld, VA, US",OVC,"[{'cover': 'OVC', 'base': 5000}]",MVFR,BR,,,,,,,LOW,Louisa County Airport / Freeman Field,United States of America,Louisa,https://www.worlddata.info/america/usa/airports.php
894,KLKV,2025-11-23 02:02:16.398000+00:00,1763862780,2025-11-23T02:00:00.000Z,1.1,-2.2,0,0.0,8,1021.4,70,METAR,METAR KLKV 230153Z AUTO 00000KT 8SM CLR 01/M02 A3016 RMK AO2 SLP251 T00111022 FZRANO,42.1538,-120.4027,1440,"Lakeview/Lake Cnty, OR, US",CLR,[],VFR,,1025.1,,,,,,LKV,Lake County Airport,United States of America,Lakeview,https://www.worlddata.info/america/usa/airports.php
895,KLMS,2025-11-23 01:46:06.165000+00:00,1763862000,2025-11-23T01:40:00.000Z,19.0,11.0,310,3.0,10+,1019.4,6,METAR,METAR KLMS 230140Z AUTO 31003KT 10SM CLR 19/11 A3010 RMK AO2,33.15,-89.063,169,"Louisville/Winston Cnty, MS, US",CLR,[],VFR,,,,,,,,LMS,Louisville Winston County Airport,United States of America,Louisville,https://www.worlddata.info/america/usa/airports.php
896,KLMT,2025-11-23 02:02:39.321000+00:00,1763862780,2025-11-23T02:00:00.000Z,2.2,-0.6,80,3.0,10+,1020.1,4,METAR,METAR KLMT 230153Z 08003KT 10SM CLR 02/M01 A3012 RMK AO2 SLP221 T00221006,42.147,-121.7255,1246,"Klamath Falls Intl, OR, US",CLR,[],VFR,,1022.1,,,,,,LMT,Crater Lake-Klamath Regional Airport,United States of America,Klamath Falls,https://www.worlddata.info/america/usa/airports.php
897,KLNA,2025-11-23 01:38:18.461000+00:00,1763861700,2025-11-23T01:35:00.000Z,21.6,17.0,0,0.0,10+,1019.4,6,METAR,METAR KLNA 230135Z AUTO 00000KT 10SM CLR 22/17 A3010 RMK AO2 T02160170,26.5925,-80.0848,3,"Lantana/Palm Beach Cnty, FL, US",CLR,[],VFR,,,,,,,,LNA,Palm Beach County Park Airport,United States of America,West Palm Beach,https://www.worlddata.info/america/usa/airports.php
898,KLND,2025-11-23 02:02:39.426000+00:00,1763862780,2025-11-23T02:00:00.000Z,5.6,-5.0,0,0.0,10+,1019.7,6,METAR,METAR KLND 230153Z AUTO 00000KT 10SM CLR 06/M05 A3011 RMK AO2 SLP201 T00561050,42.8154,-108.726,1700,"Lander/Hunt Fld, WY, US",CLR,[],VFR,,1020.1,,,,,,LND,Hunt Field,United States of America,Lander,https://www.worlddata.info/america/usa/airports.php
899,KLNK,2025-11-23 02:02:00.617000+00:00,1763862840,2025-11-23T02:00:00.000Z,5.6,1.1,340,6.0,10+,1021.4,4,METAR,METAR KLNK 230154Z 34006KT 10SM CLR 06/01 A3016 RMK AO2 SLP223 T00560011,40.8478,-96.7647,357,"Lincoln Arpt, NE, US",CLR,[],VFR,,1022.3,,,,,,LNK,Lincoln Airport,United States of America,Lincoln,https://www.worlddata.info/america/usa/airports.php
900,KLNN,2025-11-23 01:44:11.434000+00:00,1763861700,2025-11-23T01:35:00.000Z,4.0,-0.5,220,4.0,10+,1017.4,6,METAR,METAR KLNN 230135Z AUTO 22004KT 10SM OVC024 04/00 A3004 RMK AO1 T00401005,41.6839,-81.3896,190,"Willoughby/Lake Cnty Exec, OH, US",OVC,"[{'cover': 'OVC', 'base': 2400}]",MVFR,,,,,,,,LNN,Lake County Executive Airport,United States of America,Willoughby,https://www.worlddata.info/america/usa/airports.php
901,KLNP,2025-11-23 01:38:18.495000+00:00,1763861700,2025-11-23T01:35:00.000Z,8.0,8.0,350,4.0,3,1018.7,6,METAR,METAR KLNP 230135Z AUTO 35004KT 3SM BR OVC003 08/08 A3008 RMK AO2,36.9884,-82.524,817,"Wise/Lonesome Pine Arpt, VA, US",OVC,"[{'cover': 'OVC', 'base': 300}]",LIFR,BR,,,,,,,LNP,Lonesome Pine Airport,United States of America,Wise,https://www.worlddata.info/america/usa/airports.php
902,KLNS,2025-11-23 02:02:39.527000+00:00,1763862780,2025-11-23T02:00:00.000Z,3.9,0.6,0,0.0,10+,1016.7,4,METAR,METAR KLNS 230153Z 00000KT 10SM CLR 04/01 A3002 RMK AO2 SLP167 T00390006,40.1206,-76.2944,122,"Lancaster Arpt, PA, US",CLR,[],VFR,,1016.7,,,,,,LNS,Lancaster Airport,United States of America,Lancaster,https://www.worlddata.info/america/usa/airports.php
903,KLOL,2025-11-23 02:02:39.626000+00:00,1763862780,2025-11-23T02:00:00.000Z,5.6,3.3,250,3.0,10+,1021.8,6,METAR,METAR KLOL 230153Z AUTO 25003KT 10SM CLR 06/03 A3017 RMK AO2 SLP235 T00560033,40.0684,-118.5702,1191,"Lovelock/Derby Fld, NV, US",CLR,[],VFR,,1023.5,,,,,,LOL,Derby Field,United States of America,Lovelock,https://www.worlddata.info/america/usa/airports.php
904,KLOM,2025-11-23 01:42:43.224000+00:00,1763861700,2025-11-23T01:35:00.000Z,1.8,0.7,0,0.0,10+,1017.0,6,METAR,METAR KLOM 230135Z AUTO 00000KT 10SM CLR 02/01 A3003 RMK AO2 T00180007,40.1376,-75.2684,87,"Philadelphia/Wings Field Arpt, PA, US",CLR,[],VFR,,,,,,,,BBX,Wings Field,United States of America,Philadelphia,https://www.worlddata.info/america/usa/airports.php
905,KLOT,2025-11-23 01:48:10.257000+00:00,1763862420,2025-11-23T02:00:00.000Z,8.0,3.0,230,10.0,10+,1016.3,0,METAR,METAR KLOT 230147Z 23010KT 10SM CLR 08/03 A3001,41.6031,-88.1017,205,"Romeoville/Lewis Univ Arpt, IL, US",CLR,[],VFR,,,,,,,,LOT,Lewis University Airport,United States of America,Chicago/Romeoville,https://www.worlddata.info/america/usa/airports.php
906,KLOU,2025-11-23 02:02:23.992000+00:00,1763862780,2025-11-23T02:00:00.000Z,8.3,7.2,170,4.0,8,1019.4,12,METAR,METAR KLOU 230153Z 17004KT 8SM CLR 08/07 A3010 RMK AO2 SLP195 T00830072 $,38.2302,-85.6629,165,"Louisville/Bowman Fld, KY, US",CLR,[],VFR,,1019.5,,,,,,LOU,Bowman Field,United States of America,Louisville,https://www.worlddata.info/america/usa/airports.php
907,KLOZ,2025-11-23 02:02:24.181000+00:00,1763862780,2025-11-23T02:00:00.000Z,10.6,8.3,340,7.0,10+,1019.4,6,METAR,METAR KLOZ 230153Z AUTO 34007KT 10SM OVC009 11/08 A3010 RMK AO2 SLP191 T01060083,37.0896,-84.0688,361,"London-Corbin Arpt, KY, US",OVC,"[{'cover': 'OVC', 'base': 900}]",IFR,,1019.1,,,,,,LOZ,London-Corbin Airport/Magee Field,United States of America,London,https://www.worlddata.info/america/usa/airports.php
908,KLPC,2025-11-23 01:54:06.039000+00:00,1763862660,2025-11-23T02:00:00.000Z,13.9,13.3,250,6.0,10+,1016.0,6,METAR,METAR KLPC 230151Z AUTO 25006KT 10SM CLR 14/13 A3000 RMK AO2 SLP159 T01390133,34.6647,-120.4642,26,"Lompoc Arpt, CA, US",CLR,[],VFR,,1015.9,,,,,,LPC,Lompoc Airport,United States of America,Lompoc,https://www.worlddata.info/america/usa/airports.php
909,KLQK,2025-11-23 01:40:06.852000+00:00,1763861700,2025-11-23T01:35:00.000Z,14.8,13.0,0,0.0,10+,1015.3,6,METAR,METAR KLQK 230135Z AUTO 00000KT 10SM CLR 15/13 A2998 RMK AO2 T01480130,34.8069,-82.7047,291,"Pickens Cnty, SC, US",CLR,[],VFR,,,,,,,,LQK,Pickens County Airport,United States of America,Pickens,https://www.worlddata.info/america/usa/airports.php
910,KLRD,2025-11-23 01:43:01.831000+00:00,1763861940,2025-11-23T01:39:00.000Z,27.0,22.0,90,10.0,10+,1018.0,12,SPECI,SPECI KLRD 230139Z 09010KT 10SM BKN022 OVC044 27/22 A3006 RMK AO2 $,27.551,-99.4614,150,"Laredo Intl, TX, US",OVC,"[{'cover': 'BKN', 'base': 2200}, {'cover': 'OVC', 'base': 4400}]",MVFR,,,,,,,,LRD,Laredo International Airport,United States of America,Laredo,https://www.worlddata.info/america/usa/airports.php
911,KLRF,2025-11-23 01:58:04.479000+00:00,1763862900,2025-11-23T02:00:00.000Z,15.5,11.9,0,0.0,10+,1021.1,14,METAR,METAR KLRF 230155Z AUTO 00000KT 10SM BKN023 OVC028 16/12 A3015 RMK AO2 SLP212 T01550119 $,34.92,-92.131,85,"Little Rock AFB, AR, US",OVC,"[{'cover': 'BKN', 'base': 2300}, {'cover': 'OVC', 'base': 2800}]",MVFR,,1021.2,,,,,,LRF,Little Rock Air Force Base,United States of America,Jacksonville,https://www.worlddata.info/america/usa/airports.php
912,KLRJ,2025-11-23 01:38:28.361000+00:00,1763861700,2025-11-23T01:35:00.000Z,3.0,2.0,0,0.0,10+,1019.7,6,METAR,METAR KLRJ 230135Z AUTO 00000KT 10SM CLR 03/02 A3011 RMK AO2,42.7771,-96.195,363,"Le Mars Muni, IA, US",CLR,[],VFR,,,,,,,,LRJ,Le Mars Municipal Airport,United States of America,Le Mars,https://www.worlddata.info/america/usa/airports.php
913,KLRU,2025-11-23 01:44:10.216000+00:00,1763861700,2025-11-23T01:35:00.000Z,13.0,0.5,110,4.0,10+,1019.4,6,METAR,METAR KLRU 230135Z AUTO 11004KT 10SM CLR 13/01 A3010 RMK AO2 T01300005,32.2884,-106.9131,1355,"Las Cruces Intl, NM, US",CLR,[],VFR,,,,,,,,LRU,Las Cruces International Airport,United States of America,Las Cruces,https://www.worlddata.info/america/usa/airports.php
914,KLSB,2025-11-23 01:42:43.448000+00:00,1763861700,2025-11-23T01:35:00.000Z,13.0,0.0,120,10.0,10+,1016.0,6,METAR,METAR KLSB 230135Z AUTO 12010G15KT 10SM CLR 13/00 A3000 RMK AO2,32.334,-108.6955,1308,"Lordsburg Muni, NM, US",CLR,[],VFR,,,,,,15.0,,LSB,Lordsburg Municipal Airport,United States of America,Lordsburg,https://www.worlddata.info/america/usa/airports.php
915,KLSE,2025-11-23 02:02:39.834000+00:00,1763862780,2025-11-23T02:00:00.000Z,8.3,2.2,300,9.0,10+,1015.0,4,METAR,METAR KLSE 230153Z 30009KT 10SM CLR 08/02 A2997 RMK AO2 SLP156 T00830022,43.8792,-91.253,198,"La Crosse Muni, WI, US",CLR,[],VFR,,1015.6,,,,,,LSE,La Crosse Regional Airport,United States of America,La Crosse,https://www.worlddata.info/america/usa/airports.php
916,KLSF,2025-11-23 01:58:11.624000+00:00,1763862900,2025-11-23T02:00:00.000Z,18.2,17.4,0,0.0,7,1016.0,14,METAR,METAR KLSF 230155Z AUTO 00000KT 7SM CLR 18/17 A3000 RMK AO2 SLP163 T01820174 $,32.3239,-84.9826,68,"Fort Benning/Lawson AAF, GA, US",CLR,[],VFR,,1016.3,,,,,,LSF,Lawson Army Air Field,United States of America,Fort Benning,https://www.worlddata.info/america/usa/airports.php
917,KLSV,2025-11-23 02:00:50.345000+00:00,1763862900,2025-11-23T02:00:00.000Z,18.4,2.2,360,5.0,10+,1014.6,12,METAR,METAR KLSV 230155Z 36005KT 10SM FEW050 SCT100 BKN160 18/02 A2996 RMK AO2A SLP137 T01840022 $,36.236,-115.034,563,"Nellis AFB, NV, US",BKN,"[{'cover': 'FEW', 'base': 5000}, {'cover': 'SCT', 'base': 10000}, {'cover': 'BKN', 'base': 16000}]",VFR,,1013.7,,,,,,LSV,Nellis Air Force Base,United States of America,Las Vegas,https://www.worlddata.info/america/usa/airports.php
918,KLTS,2025-11-23 01:58:08.945000+00:00,1763862900,2025-11-23T02:00:00.000Z,9.7,7.3,180,3.0,10+,1022.1,14,METAR,METAR KLTS 230155Z AUTO 18003KT 10SM CLR 10/07 A3018 RMK AO2 SLP221 T00970073 $,34.666,-99.27,416,"Altus AFB, OK, US",CLR,[],VFR,,1022.1,,,,,,LTS,Altus Air Force Base,United States of America,Altus,https://www.worlddata.info/america/usa/airports.php
919,KLUF,2025-11-23 02:00:50.364000+00:00,1763862900,2025-11-23T02:00:00.000Z,15.7,13.4,50,3.0,10+,1013.6,14,METAR,METAR KLUF 230155Z AUTO 05003KT 10SM OVC040 16/13 A2993 RMK AO2 DZB25E38 SLP132 P0000 T01570134 $,33.538,-112.38,333,"Phoenix/Luke AFB, AZ, US",OVC,"[{'cover': 'OVC', 'base': 4000}]",VFR,,1013.2,0.005,,,,,LUF,Luke Air Force Base,United States of America,Glendale,https://www.worlddata.info/america/usa/airports.php
920,KLUK,2025-11-23 02:02:57.282000+00:00,1763862780,2025-11-23T02:00:00.000Z,3.3,2.8,0,0.0,10+,1019.7,4,METAR,METAR KLUK 230153Z 00000KT 10SM CLR 03/03 A3011 RMK AO2 SLP198 T00330028,39.106,-84.4161,144,"Cincinnati/Lunken Fld, OH, US",CLR,[],VFR,,1019.8,,,,,,LUK,Cincinnati Municipal Airport Lunken Field,United States of America,Cincinnati,https://www.worlddata.info/america/usa/airports.php
921,KLUL,2025-11-23 01:40:06.909000+00:00,1763861700,2025-11-23T01:35:00.000Z,19.1,18.6,230,3.0,10+,1018.7,6,METAR,METAR KLUL 230135Z AUTO 23003KT 10SM CLR 19/19 A3008 RMK A02 T01910186,31.6682,-89.1705,74,"Laurel/Hesler-Noble Fld, MS, US",CLR,[],VFR,,,,,,,,LUL,Hesler Noble Field,United States of America,Laurel,https://www.worlddata.info/america/usa/airports.php
922,KLVK,2025-11-23 02:02:40.044000+00:00,1763862780,2025-11-23T02:00:00.000Z,13.3,7.8,80,4.0,10+,1017.4,4,METAR,METAR KLVK 230153Z 08004KT 10SM CLR 13/08 A3004 RMK AO2 SLP170 T01330078,37.6931,-121.8149,120,"Livermore Muni, CA, US",CLR,[],VFR,,1017.0,,,,,,LVK,Livermore Municipal Airport,United States of America,Livermore,https://www.worlddata.info/america/usa/airports.php
923,KLVL,2025-11-23 01:38:18.578000+00:00,1763861700,2025-11-23T01:35:00.000Z,11.6,10.4,0,0.0,10+,1017.0,6,METAR,METAR KLVL 230135Z AUTO 00000KT 10SM BKN008 12/10 A3003 RMK AO1 T01160104,36.7723,-77.7925,98,"Lawrenceville Muni, VA, US",BKN,"[{'cover': 'BKN', 'base': 800}]",IFR,,,,,,,,LVL,Brunswick Municipal Airport,United States of America,Lawrenceville,https://www.worlddata.info/america/usa/airports.php
924,KLVM,2025-11-23 02:02:40.121000+00:00,1763862780,2025-11-23T02:00:00.000Z,7.8,-3.9,240,19.0,10+,1018.0,6,METAR,METAR KLVM 230153Z AUTO 24019G32KT 10SM CLR 08/M04 A3006 RMK AO2 PK WND 21038/0136 SLP183 T00781039,45.6984,-110.4415,1418,"Livingston/Mission Fld, MT, US",CLR,[],VFR,,1018.3,,,,32.0,,LVM,Mission Field,United States of America,Livingston,https://www.worlddata.info/america/usa/airports.php
925,KLVS,2025-11-23 02:02:57.363000+00:00,1763862780,2025-11-23T02:00:00.000Z,5.6,-0.6,160,11.0,10+,1025.1,6,METAR,METAR KLVS 230153Z AUTO 16011KT 10SM CLR 06/M01 A3027 RMK AO2 SLP230 T00561006,35.6558,-105.1385,2095,"Las Vegas Muni, NM, US",CLR,[],VFR,,1023.0,,,,,,LVS,Las Vegas Municipal Airport,United States of America,Las Vegas,https://www.worlddata.info/america/usa/airports.php
926,KLWB,2025-11-23 01:40:29.153000+00:00,1763861700,2025-11-23T01:35:00.000Z,8.0,7.0,260,5.0,10+,1017.4,6,METAR,METAR KLWB 230135Z AUTO 26005KT 10SM SCT026 BKN035 OVC047 08/07 A3004 RMK AO2,37.8633,-80.3923,702,"Lewisburg/Greenbrier Valley Arpt, WV, US",OVC,"[{'cover': 'SCT', 'base': 2600}, {'cover': 'BKN', 'base': 3500}, {'cover': 'OVC', 'base': 4700}]",VFR,,,,,,,,LWB,Greenbrier Valley Airport,United States of America,Lewisburg,https://www.worlddata.info/america/usa/airports.php
927,KLWC,2025-11-23 02:02:16.891000+00:00,1763862720,2025-11-23T02:00:00.000Z,5.0,4.4,120,3.0,10+,1021.8,6,METAR,METAR KLWC 230152Z AUTO 12003KT 10SM CLR 05/04 A3017 RMK AO1 SLP221 T00500044,39.0078,-95.2115,252,"Lawrence Muni, KS, US",CLR,[],VFR,,1022.1,,,,,,LWC,Lawrence Municipal Airport,United States of America,Lawrence,https://www.worlddata.info/america/usa/airports.php
928,KLWM,2025-11-23 02:02:00.644000+00:00,1763862840,2025-11-23T02:00:00.000Z,2.2,-6.1,300,4.0,10+,1015.7,4,METAR,METAR KLWM 230154Z 30004KT 10SM CLR 02/M06 A2999 RMK AO2 SLP155 T00221061,42.7125,-71.1256,42,"Lawrence Muni, MA, US",CLR,[],VFR,,1015.5,,,,,,LWM,Lawrence Municipal Airport,United States of America,Lawrence,https://www.worlddata.info/america/usa/airports.php
929,KLWS,2025-11-23 02:00:43.687000+00:00,1763862960,2025-11-23T02:00:00.000Z,11.1,3.3,170,13.0,10+,1018.0,14,METAR,METAR KLWS 230156Z AUTO 17013G19KT 10SM CLR 11/03 A3006 RMK AO2 SLP188 T01110033 $,46.3746,-117.0153,435,"Lewiston/Nez Perce Cnty, ID, US",CLR,[],VFR,,1018.8,,,,19.0,,LWS,Lewiston Nez Perce County Airport,United States of America,Lewiston,https://www.worlddata.info/america/usa/airports.php
930,KLWT,2025-11-23 02:02:00.668000+00:00,1763862840,2025-11-23T02:00:00.000Z,9.4,-3.3,240,11.0,10+,1014.6,6,METAR,METAR KLWT 230154Z AUTO 24011KT 10SM CLR 09/M03 A2996 RMK AO2 SLP156 T00941033,47.0544,-109.4565,1254,"Lewistown Muni, MT, US",CLR,[],VFR,,1015.6,,,,,,LWT,Lewistown Municipal Airport,United States of America,Lewistown,https://www.worlddata.info/america/usa/airports.php
931,KLWV,2025-11-23 02:02:57.461000+00:00,1763862780,2025-11-23T02:00:00.000Z,5.0,3.3,240,4.0,10+,1019.7,6,METAR,METAR KLWV 230153Z AUTO 24004KT 10SM CLR 05/03 A3011 RMK AO2 SLP199 T00500033,38.7604,-87.599,128,"Lawrenceville-Vincennes Intl, IL, US",CLR,[],VFR,,1019.9,,,,,,LWV,Lawrenceville Vincennes International Airport,United States of America,Lawrenceville,https://www.worlddata.info/america/usa/airports.php
932,KLXN,2025-11-23 01:40:20.772000+00:00,1763861700,2025-11-23T01:35:00.000Z,2.3,-0.7,280,3.0,10+,1022.1,6,METAR,METAR KLXN 230135Z AUTO 28003KT 10SM CLR 02/M01 A3018 RMK AO2 T00231007,40.7915,-99.775,734,"Lexington/Kelly Fld, NE, US",CLR,[],VFR,,,,,,,,LXN,Jim Kelly Field,United States of America,Lexington,https://www.worlddata.info/america/usa/airports.php
933,KLXV,2025-11-23 02:02:57.548000+00:00,1763862780,2025-11-23T02:00:00.000Z,-2.8,-9.4,80,3.0,10+,1027.5,6,METAR,METAR KLXV 230153Z AUTO 08003KT 10SM CLR M03/M09 A3034 RMK AO2 SLP263 T10281094,39.228,-106.3162,3027,"Leadville/Lake Cnty, CO, US",CLR,[],VFR,,1026.3,,,,,,LXV,Lake County Airport,United States of America,Leadville,https://www.worlddata.info/america/usa/airports.php
934,KLYH,2025-11-23 02:02:00.683000+00:00,1763862840,2025-11-23T02:00:00.000Z,8.9,8.3,0,0.0,10+,1016.7,4,METAR,METAR KLYH 230154Z 00000KT 10SM OVC050 09/08 A3002 RMK AO2 SLP163 T00890083,37.3213,-79.2065,282,"Lynchburg/Glenn Fld, VA, US",OVC,"[{'cover': 'OVC', 'base': 5000}]",VFR,,1016.3,,,,,,LYH,Lynchburg Regional Airport - Preston Glenn Field,United States of America,Lynchburg,https://www.worlddata.info/america/usa/airports.php
935,KLYO,2025-11-23 01:38:18.703000+00:00,1763861700,2025-11-23T01:35:00.000Z,9.4,7.2,170,3.0,10+,1021.8,6,METAR,METAR KLYO 230135Z AUTO 17003KT 10SM CLR 09/07 A3017 RMK AO2 T00940072,38.343,-98.2266,515,"Lyons/Rice Cnty, KS, US",CLR,[],VFR,,,,,,,,LYO,Lyons-Rice County Municipal Airport,United States of America,Lyons,https://www.worlddata.info/america/usa/airports.php
936,KMAE,2025-11-23 02:02:40.389000+00:00,1763862780,2025-11-23T02:00:00.000Z,9.4,8.3,0,0.0,10+,1018.7,6,METAR,METAR KMAE 230153Z AUTO 00000KT 10SM CLR 09/08 A3008 RMK AO2 SLP185 T00940083,36.9851,-120.1107,77,"Madera Muni, CA, US",CLR,[],VFR,,1018.5,,,,,,MAE,Madera Municipal Airport,United States of America,Madera,https://www.worlddata.info/america/usa/airports.php
937,KMAF,2025-11-23 01:58:08.142000+00:00,1763862780,2025-11-23T02:00:00.000Z,16.7,3.3,90,9.0,10+,1022.1,4,METAR,METAR KMAF 230153Z 09009KT 10SM CLR 17/03 A3018 RMK AO2 SLP200 T01670033,31.9475,-102.2086,874,"Midland Intl, TX, US",CLR,[],VFR,,1020.0,,,,,,MAF,Midland International Air and Space Port,United States of America,Midland,https://www.worlddata.info/america/usa/airports.php
938,KMAW,2025-11-23 01:36:13.544000+00:00,1763861700,2025-11-23T01:35:00.000Z,11.0,9.0,20,3.0,7,1021.8,6,METAR,METAR KMAW 230135Z AUTO 02003KT 7SM OVC011 11/09 A3017 RMK AO1,36.5945,-89.9865,88,"Malden Rgnl, MO, US",OVC,"[{'cover': 'OVC', 'base': 1100}]",MVFR,,,,,,,,MAW,Malden Regional Airport,United States of America,Malden,https://www.worlddata.info/america/usa/airports.php
939,KMBG,2025-11-23 02:02:17.032000+00:00,1763862720,2025-11-23T02:00:00.000Z,3.9,-2.8,140,3.0,10+,1018.4,14,METAR,METAR KMBG 230152Z AUTO 14003KT 10SM CLR 04/M03 A3007 RMK AO2 SLP194 T00391028 $,45.543,-100.404,515,"Mobridge Muni, SD, US",CLR,[],VFR,,1019.4,,,,,,MBG,Mobridge Municipal Airport,United States of America,Mobridge,https://www.worlddata.info/america/usa/airports.php
940,KMBL,2025-11-23 01:12:12.345000+00:00,1763860200,2025-11-23T01:10:00.000Z,7.0,4.0,220,8.0,10+,1011.9,6,SPECI,SPECI KMBL 230110Z AUTO 22008G15KT 10SM FEW020 BKN045 BKN120 07/04 A2988 RMK AO2,44.2714,-86.2378,187,"Manistee/Blacker Arpt, MI, US",BKN,"[{'cover': 'FEW', 'base': 2000}, {'cover': 'BKN', 'base': 4500}, {'cover': 'BKN', 'base': 12000}]",VFR,,,,,,15.0,,MBL,Manistee County Blacker Airport,United States of America,Manistee,https://www.worlddata.info/america/usa/airports.php
941,KMBS,2025-11-23 02:02:40.587000+00:00,1763862780,2025-11-23T02:00:00.000Z,5.0,-2.2,180,9.0,10+,1013.6,14,METAR,METAR KMBS 230153Z AUTO 18009KT 10SM OVC070 05/M02 A2993 RMK AO2 SLP140 T00501022 $,43.5281,-84.0813,201,"Saginaw Intl, MI, US",OVC,"[{'cover': 'OVC', 'base': 7000}]",VFR,,1014.0,,,,,,MBS,MBS International Airport,United States of America,Saginaw,https://www.worlddata.info/america/usa/airports.php
942,KMBY,2025-11-23 01:36:13.568000+00:00,1763861700,2025-11-23T01:35:00.000Z,8.0,6.0,230,7.0,7,1021.1,6,METAR,METAR KMBY 230135Z AUTO 23007KT 7SM OVC003 08/06 A3015 RMK AO2,39.464,-92.4244,263,"Moberly/Bradley Arpt, MO, US",OVC,"[{'cover': 'OVC', 'base': 300}]",LIFR,,,,,,,,MBY,Omar N Bradley Airport,United States of America,Moberly,https://www.worlddata.info/america/usa/airports.php
943,KMCB,2025-11-23 02:02:40.697000+00:00,1763862780,2025-11-23T02:00:00.000Z,18.3,16.7,0,0.0,10+,1019.7,6,METAR,METAR KMCB 230153Z AUTO 00000KT 10SM FEW040 18/17 A3011 RMK AO2 SLP191 T01830167,31.1823,-90.4721,124,"McComb/Lewis Fld, MS, US",FEW,"[{'cover': 'FEW', 'base': 4000}]",VFR,,1019.1,,,,,,MCB,McComb-Pike County Airport / John E Lewis Field,United States of America,McComb,https://www.worlddata.info/america/usa/airports.php
944,KMCC,2025-11-23 01:52:04.009000+00:00,1763861700,2025-11-23T01:35:00.000Z,13.0,10.0,180,3.0,10+,1017.4,6,METAR,METAR KMCC 230135Z AUTO 18003KT 10SM CLR 13/10 A3004 RMK AO2,38.678,-121.403,21,"McClellan AFB, CA, US",CLR,[],VFR,,,,,,,,MCC,McClellan Airfield,United States of America,Sacramento,https://www.worlddata.info/america/usa/airports.php
945,KMCD,2025-11-23 01:38:28.446000+00:00,1763861700,2025-11-23T01:35:00.000Z,4.0,-3.0,180,9.0,10+,1009.6,6,METAR,METAR KMCD 230135Z AUTO 18009G19KT 10SM BKN031 OVC038 04/M03 A2981 RMK AO2,45.866,-84.634,228,"Mackinac Isl Arpt, MI, US",OVC,"[{'cover': 'BKN', 'base': 3100}, {'cover': 'OVC', 'base': 3800}]",VFR,,,,,,19.0,,MCD,Mackinac Island Airport,United States of America,Mackinac Island,https://www.worlddata.info/america/usa/airports.php
946,KMCE,2025-11-23 02:02:40.819000+00:00,1763862780,2025-11-23T02:00:00.000Z,11.7,9.4,0,0.0,10+,1018.0,6,METAR,METAR KMCE 230153Z AUTO 00000KT 10SM CLR 12/09 A3006 RMK AO2 SLP179 T01170094,37.286,-120.5179,49,"Merced/Macready Fld, CA, US",CLR,[],VFR,,1017.9,,,,,,MCE,Merced Regional Macready Field,United States of America,Merced,https://www.worlddata.info/america/usa/airports.php
947,KMCF,2025-11-23 02:00:42.681000+00:00,1763862900,2025-11-23T02:00:00.000Z,21.0,18.5,310,4.0,10+,1019.0,6,METAR,METAR KMCF 230155Z AUTO 31004KT 10SM CLR 21/19 A3009 RMK AO2 SLP192 T02100185,27.8598,-82.5132,3,"Tampa/MacDill AFB, FL, US",CLR,[],VFR,,1019.2,,,,,,MCF,MacDill Air Force Base,United States of America,Tampa,https://www.worlddata.info/america/usa/airports.php
948,KMCI,2025-11-23 02:02:40.918000+00:00,1763862780,2025-11-23T02:00:00.000Z,8.3,7.2,200,7.0,10+,1020.7,4,METAR,METAR KMCI 230153Z 20007KT 10SM FEW250 08/07 A3014 RMK AO2 SLP209 T00830072,39.2975,-94.7309,308,"Kansas City Intl, MO, US",FEW,"[{'cover': 'FEW', 'base': 25000}]",VFR,,1020.9,,,,,,MCI,Kansas City International Airport,United States of America,Kansas City,https://www.worlddata.info/america/usa/airports.php
949,KMCK,2025-11-23 02:02:57.645000+00:00,1763862780,2025-11-23T02:00:00.000Z,8.9,1.7,360,4.0,10+,1022.1,14,METAR,METAR KMCK 230153Z AUTO 36004KT 10SM CLR 09/02 A3018 RMK AO2 SLP232 T00890017 $,40.204,-100.5904,780,"McCook Muni, NE, US",CLR,[],VFR,,1023.2,,,,,,MCK,McCook Ben Nelson Regional Airport,United States of America,McCook,https://www.worlddata.info/america/usa/airports.php
950,KMCN,2025-11-23 02:02:41.008000+00:00,1763862780,2025-11-23T02:00:00.000Z,20.6,17.8,260,7.0,10+,1016.3,6,METAR,METAR KMCN 230153Z AUTO 26007KT 10SM CLR 21/18 A3001 RMK AO2 SLP160 T02060178,32.6889,-83.6529,104,"Macon/Middle Georgia Rgnl, GA, US",CLR,[],VFR,,1016.0,,,,,,MCN,Middle Georgia Regional Airport,United States of America,Macon,https://www.worlddata.info/america/usa/airports.php
951,KMCW,2025-11-23 02:02:41.101000+00:00,1763862780,2025-11-23T02:00:00.000Z,4.4,2.2,270,9.0,10+,1017.7,6,METAR,METAR KMCW 230153Z AUTO 27009KT 10SM CLR 04/02 A3005 RMK AO2 SLP180 T00440022,43.1543,-93.3262,363,"Mason City Muni, IA, US",CLR,[],VFR,,1018.0,,,,,,MCW,Mason City Municipal Airport,United States of America,Mason City,https://www.worlddata.info/america/usa/airports.php
952,KMDD,2025-11-23 01:40:33.255000+00:00,1763861700,2025-11-23T01:35:00.000Z,17.0,3.0,90,6.0,10+,1022.4,6,METAR,METAR KMDD 230135Z AUTO 09006KT 10SM CLR 17/03 A3019 RMK AO2,32.0359,-102.0995,853,"Midland Airpark, TX, US",CLR,[],VFR,,,,,,,,MDD,Midland Airpark,United States of America,Midland,https://www.worlddata.info/america/usa/airports.php
953,KMDH,2025-11-23 02:02:17.198000+00:00,1763862720,2025-11-23T02:00:00.000Z,6.1,6.1,0,0.0,3,1020.7,4,METAR,METAR KMDH 230152Z 00000KT 3SM BR FEW002 06/06 A3014 RMK AO2 SLP209 T00610061,37.7833,-89.2453,122,"Murphysboro/S Illinois Arpt, IL, US",FEW,"[{'cover': 'FEW', 'base': 200}]",MVFR,BR,1020.9,,,,,,MDH,Southern Illinois Airport,United States of America,Murphysboro,https://www.worlddata.info/america/usa/airports.php
954,KMDS,2025-11-23 01:38:27.693000+00:00,1763861700,2025-11-23T01:35:00.000Z,5.0,3.0,300,9.0,10+,1019.4,38,METAR,METAR KMDS 230135Z AUTO 30009KT 10SM CLR 05/03 A3010 RMK AO2 TSNO,44.0141,-97.0817,524,"Madison Muni, SD, US",CLR,[],VFR,,,,,,,,XMD,Madison Municipal Airport,United States of America,Madison,https://www.worlddata.info/america/usa/airports.php
955,KMDW,2025-11-23 02:02:57.713000+00:00,1763862780,2025-11-23T02:00:00.000Z,8.9,2.8,240,11.0,10+,1015.7,4,METAR,METAR KMDW 230153Z 24011KT 10SM FEW080 FEW250 09/03 A2999 RMK AO2 SLP162 T00890028,41.7841,-87.7552,186,"Chicago/Midway Intl, IL, US",FEW,"[{'cover': 'FEW', 'base': 8000}, {'cover': 'FEW', 'base': 25000}]",VFR,,1016.2,,,,,,MDW,Chicago Midway International Airport,United States of America,Chicago,https://www.worlddata.info/america/usa/airports.php
956,KMDZ,2025-11-23 01:40:32.418000+00:00,1763861700,2025-11-23T01:35:00.000Z,3.5,-0.1,260,6.0,10+,1011.6,134,METAR,METAR KMDZ 230135Z AUTO 26006KT 10SM SCT039 04/00 A2987 RMK AO2 T00351001 PWINO,45.1013,-90.3064,446,"Medford/Taylor Cnty, WI, US",SCT,"[{'cover': 'SCT', 'base': 3900}]",VFR,,,,,,,,MDF,Taylor County Airport,United States of America,Medford,https://www.worlddata.info/america/usa/airports.php
957,KMEM,2025-11-23 02:02:00.725000+00:00,1763862840,2025-11-23T02:00:00.000Z,13.3,11.1,340,5.0,10+,1020.4,12,METAR,METAR KMEM 230154Z 34005KT 10SM BKN014 BKN060 13/11 A3013 RMK AO2 SLP202 T01330111 $,35.0564,-89.9864,78,"Memphis Intl, TN, US",BKN,"[{'cover': 'BKN', 'base': 1400}, {'cover': 'BKN', 'base': 6000}]",MVFR,,1020.2,,,,,,MEM,Memphis International Airport,United States of America,Memphis,https://www.worlddata.info/america/usa/airports.php
958,KMEV,2025-11-23 01:46:06.513000+00:00,1763861700,2025-11-23T01:35:00.000Z,5.0,2.0,330,6.0,10+,1021.1,6,METAR,METAR KMEV 230135Z AUTO 33006KT 10SM CLR 05/02 A3015 RMK AO2,38.9963,-119.75,1437,"Minden-Tahoe Arpt, NV, US",CLR,[],VFR,,,,,,,,MEV,Minden-Tahoe Airport,United States of America,Minden,https://www.worlddata.info/america/usa/airports.php
959,KMFD,2025-11-23 02:02:17.488000+00:00,1763862720,2025-11-23T02:00:00.000Z,0.0,-1.7,190,4.0,10+,1017.0,12,METAR,METAR KMFD 230152Z 19004KT 10SM CLR 00/M02 A3003 RMK AO2 SLP179 T00001017 $,40.8204,-82.5177,394,"Mansfield/Lahm Rgnl, OH, US",CLR,[],VFR,,1017.9,,,,,,MFD,Mansfield Lahm Regional Airport,United States of America,Mansfield,https://www.worlddata.info/america/usa/airports.php
960,KMFE,2025-11-23 02:02:41.185000+00:00,1763862780,2025-11-23T02:00:00.000Z,25.0,21.1,120,7.0,10+,1018.0,12,METAR,METAR KMFE 230153Z 12007KT 10SM VCTS CLR 25/21 A3006 RMK AO2 LTG DSNT W SLP178 T02500211 $,26.1791,-98.2445,29,"McAllen/Miller Intl, TX, US",CLR,[],VFR,VCTS,1017.8,,,,,,MFE,McAllen Miller International Airport,United States of America,McAllen,https://www.worlddata.info/america/usa/airports.php
961,KMFI,2025-11-23 02:02:00.748000+00:00,1763862840,2025-11-23T02:00:00.000Z,2.8,0.6,270,6.0,10+,1012.6,6,METAR,METAR KMFI 230154Z AUTO 27006KT 10SM CLR 03/01 A2990 RMK AO2 SLP139 T00280006,44.6379,-90.1875,383,"Marshfield Muni, WI, US",CLR,[],VFR,,1013.9,,,,,,MFI,Marshfield Municipal Airport,United States of America,Marshfield,https://www.worlddata.info/america/usa/airports.php
962,KMFR,2025-11-23 02:02:41.293000+00:00,1763862780,2025-11-23T02:00:00.000Z,4.4,2.8,0,0.0,9,1020.1,4,METAR,METAR KMFR 230153Z 00000KT 9SM CLR 04/03 A3012 RMK AO2 SLP210 T00440028,42.375,-122.877,397,"Medford/Rogue Valley Intl, OR, US",CLR,[],VFR,,1021.0,,,,,,MFR,Rogue Valley International Medford Airport,United States of America,Medford,https://www.worlddata.info/america/usa/airports.php
963,KMFV,2025-11-23 01:52:03.639000+00:00,1763862900,2025-11-23T02:00:00.000Z,9.0,8.0,70,3.0,7,1016.7,6,METAR,METAR KMFV 230155Z AUTO 07003KT 7SM BKN034 OVC090 09/08 A3002 RMK AO2 T00900080,37.646,-75.763,13,"Melfa/Accomack Cnty, VA, US",OVC,"[{'cover': 'BKN', 'base': 3400}, {'cover': 'OVC', 'base': 9000}]",VFR,,,,,,,,MFV,Accomack County Airport,United States of America,Melfa,https://www.worlddata.info/america/usa/airports.php
964,KMGC,2025-11-23 01:46:04.230000+00:00,1763861700,2025-11-23T01:35:00.000Z,7.0,2.0,220,8.0,10+,1016.0,6,METAR,METAR KMGC 230135Z AUTO 22008KT 10SM SCT075 SCT085 07/02 A3000 RMK AO2,41.7048,-86.8183,199,"Michigan City Muni, IN, US",SCT,"[{'cover': 'SCT', 'base': 7500}, {'cover': 'SCT', 'base': 8500}]",VFR,,,,,,,,MGC,Michigan City Municipal Airport,United States of America,Michigan City,https://www.worlddata.info/america/usa/airports.php
965,KMGE,2025-11-23 01:58:04.215000+00:00,1763862900,2025-11-23T02:00:00.000Z,17.1,12.8,290,5.0,10+,1016.0,6,METAR,METAR KMGE 230155Z AUTO 29005KT 10SM CLR 17/13 A3000 RMK AO2 SLP154 T01710128,33.9189,-84.5267,309,"Marietta/Dobbins AFB, GA, US",CLR,[],VFR,,1015.4,,,,,,MGE,Dobbins Air Reserve Base,United States of America,Marietta,https://www.worlddata.info/america/usa/airports.php
966,KMGJ,2025-11-23 02:02:00.772000+00:00,1763862840,2025-11-23T02:00:00.000Z,3.3,-5.0,360,4.0,10+,1016.0,14,METAR,METAR KMGJ 230154Z AUTO 36004KT 10SM CLR 03/M05 A3000 RMK AO2 SLP162 T00331050 $,41.5091,-74.2645,106,"Montgomery/Orange Cnty, NY, US",CLR,[],VFR,,1016.2,,,,,,MGJ,Orange County Airport,United States of America,Montgomery,https://www.worlddata.info/america/usa/airports.php
967,KMGM,2025-11-23 02:02:41.419000+00:00,1763862780,2025-11-23T02:00:00.000Z,18.9,18.3,220,5.0,6,1017.7,4,METAR,METAR KMGM 230153Z 22005KT 6SM BR CLR 19/18 A3005 RMK AO2 SLP174 T01890183,32.2997,-86.4074,64,"Montgomery Rgnl, AL, US",CLR,[],VFR,BR,1017.4,,,,,,MGM,Montgomery Regional (Dannelly Field) Airport,United States of America,Montgomery,https://www.worlddata.info/america/usa/airports.php
968,KMGR,2025-11-23 01:38:18.928000+00:00,1763861700,2025-11-23T01:35:00.000Z,21.4,20.8,230,4.0,10+,1017.7,14,METAR,METAR KMGR 230135Z AUTO 23004KT 10SM CLR 21/21 A3005 RMK AO2 T02140208 $,31.0835,-83.8035,86,"Moultrie Muni, GA, US",CLR,[],VFR,,,,,,,,MGR,Moultrie Municipal Airport,United States of America,Moultrie,https://www.worlddata.info/america/usa/airports.php
969,KMGW,2025-11-23 02:02:57.822000+00:00,1763862780,2025-11-23T02:00:00.000Z,4.4,3.3,0,0.0,10+,1018.0,4,METAR,METAR KMGW 230153Z 00000KT 10SM SCT037 04/03 A3006 RMK AO2 SLP184 T00440033,39.6498,-79.9206,375,"Morgantown Muni, WV, US",SCT,"[{'cover': 'SCT', 'base': 3700}]",VFR,,1018.4,,,,,,MGW,Morgantown Municipal Airport Walter L. (Bill) Hart Field,United States of America,Morgantown,https://www.worlddata.info/america/usa/airports.php
970,KMGY,2025-11-23 02:02:41.573000+00:00,1763862780,2025-11-23T02:00:00.000Z,3.3,0.0,180,3.0,10+,1018.0,6,METAR,METAR KMGY 230153Z AUTO 18003KT 10SM CLR 03/00 A3006 RMK AO2 SLP185 T00330000,39.5918,-84.2263,290,"Dayton/Wright Brothers Arpt, OH, US",CLR,[],VFR,,1018.5,,,,,,MGY,Dayton-Wright Brothers Airport,United States of America,Dayton,https://www.worlddata.info/america/usa/airports.php
971,KMHE,2025-11-23 02:02:41.691000+00:00,1763862780,2025-11-23T02:00:00.000Z,6.7,1.7,280,9.0,10+,1020.4,6,METAR,METAR KMHE 230153Z AUTO 28009KT 10SM CLR 07/02 A3013 RMK AO2 SLP213 T00670017,43.7743,-98.0384,397,"Mitchell Muni, SD, US",CLR,[],VFR,,1021.3,,,,,,MHE,Mitchell Municipal Airport,United States of America,Mitchell,https://www.worlddata.info/america/usa/airports.php
972,KMHK,2025-11-23 02:02:17.640000+00:00,1763862720,2025-11-23T02:00:00.000Z,5.6,5.6,0,0.0,10+,1021.4,6,METAR,METAR KMHK 230152Z AUTO 00000KT 10SM CLR 06/06 A3016 RMK AO2 SLP223 T00560056,39.1346,-96.6789,320,"Manhattan Rgnl, KS, US",CLR,[],VFR,,1022.3,,,,,,MHK,Manhattan Regional Airport,United States of America,Manhattan,https://www.worlddata.info/america/usa/airports.php
973,KMHL,2025-11-23 01:38:16.195000+00:00,1763861700,2025-11-23T01:35:00.000Z,6.0,6.0,200,5.0,4,1021.8,6,METAR,METAR KMHL 230135Z AUTO 20005KT 4SM BR CLR 06/06 A3017 RMK AO2,39.093,-93.2024,236,"Marshall Muni, MO, US",CLR,[],MVFR,BR,,,,,,,MHL,Marshall Memorial Municipal Airport,United States of America,Marshall,https://www.worlddata.info/america/usa/airports.php
974,KMHR,2025-11-23 01:46:08.962000+00:00,1763861700,2025-11-23T01:35:00.000Z,12.0,12.0,170,4.0,10+,1017.0,6,METAR,METAR KMHR 230135Z AUTO 17004KT 10SM CLR 12/12 A3003 RMK AO2,38.56,-121.284,30,"Sacramento/Mather Fld, CA, US",CLR,[],VFR,,,,,,,,MHR,Sacramento Mather Airport,United States of America,Sacramento,https://www.worlddata.info/america/usa/airports.php
975,KMHT,2025-11-23 02:02:57.928000+00:00,1763862780,2025-11-23T02:00:00.000Z,1.7,-6.7,300,5.0,10+,1014.6,4,METAR,METAR KMHT 230153Z 30005KT 10SM CLR 02/M07 A2996 RMK AO2 SLP162 T00171067,42.9245,-71.4377,68,"Manchester Rgnl, NH, US",CLR,[],VFR,,1016.2,,,,,,MHT,Manchester-Boston Regional Airport,United States of America,Manchester,https://www.worlddata.info/america/usa/airports.php
976,KMIA,2025-11-23 02:02:41.794000+00:00,1763862780,2025-11-23T02:00:00.000Z,23.9,17.8,120,3.0,10+,1019.0,12,METAR,METAR KMIA 230153Z 12003KT 10SM FEW250 24/18 A3009 RMK AO2 SLP189 T02390178 $,25.7881,-80.3169,1,"Miami Intl, FL, US",FEW,"[{'cover': 'FEW', 'base': 25000}]",VFR,,1018.9,,,,,,MIA,Miami International Airport,United States of America,Miami,https://www.worlddata.info/america/usa/airports.php
977,KMIB,2025-11-23 02:00:50.385000+00:00,1763862900,2025-11-23T02:00:00.000Z,6.0,-2.1,240,7.0,10+,1014.6,4,METAR,METAR KMIB 230155Z 24007KT 10SM BKN120 06/M02 A2996 RMK AO2A SLP164 T00601021,48.4062,-101.3413,505,"Minot AFB, ND, US",BKN,"[{'cover': 'BKN', 'base': 12000}]",VFR,,1016.4,,,,,,MIB,Minot Air Force Base,United States of America,Minot,https://www.worlddata.info/america/usa/airports.php
978,KMIE,2025-11-23 02:02:58.035000+00:00,1763862780,2025-11-23T02:00:00.000Z,5.6,-1.1,240,4.0,10+,1018.0,12,METAR,METAR KMIE 230153Z 24004KT 10SM FEW090 06/M01 A3006 RMK AO2 SLP182 T00561011 $,40.2345,-85.3936,286,"Muncie/Johnson Fld, IN, US",FEW,"[{'cover': 'FEW', 'base': 9000}]",VFR,,1018.2,,,,,,MIE,Delaware County Johnson Field,United States of America,Muncie,https://www.worlddata.info/america/usa/airports.php
979,KMIV,2025-11-23 02:02:00.852000+00:00,1763862840,2025-11-23T02:00:00.000Z,5.0,3.3,330,3.0,10+,1017.0,6,METAR,METAR KMIV 230154Z AUTO 33003KT 10SM CLR 05/03 A3003 RMK AO2 SLP166 T00500033,39.3662,-75.0778,18,"Millville Muni, NJ, US",CLR,[],VFR,,1016.6,,,,,,MIV,Millville Municipal Airport,United States of America,Millville,https://www.worlddata.info/america/usa/airports.php
980,KMKC,2025-11-23 02:02:00.882000+00:00,1763862840,2025-11-23T02:00:00.000Z,8.9,6.7,210,6.0,10+,1021.1,12,METAR,METAR KMKC 230154Z 21006KT 10SM CLR 09/07 A3015 RMK AO2 SLP212 T00890067 $,39.1279,-94.5892,228,"Kansas City/Wheeler Downtown Arpt, MO, US",CLR,[],VFR,,1021.2,,,,,,MKC,Charles B. Wheeler Downtown Airport,United States of America,Kansas City,https://www.worlddata.info/america/usa/airports.php
981,KMKE,2025-11-23 02:02:17.795000+00:00,1763862720,2025-11-23T02:00:00.000Z,6.7,0.6,250,9.0,10+,1013.3,12,METAR,METAR KMKE 230152Z 25009KT 10SM CLR 07/01 A2992 RMK AO2 SLP139 T00670006 $,42.9549,-87.9045,203,"Milwaukee/Mitchell Intl, WI, US",CLR,[],VFR,,1013.9,,,,,,MKE,General Mitchell International Airport,United States of America,Milwaukee,https://www.worlddata.info/america/usa/airports.php
982,KMKL,2025-11-23 02:02:41.986000+00:00,1763862780,2025-11-23T02:00:00.000Z,14.4,12.2,350,7.0,10+,1020.4,6,METAR,METAR KMKL 230153Z AUTO 35007KT 10SM OVC008 14/12 A3013 RMK AO1 CIG 007V012 SLP201 T01440122,35.5933,-88.917,130,"Jackson/McKellar Rgnl, TN, US",OVC,"[{'cover': 'OVC', 'base': 800}]",IFR,,1020.1,,,,,,MKL,McKellar-Sipes Regional Airport,United States of America,Jackson,https://www.worlddata.info/america/usa/airports.php
983,KMLB,2025-11-23 02:02:42.231000+00:00,1763862780,2025-11-23T02:00:00.000Z,21.1,18.3,180,4.0,10+,1018.7,4,METAR,METAR KMLB 230153Z 18004KT 10SM CLR 21/18 A3008 RMK AO2 SLP187 T02110183,28.0997,-80.6356,7,"Melbourne Intl, FL, US",CLR,[],VFR,,1018.7,,,,,,MLB,Melbourne Orlando International Airport,United States of America,Melbourne,https://www.worlddata.info/america/usa/airports.php
984,KMLC,2025-11-23 02:02:42.351000+00:00,1763862780,2025-11-23T02:00:00.000Z,11.7,7.8,350,4.0,10+,1023.1,6,METAR,METAR KMLC 230153Z AUTO 35004KT 10SM OVC018 12/08 A3021 RMK AO2 SLP229 T01170078,34.8824,-95.7815,231,"McAlester Rgnl, OK, US",OVC,"[{'cover': 'OVC', 'base': 1800}]",MVFR,,1022.9,,,,,,MLC,Mc Alester Regional Airport,United States of America,Mc Alester,https://www.worlddata.info/america/usa/airports.php
985,KMLI,2025-11-23 02:02:18.077000+00:00,1763862720,2025-11-23T02:00:00.000Z,8.3,5.0,230,8.0,10+,1016.7,4,METAR,METAR KMLI 230152Z 23008KT 10SM CLR 08/05 A3002 RMK AO2 SLP170 T00830050,41.4482,-90.5237,174,"Moline/Quad City Intl, IL, US",CLR,[],VFR,,1017.0,,,,,,MLI,Quad City International Airport,United States of America,Moline,https://www.worlddata.info/america/usa/airports.php
986,KMLS,2025-11-23 02:02:42.626000+00:00,1763862780,2025-11-23T02:00:00.000Z,7.2,-1.1,150,7.0,10+,1016.0,6,METAR,METAR KMLS 230153Z AUTO 15007KT 10SM CLR 07/M01 A3000 RMK AO2 SLP176 T00721011,46.4265,-105.8834,800,"Miles City/Wiley Fld, MT, US",CLR,[],VFR,,1017.6,,,,,,MLS,Miles City Airport - Frank Wiley Field,United States of America,Miles City,https://www.worlddata.info/america/usa/airports.php
987,KMLU,2025-11-23 02:02:02.304000+00:00,1763862780,2025-11-23T02:00:00.000Z,17.2,11.7,340,6.0,10+,1021.1,4,METAR,METAR KMLU 230153Z 34006KT 10SM CLR 17/12 A3015 RMK AO2 SLP209 T01720117,32.5155,-92.0299,22,"Monroe Rgnl, LA, US",CLR,[],VFR,,1020.9,,,,,,MLU,Monroe Regional Airport,United States of America,Monroe,https://www.worlddata.info/america/usa/airports.php
988,KMMH,2025-11-23 01:38:24.118000+00:00,1763861700,2025-11-23T01:35:00.000Z,0.0,-2.0,0,0.0,10+,1022.4,6,METAR,METAR KMMH 230135Z AUTO 00000KT 10SM SCT047 00/M02 A3019 RMK AO2,37.6253,-118.8384,2167,"Mammoth/Yosemite Arpt, CA, US",SCT,"[{'cover': 'SCT', 'base': 4700}]",VFR,,,,,,,,MMH,Mammoth Yosemite Airport,United States of America,Mammoth Lakes,https://www.worlddata.info/america/usa/airports.php
989,KMMI,2025-11-23 01:46:06.611000+00:00,1763861700,2025-11-23T01:35:00.000Z,17.0,12.0,320,3.0,10+,1018.0,6,METAR,METAR KMMI 230135Z AUTO 32003KT 10SM CLR 17/12 A3006 RMK A01,35.3952,-84.5612,252,"Athens/McMinn Cnty, TN, US",CLR,[],VFR,,,,,,,,MMI,McMinn County Airport,United States of America,Athens,https://www.worlddata.info/america/usa/airports.php
990,KMMT,2025-11-23 01:58:11.377000+00:00,1763862900,2025-11-23T02:00:00.000Z,16.2,14.4,0,0.0,2.75,1013.6,14,METAR,METAR KMMT 230155Z AUTO 00000KT 2 3/4SM BR CLR 16/14 A2993 RMK AO2 VIS 2 3/4V8 SLP137 T01620144 $,33.922,-80.802,76,"Columbia/McEntire JNGB, SC, US",CLR,[],IFR,BR,1013.7,,,,,,MMT,Mc Entire Joint National Guard Base,United States of America,Eastover,https://www.worlddata.info/america/usa/airports.php
991,KMMU,2025-11-23 01:48:10.297000+00:00,1763862300,2025-11-23T02:00:00.000Z,3.0,-2.0,0,0.0,10+,1017.0,0,METAR,METAR KMMU 230145Z 00000KT 10SM SKC 03/M02 A3003,40.7989,-74.4164,55,"Morristown Muni, NJ, US",SKC,[],VFR,,,,,,,,MMU,Morristown Municipal Airport,United States of America,Morristown,https://www.worlddata.info/america/usa/airports.php
992,KMNN,2025-11-23 02:02:58.365000+00:00,1763862780,2025-11-23T02:00:00.000Z,0.6,-1.1,190,4.0,10+,1017.4,14,METAR,METAR KMNN 230153Z AUTO 19004KT 10SM BKN110 01/M01 A3004 RMK AO2 SLP183 T00061011 PNO $,40.6158,-83.0673,301,"Marion Muni, OH, US",BKN,"[{'cover': 'BKN', 'base': 11000}]",VFR,,1018.3,,,,,,MNN,Marion Municipal Airport,United States of America,Marion,https://www.worlddata.info/america/usa/airports.php
993,KMOD,2025-11-23 02:02:02.344000+00:00,1763862780,2025-11-23T02:00:00.000Z,11.1,8.9,0,0.0,9,1017.7,6,METAR,METAR KMOD 230153Z AUTO 00000KT 9SM CLR 11/09 A3005 RMK AO2 SLP177 T01110089,37.6254,-120.9549,25,"Modesto/Sham Fld, CA, US",CLR,[],VFR,,1017.7,,,,,,MOD,Modesto City Co-Harry Sham Field,United States of America,Modesto,https://www.worlddata.info/america/usa/airports.php
994,KMOT,2025-11-23 02:02:00.911000+00:00,1763862840,2025-11-23T02:00:00.000Z,6.7,-2.2,220,9.0,10+,1015.7,4,METAR,METAR KMOT 230154Z 22009KT 10SM CLR 07/M02 A2999 RMK AO2 SLP170 T00671022,48.252,-101.269,507,"Minot Intl, ND, US",CLR,[],VFR,,1017.0,,,,,,MOT,Minot International Airport,United States of America,Minot,https://www.worlddata.info/america/usa/airports.php
995,KMPV,2025-11-23 01:54:13.258000+00:00,1763862660,2025-11-23T02:00:00.000Z,-1.7,-6.1,280,4.0,10+,1015.3,6,METAR,METAR KMPV 230151Z AUTO 28004KT 10SM SCT031 M02/M06 A2998 RMK AO2 SLP167 T10171061,44.205,-72.5654,336,"Montpelier/Knapp Arpt, VT, US",SCT,"[{'cover': 'SCT', 'base': 3100}]",VFR,,1016.7,,,,,,MPV,Edward F Knapp State Airport,United States of America,Barre/Montpelier,https://www.worlddata.info/america/usa/airports.php
996,KMPZ,2025-11-23 01:42:44.398000+00:00,1763861700,2025-11-23T01:35:00.000Z,7.0,5.0,230,7.0,10+,1018.4,6,METAR,METAR KMPZ 230135Z AUTO 23007KT 10SM CLR 07/05 A3007 RMK AO2,40.9453,-91.5122,222,"Mount Pleasant Muni, IA, US",CLR,[],VFR,,,,,,,,MPZ,Mount Pleasant Municipal Airport,United States of America,Mount Pleasant,https://www.worlddata.info/america/usa/airports.php
997,KMQB,2025-11-23 01:40:32.445000+00:00,1763861700,2025-11-23T01:35:00.000Z,7.0,5.9,230,9.0,7,1019.4,6,METAR,METAR KMQB 230135Z AUTO 23009KT 7SM CLR 07/06 A3010 RMK AO2 T00700059,40.5176,-90.6481,205,"Macomb Muni, IL, US",CLR,[],VFR,,,,,,,,MQB,Macomb Municipal Airport,United States of America,Macomb,https://www.worlddata.info/america/usa/airports.php
998,KMQI,2025-11-23 01:42:44.688000+00:00,1763861700,2025-11-23T01:35:00.000Z,13.5,12.1,30,9.0,10+,1015.7,6,METAR,METAR KMQI 230135Z AUTO 03009KT 10SM BKN008 14/12 A2999 RMK AO2 T01350121,35.9188,-75.6989,3,"Manteo/Dare Cnty, NC, US",BKN,"[{'cover': 'BKN', 'base': 800}]",IFR,,,,,,,,MEO,Dare County Regional Airport,United States of America,Manteo,https://www.worlddata.info/america/usa/airports.php
999,KMQS,2025-11-23 01:40:20.878000+00:00,1763861700,2025-11-23T01:35:00.000Z,5.0,2.0,0,0.0,10+,1016.7,6,METAR,METAR KMQS 230135Z AUTO 00000KT 10SM CLR 05/02 A3002 RMK AO2,39.9773,-75.8605,200,"Coatesville/Chester Cnty, PA, US",CLR,[],VFR,,,,,,,,CTH,Chester County G O Carlson Airport,United States of America,Coatesville,https://www.worlddata.info/america/usa/airports.php
1000,KMRB,2025-11-23 02:02:58.432000+00:00,1763862780,2025-11-23T02:00:00.000Z,8.3,0.0,320,5.0,10+,1017.0,6,METAR,METAR KMRB 230153Z AUTO 32005KT 10SM CLR 08/00 A3003 RMK AO2 SLP171 T00830000,39.4037,-77.975,165,"Martinsburg/E West Virginia Rgnl, WV, US",CLR,[],VFR,,1017.1,,,,,,MRB,Eastern WV Regional Airport/Shepherd Field,United States of America,Martinsburg,https://www.worlddata.info/america/usa/airports.php
1001,KMRC,2025-11-23 01:46:06.715000+00:00,1763861700,2025-11-23T01:35:00.000Z,15.0,15.0,350,3.0,10+,1018.4,6,METAR,METAR KMRC 230135Z AUTO 35003KT 10SM OVC016 15/15 A3007 RMK A01,35.5579,-87.1778,205,"Columbia/Maury Cnty, TN, US",OVC,"[{'cover': 'OVC', 'base': 1600}]",MVFR,,,,,,,,MRC,Maury County Airport,United States of America,Columbia/Mount Pleasant,https://www.worlddata.info/america/usa/airports.php
1002,KMSL,2025-11-23 02:02:02.394000+00:00,1763862780,2025-11-23T02:00:00.000Z,18.9,13.3,350,6.0,10+,1018.0,14,METAR,METAR KMSL 230153Z AUTO 35006KT 10SM CLR 19/13 A3006 RMK AO2 SLP175 T01890133 $,34.7439,-87.5997,170,"Muscle Shoals/NW Alabama Rgnl, AL, US",CLR,[],VFR,,1017.5,,,,,,MSL,Northwest Alabama Regional Airport,United States of America,Muscle Shoals,https://www.worlddata.info/america/usa/airports.php
1003,KMSN,2025-11-23 02:02:58.553000+00:00,1763862780,2025-11-23T02:00:00.000Z,6.7,2.2,VRB,3.0,10+,1014.0,12,METAR,METAR KMSN 230153Z VRB03KT 10SM CLR 07/02 A2994 RMK AO2 SLP149 T00670022 $,43.1407,-89.3452,262,"Madison/Dane Cnty Rgnl, WI, US",CLR,[],VFR,,1014.9,,,,,,MSN,Dane County Regional Truax Field,United States of America,Madison,https://www.worlddata.info/america/usa/airports.php
1004,KMSO,2025-11-23 02:02:02.422000+00:00,1763862780,2025-11-23T02:00:00.000Z,2.2,0.6,0,0.0,10+,1018.7,4,METAR,METAR KMSO 230153Z 00000KT 10SM CLR 02/01 A3008 RMK AO2 SLP213 T00220006,46.9208,-114.0938,974,"Missoula Intl, MT, US",CLR,[],VFR,,1021.3,,,,,,MSO,Missoula International Airport,United States of America,Missoula,https://www.worlddata.info/america/usa/airports.php
1005,KMSP,2025-11-23 02:02:02.444000+00:00,1763862780,2025-11-23T02:00:00.000Z,7.8,-1.7,290,10.0,10+,1016.0,12,METAR,METAR KMSP 230153Z 29010KT 10SM CLR 08/M02 A3000 RMK AO2 SLP166 T00781017 $,44.8852,-93.2313,255,"Minneapolis-St Paul Intl, MN, US",CLR,[],VFR,,1016.6,,,,,,MSP,Minneapolis–Saint Paul International Airport / Wold–Chamberlain Field,United States of America,Minneapolis,https://www.worlddata.info/america/usa/airports.php
1006,KMSS,2025-11-23 02:02:58.641000+00:00,1763862780,2025-11-23T02:00:00.000Z,-4.4,-6.1,0,0.0,10+,1016.3,6,METAR,METAR KMSS 230153Z AUTO 00000KT 10SM CLR M04/M06 A3001 RMK AO2 SLP170 I1000 T10441061,44.9334,-74.8484,60,"Massena Intl, NY, US",CLR,[],VFR,,1017.0,,,,,,MSS,Massena International Airport Richards Field,United States of America,Massena,https://www.worlddata.info/america/usa/airports.php
1007,KMSY,2025-11-23 02:02:02.472000+00:00,1763862780,2025-11-23T02:00:00.000Z,23.3,20.0,240,5.0,9,1019.0,12,METAR,METAR KMSY 230153Z 24005KT 9SM FEW037 23/20 A3009 RMK AO2 SLP192 T02330200 $,29.9974,-90.2777,0,"New Orleans/Armstrong Intl, LA, US",FEW,"[{'cover': 'FEW', 'base': 3700}]",VFR,,1019.2,,,,,,MSY,Louis Armstrong New Orleans International Airport,United States of America,New Orleans,https://www.worlddata.info/america/usa/airports.php
1008,KMTC,2025-11-23 02:00:50.404000+00:00,1763862960,2025-11-23T02:00:00.000Z,4.7,-0.5,170,5.0,10+,1014.3,4,METAR,METAR KMTC 230156Z 17005KT 10SM VCSH SCT023 BKN046 OVC065 05/M00 A2995 RMK AO2A SLP152 T00471005,42.6045,-82.8353,177,"Selfridge ANGB, MI, US",OVC,"[{'cover': 'SCT', 'base': 2300}, {'cover': 'BKN', 'base': 4600}, {'cover': 'OVC', 'base': 6500}]",VFR,VCSH,1015.2,,,,,,MTC,Selfridge Air National Guard Base Airport,United States of America,Mount Clemens,https://www.worlddata.info/america/usa/airports.php
1009,KMTH,2025-11-23 02:02:02.496000+00:00,1763862780,2025-11-23T02:00:00.000Z,22.2,18.9,0,0.0,10+,1018.7,14,METAR,METAR KMTH 230153Z AUTO 00000KT 10SM CLR 22/19 A3008 RMK AO2 SLP185 T02220189 $,24.7263,-81.0477,1,"Marathon Arpt, FL, US",CLR,[],VFR,,1018.5,,,,,,MTH,The Florida Keys Marathon Airport,United States of America,Marathon,https://www.worlddata.info/america/usa/airports.php
1010,KMTJ,2025-11-23 02:02:58.714000+00:00,1763862780,2025-11-23T02:00:00.000Z,4.4,0.6,180,5.0,10+,1023.8,6,METAR,METAR KMTJ 230153Z AUTO 18005KT 10SM CLR 04/01 A3023 RMK AO2 SLP226 T00440006,38.5054,-107.8981,1755,"Montrose Rgnl, CO, US",CLR,[],VFR,,1022.6,,,,,,MTJ,Montrose Regional Airport,United States of America,Montrose,https://www.worlddata.info/america/usa/airports.php
1011,KMTN,2025-11-23 02:02:18.291000+00:00,1763862840,2025-11-23T02:00:00.000Z,5.0,4.0,0,0.0,7,1017.7,0,METAR,METAR KMTN 230154Z 00000KT 7SM CLR 05/04 A3005,39.3214,-76.4065,2,"Baltimore/Martin State Arpt, MD, US",CLR,[],VFR,,,,,,,,MTN,Martin State Airport,United States of America,Baltimore,https://www.worlddata.info/america/usa/airports.php
1012,KMTO,2025-11-23 02:02:02.520000+00:00,1763862780,2025-11-23T02:00:00.000Z,7.2,2.8,230,4.0,10+,1019.4,14,METAR,METAR KMTO 230153Z AUTO 23004KT 10SM CLR 07/03 A3010 RMK AO2 SLP196 T00720028 $,39.4744,-88.2724,216,"Mattoon/Coles Cnty, IL, US",CLR,[],VFR,,1019.6,,,,,,MTO,Coles County Memorial Airport,United States of America,Mattoon,https://www.worlddata.info/america/usa/airports.php
1013,KMTP,2025-11-23 01:58:07.068000+00:00,1763862840,2025-11-23T02:00:00.000Z,7.2,-1.1,340,11.0,,1016.0,14,METAR,METAR KMTP 230154Z AUTO 34011G17KT 07/M01 A3000 RMK AO1 SLP157 T00721011 $,41.073,-71.9235,2,"Montauk Arpt, NY, US",,,,,1015.7,,,,17.0,,MTP,Montauk Airport,United States of America,Montauk,https://www.worlddata.info/america/usa/airports.php
1014,KMUI,2025-11-23 01:58:09.907000+00:00,1763862900,2025-11-23T02:00:00.000Z,2.3,1.9,0,0.0,10+,1016.0,6,METAR,METAR KMUI 230155Z AUTO 00000KT 10SM CLR 02/02 A3000 RMK AO2 SLP165 T00230019,40.4381,-76.5643,146,"Fort Indiantown Gap/Muir AAF, PA, US",CLR,[],VFR,,1016.5,,,,,,MUI,Muir Army Air Field (Fort Indiantown Gap) Airport,United States of America,Fort Indiantown Gap(Annville),https://www.worlddata.info/america/usa/airports.php
1015,KMUO,2025-11-23 01:58:04.240000+00:00,1763862900,2025-11-23T02:00:00.000Z,3.2,-0.6,20,4.0,10+,1023.1,14,METAR,METAR KMUO 230155Z AUTO 02004KT 10SM CLR 03/M01 A3021 RMK AO2 SLP249 T00321006 $,43.03,-115.859,915,"Mountain Home AFB, ID, US",CLR,[],VFR,,1024.9,,,,,,MUO,Mountain Home Air Force Base,United States of America,Mountain Home,https://www.worlddata.info/america/usa/airports.php
1016,KMVL,2025-11-23 02:02:00.994000+00:00,1763862840,2025-11-23T02:00:00.000Z,-2.2,-6.7,0,0.0,10+,1015.0,6,METAR,METAR KMVL 230154Z AUTO 00000KT 10SM CLR M02/M07 A2997 RMK AO2 SLP158 T10221067,44.5328,-72.6152,226,"Morrisville-Stowe State Arpt, VT, US",CLR,[],VFR,,1015.8,,,,,,MVL,Morrisville-Stowe State Airport,United States of America,Morrisville,https://www.worlddata.info/america/usa/airports.php
1017,KMVY,2025-11-23 02:02:58.799000+00:00,1763862780,2025-11-23T02:00:00.000Z,3.9,1.1,330,6.0,10+,1014.3,6,METAR,METAR KMVY 230153Z AUTO 33006KT 10SM CLR 04/01 A2995 RMK AO2 SLP143 T00390011,41.393,-70.6159,18,"Marthas Vineyard Arpt, MA, US",CLR,[],VFR,,1014.3,,,,,,MVY,Martha's Vineyard Airport,United States of America,Martha's Vineyard,https://www.worlddata.info/america/usa/airports.php
1018,KMWC,2025-11-23 01:40:32.473000+00:00,1763861700,2025-11-23T01:35:00.000Z,5.0,0.0,250,9.0,10+,1014.0,6,METAR,METAR KMWC 230135Z AUTO 25009KT 10SM CLR 05/00 A2994 RMK AO2,43.1095,-88.0343,225,"Milwaukee/Timmerman Arpt, WI, US",CLR,[],VFR,,,,,,,,MWC,Lawrence J Timmerman Airport,United States of America,Milwaukee,https://www.worlddata.info/america/usa/airports.php
1019,KMWH,2025-11-23 02:02:18.427000+00:00,1763862720,2025-11-23T02:00:00.000Z,4.4,2.8,310,3.0,8,1018.4,4,METAR,METAR KMWH 230152Z 31003KT 8SM OVC009 04/03 A3007 RMK AO2 SLP193 T00440028,47.193,-119.3146,355,"Moses Lake/Grant Cnty, WA, US",OVC,"[{'cover': 'OVC', 'base': 900}]",IFR,,1019.3,,,,,,MWH,Grant County International Airport,United States of America,Moses Lake,https://www.worlddata.info/america/usa/airports.php
1020,KMWL,2025-11-23 02:02:02.543000+00:00,1763862780,2025-11-23T02:00:00.000Z,13.9,9.4,10,3.0,10+,1022.4,6,METAR,METAR KMWL 230153Z AUTO 01003KT 10SM CLR 14/09 A3019 RMK AO2 SLP218 T01390094,32.7816,-98.0602,288,"Mineral Wells Arpt, TX, US",CLR,[],VFR,,1021.8,,,,,,MWL,Mineral Wells Regional Airport,United States of America,Mineral Wells,https://www.worlddata.info/america/usa/airports.php
1021,KMWO,2025-11-23 01:42:23.889000+00:00,1763861700,2025-11-23T01:35:00.000Z,2.0,2.0,0,0.0,10+,1019.0,6,METAR,METAR KMWO 230135Z AUTO 00000KT 10SM CLR 02/02 A3009 RMK AO2,39.5324,-84.3974,197,"Middletown/Hook Fld, OH, US",CLR,[],VFR,,,,,,,,MWO,Middletown Regional Airport,United States of America,Middletown,https://www.worlddata.info/america/usa/airports.php
1022,KMXF,2025-11-23 01:58:09.933000+00:00,1763862900,2025-11-23T02:00:00.000Z,20.2,19.2,0,0.0,9,1016.7,14,METAR,METAR KMXF 230155Z AUTO 00000KT 9SM CLR 20/19 A3002 RMK AO2 SLP167 T02020192 $,32.3877,-86.3724,47,"Maxwell AFB, AL, US",CLR,[],VFR,,1016.7,,,,,,MXF,Maxwell Air Force Base,United States of America,Montgomery,https://www.worlddata.info/america/usa/airports.php
1023,KMYF,2025-11-23 02:02:02.566000+00:00,1763862780,2025-11-23T02:00:00.000Z,16.1,7.2,30,5.0,10+,1013.3,4,METAR,METAR KMYF 230153Z 03005KT 10SM FEW110 16/07 A2992 RMK AO2 SLP128 T01610072,32.8145,-117.1375,128,"San Diego/Montgomery Arpt, CA, US",FEW,"[{'cover': 'FEW', 'base': 11000}]",VFR,,1012.8,,,,,,MYF,Montgomery-Gibbs Executive Airport,United States of America,San Diego,https://www.worlddata.info/america/usa/airports.php
1024,KMYL,2025-11-23 01:54:13.281000+00:00,1763862660,2025-11-23T02:00:00.000Z,-0.6,-1.7,70,3.0,10+,1022.4,6,METAR,METAR KMYL 230151Z AUTO 07003KT 10SM CLR M01/M02 A3019 RMK AO2 SLP246 T10061017,44.8943,-116.0998,1532,"McCall Muni, ID, US",CLR,[],VFR,,1024.6,,,,,,MYL,McCall Municipal Airport,United States of America,McCall,https://www.worlddata.info/america/usa/airports.php
1025,KMYR,2025-11-23 02:02:18.575000+00:00,1763862780,2025-11-23T02:00:00.000Z,21.1,18.3,240,8.0,10+,1015.0,12,METAR,METAR KMYR 230153Z 24008KT 10SM CLR 21/18 A2997 RMK AO2 SLP147 T02110183 $,33.6769,-78.9325,7,"Myrtle Beach Intl, SC, US",CLR,[],VFR,,1014.7,,,,,,MYR,Myrtle Beach International Airport,United States of America,Myrtle Beach,https://www.worlddata.info/america/usa/airports.php
1026,KMYV,2025-11-23 02:02:02.596000+00:00,1763862780,2025-11-23T02:00:00.000Z,11.1,10.0,150,3.0,10+,1017.4,14,METAR,METAR KMYV 230153Z AUTO 15003KT 10SM CLR 11/10 A3004 RMK AO2 SLP174 T01110100 $,39.102,-121.5688,18,"Marysville/Yuba Cnty, CA, US",CLR,[],VFR,,1017.4,,,,,,MYV,Yuba County Airport,United States of America,Marysville,https://www.worlddata.info/america/usa/airports.php
1027,KMZJ,2025-11-23 01:45:46.666000+00:00,1763861700,2025-11-23T01:35:00.000Z,13.0,11.0,40,11.0,2.5,1014.3,6,METAR,METAR KMZJ 230135Z AUTO 04011G17KT 2 1/2SM VCTS RA BR 13/11 A2995 RMK AO2 LTG DSNT ALQDS,32.5147,-111.3346,574,"Marana/Pinal Aprk, AZ, US",,,,VCTS RA BR,,,,,17.0,,MZJ,Pinal Airpark,United States of America,Marana,https://www.worlddata.info/america/usa/airports.php
1028,KMZZ,2025-11-23 01:46:04.256000+00:00,1763861700,2025-11-23T01:35:00.000Z,4.1,0.1,200,7.0,10+,1017.7,6,METAR,METAR KMZZ 230135Z AUTO 20007KT 10SM BKN100 04/00 A3005 RMK AO2 T00410001,40.4863,-85.6859,260,"Marion Muni, IN, US",BKN,"[{'cover': 'BKN', 'base': 10000}]",VFR,,,,,,,,MZZ,Marion Municipal Airport,United States of America,Marion,https://www.worlddata.info/america/usa/airports.php
1029,KNBG,2025-11-23 02:00:50.434000+00:00,1763862900,2025-11-23T02:00:00.000Z,21.1,20.0,230,5.0,10+,1018.7,14,METAR,METAR KNBG 230155Z AUTO 23005KT 10SM CLR 21/20 A3008 RMK AO2 SLP187 T02110200 $,29.837,-90.024,0,"New Orleans , LA, US",CLR,[],VFR,,1018.7,,,,,,NBG,New Orleans NAS JRB/Alvin Callender Field,United States of America,New Orleans,https://www.worlddata.info/america/usa/airports.php
1030,KNEW,2025-11-23 02:02:02.624000+00:00,1763862780,2025-11-23T02:00:00.000Z,23.3,20.6,240,4.0,10+,1019.0,4,METAR,METAR KNEW 230153Z 24004KT 10SM CLR 23/21 A3009 RMK AO1 SLP183 T02330206,30.0494,-90.029,1,"New Orleans/Lakefront Arpt, LA, US",CLR,[],VFR,,1018.3,,,,,,NEW,Lakefront Airport,United States of America,New Orleans,https://www.worlddata.info/america/usa/airports.php
1031,KNFL,2025-11-23 02:01:12.365000+00:00,1763863020,2025-11-23T02:00:00.000Z,5.6,3.3,70,5.0,10+,1021.4,6,METAR,METAR KNFL 230157Z AUTO 07005KT 10SM CLR 06/03 A3016 RMK AO2 SLP179 T00560033,39.417,-118.705,1199,"Fallon , NV, US",CLR,[],VFR,,1017.9,,,,,,NFL,Fallon Naval Air Station,United States of America,Fallon,https://www.worlddata.info/america/usa/airports.php
1032,KNFW,2025-11-23 01:58:10.456000+00:00,1763862720,2025-11-23T02:00:00.000Z,15.6,9.4,60,5.0,10+,1022.8,14,METAR,METAR KNFW 230152Z AUTO 06005KT 10SM CLR 16/09 A3020 RMK AO2 SLP209 T01560094 CHINO S VISNO S $,32.781,-97.436,188,"Fort Worth/Carswell NAS, TX, US",CLR,[],VFR,,1020.9,,,,,,FWH,NAS Fort Worth JRB / Carswell Field,United States of America,Fort Worth,https://www.worlddata.info/america/usa/airports.php
1033,KNGP,2025-11-23 02:00:43.758000+00:00,1763862960,2025-11-23T02:00:00.000Z,25.0,24.4,80,9.0,8,1018.7,6,METAR,METAR KNGP 230156Z AUTO 08009KT 8SM SCT030 OVC085 25/24 A3008 RMK AO2 SLP186 T02500244,27.688,-97.292,5,"Corpus Christi/Truax Fld NAS, TX, US",OVC,"[{'cover': 'SCT', 'base': 3000}, {'cover': 'OVC', 'base': 8500}]",VFR,,1018.6,,,,,,NGP,Naval Air Station Corpus Christi Truax Field,United States of America,Corpus Christi,https://www.worlddata.info/america/usa/airports.php
1034,KNGU,2025-11-23 02:01:30.605000+00:00,1763863140,2025-11-23T02:00:00.000Z,11.1,8.9,50,5.0,8,1017.0,4,METAR,METAR KNGU 230159Z 05005KT 8SM BKN065 11/09 A3003 RMK AO2 SLP170 T01110089 ,36.937,-76.281,3,"Norfolk NAS, VA, US",BKN,"[{'cover': 'BKN', 'base': 6500}]",VFR,,1017.0,,,,,,NGU,Norfolk Naval Station (Chambers Field),United States of America,Norfolk,https://www.worlddata.info/america/usa/airports.php
1035,KNHK,2025-11-23 02:00:42.767000+00:00,1763862720,2025-11-23T02:00:00.000Z,7.8,7.2,0,0.0,10+,1017.0,14,METAR,METAR KNHK 230152Z AUTO 00000KT 10SM BKN080 08/07 A3003 RMK AO2 SLP167 T00780072 $,38.284,-76.408,5,"Patuxent River NAS, MD, US",BKN,"[{'cover': 'BKN', 'base': 8000}]",VFR,,1016.7,,,,,,NHK,Patuxent River Naval Air Station (Trapnell Field),United States of America,Patuxent River,https://www.worlddata.info/america/usa/airports.php
1036,KNIP,2025-11-23 02:00:42.791000+00:00,1763862780,2025-11-23T02:00:00.000Z,23.9,16.7,260,9.0,10+,1018.0,4,METAR,METAR KNIP 230153Z 26009KT 10SM FEW250 24/17 A3006 RMK AO2 SLP174 T02390167,30.2346,-81.6746,3,"Jacksonville , FL, US",FEW,"[{'cover': 'FEW', 'base': 25000}]",VFR,,1017.4,,,,,,NIP,Jacksonville Naval Air Station (Towers Field),United States of America,Jacksonville,https://www.worlddata.info/america/usa/airports.php
1037,KNJK,2025-11-23 02:00:50.458000+00:00,1763862960,2025-11-23T02:00:00.000Z,14.4,11.7,270,7.0,10+,1013.6,14,METAR,METAR KNJK 230156Z AUTO 27007KT 10SM OVC080 14/12 A2993 RMK AO2 SLP150 T01440117 $,32.823,-115.668,-15,"El Centro, CA, US",OVC,"[{'cover': 'OVC', 'base': 8000}]",VFR,,1015.0,,,,,,NJK,El Centro NAF Airport (Vraciu Field),United States of America,El Centro,https://www.worlddata.info/america/usa/airports.php
1038,KNKX,2025-11-23 02:00:43.797000+00:00,1763862900,2025-11-23T02:00:00.000Z,14.4,7.2,40,6.0,10+,1013.0,6,METAR,METAR KNKX 230155Z AUTO 04006KT 10SM FEW110 14/07 A2991 RMK AO2 SLP125 T01440072,32.865,-117.137,138,"Miramar , CA, US",FEW,"[{'cover': 'FEW', 'base': 11000}]",VFR,,1012.5,,,,,,NKX,Miramar Marine Corps Air Station - Mitscher Field,United States of America,San Diego,https://www.worlddata.info/america/usa/airports.php
1039,KNLC,2025-11-23 02:01:12.384000+00:00,1763862960,2025-11-23T02:00:00.000Z,12.8,9.4,0,0.0,10+,1018.4,14,METAR,METAR KNLC 230156Z AUTO 00000KT 10SM CLR 13/09 A3007 RMK AO2 SLP183 T01280094 $,36.3024,-119.9397,69,"Lemoore , CA, US",CLR,[],VFR,,1018.3,,,,,,NLC,Lemoore Naval Air Station (Reeves Field) Airport,United States of America,Lemoore,https://www.worlddata.info/america/usa/airports.php
1040,KNPA,2025-11-23 02:00:42.819000+00:00,1763862960,2025-11-23T02:00:00.000Z,21.1,20.6,0,0.0,7,1018.7,6,METAR,METAR KNPA 230156Z AUTO 00000KT 7SM CLR 21/21 A3008 RMK AO2 SLP186 T02110206,30.356,-87.323,6,"Pensacola , FL, US",CLR,[],VFR,,1018.6,,,,,,NPA,Naval Air Station Pensacola Forrest Sherman Field,United States of America,Pensacola,https://www.worlddata.info/america/usa/airports.php
1041,KNQI,2025-11-23 02:01:12.410000+00:00,1763862960,2025-11-23T02:00:00.000Z,24.4,22.8,80,7.0,10+,1018.7,14,METAR,METAR KNQI 230156Z AUTO 08007KT 10SM SCT020 BKN030 BKN060 24/23 A3008 RMK AO2 SLP181 T02440228 $,27.507,-97.81,15,"Kingsville, TX, US",BKN,"[{'cover': 'SCT', 'base': 2000}, {'cover': 'BKN', 'base': 3000}, {'cover': 'BKN', 'base': 6000}]",MVFR,,1018.1,,,,,,NQI,Kingsville Naval Air Station,United States of America,Kingsville,https://www.worlddata.info/america/usa/airports.php
1042,KNQX,2025-11-23 02:00:42.840000+00:00,1763862780,2025-11-23T02:00:00.000Z,23.3,19.4,50,4.0,10+,1019.0,12,METAR,METAR KNQX 230153Z 05004KT 10SM FEW030 23/19 A3009 RMK AO2 SLP186 T02330194 $,24.5801,-81.6829,2,"Key West , FL, US",FEW,"[{'cover': 'FEW', 'base': 3000}]",VFR,,1018.6,,,,,,NQX,Naval Air Station Key West/Boca Chica Field,United States of America,Key West,https://www.worlddata.info/america/usa/airports.php
1043,KNRB,2025-11-23 02:00:42.888000+00:00,1763862720,2025-11-23T02:00:00.000Z,22.8,16.7,250,5.0,10+,1017.4,6,METAR,METAR KNRB 230152Z AUTO 25005KT 10SM CLR 23/17 A3004 RMK AO2 SLP172 T02280167,30.396,-81.423,4,"Mayport , FL, US",CLR,[],VFR,,1017.2,,,,,,NRB,Naval Station Mayport / Admiral David L McDonald Field,United States of America,Jacksonville,https://www.worlddata.info/america/usa/airports.php
1044,KNRS,2025-11-23 02:00:50.488000+00:00,1763862780,2025-11-23T02:00:00.000Z,14.4,11.7,180,3.0,10+,1013.0,14,METAR,METAR KNRS 230153Z AUTO 18003KT 10SM CLR 14/12 A2991 RMK AO2 SLP127 T01440117 $,32.563,-117.1109,15,"Imperial Beach, CA, US",CLR,[],VFR,,1012.7,,,,,,NRS,Naval Outlying Field Imperial Beach (Ream Field),United States of America,Imperial Beach,https://www.worlddata.info/america/usa/airports.php
1045,KNSE,2025-11-23 02:00:08.776000+00:00,1763862960,2025-11-23T02:00:00.000Z,21.1,20.0,260,6.0,10+,1018.7,14,METAR,METAR KNSE 230156Z AUTO 26006KT 10SM CLR 21/20 A3008 RMK AO2 SLP171 T02110200 $,30.728,-87.022,56,"Milton/Whiting N, FL, US",CLR,[],VFR,,1017.1,,,,,,NSE,Whiting Field Naval Air Station - North,United States of America,Milton,https://www.worlddata.info/america/usa/airports.php
1046,KNTD,2025-11-23 02:00:43.873000+00:00,1763862900,2025-11-23T02:00:00.000Z,17.8,7.8,330,6.0,10+,1014.3,12,METAR,METAR KNTD 230155Z 33006G19KT 10SM FEW080 FEW180 18/08 A2995 RMK AO2 SLP144 T01780078 $,34.124,-119.123,1,"Pt Mugu , CA, US",FEW,"[{'cover': 'FEW', 'base': 8000}, {'cover': 'FEW', 'base': 18000}]",VFR,,1014.4,,,,19.0,,NTD,Point Mugu Naval Air Station (Naval Base Ventura Co),United States of America,Point Mugu,https://www.worlddata.info/america/usa/airports.php
1047,KNTU,2025-11-23 01:40:41.324000+00:00,1763861400,2025-11-23T01:30:00.000Z,11.7,10.0,30,9.0,10+,1016.3,4,SPECI,SPECI KNTU 230130Z 03009KT 10SM OVC010 12/10 A3001 RMK AO2 T01170100,36.8209,-76.0277,6,"Oceana, VA, US",OVC,"[{'cover': 'OVC', 'base': 1000}]",MVFR,,,,,,,,NTU,Oceana Naval Air Station,United States of America,Virginia Beach,https://www.worlddata.info/america/usa/airports.php
1048,KNUQ,2025-11-23 01:52:04.059000+00:00,1763861700,2025-11-23T01:35:00.000Z,15.0,8.0,0,0.0,10+,1017.4,6,METAR,METAR KNUQ 230135Z AUTO 00000KT 10SM CLR 15/08 A3004 RMK AO2,37.4059,-122.0491,9,"Moffett Fed Airfld, CA, US",CLR,[],VFR,,,,,,,,NUQ,Moffett Federal Airfield,United States of America,Mountain View,https://www.worlddata.info/america/usa/airports.php
1049,KNUW,2025-11-23 01:58:10.551000+00:00,1763862780,2025-11-23T02:00:00.000Z,11.7,8.3,130,15.0,10+,1015.7,12,METAR,METAR KNUW 230153Z 13015G20KT 10SM BKN013 12/08 A2999 RMK AO2 SLP160 T01170083 $,48.355,-122.664,14,"Whidbey Island, WA, US",BKN,"[{'cover': 'BKN', 'base': 1300}]",MVFR,,1016.0,,,,20.0,,NUW,Whidbey Island Naval Air Station (Ault Field),United States of America,Oak Harbor,https://www.worlddata.info/america/usa/airports.php
1050,KNYG,2025-11-23 02:00:42.050000+00:00,1763862960,2025-11-23T02:00:00.000Z,7.8,6.7,310,4.0,9,1017.4,14,METAR,METAR KNYG 230156Z AUTO 31004KT 9SM FEW050 08/07 A3004 RMK AO2 SLP174 T00780067 $,38.503,-77.301,2,"Quantico , VA, US",FEW,"[{'cover': 'FEW', 'base': 5000}]",VFR,,1017.4,,,,,,NYG,Quantico Marine Corps Airfield / Turner Field,United States of America,Quantico,https://www.worlddata.info/america/usa/airports.php
1051,KNZY,2025-11-23 01:58:10.576000+00:00,1763862720,2025-11-23T02:00:00.000Z,17.2,8.9,340,7.0,10+,1012.6,4,METAR,METAR KNZY 230152Z 34007KT 10SM FEW030 FEW100 17/09 A2990 RMK AO2 SLP125 T01720089,32.6922,-117.2098,4,"San Diego/North Island NAS, CA, US",FEW,"[{'cover': 'FEW', 'base': 3000}, {'cover': 'FEW', 'base': 10000}]",VFR,,1012.5,,,,,,NZY,North Island Naval Air Station-Halsey Field,United States of America,San Diego,https://www.worlddata.info/america/usa/airports.php
1052,KOAK,2025-11-23 02:02:02.649000+00:00,1763862780,2025-11-23T02:00:00.000Z,12.8,10.6,300,5.0,10+,1017.7,4,METAR,METAR KOAK 230153Z 30005KT 10SM FEW005 13/11 A3005 RMK AO2 SLP176 T01280106,37.7178,-122.233,3,"Oakland Intl, CA, US",FEW,"[{'cover': 'FEW', 'base': 500}]",VFR,,1017.6,,,,,,OAK,San Francisco Bay Oakland International Airport,United States of America,Oakland,https://www.worlddata.info/america/usa/airports.php
1053,KOAR,2025-11-23 01:44:11.166000+00:00,1763861700,2025-11-23T01:35:00.000Z,11.0,10.0,250,4.0,10+,1017.4,6,METAR,METAR KOAR 230135Z AUTO 25004KT 10SM CLR 11/10 A3004 RMK AO2,36.6815,-121.7574,41,"Marina Muni, CA, US",CLR,[],VFR,,,,,,,,OAR,Marina Municipal Airport,United States of America,Marina,https://www.worlddata.info/america/usa/airports.php
1054,KOBE,2025-11-23 01:42:45.960000+00:00,1763861700,2025-11-23T01:35:00.000Z,19.0,19.0,0,0.0,10+,1018.7,6,METAR,METAR KOBE 230135Z AUTO 00000KT 10SM CLR 19/19 A3008 RMK AO2,27.2663,-80.8487,11,"Okeechobee Cnty Arpt, FL, US",CLR,[],VFR,,,,,,,,OBE,Okeechobee County Airport,United States of America,Okeechobee,https://www.worlddata.info/america/usa/airports.php
1055,KOCF,2025-11-23 01:54:06.165000+00:00,1763862660,2025-11-23T02:00:00.000Z,18.9,17.8,190,6.0,10+,1019.4,6,METAR,METAR KOCF 230151Z AUTO 19006KT 10SM CLR 19/18 A3010 RMK AO2 SLP193 T01890178,29.1636,-82.221,24,"Ocala Rgnl, FL, US",CLR,[],VFR,,1019.3,,,,,,OCF,Ocala International Airport - Jim Taylor Field,United States of America,Ocala,https://www.worlddata.info/america/usa/airports.php
1056,KOCW,2025-11-23 01:44:12.620000+00:00,1763861400,2025-11-23T01:30:00.000Z,15.6,13.2,60,9.0,10+,1015.3,6,METAR,METAR KOCW 230130Z AUTO 06009KT 10SM SCT011 16/13 A2998 RMK AO2 T01560132,35.5703,-77.05,10,"Washington/Warren Arpt, NC, US",SCT,"[{'cover': 'SCT', 'base': 1100}]",VFR,,,,,,,,OCW,Warren Field,United States of America,Washington,https://www.worlddata.info/america/usa/airports.php
1057,KOEO,2025-11-23 01:44:11.510000+00:00,1763861700,2025-11-23T01:35:00.000Z,7.7,-0.1,280,8.0,10+,1016.0,134,METAR,METAR KOEO 230135Z AUTO 28008KT 10SM CLR 08/00 A3000 RMK AO2 T00771001 PWINO,45.3108,-92.6948,269,"Osceola/Simenstad Muni, WI, US",CLR,[],VFR,,,,,,,,OEO,L O Simenstad Municipal Airport,United States of America,Osceola,https://www.worlddata.info/america/usa/airports.php
1058,KOFF,2025-11-23 01:58:03.889000+00:00,1763862900,2025-11-23T02:00:00.000Z,10.7,2.8,310,7.0,10+,1020.1,14,METAR,METAR KOFF 230155Z AUTO 31007KT 10SM CLR 11/03 A3012 RMK AO2 SLP210 T01070028 $,41.122,-95.91,308,"Bellevue/Offutt AFB, NE, US",CLR,[],VFR,,1021.0,,,,,,OFF,Offutt Air Force Base,United States of America,Omaha,https://www.worlddata.info/america/usa/airports.php
1059,KOGA,2025-11-23 01:40:29.228000+00:00,1763861700,2025-11-23T01:35:00.000Z,2.7,-0.7,0,0.0,10+,1022.1,6,METAR,METAR KOGA 230135Z AUTO 00000KT 10SM CLR 03/M01 A3018 RMK AO2 T00271007,41.1164,-101.7679,991,"Ogalla/Searle Fld, NE, US",CLR,[],VFR,,,,,,,,OGA,Ogallala Municipal Airport Searle Field,United States of America,Ogallala,https://www.worlddata.info/america/usa/airports.php
1060,KOGB,2025-11-23 02:02:02.739000+00:00,1763862780,2025-11-23T02:00:00.000Z,18.9,17.8,0,0.0,10+,1015.0,6,METAR,METAR KOGB 230153Z AUTO 00000KT 10SM BKN080 19/18 A2997 RMK AO2 SLP148 T01890178,33.4637,-80.8534,59,"Orangeburg Muni, SC, US",BKN,"[{'cover': 'BKN', 'base': 8000}]",VFR,,1014.8,,,,,,OGB,Orangeburg Municipal Airport,United States of America,Orangeburg,https://www.worlddata.info/america/usa/airports.php
1061,KOGD,2025-11-23 02:02:02.761000+00:00,1763862780,2025-11-23T02:00:00.000Z,5.0,2.8,330,3.0,10+,1023.1,4,METAR,METAR KOGD 230153Z 33003KT 10SM CLR 05/03 A3021 RMK AO2 SLP230 T00500028,41.1941,-112.0168,1356,"Ogden/Hinckley Arpt, UT, US",CLR,[],VFR,,1023.0,,,,,,OGD,Ogden Hinckley Airport,United States of America,Ogden,https://www.worlddata.info/america/usa/airports.php
1062,KOGS,2025-11-23 01:42:46.374000+00:00,1763861700,2025-11-23T01:35:00.000Z,-5.0,-5.0,0,0.0,10+,1015.3,6,METAR,METAR KOGS 230135Z AUTO 00000KT 10SM CLR M05/M05 A2998 RMK AO2,44.68,-75.4642,88,"Ogdensburg Intl, NY, US",CLR,[],VFR,,,,,,,,OGS,Ogdensburg International Airport,United States of America,Ogdensburg,https://www.worlddata.info/america/usa/airports.php
1063,KOIC,2025-11-23 01:42:24.046000+00:00,1763861700,2025-11-23T01:35:00.000Z,-3.0,-5.0,220,2.0,10+,1016.7,6,METAR,METAR KOIC 230135Z AUTO 22002KT 10SM CLR M03/M05 A3002 RMK AO2,42.5642,-75.5269,311,"Norwich/Eaton Arpt, NY, US",CLR,[],VFR,,,,,,,,OIC,Lt Warren Eaton Airport,United States of America,Norwich,https://www.worlddata.info/america/usa/airports.php
1064,KOJC,2025-11-23 02:02:02.792000+00:00,1763862780,2025-11-23T02:00:00.000Z,9.4,7.2,210,5.0,10+,1021.8,12,METAR,METAR KOJC 230153Z 21005KT 10SM CLR 09/07 A3017 RMK AO2 SLP219 T00940072 $,38.85,-94.7395,328,"Olathe/Johnson Cnty, KS, US",CLR,[],VFR,,1021.9,,,,,,OJC,Johnson County Executive Airport,United States of America,Olathe,https://www.worlddata.info/america/usa/airports.php
1065,KOKB,2025-11-23 02:02:18.686000+00:00,1763862720,2025-11-23T02:00:00.000Z,16.1,11.7,0,0.0,9,1013.0,6,METAR,METAR KOKB 230152Z AUTO 00000KT 9SM SCT100 16/12 A2991 RMK AO2 SLP129 T01610117,33.2195,-117.3496,7,"Oceanside Muni, CA, US",SCT,"[{'cover': 'SCT', 'base': 10000}]",VFR,,1012.9,,,,,,OCN,Oceanside Municipal Airport,United States of America,Oceanside,https://www.worlddata.info/america/usa/airports.php
1066,KOKC,2025-11-23 02:02:18.798000+00:00,1763862720,2025-11-23T02:00:00.000Z,8.3,6.1,70,4.0,10+,1023.1,4,METAR,METAR KOKC 230152Z 07004KT 10SM CLR 08/06 A3021 RMK AO2 SLP230 T00830061,35.3843,-97.6003,391,"Oklahoma City/Will Rogers Intl, OK, US",CLR,[],VFR,,1023.0,,,,,,OKC,Will Rogers World Airport,United States of America,Oklahoma City,https://www.worlddata.info/america/usa/airports.php
1067,KOKM,2025-11-23 01:22:45.770000+00:00,1763860500,2025-11-23T01:15:00.000Z,9.3,6.3,350,3.0,10+,1023.8,6,METAR,METAR KOKM 230115Z AUTO 35003KT 10SM OVC014 09/06 A3023 RMK AO2 T00930063,35.6713,-95.9514,215,"Okmulgee Rgnl, OK, US",OVC,"[{'cover': 'OVC', 'base': 1400}]",MVFR,,,,,,,,OKM,Okmulgee Regional Airport,United States of America,Okmulgee,https://www.worlddata.info/america/usa/airports.php
1068,KOKV,2025-11-23 02:02:19.142000+00:00,1763862900,2025-11-23T02:00:00.000Z,7.0,2.0,350,3.0,10+,1016.7,6,METAR,METAR KOKV 230155Z AUTO 35003KT 10SM SCT045 07/02 A3002 RMK AO2,39.1406,-78.1391,213,"Winchester Rgnl, VA, US",SCT,"[{'cover': 'SCT', 'base': 4500}]",VFR,,,,,,,,WGO,Winchester Regional Airport,United States of America,Winchester,https://www.worlddata.info/america/usa/airports.php
1069,KOLM,2025-11-23 01:30:12.706000+00:00,1763861220,2025-11-23T01:27:00.000Z,10.0,7.2,220,7.0,10+,1019.0,4,SPECI,SPECI KOLM 230127Z 22007KT 10SM SCT024 BKN050 OVC070 10/07 A3009 RMK AO2 T01000072,46.9737,-122.9049,58,"Olympia Rgnl, WA, US",OVC,"[{'cover': 'SCT', 'base': 2400}, {'cover': 'BKN', 'base': 5000}, {'cover': 'OVC', 'base': 7000}]",VFR,,,,,,,,OLM,Olympia Regional Airport,United States of America,Olympia,https://www.worlddata.info/america/usa/airports.php
1070,KOLS,2025-11-23 02:02:04.984000+00:00,1763862840,2025-11-23T02:00:00.000Z,12.2,10.6,150,3.0,10+,1013.6,6,METAR,METAR KOLS 230154Z AUTO 15003KT 10SM VCTS FEW032 BKN043 OVC065 12/11 A2993 RMK AO2 LTG DSNT ALQDS RAE48 TSB25E50 SLP102 P0018 T01220106,31.4208,-110.8465,1194,"Nogales Intl, AZ, US",OVC,"[{'cover': 'FEW', 'base': 3200}, {'cover': 'BKN', 'base': 4300}, {'cover': 'OVC', 'base': 6500}]",VFR,VCTS,1010.2,0.18,,,,,OLS,Nogales International Airport,United States of America,Nogales,https://www.worlddata.info/america/usa/airports.php
1071,KOLV,2025-11-23 01:52:00.279000+00:00,1763862600,2025-11-23T02:00:00.000Z,14.0,12.0,340,7.0,10+,1020.1,0,METAR,METAR KOLV 230150Z 34007KT 10SM OVC011 14/12 A3012,34.9808,-89.7851,124,"Olive Branch Arpt, MS, US",OVC,"[{'cover': 'OVC', 'base': 1100}]",MVFR,,,,,,,,OLV,Olive Branch Airport,United States of America,Olive Branch,https://www.worlddata.info/america/usa/airports.php
1072,KOMA,2025-11-23 02:02:19.247000+00:00,1763862720,2025-11-23T02:00:00.000Z,7.2,3.3,360,8.0,10+,1020.7,4,METAR,METAR KOMA 230152Z 36008KT 10SM CLR 07/03 A3014 RMK AO2 SLP211 T00720033,41.3119,-95.9018,299,"Omaha/Eppley Fld, NE, US",CLR,[],VFR,,1021.1,,,,,,OMA,Eppley Airfield,United States of America,Omaha,https://www.worlddata.info/america/usa/airports.php
1073,KOMK,2025-11-23 02:02:02.816000+00:00,1763862780,2025-11-23T02:00:00.000Z,4.4,2.2,180,6.0,10+,1017.7,6,METAR,METAR KOMK 230153Z AUTO 18006KT 10SM OVC014 04/02 A3005 RMK AO2 SLP185 T00440022,48.4611,-119.5209,395,"Omak Arpt, WA, US",OVC,"[{'cover': 'OVC', 'base': 1400}]",MVFR,,1018.5,,,,,,OMK,Omak Airport,United States of America,Omak,https://www.worlddata.info/america/usa/airports.php
1074,KONL,2025-11-23 01:44:11.582000+00:00,1763861700,2025-11-23T01:35:00.000Z,2.6,-2.1,0,0.0,10+,1021.4,6,METAR,METAR KONL 230135Z AUTO 00000KT 10SM CLR 03/M02 A3016 RMK AO2 T00261021,42.4691,-98.6903,619,"O'Neill Muni, NE, US",CLR,[],VFR,,,,,,,,ONL,O'Neill Municipal Airport–John L Baker Field,United States of America,O'Neill,https://www.worlddata.info/america/usa/airports.php
1075,KONO,2025-11-23 02:02:02.842000+00:00,1763862780,2025-11-23T02:00:00.000Z,2.8,1.7,260,8.0,5,1023.8,6,METAR,METAR KONO 230153Z AUTO 26008KT 5SM BR CLR 03/02 A3023 RMK AO2 SLP258 T00280017,44.0142,-117.0081,668,"Ontario Muni, OR, US",CLR,[],MVFR,BR,1025.8,,,,,,ONO,Ontario Municipal Airport,United States of America,Oregon,https://www.worlddata.info/america/usa/airports.php
1076,KONP,2025-11-23 01:40:17.613000+00:00,1763861700,2025-11-23T01:35:00.000Z,7.0,7.0,0,0.0,5,1021.4,6,METAR,METAR KONP 230135Z AUTO 00000KT 5SM BR CLR 07/07 A3016 RMK AO2,44.5825,-124.0575,43,"Newport Muni, OR, US",CLR,[],MVFR,BR,,,,,,,ONP,Newport Municipal Airport,United States of America,Newport,https://www.worlddata.info/america/usa/airports.php
1077,KONT,2025-11-23 02:02:02.872000+00:00,1763862780,2025-11-23T02:00:00.000Z,18.3,6.1,260,5.0,10+,1013.3,12,METAR,METAR KONT 230153Z 26005KT 10SM SCT090 BKN110 18/06 A2992 RMK AO2 SLP125 T01830061 $,34.0531,-117.5769,279,"Ontario Intl, CA, US",BKN,"[{'cover': 'SCT', 'base': 9000}, {'cover': 'BKN', 'base': 11000}]",VFR,,1012.5,,,,,,ONT,Ontario International Airport,United States of America,Ontario,https://www.worlddata.info/america/usa/airports.php
1078,KOPF,2025-11-23 02:02:02.901000+00:00,1763862780,2025-11-23T02:00:00.000Z,20.0,17.2,0,0.0,10+,1019.0,12,METAR,METAR KOPF 230153Z 00000KT 10SM CLR 20/17 A3009 RMK AO2 SLP191 T02000172 $,25.9102,-80.2828,1,"Miami/Opa Locka Arpt, FL, US",CLR,[],VFR,,1019.1,,,,,,OPF,Miami-Opa Locka Executive Airport,United States of America,Miami,https://www.worlddata.info/america/usa/airports.php
1079,KORD,2025-11-23 01:56:13.288000+00:00,1763862660,2025-11-23T02:00:00.000Z,8.3,1.7,230,9.0,10+,1015.0,4,METAR,METAR KORD 230151Z 23009KT 10SM CLR 08/02 A2997 RMK AO2 SLP153 T00830017,41.9602,-87.9316,202,"Chicago/O'Hare Intl, IL, US",CLR,[],VFR,,1015.3,,,,,,ORD,Chicago O'Hare International Airport,United States of America,Chicago,https://www.worlddata.info/america/usa/airports.php
1080,KORF,2025-11-23 01:54:13.315000+00:00,1763862660,2025-11-23T02:00:00.000Z,10.6,8.9,60,7.0,10+,1016.7,4,METAR,METAR KORF 230151Z 06007KT 10SM SCT013 11/09 A3002 RMK AO2 SLP164 T01060089,36.9037,-76.1927,5,"Norfolk Intl, VA, US",SCT,"[{'cover': 'SCT', 'base': 1300}]",VFR,,1016.4,,,,,,ORF,Norfolk International Airport,United States of America,Norfolk,https://www.worlddata.info/america/usa/airports.php
1081,KORH,2025-11-23 02:02:05.375000+00:00,1763862840,2025-11-23T02:00:00.000Z,1.1,-5.0,350,6.0,10+,1014.6,12,METAR,METAR KORH 230154Z 35006KT 10SM CLR 01/M05 A2996 RMK AO2 SLP153 T00111050 $,42.2706,-71.8731,306,"Worcester Muni, MA, US",CLR,[],VFR,,1015.3,,,,,,ORH,Worcester Regional Airport,United States of America,Worcester,https://www.worlddata.info/america/usa/airports.php
1082,KORL,2025-11-23 02:02:02.923000+00:00,1763862780,2025-11-23T02:00:00.000Z,22.2,15.6,270,4.0,10+,1019.0,4,METAR,METAR KORL 230153Z 27004KT 10SM CLR 22/16 A3009 RMK AO2 SLP192 T02220156,28.5465,-81.3354,32,"Orlando/Executive, FL, US",CLR,[],VFR,,1019.2,,,,,,ORL,Orlando Executive Airport,United States of America,Orlando,https://www.worlddata.info/america/usa/airports.php
1083,KORS,2025-11-23 01:40:33.296000+00:00,1763861700,2025-11-23T01:35:00.000Z,11.0,11.0,170,8.0,10+,1015.3,6,METAR,METAR KORS 230135Z AUTO 17008KT 10SM FEW013 OVC050 11/11 A2998 RMK AO2,48.7081,-122.9092,7,"Eastsound/Orcas Island Arpt, WA, US",OVC,"[{'cover': 'FEW', 'base': 1300}, {'cover': 'OVC', 'base': 5000}]",VFR,,,,,,,,ESD,Orcas Island Airport,United States of America,Eastsound,https://www.worlddata.info/america/usa/airports.php
1084,KOSC,2025-11-23 01:44:11.203000+00:00,1763861700,2025-11-23T01:35:00.000Z,4.0,-1.0,190,5.0,10+,1013.0,6,METAR,METAR KOSC 230135Z AUTO 19005KT 10SM OVC085 04/M01 A2991 RMK AO2,44.453,-83.396,191,"Wurtsmith, MI, US",OVC,"[{'cover': 'OVC', 'base': 8500}]",VFR,,,,,,,,OSC,Oscoda Wurtsmith Airport,United States of America,Oscoda,https://www.worlddata.info/america/usa/airports.php
1085,KOSH,2025-11-23 02:02:58.874000+00:00,1763862780,2025-11-23T02:00:00.000Z,3.3,-1.7,VRB,3.0,10+,1012.3,4,METAR,METAR KOSH 230153Z VRB03KT 10SM CLR 03/M02 A2989 RMK AO2 SLP136 T00331017,43.9669,-88.5582,239,"Oshkosh/Wittman Rgnl, WI, US",CLR,[],VFR,,1013.6,,,,,,OSH,Wittman Regional Airport,United States of America,Oshkosh,https://www.worlddata.info/america/usa/airports.php
1086,KOSU,2025-11-23 02:02:58.987000+00:00,1763862780,2025-11-23T02:00:00.000Z,3.3,0.6,190,3.0,10+,1017.7,4,METAR,METAR KOSU 230153Z 19003KT 10SM FEW100 03/01 A3005 RMK AO2 SLP182 T00330006,40.0784,-83.0782,276,"Columbus/Ohio State Univ Arpt, OH, US",FEW,"[{'cover': 'FEW', 'base': 10000}]",VFR,,1018.2,,,,,,OSU,The Ohio State University Airport - Don Scott Field,United States of America,Columbus,https://www.worlddata.info/america/usa/airports.php
1087,KOTH,2025-11-23 01:10:10.607000+00:00,1763860080,2025-11-23T01:08:00.000Z,11.0,9.0,40,4.0,10+,1021.4,12,SPECI,SPECI KOTH 230108Z 04004KT 10SM SCT024 11/09 A3016 RMK AO2 PNO $,43.4194,-124.2438,3,"North Bend/SW Oregon Rgnl, OR, US",SCT,"[{'cover': 'SCT', 'base': 2400}]",VFR,,,,,,,,OTH,Southwest Oregon Regional Airport,United States of America,North Bend,https://www.worlddata.info/america/usa/airports.php
1088,KOTM,2025-11-23 02:02:02.945000+00:00,1763862780,2025-11-23T02:00:00.000Z,9.4,5.6,260,7.0,10+,1018.4,6,METAR,METAR KOTM 230153Z AUTO 26007KT 10SM CLR 09/06 A3007 RMK AO2 SLP189 T00940056,41.1008,-92.4445,254,"Ottumwa Rgnl, IA, US",CLR,[],VFR,,1018.9,,,,,,OTM,Ottumwa Regional Airport,United States of America,Ottumwa,https://www.worlddata.info/america/usa/airports.php
1089,KOUN,2025-11-23 01:45:58.792000+00:00,1763862300,2025-11-23T02:00:00.000Z,8.0,6.0,40,4.0,10+,1022.4,0,METAR,METAR KOUN 230145Z 04004KT 10SM CLR 08/06 A3019,35.2436,-97.4713,359,"Norman/Univ Oklahoma Arpt, OK, US",CLR,[],VFR,,,,,,,,OUN,University of Oklahoma Westheimer Airport,United States of America,Norman,https://www.worlddata.info/america/usa/airports.php
1090,KOWA,2025-11-23 01:40:20.936000+00:00,1763861700,2025-11-23T01:35:00.000Z,5.7,2.1,280,11.0,10+,1016.3,6,METAR,METAR KOWA 230135Z AUTO 28011KT 10SM CLR 06/02 A3001 RMK AO2 T00570021,44.1191,-93.2569,345,"Owatonna/Degner Rgnl, MN, US",CLR,[],VFR,,,,,,,,OWA,Owatonna Degner Regional Airport,United States of America,Owatonna,https://www.worlddata.info/america/usa/airports.php
1091,KOWB,2025-11-23 01:54:13.891000+00:00,1763862720,2025-11-23T01:52:00.000Z,6.0,6.0,0,0.0,10+,1020.4,4,SPECI,SPECI KOWB 230152Z 00000KT 10SM SCT004 06/06 A3013 RMK AO2,37.7297,-87.1683,121,"Owensboro/Daviess Cnty, KY, US",SCT,"[{'cover': 'SCT', 'base': 400}]",VFR,,,,,,,,OWB,Owensboro Daviess County Airport,United States of America,Owensboro,https://www.worlddata.info/america/usa/airports.php
1092,KOWD,2025-11-23 02:02:59.134000+00:00,1763862780,2025-11-23T02:00:00.000Z,2.8,-3.9,330,4.0,10+,1015.3,6,METAR,METAR KOWD 230153Z AUTO 33004KT 10SM CLR 03/M04 A2998 RMK AO2 SLP153 T00281039,42.1912,-71.1732,14,"Norwood Mem, MA, US",CLR,[],VFR,,1015.3,,,,,,OWD,Norwood Memorial Airport,United States of America,Norwood,https://www.worlddata.info/america/usa/airports.php
1093,KOXB,2025-11-23 02:02:59.205000+00:00,1763862780,2025-11-23T02:00:00.000Z,7.2,6.7,230,3.0,0.5,1017.0,6,METAR,METAR KOXB 230153Z AUTO 23003KT 1/2SM FG VV003 07/07 A3003 RMK AO2 SLP170 T00720067,38.3091,-75.1234,2,"Ocean City Muni, MD, US",OVX,"[{'cover': 'OVX', 'base': 300}]",LIFR,FG,1017.0,,3.0,,,,OCE,Ocean City Municipal Airport,United States of America,Ocean City,https://www.worlddata.info/america/usa/airports.php
1094,KOXD,2025-11-23 01:40:09.758000+00:00,1763861520,2025-11-23T01:32:00.000Z,5.0,3.0,260,4.0,10+,1018.7,4,METAR,METAR KOXD 230132Z 26004KT 10SM CLR 05/03 A3008 RMK AO2,39.5047,-84.7838,317,"Oxford/Miami Univ Arpt, OH, US",CLR,[],VFR,,,,,,,,OXD,Miami University Airport,United States of America,Oxford,https://www.worlddata.info/america/usa/airports.php
1095,KOXR,2025-11-23 01:56:15.251000+00:00,1763862660,2025-11-23T02:00:00.000Z,17.2,8.3,310,8.0,10+,1014.3,4,METAR,METAR KOXR 230151Z 31008KT 10SM CLR 17/08 A2995 RMK AO2 SLP142 T01720083,34.2001,-119.2042,12,"Oxnard Arpt, CA, US",CLR,[],VFR,,1014.2,,,,,,OXR,Oxnard Airport,United States of America,Oxnard,https://www.worlddata.info/america/usa/airports.php
1096,KOYM,2025-11-23 01:42:24.469000+00:00,1763861700,2025-11-23T01:35:00.000Z,1.0,-1.0,0,0.0,10+,1017.0,134,METAR,METAR KOYM 230135Z AUTO 00000KT 10SM OVC110 01/M01 A3003 RMK AO2 PWINO,41.4118,-78.5131,582,"St Marys Muni, PA, US",OVC,"[{'cover': 'OVC', 'base': 11000}]",VFR,,,,,,,,STQ,St Marys Municipal Airport,United States of America,St Marys,https://www.worlddata.info/america/usa/airports.php
1097,KOZA,2025-11-23 01:46:05.673000+00:00,1763861700,2025-11-23T01:35:00.000Z,19.0,4.0,90,9.0,10+,1022.4,6,METAR,METAR KOZA 230135Z AUTO 09009KT 10SM BKN050 19/04 A3019 RMK AO2,30.7312,-101.2033,721,"Ozona Muni, TX, US",BKN,"[{'cover': 'BKN', 'base': 5000}]",VFR,,,,,,,,OZA,Ozona Municipal Airport,United States of America,Ozona,https://www.worlddata.info/america/usa/airports.php
1098,KOZR,2025-11-23 01:58:11.399000+00:00,1763862900,2025-11-23T02:00:00.000Z,20.5,17.3,240,4.0,10+,1017.4,14,METAR,METAR KOZR 230155Z AUTO 24004KT 10SM CLR 21/17 A3004 RMK AO2 SLP172 T02050173 $,31.2767,-85.7105,90,"Ozark/Cairns AAF, AL, US",CLR,[],VFR,,1017.2,,,,,,OZR,Cairns AAF (Fort Rucker) Air Field,United States of America,Fort Rucker/Ozark,https://www.worlddata.info/america/usa/airports.php
1099,KPAE,2025-11-23 02:02:02.969000+00:00,1763862780,2025-11-23T02:00:00.000Z,11.1,8.3,170,13.0,10+,1016.7,4,METAR,METAR KPAE 230153Z 17013KT 10SM OVC015 11/08 A3002 RMK AO2 SLP167 T01110083,47.9232,-122.2831,166,"Everett/Paine Fld, WA, US",OVC,"[{'cover': 'OVC', 'base': 1500}]",MVFR,,1016.7,,,,,,PAE,Seattle Paine Field International Airport,United States of America,Everett,https://www.worlddata.info/america/usa/airports.php
1100,KPAH,2025-11-23 02:02:02.992000+00:00,1763862780,2025-11-23T02:00:00.000Z,7.8,7.8,0,0.0,3,1020.7,12,METAR,METAR KPAH 230153Z 00000KT 3SM BR CLR 08/08 A3014 RMK AO2 SLP208 T00780078 $,37.0652,-88.7793,125,"Paducah/Barkley Rgnl, KY, US",CLR,[],MVFR,BR,1020.8,,,,,,PAH,Barkley Regional Airport,United States of America,Paducah,https://www.worlddata.info/america/usa/airports.php
1101,KPAN,2025-11-23 01:40:30.287000+00:00,1763861700,2025-11-23T01:35:00.000Z,7.0,7.0,VRB,3.0,7,1018.4,6,METAR,METAR KPAN 230135Z AUTO VRB03KT 7SM -DZ SCT002 BKN025 OVC033 07/07 A3007 RMK AO2 LTG DSNT SE AND S,34.2551,-111.3379,1575,"Payson Arpt, AZ, US",OVC,"[{'cover': 'SCT', 'base': 200}, {'cover': 'BKN', 'base': 2500}, {'cover': 'OVC', 'base': 3300}]",MVFR,-DZ,,,,,,,PJB,Payson Airport,United States of America,Payson,https://www.worlddata.info/america/usa/airports.php
1102,KPAO,2025-11-23 01:52:00.300000+00:00,1763862420,2025-11-23T02:00:00.000Z,13.0,10.0,300,3.0,10+,1017.7,0,METAR,METAR KPAO 230147Z 30003KT 10SM SKC 13/10 A3005,37.458,-122.112,2,"Palo Alto Arpt, CA, US",SKC,[],VFR,,,,,,,,PAO,Palo Alto Airport,United States of America,Palo Alto,https://www.worlddata.info/america/usa/airports.php
1103,KPBF,2025-11-23 02:02:03.014000+00:00,1763862780,2025-11-23T02:00:00.000Z,16.1,10.6,320,4.0,10+,1021.1,6,METAR,METAR KPBF 230153Z AUTO 32004KT 10SM OVC045 16/11 A3015 RMK AO2 SLP210 T01610106,34.1798,-91.9344,63,"Pine Bluff/Grider Fld, AR, US",OVC,"[{'cover': 'OVC', 'base': 4500}]",VFR,,1021.0,,,,,,PBF,"Pine Bluff Regional Airport, Grider Field",United States of America,Pine Bluff,https://www.worlddata.info/america/usa/airports.php
1104,KPBG,2025-11-23 02:02:03.040000+00:00,1763862780,2025-11-23T02:00:00.000Z,-3.3,-5.6,0,0.0,10+,1015.7,6,METAR,METAR KPBG 230153Z AUTO 00000KT 10SM CLR M03/M06 A2999 RMK AO2 SLP158 T10331056,44.6392,-73.4631,61,"Plattsburgh Intl, NY, US",CLR,[],VFR,,1015.8,,,,,,PBG,Plattsburgh International Airport,United States of America,Plattsburgh,https://www.worlddata.info/america/usa/airports.php
1105,KPBI,2025-11-23 02:02:03.073000+00:00,1763862780,2025-11-23T02:00:00.000Z,22.2,18.3,0,0.0,10+,1019.0,12,METAR,METAR KPBI 230153Z 00000KT 10SM FEW035 22/18 A3009 RMK AO2 SLP190 T02220183 $,26.6851,-80.0992,4,"Palm Beach Intl, FL, US",FEW,"[{'cover': 'FEW', 'base': 3500}]",VFR,,1019.0,,,,,,PBI,Palm Beach International Airport,United States of America,West Palm Beach,https://www.worlddata.info/america/usa/airports.php
1106,KPBX,2025-11-23 01:40:10.452000+00:00,1763861700,2025-11-23T01:35:00.000Z,11.1,9.5,0,0.0,10+,1018.7,6,METAR,METAR KPBX 230135Z AUTO 00000KT 10SM OVC026 11/10 A3008 RMK AO2 T01110095,37.5587,-82.5674,447,"Pikeville/Pike Cnty, KY, US",OVC,"[{'cover': 'OVC', 'base': 2600}]",MVFR,,,,,,,,PVL,Pike County Airport Hatcher Field,United States of America,Pikeville,https://www.worlddata.info/america/usa/airports.php
1107,KPDC,2025-11-23 01:38:28.513000+00:00,1763861700,2025-11-23T01:35:00.000Z,7.1,5.3,330,3.0,10+,1015.7,6,METAR,METAR KPDC 230135Z AUTO 33003KT 10SM CLR 07/05 A2999 RMK AO2 T00710053,43.0194,-91.1212,201,"Prairie Du Chien Muni, WI, US",CLR,[],VFR,,,,,,,,PCD,Prairie Du Chien Municipal Airport,United States of America,Prairie Du Chien,https://www.worlddata.info/america/usa/airports.php
1108,KPDK,2025-11-23 02:02:03.106000+00:00,1763862780,2025-11-23T02:00:00.000Z,18.9,12.8,290,4.0,10+,1017.0,4,METAR,METAR KPDK 230153Z 29004KT 10SM CLR 19/13 A3003 RMK AO2 SLP157 T01890128,33.8783,-84.298,299,"Atlanta/Dekalb-Peachtree Arpt, GA, US",CLR,[],VFR,,1015.7,,,,,,PDK,DeKalb Peachtree Airport,United States of America,Atlanta,https://www.worlddata.info/america/usa/airports.php
1109,KPDT,2025-11-23 02:02:03.132000+00:00,1763862780,2025-11-23T02:00:00.000Z,5.6,1.1,160,5.0,10+,1018.7,4,METAR,METAR KPDT 230153Z 16005KT 10SM CLR 06/01 A3008 RMK AO2 SLP190 T00560011,45.6975,-118.8345,453,"Pendleton/E Oregon Rgnl, OR, US",CLR,[],VFR,,1019.0,,,,,,PDT,Eastern Oregon Regional Airport at Pendleton,United States of America,Pendleton,https://www.worlddata.info/america/usa/airports.php
1110,KPDX,2025-11-23 02:02:03.155000+00:00,1763862780,2025-11-23T02:00:00.000Z,6.1,4.4,170,4.0,10+,1021.4,12,METAR,METAR KPDX 230153Z 17004KT 10SM SCT009 BKN045 OVC170 06/04 A3016 RMK AO2 SLP214 T00610044 $,45.5958,-122.6092,7,"Portland Intl, OR, US",OVC,"[{'cover': 'SCT', 'base': 900}, {'cover': 'BKN', 'base': 4500}, {'cover': 'OVC', 'base': 17000}]",VFR,,1021.4,,,,,,PDX,Portland International Airport,United States of America,Portland,https://www.worlddata.info/america/usa/airports.php
1111,KPEQ,2025-11-23 01:46:05.717000+00:00,1763861700,2025-11-23T01:35:00.000Z,16.5,1.7,10,3.0,10+,1021.1,134,METAR,METAR KPEQ 230135Z AUTO 01003KT 10SM CLR 17/02 A3015 RMK AO2 T01650017 PWINO,31.382,-103.5117,794,"Pecos Muni, TX, US",CLR,[],VFR,,,,,,,,PEQ,Pecos Municipal Airport,United States of America,Pecos,https://www.worlddata.info/america/usa/airports.php
1112,KPGA,2025-11-23 02:02:01.351000+00:00,1763862780,2025-11-23T02:00:00.000Z,11.1,4.4,350,3.0,10+,1019.0,6,METAR,METAR KPGA 230153Z AUTO 35003KT 10SM CLR 11/04 A3009 RMK AO2 SLP169 T01110044,36.9211,-111.4487,1310,"Page Muni, AZ, US",CLR,[],VFR,,1016.9,,,,,,PGA,Page Municipal Airport,United States of America,Page,https://www.worlddata.info/america/usa/airports.php
1113,KPGD,2025-11-23 02:02:01.387000+00:00,1763862780,2025-11-23T02:00:00.000Z,20.0,16.7,320,5.0,10+,1019.7,6,METAR,METAR KPGD 230153Z AUTO 32005KT 10SM CLR 20/17 A3011 RMK AO2 SLP196 T02000167,26.9185,-81.9939,7,"Punta Gorda Arpt, FL, US",CLR,[],VFR,,1019.6,,,,,,PGD,Punta Gorda Airport,United States of America,Punta Gorda,https://www.worlddata.info/america/usa/airports.php
1114,KPGV,2025-11-23 01:40:12.262000+00:00,1763861700,2025-11-23T01:35:00.000Z,16.0,16.0,30,6.0,10+,1015.0,6,METAR,METAR KPGV 230135Z AUTO 03006KT 10SM CLR 16/16 A2997 RMK AO2,35.6374,-77.3851,6,"Greenville/Pitt Arpt, NC, US",CLR,[],VFR,,,,,,,,PGV,Pitt-Greenville Airport,United States of America,Greenville,https://www.worlddata.info/america/usa/airports.php
1115,KPHD,2025-11-23 02:02:01.433000+00:00,1763862780,2025-11-23T02:00:00.000Z,0.6,-1.1,0,0.0,10+,1018.0,6,METAR,METAR KPHD 230153Z AUTO 00000KT 10SM CLR 01/M01 A3006 RMK AO2 SLP185 T00061011,40.4703,-81.4218,272,"New Philadelphia/Clever Fld, OH, US",CLR,[],VFR,,1018.5,,,,,,PHD,Harry Clever Field,United States of America,New Philadelphia,https://www.worlddata.info/america/usa/airports.php
1116,KPHF,2025-11-23 02:02:06.333000+00:00,1763862840,2025-11-23T02:00:00.000Z,10.0,8.9,0,0.0,6,1017.0,4,METAR,METAR KPHF 230154Z 00000KT 6SM BR OVC060 10/09 A3003 RMK AO2 SLP168 T01000089,37.1322,-76.494,12,"Newport News/Williamsburg Intl, VA, US",OVC,"[{'cover': 'OVC', 'base': 6000}]",VFR,BR,1016.8,,,,,,PHF,Newport News Williamsburg International Airport,United States of America,Newport News,https://www.worlddata.info/america/usa/airports.php
1117,KPHL,2025-11-23 02:02:06.991000+00:00,1763862840,2025-11-23T02:00:00.000Z,6.7,0.6,360,6.0,10+,1017.0,12,METAR,METAR KPHL 230154Z 36006KT 10SM SCT250 07/01 A3003 RMK AO2 SLP169 T00670006 $,39.8733,-75.2268,2,"Philadelphia Intl, PA, US",SCT,"[{'cover': 'SCT', 'base': 25000}]",VFR,,1016.9,,,,,,PHL,Philadelphia International Airport,United States of America,Philadelphia,https://www.worlddata.info/america/usa/airports.php
1118,KPHN,2025-11-23 01:40:22.574000+00:00,1763861760,2025-11-23T01:36:00.000Z,4.0,-2.0,0,0.0,10+,1016.0,6,METAR,METAR KPHN 230136Z AUTO 00000KT 10SM BKN070 OVC080 04/M02 A3000 RMK AO2,42.9103,-82.5332,195,"Port Huron/St Clair Cnty, MI, US",OVC,"[{'cover': 'BKN', 'base': 7000}, {'cover': 'OVC', 'base': 8000}]",VFR,,,,,,,,PHN,St Clair County International Airport,United States of America,Port Huron,https://www.worlddata.info/america/usa/airports.php
1119,KPHT,2025-11-23 01:46:07.182000+00:00,1763861700,2025-11-23T01:35:00.000Z,12.0,12.0,350,5.0,10+,1020.1,6,METAR,METAR KPHT 230135Z AUTO 35005KT 10SM OVC008 12/12 A3012 RMK A01,36.3322,-88.3871,172,"Paris/Henry Cnty, TN, US",OVC,"[{'cover': 'OVC', 'base': 800}]",IFR,,,,,,,,PHT,Henry County Airport,United States of America,Paris,https://www.worlddata.info/america/usa/airports.php
1120,KPHX,2025-11-23 01:56:13.176000+00:00,1763862660,2025-11-23T02:00:00.000Z,15.6,11.7,20,4.0,10+,1013.0,12,METAR,METAR KPHX 230151Z 02004KT 10SM SCT070 BKN100 OVC160 16/12 A2991 RMK AO2 SLP119 T01560117 $,33.4278,-112.0037,338,"Phoenix/Sky Harbor Intl, AZ, US",OVC,"[{'cover': 'SCT', 'base': 7000}, {'cover': 'BKN', 'base': 10000}, {'cover': 'OVC', 'base': 16000}]",VFR,,1011.9,,,,,,PHX,Phoenix Sky Harbor International Airport,United States of America,Phoenix,https://www.worlddata.info/america/usa/airports.php
1121,KPIA,2025-11-23 02:02:07.245000+00:00,1763862840,2025-11-23T02:00:00.000Z,7.2,5.0,240,7.0,9,1018.4,12,METAR,METAR KPIA 230154Z 24007KT 9SM CLR 07/05 A3007 RMK AO2 SLP188 T00720050 $,40.6675,-89.6842,200,"Peoria Intl, IL, US",CLR,[],VFR,,1018.8,,,,,,PIA,General Wayne A. Downing Peoria International Airport,United States of America,Peoria,https://www.worlddata.info/america/usa/airports.php
1122,KPIE,2025-11-23 02:02:01.458000+00:00,1763862780,2025-11-23T02:00:00.000Z,20.0,18.3,300,3.0,10+,1019.7,4,METAR,METAR KPIE 230153Z 30003KT 10SM CLR 20/18 A3011 RMK AO2 SLP194 T02000183,27.9126,-82.6856,1,"St Petersburg-Clearwater Intl, FL, US",CLR,[],VFR,,1019.4,,,,,,PIE,St. Petersburg Clearwater International Airport,United States of America,Pinellas Park,https://www.worlddata.info/america/usa/airports.php
1123,KPIH,2025-11-23 02:02:01.479000+00:00,1763862780,2025-11-23T02:00:00.000Z,2.2,0.6,90,8.0,10+,1023.5,4,METAR,METAR KPIH 230153Z 09008KT 10SM CLR 02/01 A3022 RMK AO2 SLP243 T00220006,42.9197,-112.5723,1357,"Pocatello Rgnl, ID, US",CLR,[],VFR,,1024.3,,,,,,PIH,Pocatello Regional Airport,United States of America,Pocatello,https://www.worlddata.info/america/usa/airports.php
1124,KPIM,2025-11-23 01:42:34.556000+00:00,1763861700,2025-11-23T01:35:00.000Z,21.0,21.0,250,7.0,9,1017.7,6,METAR,METAR KPIM 230135Z AUTO 25007KT 9SM -RA FEW039 BKN047 OVC075 21/21 A3005 RMK AO2,32.8421,-84.8766,274,"Pine Mountain/Harris Cnty, GA, US",OVC,"[{'cover': 'FEW', 'base': 3900}, {'cover': 'BKN', 'base': 4700}, {'cover': 'OVC', 'base': 7500}]",VFR,-RA,,,,,,,PIM,Harris County Airport,United States of America,Pine Mountain,https://www.worlddata.info/america/usa/airports.php
1125,KPIR,2025-11-23 02:02:01.543000+00:00,1763862780,2025-11-23T02:00:00.000Z,6.7,0.0,190,4.0,10+,1019.4,14,METAR,METAR KPIR 230153Z AUTO 19004KT 10SM CLR 07/00 A3010 RMK AO2 SLP201 T00670000 $,44.3819,-100.2864,524,"Pierre Muni, SD, US",CLR,[],VFR,,1020.1,,,,,,PIR,Pierre Regional Airport,United States of America,Pierre,https://www.worlddata.info/america/usa/airports.php
1126,KPIT,2025-11-23 01:56:13.302000+00:00,1763862660,2025-11-23T02:00:00.000Z,2.8,-0.6,0,0.0,10+,1017.0,12,METAR,METAR KPIT 230151Z 00000KT 10SM FEW080 SCT250 03/M01 A3003 RMK AO2 SLP185 T00281006 $,40.4814,-80.2083,339,"Pittsburgh Intl, PA, US",SCT,"[{'cover': 'FEW', 'base': 8000}, {'cover': 'SCT', 'base': 25000}]",VFR,,1018.5,,,,,,PIT,Pittsburgh International Airport,United States of America,Pittsburgh,https://www.worlddata.info/america/usa/airports.php
1127,KPKB,2025-11-23 02:02:59.286000+00:00,1763862780,2025-11-23T02:00:00.000Z,2.8,1.7,0,0.0,10+,1018.4,4,METAR,METAR KPKB 230153Z 00000KT 10SM CLR 03/02 A3007 RMK AO2 SLP187 T00280017,39.3395,-81.4438,245,"Parkersburg/Mid Ohio Valley Rgnl, WV, US",CLR,[],VFR,,1018.7,,,,,,PKB,Mid Ohio Valley Regional Airport,United States of America,Parkersburg (Williamstown),https://www.worlddata.info/america/usa/airports.php
1128,KPKD,2025-11-23 02:02:01.576000+00:00,1763862780,2025-11-23T02:00:00.000Z,0.0,-2.8,270,4.0,10+,1015.3,6,METAR,METAR KPKD 230153Z AUTO 27004KT 10SM CLR 00/M03 A2998 RMK AO2 SLP170 T00001028,46.8971,-95.0695,439,"Park Rapids/Konshok Fld, MN, US",CLR,[],VFR,,1017.0,,,,,,PKD,Park Rapids Municipal Airport Konshok Field,United States of America,Park Rapids,https://www.worlddata.info/america/usa/airports.php
1129,KPLN,2025-11-23 02:02:07.433000+00:00,1763862840,2025-11-23T02:00:00.000Z,3.9,-3.3,180,6.0,10+,1009.9,6,METAR,METAR KPLN 230154Z AUTO 18006KT 10SM OVC027 04/M03 A2982 RMK AO2 SLP105 T00391033,45.5644,-84.7929,215,"Pellston Rgnl, MI, US",OVC,"[{'cover': 'OVC', 'base': 2700}]",MVFR,,1010.5,,,,,,PLN,Pellston Regional Airport of Emmet County Airport,United States of America,Pellston,https://www.worlddata.info/america/usa/airports.php
1130,KPLR,2025-11-23 01:38:16.638000+00:00,1763861700,2025-11-23T01:35:00.000Z,15.0,15.0,0,0.0,10+,1017.4,6,METAR,METAR KPLR 230135Z AUTO 00000KT 10SM FEW047 FEW055 15/15 A3004 RMK A01,33.5608,-86.2463,145,"Pell City/St Clair Cnty, AL, US",FEW,"[{'cover': 'FEW', 'base': 4700}, {'cover': 'FEW', 'base': 5500}]",VFR,,,,,,,,PLR,St Clair County Airport,United States of America,Pell City,https://www.worlddata.info/america/usa/airports.php
1131,KPMD,2025-11-23 02:02:01.603000+00:00,1763862780,2025-11-23T02:00:00.000Z,11.7,7.2,120,3.0,10+,1017.4,4,METAR,METAR KPMD 230153Z 12003KT 10SM OVC070 12/07 A3004 RMK AO2 SLP167 T01170072,34.6294,-118.0831,764,"Palmdale Rgnl, CA, US",OVC,"[{'cover': 'OVC', 'base': 7000}]",VFR,,1016.7,,,,,,PMD,Palmdale Regional Airport / USAF Plant 42 Airport,United States of America,Palmdale,https://www.worlddata.info/america/usa/airports.php
1132,KPMH,2025-11-23 01:46:07.216000+00:00,1763862060,2025-11-23T01:41:00.000Z,4.0,4.0,320,2.0,5,1019.0,4,METAR,METAR KPMH 230141Z 32002KT 5SM CLR 04/04 A3009 RMK AO2,38.8387,-82.8494,200,"Portsmouth Rgnl, OH, US",CLR,[],MVFR,,,,,,,,PMH,Greater Portsmouth Regional Airport,United States of America,Portsmouth,https://www.worlddata.info/america/usa/airports.php
1133,KPMP,2025-11-23 02:02:01.637000+00:00,1763862780,2025-11-23T02:00:00.000Z,,,140,4.0,10+,1019.0,14,METAR,METAR KPMP 230153Z AUTO 14004KT 10SM CLR A3009 RMK AO2 SLP192 $,26.2464,-80.111,4,"Pompano Beach Arpt, FL, US",CLR,[],VFR,,1019.2,,,,,,PPM,Pompano Beach Airpark,United States of America,Pompano Beach,https://www.worlddata.info/america/usa/airports.php
1134,KPNA,2025-11-23 01:46:05.767000+00:00,1763861700,2025-11-23T01:35:00.000Z,0.0,-5.0,0,0.0,10+,1024.1,6,METAR,METAR KPNA 230135Z AUTO 00000KT 10SM CLR 00/M05 A3024 RMK AO2,42.7929,-109.8051,2158,"Pinedale/Wentz Fld, WY, US",CLR,[],VFR,,,,,,,,PWY,Ralph Wenz Field,United States of America,Pinedale,https://www.worlddata.info/america/usa/airports.php
1135,KPNE,2025-11-23 01:58:07.892000+00:00,1763862840,2025-11-23T02:00:00.000Z,3.3,-0.6,360,4.0,10+,1017.4,12,METAR,METAR KPNE 230154Z 36004KT 10SM CLR 03/M01 A3004 RMK AO2 SLP172 T00331006 $,40.0789,-75.0133,32,"Philadelphia/NE Arpt, PA, US",CLR,[],VFR,,1017.2,,,,,,PNE,Northeast Philadelphia Airport,United States of America,Philadelphia,https://www.worlddata.info/america/usa/airports.php
1136,KPNS,2025-11-23 02:02:01.669000+00:00,1763862780,2025-11-23T02:00:00.000Z,21.7,20.6,250,5.0,10+,1018.7,4,METAR,METAR KPNS 230153Z 25005KT 10SM CLR 22/21 A3008 RMK AO2 SLP186 T02170206,30.478,-87.1869,34,"Pensacola Intl, FL, US",CLR,[],VFR,,1018.6,,,,,,PNS,Pensacola International Airport,United States of America,Pensacola,https://www.worlddata.info/america/usa/airports.php
1137,KPOB,2025-11-23 01:58:11.653000+00:00,1763862900,2025-11-23T02:00:00.000Z,16.5,16.0,0,0.0,10+,1013.6,14,METAR,METAR KPOB 230155Z AUTO 00000KT 10SM FEW060 BKN080 17/16 A2993 RMK AO2 SLP137 T01650160 $,35.175,-79.008,57,"Pope AAF, NC, US",BKN,"[{'cover': 'FEW', 'base': 6000}, {'cover': 'BKN', 'base': 8000}]",VFR,,1013.7,,,,,,POB,Pope Field,United States of America,Fort Bragg,https://www.worlddata.info/america/usa/airports.php
1138,KPOC,2025-11-23 01:53:40.896000+00:00,1763862420,2025-11-23T02:00:00.000Z,19.0,6.0,310,3.0,10+,1013.6,0,METAR,METAR KPOC 230147Z 31003KT 10SM BKN090 19/06 A2993,34.0928,-117.7795,304,"La Verne/Brackett Fld, CA, US",BKN,"[{'cover': 'BKN', 'base': 9000}]",VFR,,,,,,,,POC,Brackett Field,United States of America,La Verne,https://www.worlddata.info/america/usa/airports.php
1139,KPOE,2025-11-23 01:58:03.910000+00:00,1763862900,2025-11-23T02:00:00.000Z,15.6,13.4,0,0.0,10+,1020.1,6,METAR,METAR KPOE 230155Z AUTO 00000KT 10SM CLR 16/13 A3012 RMK AO2 SLP201 T01560134,31.047,-93.194,98,"Fort Polk AAF, LA, US",CLR,[],VFR,,1020.1,,,,,,POE,Polk Army Air Field,United States of America,Fort Polk,https://www.worlddata.info/america/usa/airports.php
1140,KPOF,2025-11-23 02:02:01.702000+00:00,1763862780,2025-11-23T02:00:00.000Z,11.1,8.9,350,7.0,10+,1021.4,6,METAR,METAR KPOF 230153Z AUTO 35007KT 10SM OVC011 11/09 A3016 RMK AO2 SLP214 T01110089,36.7697,-90.3224,99,"Poplar Bluff Muni, MO, US",OVC,"[{'cover': 'OVC', 'base': 1100}]",MVFR,,1021.4,,,,,,POF,Poplar Bluff Municipal Airport,United States of America,Poplar Bluff,https://www.worlddata.info/america/usa/airports.php
1141,KPOU,2025-11-23 02:02:01.727000+00:00,1763862780,2025-11-23T02:00:00.000Z,-1.1,-2.2,0,0.0,10+,1016.7,6,METAR,METAR KPOU 230153Z AUTO 00000KT 10SM CLR M01/M02 A3002 RMK AO2 SLP164 T10111022,41.6257,-73.8816,45,"Poughkeepsie/Hudson Valley Rgnl, NY, US",CLR,[],VFR,,1016.4,,,,,,POU,Dutchess County Airport,United States of America,Poughkeepsie,https://www.worlddata.info/america/usa/airports.php
1142,KPOY,2025-11-23 01:46:05.820000+00:00,1763861700,2025-11-23T01:35:00.000Z,5.0,-6.0,140,7.0,10+,1018.4,6,METAR,METAR KPOY 230135Z AUTO 14007KT 10SM CLR 05/M06 A3007 RMK AO2,44.8641,-108.79,1547,"Powell Muni, WY, US",CLR,[],VFR,,,,,,,,POY,Powell Municipal Airport,United States of America,Powell,https://www.worlddata.info/america/usa/airports.php
1143,KPPA,2025-11-23 01:42:34.789000+00:00,1763861700,2025-11-23T01:35:00.000Z,8.5,5.9,180,6.0,10+,1023.5,6,METAR,METAR KPPA 230135Z AUTO 18006KT 10SM CLR 09/06 A3022 RMK AO2 T00850059,35.6139,-100.9972,989,"Pampa/Lefors Fld, TX, US",CLR,[],VFR,,,,,,,,PPA,Perry Lefors Field,United States of America,Pampa,https://www.worlddata.info/america/usa/airports.php
1144,KPPF,2025-11-23 02:02:19.511000+00:00,1763862720,2025-11-23T02:00:00.000Z,8.9,7.2,230,3.0,10+,1023.1,134,METAR,METAR KPPF 230152Z AUTO 23003KT 10SM OVC008 09/07 A3021 RMK AO2 SLP232 T00890072 PWINO,37.3281,-95.5045,265,"Parsons/Tri City Arpt, KS, US",OVC,"[{'cover': 'OVC', 'base': 800}]",IFR,,1023.2,,,,,,PPF,Tri-City Airport,United States of America,Parsons,https://www.worlddata.info/america/usa/airports.php
1145,KPPO,2025-11-23 01:42:34.855000+00:00,1763861700,2025-11-23T01:35:00.000Z,7.0,5.0,220,10.0,10+,1015.7,6,METAR,METAR KPPO 230135Z AUTO 22010KT 10SM SCT070 OVC080 07/05 A2999 RMK AO2,41.5705,-86.7333,242,"La Porte Muni, IN, US",OVC,"[{'cover': 'SCT', 'base': 7000}, {'cover': 'OVC', 'base': 8000}]",VFR,,,,,,,,LPO,La Porte Municipal Airport,United States of America,La Porte,https://www.worlddata.info/america/usa/airports.php
1146,KPQL,2025-11-23 02:02:01.762000+00:00,1763862780,2025-11-23T02:00:00.000Z,21.1,20.0,0,0.0,10+,1018.7,14,METAR,METAR KPQL 230153Z AUTO 00000KT 10SM FEW036 21/20 A3008 RMK AO2 SLP186 T02110200 $,30.463,-88.5316,4,"Pascagoula/Lott Intl, MS, US",FEW,"[{'cover': 'FEW', 'base': 3600}]",VFR,,1018.6,,,,,,PGL,Trent Lott International Airport,United States of America,Pascagoula,https://www.worlddata.info/america/usa/airports.php
1147,KPRB,2025-11-23 02:02:01.794000+00:00,1763862780,2025-11-23T02:00:00.000Z,12.2,8.9,150,5.0,10+,1018.0,6,METAR,METAR KPRB 230153Z AUTO 15005KT 10SM CLR 12/09 A3006 RMK AO2 SLP180 T01220089,35.6694,-120.6292,249,"Paso Robles Muni, CA, US",CLR,[],VFR,,1018.0,,,,,,PRB,Paso Robles Municipal Airport,United States of America,Paso Robles,https://www.worlddata.info/america/usa/airports.php
1148,KPRC,2025-11-23 02:02:01.817000+00:00,1763862780,2025-11-23T02:00:00.000Z,6.7,5.6,130,13.0,3,1018.7,4,METAR,METAR KPRC 230153Z 13013G19KT 3SM RA BR FEW009 SCT016 OVC037 07/06 A3008 RMK AO2 PK WND 14031/0056 SLP160 P0014 T00670056,34.6491,-112.4223,1528,"Prescott/Love Fld, AZ, US",OVC,"[{'cover': 'FEW', 'base': 900}, {'cover': 'SCT', 'base': 1600}, {'cover': 'OVC', 'base': 3700}]",MVFR,RA BR,1016.0,0.14,,,19.0,,PRC,Prescott International Airport - Ernest A. Love Field,United States of America,Prescott,https://www.worlddata.info/america/usa/airports.php
1149,KPRO,2025-11-23 01:44:11.646000+00:00,1763861700,2025-11-23T01:35:00.000Z,6.8,5.5,300,8.0,10+,1018.4,6,METAR,METAR KPRO 230135Z AUTO 30008KT 10SM CLR 07/05 A3007 RMK AO2 T00680055,41.8278,-94.1637,308,"Perry Muni, IA, US",CLR,[],VFR,,,,,,,,PRO,Perry Municipal Airport,United States of America,Perry,https://www.worlddata.info/america/usa/airports.php
1150,KPSC,2025-11-23 02:02:01.840000+00:00,1763862780,2025-11-23T02:00:00.000Z,4.4,3.3,0,0.0,8,1019.7,4,METAR,METAR KPSC 230153Z 00000KT 8SM OVC006 04/03 A3011 RMK AO2 SLP200 T00440033,46.2695,-119.1182,121,"Pasco/Tri Cities Arpt, WA, US",OVC,"[{'cover': 'OVC', 'base': 600}]",IFR,,1020.0,,,,,,PSC,Tri Cities Airport,United States of America,Pasco,https://www.worlddata.info/america/usa/airports.php
1151,KPSF,2025-11-23 02:02:07.678000+00:00,1763862840,2025-11-23T02:00:00.000Z,-1.1,-7.8,240,3.0,10+,1015.0,6,METAR,METAR KPSF 230154Z AUTO 24003KT 10SM CLR M01/M08 A2997 RMK AO2 SLP155 T10111078,42.4269,-73.2891,352,"Pittsfield Muni, MA, US",CLR,[],VFR,,1015.5,,,,,,PSF,Pittsfield Municipal Airport,United States of America,Pittsfield,https://www.worlddata.info/america/usa/airports.php
1152,KPSK,2025-11-23 01:38:16.693000+00:00,1763861700,2025-11-23T01:35:00.000Z,12.0,7.8,280,4.0,10+,1017.0,6,METAR,METAR KPSK 230135Z AUTO 28004KT 10SM OVC026 12/08 A3003 RMK AO2 T01200078,37.1337,-80.6789,629,"Dublin/New River Valley Arpt, VA, US",OVC,"[{'cover': 'OVC', 'base': 2600}]",MVFR,,,,,,,,PSK,New River Valley Airport,United States of America,Dublin,https://www.worlddata.info/america/usa/airports.php
1153,KPSM,2025-11-23 02:01:12.433000+00:00,1763862900,2025-11-23T02:00:00.000Z,2.4,-7.5,280,4.0,10+,1014.0,4,METAR,METAR KPSM 230155Z 28004KT 10SM CLR 02/M07 A2994 RMK AO2A SLP142 T00241075,43.0677,-70.8127,34,"Portsmouth Intl, NH, US",CLR,[],VFR,,1014.2,,,,,,PSM,Portsmouth International at Pease Airport,United States of America,Portsmouth,https://www.worlddata.info/america/usa/airports.php
1154,KPSN,2025-11-23 01:44:09.658000+00:00,1763861700,2025-11-23T01:35:00.000Z,13.0,11.0,360,6.0,10+,1022.1,6,METAR,METAR KPSN 230135Z AUTO 36006KT 10SM CLR 13/11 A3018 RMK AO2,31.7784,-95.7048,124,"Palestine Muni, TX, US",CLR,[],VFR,,,,,,,,PSN,Palestine Municipal Airport,United States of America,Palestine,https://www.worlddata.info/america/usa/airports.php
1155,KPSO,2025-11-23 01:42:35.314000+00:00,1763861700,2025-11-23T01:35:00.000Z,2.0,-3.0,10,2.0,10+,1025.1,6,METAR,METAR KPSO 230135Z AUTO 01002KT 10SM FEW120 02/M03 A3027 RMK AO2,37.291,-107.0557,2332,"Pagosa Springs/Stevens Fld, CO, US",FEW,"[{'cover': 'FEW', 'base': 12000}]",VFR,,,,,,,,PGO,Stevens Field,United States of America,Pagosa Springs,https://www.worlddata.info/america/usa/airports.php
1156,KPSP,2025-11-23 02:02:01.868000+00:00,1763862780,2025-11-23T02:00:00.000Z,18.3,7.8,250,4.0,10+,1013.3,12,METAR,METAR KPSP 230153Z 25004KT 10SM CLR 18/08 A2992 RMK AO2 SLP119 T01830078 $,33.8222,-116.5043,123,"Palm Springs Intl, CA, US",CLR,[],VFR,,1011.9,,,,,,PSP,Palm Springs International Airport,United States of America,Palm Springs,https://www.worlddata.info/america/usa/airports.php
1157,KPSX,2025-11-23 02:02:01.897000+00:00,1763862780,2025-11-23T02:00:00.000Z,22.8,21.1,50,5.0,7,1020.1,14,METAR,METAR KPSX 230153Z AUTO 05005KT 7SM SCT030 23/21 A3012 RMK AO2 SLP197 T02280211 $,28.7248,-96.2535,4,"Palacios Muni, TX, US",SCT,"[{'cover': 'SCT', 'base': 3000}]",VFR,,1019.7,,,,,,PSX,Palacios Municipal Airport,United States of America,Palacios,https://www.worlddata.info/america/usa/airports.php
1158,KPTB,2025-11-23 01:50:37.436000+00:00,1763862900,2025-11-23T02:00:00.000Z,8.8,8.1,0,0.0,1.25,1017.0,6,METAR,METAR KPTB 230155Z AUTO 00000KT 1 1/4SM BR BKN048 BKN070 09/08 A3003 RMK AO2 T00880081,37.1803,-77.5081,56,"Petersburg/Dinwiddie Cnty, VA, US",BKN,"[{'cover': 'BKN', 'base': 4800}, {'cover': 'BKN', 'base': 7000}]",IFR,BR,,,,,,,PTB,Dinwiddie County Airport,United States of America,Petersburg,https://www.worlddata.info/america/usa/airports.php
1159,KPTK,2025-11-23 02:02:01.921000+00:00,1763862780,2025-11-23T02:00:00.000Z,4.4,-2.2,180,5.0,10+,1014.6,4,METAR,METAR KPTK 230153Z 18005KT 10SM BKN060 OVC090 04/M02 A2996 RMK AO2 RAB04E18 SLP154 P0000 T00441022,42.6632,-83.41,295,"Pontiac/Oakland Intl, MI, US",OVC,"[{'cover': 'BKN', 'base': 6000}, {'cover': 'OVC', 'base': 9000}]",VFR,,1015.4,0.005,,,,,PTK,Oakland County International Airport,United States of America,Pontiac,https://www.worlddata.info/america/usa/airports.php
1160,KPTN,2025-11-23 01:36:08.123000+00:00,1763861580,2025-11-23T01:33:00.000Z,22.0,22.0,250,3.0,10+,1019.7,14,SPECI,SPECI KPTN 230133Z AUTO 25003KT 10SM BKN005 22/22 A3011 RMK AO2 $,29.71,-91.3381,2,"Patterson/Williams Mem, LA, US",BKN,"[{'cover': 'BKN', 'base': 500}]",IFR,,,,,,,,PTN,Harry P Williams Memorial Airport,United States of America,Patterson,https://www.worlddata.info/america/usa/airports.php
1161,KPTT,2025-11-23 01:40:13.047000+00:00,1763861700,2025-11-23T01:35:00.000Z,9.6,6.7,180,3.0,10+,1022.4,6,METAR,METAR KPTT 230135Z AUTO 18003KT 10SM CLR 10/07 A3019 RMK AO2 T00960067,37.7069,-98.7453,594,"Pratt Rgnl, KS, US",CLR,[],VFR,,,,,,,,PTT,Pratt Regional Airport,United States of America,Pratt,https://www.worlddata.info/america/usa/airports.php
1162,KPTW,2025-11-23 02:02:07.824000+00:00,1763862840,2025-11-23T02:00:00.000Z,2.2,-1.1,0,0.0,10+,1017.4,14,METAR,METAR KPTW 230154Z AUTO 00000KT 10SM CLR 02/M01 A3004 RMK AO2 SLP172 T00221011 PNO $,40.238,-75.5549,88,"Pottstown/Heritage Fld, PA, US",CLR,[],VFR,,1017.2,,,,,,PTW,Heritage Field,United States of America,Pottstown,https://www.worlddata.info/america/usa/airports.php
1163,KPUB,2025-11-23 02:02:59.357000+00:00,1763862780,2025-11-23T02:00:00.000Z,7.2,-0.6,70,6.0,10+,1023.1,12,METAR,METAR KPUB 230153Z 07006KT 10SM CLR 07/M01 A3021 RMK AO2 SLP229 T00721006 $,38.2887,-104.5057,1441,"Pueblo Mem Arpt, CO, US",CLR,[],VFR,,1022.9,,,,,,PUB,Pueblo Memorial Airport,United States of America,Pueblo,https://www.worlddata.info/america/usa/airports.php
1164,KPUC,2025-11-23 02:02:01.950000+00:00,1763862780,2025-11-23T02:00:00.000Z,3.9,0.6,20,7.0,10+,1022.8,6,METAR,METAR KPUC 230153Z AUTO 02007KT 10SM CLR 04/01 A3020 RMK AO2 SLP254 T00390006,39.6089,-110.7555,1777,"Price/Buck Fld, UT, US",CLR,[],VFR,,1025.4,,,,,,PUC,Carbon County Regional Airport / Buck Davis Field,United States of America,Price,https://www.worlddata.info/america/usa/airports.php
1165,KPUW,2025-11-23 02:02:01.972000+00:00,1763862780,2025-11-23T02:00:00.000Z,7.2,2.8,120,9.0,10+,1018.7,6,METAR,METAR KPUW 230153Z AUTO 12009KT 10SM CLR 07/03 A3008 RMK AO2 SLP200 T00720028,46.7438,-117.1158,774,"Pullman/Moscow Rgnl, WA, US",CLR,[],VFR,,1020.0,,,,,,PUW,Pullman-Moscow Regional Airport,United States of America,Pullman,https://www.worlddata.info/america/usa/airports.php
1166,KPVD,2025-11-23 01:54:13.410000+00:00,1763862660,2025-11-23T02:00:00.000Z,3.9,-3.3,350,5.0,10+,1015.3,12,METAR,METAR KPVD 230151Z 35005KT 10SM CLR 04/M03 A2998 RMK AO2 SLP152 T00391033 $,41.7225,-71.4325,15,"Providence/Green Mem, RI, US",CLR,[],VFR,,1015.2,,,,,,PVD,Theodore Francis Green State Airport,United States of America,Warwick,https://www.worlddata.info/america/usa/airports.php
1167,KPVF,2025-11-23 01:44:10.307000+00:00,1763861700,2025-11-23T01:35:00.000Z,9.0,8.0,0,0.0,10+,1018.4,6,METAR,METAR KPVF 230135Z AUTO 00000KT 10SM CLR 09/08 A3007 RMK AO1,38.7222,-120.757,788,"Placerville Arpt, CA, US",CLR,[],VFR,,,,,,,,PVF,Placerville Airport,United States of America,Placerville,https://www.worlddata.info/america/usa/airports.php
1168,KPVW,2025-11-23 01:46:05.882000+00:00,1763861400,2025-11-23T01:30:00.000Z,9.6,1.5,0,0.0,10+,1023.1,6,METAR,METAR KPVW 230130Z AUTO 00000KT 10SM CLR 10/02 A3021 RMK AO2 T00960015,34.169,-101.723,1029,"Plainview/Hale Cnty, TX, US",CLR,[],VFR,,,,,,,,PVW,Hale County Airport,United States of America,Plainview,https://www.worlddata.info/america/usa/airports.php
1169,KPWA,2025-11-23 02:02:02.001000+00:00,1763862780,2025-11-23T02:00:00.000Z,7.8,6.1,0,0.0,10+,1022.8,4,METAR,METAR KPWA 230153Z 00000KT 10SM CLR 08/06 A3020 RMK AO2 SLP228 T00780061,35.5411,-97.6472,390,"Oklahoma City/Wiley Post Arpt, OK, US",CLR,[],VFR,,1022.8,,,,,,PWA,Wiley Post Airport,United States of America,Oklahoma City,https://www.worlddata.info/america/usa/airports.php
1170,KPWD,2025-11-23 01:45:54.790000+00:00,1763861700,2025-11-23T01:35:00.000Z,7.0,-1.0,190,7.0,10+,1014.0,6,METAR,METAR KPWD 230135Z AUTO 19007KT 10SM SCT048 BKN060 OVC070 07/M01 A2994 RMK AO2,48.7912,-104.5253,690,"Plentywood/Sher-Wood Arpt, MT, US",OVC,"[{'cover': 'SCT', 'base': 4800}, {'cover': 'BKN', 'base': 6000}, {'cover': 'OVC', 'base': 7000}]",VFR,,,,,,,,PWD,Sher-Wood Airport,United States of America,Plentywood,https://www.worlddata.info/america/usa/airports.php
1171,KPWK,2025-11-23 02:02:19.605000+00:00,1763862720,2025-11-23T02:00:00.000Z,8.3,1.1,250,10.0,10+,1015.3,12,METAR,METAR KPWK 230152Z 25010KT 10SM CLR 08/01 A2998 RMK AO2 SLP157 T00830011 $,42.1208,-87.9048,194,"Chicago Exec, IL, US",CLR,[],VFR,,1015.7,,,,,,PWK,Chicago Executive Airport,United States of America,Chicago/Prospect Heights/Wheeling,https://www.worlddata.info/america/usa/airports.php
1172,KPWM,2025-11-23 01:54:13.434000+00:00,1763862660,2025-11-23T02:00:00.000Z,-1.1,-6.7,280,4.0,10+,1014.0,12,METAR,METAR KPWM 230151Z 28004KT 10SM CLR M01/M07 A2994 RMK AO2 SLP139 T10111067 $,43.6424,-70.3044,15,"Portland Intl, ME, US",CLR,[],VFR,,1013.9,,,,,,PWM,Portland International Jetport,United States of America,Portland,https://www.worlddata.info/america/usa/airports.php
1173,KRAC,2025-11-23 02:02:59.428000+00:00,1763862780,2025-11-23T02:00:00.000Z,6.7,1.1,240,10.0,10+,1014.3,6,METAR,METAR KRAC 230153Z AUTO 24010KT 10SM CLR 07/01 A2995 RMK AO2 SLP146 T00670011,42.7586,-87.8178,203,"Racine/Batten Intl, WI, US",CLR,[],VFR,,1014.6,,,,,,RAC,John H Batten Airport,United States of America,Racine,https://www.worlddata.info/america/usa/airports.php
1174,KRAL,2025-11-23 02:02:02.040000+00:00,1763862780,2025-11-23T02:00:00.000Z,17.8,6.1,50,3.0,10+,1013.6,14,METAR,METAR KRAL 230153Z AUTO 05003KT 10SM FEW110 18/06 A2993 RMK AO2 SLP123 T01780061 $,33.9528,-117.4352,254,"Riverside Muni, CA, US",FEW,"[{'cover': 'FEW', 'base': 11000}]",VFR,,1012.3,,,,,,RAL,Riverside Municipal Airport,United States of America,Riverside,https://www.worlddata.info/america/usa/airports.php
1175,KRAP,2025-11-23 02:03:11.335000+00:00,1763862720,2025-11-23T02:00:00.000Z,5.6,-2.2,250,5.0,10+,1019.4,4,METAR,METAR KRAP 230152Z 25005KT 10SM CLR 06/M02 A3010 RMK AO2 SLP206 T00561022,44.0458,-103.0544,965,"Rapid City Rgnl, SD, US",CLR,[],VFR,,1020.6,,,,,,RAP,Rapid City Regional Airport,United States of America,Rapid City,https://www.worlddata.info/america/usa/airports.php
1176,KRBD,2025-11-23 02:02:02.070000+00:00,1763862780,2025-11-23T02:00:00.000Z,13.3,8.9,20,4.0,10+,1022.4,4,METAR,METAR KRBD 230153Z 02004KT 10SM CLR 13/09 A3019 RMK AO2 SLP223 T01330089,32.6782,-96.8677,200,"Dallas/Executive Arpt, TX, US",CLR,[],VFR,,1022.3,,,,,,RBD,Dallas Executive Airport,United States of America,Dallas,https://www.worlddata.info/america/usa/airports.php
1177,KRBG,2025-11-23 02:02:02.101000+00:00,1763862780,2025-11-23T02:00:00.000Z,6.1,4.4,0,0.0,10+,1021.1,6,METAR,METAR KRBG 230153Z AUTO 00000KT 10SM CLR 06/04 A3015 RMK AO2 SLP212 T00610044,43.2337,-123.3578,152,"Roseburg Rgnl, OR, US",CLR,[],VFR,,1021.2,,,,,,RBG,Roseburg Regional Airport,United States of America,Roseburg,https://www.worlddata.info/america/usa/airports.php
1178,KRBL,2025-11-23 02:00:43.951000+00:00,1763862840,2025-11-23T02:00:00.000Z,13.9,5.6,280,7.0,10+,1016.0,6,METAR,METAR KRBL 230154Z AUTO 28007KT 10SM CLR 14/06 A3000 RMK AO2 SLP157 T01390056,40.1519,-122.2548,107,"Red Bluff Muni, CA, US",CLR,[],VFR,,1015.7,,,,,,RBL,Red Bluff Municipal Airport,United States of America,Red Bluff,https://www.worlddata.info/america/usa/airports.php
1179,KRBW,2025-11-23 01:38:19.669000+00:00,1763861700,2025-11-23T01:35:00.000Z,18.0,18.0,180,4.0,10+,1015.7,6,METAR,METAR KRBW 230135Z AUTO 18004KT 10SM SCT047 SCT060 18/18 A2999 RMK AO2,32.921,-80.64,30,"Walterboro/Lowcountry Rgnl, SC, US",SCT,"[{'cover': 'SCT', 'base': 4700}, {'cover': 'SCT', 'base': 6000}]",VFR,,,,,,,,RBW,Lowcountry Regional Airport,United States of America,Walterboro,https://www.worlddata.info/america/usa/airports.php
1180,KRCA,2025-11-23 02:00:42.079000+00:00,1763862900,2025-11-23T02:00:00.000Z,7.1,-2.1,220,5.0,10+,1018.0,14,METAR,METAR KRCA 230155Z AUTO 22005KT 10SM CLR 07/M02 A3006 RMK AO2 SLP190 T00711021 $,44.155,-103.118,993,"Ellsworth AFB, SD, US",CLR,[],VFR,,1019.0,,,,,,RCA,Ellsworth Air Force Base,United States of America,Rapid City,https://www.worlddata.info/america/usa/airports.php
1181,KRCR,2025-11-23 01:44:11.699000+00:00,1763861700,2025-11-23T01:35:00.000Z,7.0,0.0,220,9.0,10+,1016.3,6,METAR,METAR KRCR 230135Z AUTO 22009G16KT 10SM 07/00 A3001 RMK AO2,41.0651,-86.1864,240,"Rochester/Fulton Cnty, IN, US",,,,,,,,,16.0,,RCR,Fulton County Airport,United States of America,Rochester,https://www.worlddata.info/america/usa/airports.php
1182,KRDD,2025-11-23 02:02:02.127000+00:00,1763862780,2025-11-23T02:00:00.000Z,16.7,5.6,310,5.0,10+,1015.3,12,METAR,METAR KRDD 230153Z 31005KT 10SM CLR 17/06 A2998 RMK AO2 SLP152 T01670056 $,40.5146,-122.2977,152,"Redding Muni, CA, US",CLR,[],VFR,,1015.2,,,,,,RDD,Redding Municipal Airport,United States of America,Redding,https://www.worlddata.info/america/usa/airports.php
1183,KRDG,2025-11-23 02:02:08.241000+00:00,1763862840,2025-11-23T02:00:00.000Z,3.3,0.6,0,0.0,9,1016.7,4,METAR,METAR KRDG 230154Z 00000KT 9SM CLR 03/01 A3002 RMK AO2 SLP173 T00330006,40.3734,-75.9592,101,"Reading/Spaatz Fld, PA, US",CLR,[],VFR,,1017.3,,,,,,RDG,Reading Regional Airport (Carl A Spaatz Field),United States of America,Reading,https://www.worlddata.info/america/usa/airports.php
1184,KRDR,2025-11-23 01:58:03.939000+00:00,1763862900,2025-11-23T02:00:00.000Z,2.1,-2.8,300,5.0,10+,1015.0,14,METAR,METAR KRDR 230155Z AUTO 30005KT 10SM CLR 02/M03 A2997 RMK AO2 SLP163 T00211028 $,47.9477,-97.4029,276,"Grand Forks AFB, ND, US",CLR,[],VFR,,1016.3,,,,,,RDR,Grand Forks Air Force Base,United States of America,Grand Forks,https://www.worlddata.info/america/usa/airports.php
1185,KRDU,2025-11-23 01:54:13.449000+00:00,1763862660,2025-11-23T02:00:00.000Z,15.0,12.8,30,7.0,10+,1015.3,12,METAR,METAR KRDU 230151Z 03007KT 10SM SCT080 15/13 A2998 RMK AO2 SLP150 T01500128 $,35.8923,-78.782,121,"Raleigh-Durham Intl, NC, US",SCT,"[{'cover': 'SCT', 'base': 8000}]",VFR,,1015.0,,,,,,RDU,Raleigh Durham International Airport,United States of America,Raleigh/Durham,https://www.worlddata.info/america/usa/airports.php
1186,KREO,2025-11-23 01:58:07.279000+00:00,1763862720,2025-11-23T02:00:00.000Z,2.2,0.6,170,3.0,,1021.1,6,METAR,METAR KREO 230152Z AUTO 17003KT 02/01 A3015 RMK AO1 SLP237 T00220006,42.5902,-117.8646,1237,"Rome/State Arpt, OR, US",,,,,1023.7,,,,,,REO,Rome State Airport,United States of America,Rome,https://www.worlddata.info/america/usa/airports.php
1187,KRFD,2025-11-23 02:02:08.418000+00:00,1763862840,2025-11-23T02:00:00.000Z,5.6,2.2,210,8.0,10+,1015.7,12,METAR,METAR KRFD 230154Z 21008KT 10SM CLR 06/02 A2999 RMK AO2 SLP163 T00560022 $,42.1915,-89.0876,222,"Rockford Intl, IL, US",CLR,[],VFR,,1016.3,,,,,,RFD,Chicago Rockford International Airport,United States of America,Chicago/Rockford,https://www.worlddata.info/america/usa/airports.php
1188,KRHI,2025-11-23 02:02:02.170000+00:00,1763862780,2025-11-23T02:00:00.000Z,1.1,-1.1,270,8.0,10+,1010.2,14,METAR,METAR KRHI 230153Z AUTO 27008KT 10SM SCT055 01/M01 A2983 RMK AO2 SLP122 T00111011 $,45.6315,-89.4822,493,"Rhinelander/Oneida Cnty, WI, US",SCT,"[{'cover': 'SCT', 'base': 5500}]",VFR,,1012.2,,,,,,RHI,Rhinelander Oneida County Airport,United States of America,Rhinelander,https://www.worlddata.info/america/usa/airports.php
1189,KRHV,2025-11-23 01:49:30.369000+00:00,1763862420,2025-11-23T02:00:00.000Z,16.0,8.0,70,3.0,10+,1017.7,0,METAR,METAR KRHV 230147Z 07003KT 10SM SKC 16/08 A3005,37.3331,-121.82,37,"San Jose/Reid-Hillview Arpt, CA, US",SKC,[],VFR,,,,,,,,RHV,Reid-Hillview Airport of Santa Clara County,United States of America,San Jose,https://www.worlddata.info/america/usa/airports.php
1190,KRIC,2025-11-23 02:02:08.814000+00:00,1763862840,2025-11-23T02:00:00.000Z,10.0,9.4,0,0.0,5,1016.7,12,METAR,METAR KRIC 230154Z 00000KT 5SM BR BKN050 OVC065 10/09 A3002 RMK AO2 SLP171 T01000094 $,37.5115,-77.3234,51,"Richmond Intl, VA, US",OVC,"[{'cover': 'BKN', 'base': 5000}, {'cover': 'OVC', 'base': 6500}]",MVFR,BR,1017.1,,,,,,RIC,Richmond International Airport,United States of America,Richmond,https://www.worlddata.info/america/usa/airports.php
1191,KRIL,2025-11-23 02:02:59.500000+00:00,1763862780,2025-11-23T02:00:00.000Z,5.0,-1.1,160,6.0,10+,1023.1,6,METAR,METAR KRIL 230153Z AUTO 16006KT 10SM CLR 05/M01 A3021 RMK AO2 SLP231 T00501011,39.5279,-107.7197,1683,"Rifle/Garfield Cnty, CO, US",CLR,[],VFR,,1023.1,,,,,,RIL,Garfield County Regional Airport,United States of America,Rifle,https://www.worlddata.info/america/usa/airports.php
1192,KRIV,2025-11-23 02:00:42.109000+00:00,1763862900,2025-11-23T02:00:00.000Z,14.8,6.4,0,0.0,10+,1013.3,4,METAR,METAR KRIV 230155Z 00000KT 10SM SCT075 BKN100 15/06 A2992 RMK AO2A SLP127 T01480064,33.878,-117.244,454,"Riverside/March ARB, CA, US",BKN,"[{'cover': 'SCT', 'base': 7500}, {'cover': 'BKN', 'base': 10000}]",VFR,,1012.7,,,,,,RIV,March Air Reserve Base,United States of America,Riverside,https://www.worlddata.info/america/usa/airports.php
1193,KRIW,2025-11-23 02:02:02.196000+00:00,1763862780,2025-11-23T02:00:00.000Z,3.9,-3.3,10,4.0,10+,1019.7,6,METAR,METAR KRIW 230153Z AUTO 01004KT 10SM CLR 04/M03 A3011 RMK AO2 SLP210 T00391033,43.0622,-108.4471,1662,"Riverton Rgnl, WY, US",CLR,[],VFR,,1021.0,,,,,,RIW,Central Wyoming Regional Airport,United States of America,Riverton,https://www.worlddata.info/america/usa/airports.php
1194,KRKP,2025-11-23 02:02:02.222000+00:00,1763862780,2025-11-23T02:00:00.000Z,25.0,23.3,100,6.0,6,1019.0,6,METAR,METAR KRKP 230153Z AUTO 10006KT 6SM BR CLR 25/23 A3009 RMK AO2 SLP191 T02500233,28.0837,-97.0467,8,"Rockport/Aransas Cnty, TX, US",CLR,[],VFR,BR,1019.1,,,,,,RKP,Aransas County Airport,United States of America,Rockport,https://www.worlddata.info/america/usa/airports.php
1195,KRKS,2025-11-23 02:02:08.969000+00:00,1763862840,2025-11-23T02:00:00.000Z,1.1,-3.3,200,5.0,10+,1023.8,6,METAR,METAR KRKS 230154Z AUTO 20005KT 10SM CLR 01/M03 A3023 RMK AO2 SLP256 T00111033,41.5947,-109.0529,2062,"Rock Springs/SW Wyoming Rgnl, WY, US",CLR,[],VFR,,1025.6,,,,,,RKS,Southwest Wyoming Regional Airport,United States of America,Rock Springs,https://www.worlddata.info/america/usa/airports.php
1196,KRKW,2025-11-23 01:46:07.404000+00:00,1763861700,2025-11-23T01:35:00.000Z,13.0,12.0,340,6.0,10+,1018.0,6,METAR,METAR KRKW 230135Z AUTO 34006G11KT 10SM CLR 13/12 A3006 RMK A01,35.922,-84.689,505,"Rockwood Muni, TN, US",CLR,[],VFR,,,,,,11.0,,RKW,Rockwood Municipal Airport,United States of America,Rockwood,https://www.worlddata.info/america/usa/airports.php
1197,KRME,2025-11-23 02:02:59.584000+00:00,1763862780,2025-11-23T02:00:00.000Z,-3.3,-6.7,0,0.0,10+,1017.4,4,METAR,METAR KRME 230153Z 00000KT 10SM CLR M03/M07 A3004 RMK AO2 SLP176 T10331067,43.2242,-75.3956,146,"Rome/Griffiss Intl, NY, US",CLR,[],VFR,,1017.6,,,,,,RME,Griffiss International Airport,United States of America,Rome,https://www.worlddata.info/america/usa/airports.php
1198,KRMG,2025-11-23 02:02:02.249000+00:00,1763862780,2025-11-23T02:00:00.000Z,20.6,10.6,320,5.0,10+,1016.7,6,METAR,METAR KRMG 230153Z AUTO 32005KT 10SM CLR 21/11 A3002 RMK AO2 SLP157 T02060106,34.3483,-85.1616,196,"Rome/Russell Arpt, GA, US",CLR,[],VFR,,1015.7,,,,,,RMG,Richard B Russell Airport,United States of America,Rome,https://www.worlddata.info/america/usa/airports.php
1199,KRNC,2025-11-23 01:46:07.438000+00:00,1763861700,2025-11-23T01:35:00.000Z,14.0,12.0,360,5.0,10+,1018.4,6,METAR,METAR KRNC 230135Z AUTO 36005G10KT 10SM OVC060 14/12 A3007 RMK A01,35.6991,-85.8402,310,"McMinnville/Warren Cnty, TN, US",OVC,"[{'cover': 'OVC', 'base': 6000}]",VFR,,,,,,10.0,,RNC,Warren County Memorial Airport,United States of America,Mc Minnville,https://www.worlddata.info/america/usa/airports.php
1200,KRND,2025-11-23 01:58:10.650000+00:00,1763862900,2025-11-23T02:00:00.000Z,20.5,11.1,40,6.0,10+,1020.7,6,METAR,METAR KRND 230155Z AUTO 04006KT 10SM FEW045 21/11 A3014 RMK AO2 SLP201 T02050111,29.537,-98.268,224,"Randolph AFB, TX, US",FEW,"[{'cover': 'FEW', 'base': 4500}]",VFR,,1020.1,,,,,,RND,Randolph Air Force Base,United States of America,Universal City,https://www.worlddata.info/america/usa/airports.php
1201,KRNH,2025-11-23 01:46:04.465000+00:00,1763861700,2025-11-23T01:35:00.000Z,6.7,1.0,300,9.0,10+,1015.0,6,METAR,METAR KRNH 230135Z AUTO 30009KT 10SM CLR 07/01 A2997 RMK AO2 T00670010,45.1476,-92.5335,302,"New Richmond Muni, WI, US",CLR,[],VFR,,,,,,,,RNH,New Richmond Regional Airport,United States of America,New Richmond,https://www.worlddata.info/america/usa/airports.php
1202,KRNT,2025-11-23 02:02:35.823000+00:00,1763862780,2025-11-23T02:00:00.000Z,12.8,8.3,170,7.0,10+,1018.0,12,METAR,METAR KRNT 230153Z 17007KT 10SM FEW024 BKN030 OVC090 13/08 A3006 RMK AO2 SLP183 T01280083 $,47.4951,-122.2144,7,"Renton Muni, WA, US",OVC,"[{'cover': 'FEW', 'base': 2400}, {'cover': 'BKN', 'base': 3000}, {'cover': 'OVC', 'base': 9000}]",MVFR,,1018.3,,,,,,RNT,Renton Municipal Airport,United States of America,Renton,https://www.worlddata.info/america/usa/airports.php
1203,KROA,2025-11-23 02:02:09.774000+00:00,1763862840,2025-11-23T02:00:00.000Z,12.8,7.2,330,9.0,10+,1017.0,4,METAR,METAR KROA 230154Z 33009KT 10SM SCT048 13/07 A3003 RMK AO2 SLP165 T01280072,37.3172,-79.9737,349,"Roanoke Rgnl, VA, US",SCT,"[{'cover': 'SCT', 'base': 4800}]",VFR,,1016.5,,,,,,ROA,Roanoke–Blacksburg Regional Airport,United States of America,Roanoke,https://www.worlddata.info/america/usa/airports.php
1204,KROW,2025-11-23 01:54:13.462000+00:00,1763862660,2025-11-23T02:00:00.000Z,11.1,3.9,0,0.0,10+,1022.1,4,METAR,METAR KROW 230151Z 00000KT 10SM CLR 11/04 A3018 RMK AO2 SLP205 T01110039,33.3074,-104.5082,1105,"Roswell/Ind Arpt, NM, US",CLR,[],VFR,,1020.5,,,,,,ROW,Roswell Air Center Airport,United States of America,Roswell,https://www.worlddata.info/america/usa/airports.php
1205,KROX,2025-11-23 01:36:07.332000+00:00,1763861400,2025-11-23T01:30:00.000Z,4.0,-2.0,270,11.0,10+,1013.0,4,METAR,METAR KROX 230130Z 27011KT 10SM CLR 04/M02 A2991 RMK AO2,48.856,-95.6949,320,"Roseau/Billberg Fld, MN, US",CLR,[],VFR,,,,,,,,ROX,Roseau Municipal Rudy Billberg Field,United States of America,Roseau,https://www.worlddata.info/america/usa/airports.php
1206,KRPD,2025-11-23 01:40:32.616000+00:00,1763861700,2025-11-23T01:35:00.000Z,4.6,0.0,270,5.0,10+,1014.0,6,METAR,METAR KRPD 230135Z AUTO 27005KT 10SM CLR 05/00 A2994 RMK AO2 T00460000,45.4186,-91.7764,334,"Rice Lake Rgnl, WI, US",CLR,[],VFR,,,,,,,,RIE,Rice Lake Regional Airport - Carl's Field,United States of America,Rice Lake,https://www.worlddata.info/america/usa/airports.php
1207,KRQB,2025-11-23 01:40:23.416000+00:00,1763861700,2025-11-23T01:35:00.000Z,4.0,0.0,190,4.0,10+,1012.6,6,METAR,METAR KRQB 230135Z AUTO 19004KT 10SM OVC023 04/M00 A2990 RMK AO2,43.722,-85.498,282,"Big Rapids/Roben Hood Arpt, MI, US",OVC,"[{'cover': 'OVC', 'base': 2300}]",MVFR,,,,,,,,WBR,Roben Hood Airport,United States of America,Big Rapids,https://www.worlddata.info/america/usa/airports.php
1208,KRQO,2025-11-23 01:40:13.803000+00:00,1763861700,2025-11-23T01:35:00.000Z,8.0,8.0,100,3.0,10+,1023.1,6,METAR,METAR KRQO 230135Z AUTO 10003KT 10SM CLR 08/08 A3021 RMK AO2,35.4709,-98.0061,431,"El Reno Rgnl, OK, US",CLR,[],VFR,,,,,,,,RQO,El Reno Regional Airport,United States of America,El Reno,https://www.worlddata.info/america/usa/airports.php
1209,KRRL,2025-11-23 01:40:22.621000+00:00,1763861700,2025-11-23T01:35:00.000Z,3.0,-1.3,270,6.0,10+,1011.3,38,METAR,METAR KRRL 230135Z AUTO 27006KT 10SM BKN040 03/M01 A2986 RMK AO2 T00301013 TSNO,45.1985,-89.71,397,"Merrill Muni, WI, US",BKN,"[{'cover': 'BKN', 'base': 4000}]",VFR,,,,,,,,RRL,Merrill Municipal Airport,United States of America,Merrill,https://www.worlddata.info/america/usa/airports.php
1210,KRRT,2025-11-23 01:54:08.605000+00:00,1763862360,2025-11-23T02:00:00.000Z,2.0,-1.0,250,8.0,10+,1013.0,4,METAR,METAR KRRT 230146Z 25008KT 10SM CLR 02/M01 A2991 RMK AO2,48.9318,-95.3405,327,"Warroad Intl, MN, US",CLR,[],VFR,,,,,,,,RRT,Warroad International Memorial Airport,United States of America,Warroad,https://www.worlddata.info/america/usa/airports.php
1211,KRSL,2025-11-23 02:03:11.567000+00:00,1763862780,2025-11-23T02:00:00.000Z,10.0,7.2,220,5.0,10+,1021.1,6,METAR,METAR KRSL 230153Z AUTO 22005KT 10SM CLR 10/07 A3015 RMK AO2 SLP220 T01000072,38.8725,-98.8093,569,"Russell Muni, KS, US",CLR,[],VFR,,1022.0,,,,,,RSL,Russell Municipal Airport,United States of America,Russell,https://www.worlddata.info/america/usa/airports.php
1212,KRSN,2025-11-23 01:38:19.948000+00:00,1763861700,2025-11-23T01:35:00.000Z,16.1,11.2,330,4.0,10+,1021.1,14,METAR,METAR KRSN 230135Z AUTO 33004KT 10SM CLR 16/11 A3015 RMK AO2 T01610112 $,32.5159,-92.5899,86,"Ruston Rgnl, LA, US",CLR,[],VFR,,,,,,,,RSN,Ruston Regional Airport,United States of America,Ruston,https://www.worlddata.info/america/usa/airports.php
1213,KRST,2025-11-23 02:02:10.284000+00:00,1763862840,2025-11-23T02:00:00.000Z,4.4,1.7,260,11.0,10+,1016.0,4,METAR,METAR KRST 230154Z 26011KT 10SM CLR 04/02 A3000 RMK AO2 SLP171 T00440017,43.904,-92.4921,398,"Rochester Intl, MN, US",CLR,[],VFR,,1017.1,,,,,,RST,Rochester International Airport,United States of America,Rochester,https://www.worlddata.info/america/usa/airports.php
1214,KRSW,2025-11-23 02:02:35.936000+00:00,1763862780,2025-11-23T02:00:00.000Z,21.7,18.9,0,0.0,10+,1019.4,4,METAR,METAR KRSW 230153Z 00000KT 10SM CLR 22/19 A3010 RMK AO2 SLP189 T02170189,26.538,-81.7567,8,"Ft Myers/SW Florida Intl, FL, US",CLR,[],VFR,,1018.9,,,,,,RSW,Southwest Florida International Airport,United States of America,Fort Myers,https://www.worlddata.info/america/usa/airports.php
1215,KRTN,2025-11-23 02:02:59.744000+00:00,1763862780,2025-11-23T02:00:00.000Z,7.2,-2.2,230,4.0,10+,1024.1,6,METAR,METAR KRTN 230153Z AUTO 23004KT 10SM CLR 07/M02 A3024 RMK AO2 SLP221 T00721022,36.7418,-104.5076,1939,"Raton/Crews Fld, NM, US",CLR,[],VFR,,1022.1,,,,,,RTN,Raton Municipal Airport / Crews Field,United States of America,Raton,https://www.worlddata.info/america/usa/airports.php
1216,KRUQ,2025-11-23 01:42:36.467000+00:00,1763861700,2025-11-23T01:35:00.000Z,16.4,8.2,0,0.0,10+,1015.0,6,METAR,METAR KRUQ 230135Z AUTO 00000KT 10SM OVC080 16/08 A2997 RMK AO2 T01640082,35.6442,-80.5236,231,"Salisbury/Rowan Cnty, NC, US",OVC,"[{'cover': 'OVC', 'base': 8000}]",VFR,,,,,,,,SRW,Mid-Carolina Regional Airport,United States of America,Salisbury,https://www.worlddata.info/america/usa/airports.php
1217,KRVL,2025-11-23 01:40:21.129000+00:00,1763861700,2025-11-23T01:35:00.000Z,3.0,0.0,0,0.0,10+,1016.3,6,METAR,METAR KRVL 230135Z AUTO 00000KT 10SM CLR 03/00 A3001 RMK AO2,40.6768,-77.6251,250,"Reedsville/Mifflin Cnty, PA, US",CLR,[],VFR,,,,,,,,RED,Mifflin County Airport,United States of America,Reedsville,https://www.worlddata.info/america/usa/airports.php
1218,KRVS,2025-11-23 02:02:36.182000+00:00,1763862780,2025-11-23T02:00:00.000Z,9.4,7.2,250,3.0,10+,1023.5,12,METAR,METAR KRVS 230153Z 25003KT 10SM OVC013 09/07 A3022 RMK AO2 SLP240 T00940072 $,36.0424,-95.9901,191,"Tulsa/Jones Arpt, OK, US",OVC,"[{'cover': 'OVC', 'base': 1300}]",MVFR,,1024.0,,,,,,RVS,Tulsa Riverside Airport,United States of America,Tulsa,https://www.worlddata.info/america/usa/airports.php
1219,KRWF,2025-11-23 02:02:36.319000+00:00,1763862780,2025-11-23T02:00:00.000Z,6.1,-3.9,280,9.0,10+,1018.4,6,METAR,METAR KRWF 230153Z AUTO 28009KT 10SM CLR 06/M04 A3007 RMK AO2 SLP190 T00611039,44.5483,-95.0804,312,"Redwood Falls Muni, MN, US",CLR,[],VFR,,1019.0,,,,,,RWF,Redwood Falls Municipal Airport,United States of America,Redwood Falls,https://www.worlddata.info/america/usa/airports.php
1220,KRWI,2025-11-23 02:02:36.432000+00:00,1763862780,2025-11-23T02:00:00.000Z,13.9,12.8,20,9.0,10+,1015.7,142,METAR,METAR KRWI 230153Z AUTO 02009KT 10SM OVC006 14/13 A2999 RMK AO2 SLP156 T01390128 PWINO $,35.8502,-77.8951,46,"Rocky Mount/Wilson Rgnl, NC, US",OVC,"[{'cover': 'OVC', 'base': 600}]",IFR,,1015.6,,,,,,RWI,Rocky Mount Wilson Regional Airport,United States of America,Rocky Mount,https://www.worlddata.info/america/usa/airports.php
1221,KRWL,2025-11-23 02:02:59.817000+00:00,1763862780,2025-11-23T02:00:00.000Z,2.8,-2.2,230,9.0,10+,1023.1,6,METAR,METAR KRWL 230153Z AUTO 23009KT 10SM CLR 03/M02 A3021 RMK AO2 SLP235 T00281022,41.8065,-107.1952,2066,"Rawlins Muni, WY, US",CLR,[],VFR,,1023.5,,,,,,RWL,Rawlins Municipal Airport/Harvey Field,United States of America,Rawlins,https://www.worlddata.info/america/usa/airports.php
1222,KRXE,2025-11-23 02:02:36.531000+00:00,1763862780,2025-11-23T02:00:00.000Z,2.8,1.1,0,0.0,10+,1024.1,6,METAR,METAR KRXE 230153Z AUTO 00000KT 10SM BKN023 03/01 A3024 RMK AO2 SLP255 T00280011,43.8321,-111.8075,1483,"Rexburg/Madison Cnty, ID, US",BKN,"[{'cover': 'BKN', 'base': 2300}]",MVFR,,1025.5,,,,,,RXE,Rexburg Madison County Airport,United States of America,Rexburg,https://www.worlddata.info/america/usa/airports.php
1223,KRZL,2025-11-23 01:42:25.056000+00:00,1763861700,2025-11-23T01:35:00.000Z,7.0,4.0,210,8.0,10+,1017.4,6,METAR,METAR KRZL 230135Z AUTO 21008KT 10SM OVC080 07/04 A3004 RMK AO2,40.9488,-87.1851,210,"Rensselaer/Jasper Cnty, IN, US",OVC,"[{'cover': 'OVC', 'base': 8000}]",VFR,,,,,,,,RNZ,Jasper County Airport,United States of America,Rensselaer,https://www.worlddata.info/america/usa/airports.php
1224,KSAA,2025-11-23 01:42:36.698000+00:00,1763861700,2025-11-23T01:35:00.000Z,2.0,-3.0,220,8.0,10+,1023.5,6,METAR,METAR KSAA 230135Z AUTO 22008KT 10SM CLR 02/M03 A3022 RMK AO2,41.447,-106.815,2093,"Saratoga/Shively Fld, WY, US",CLR,[],VFR,,,,,,,,SAA,Shively Field,United States of America,Saratoga,https://www.worlddata.info/america/usa/airports.php
1225,KSAC,2025-11-23 02:02:36.630000+00:00,1763862780,2025-11-23T02:00:00.000Z,12.2,10.0,0,0.0,10+,1017.7,4,METAR,METAR KSAC 230153Z 00000KT 10SM CLR 12/10 A3005 RMK AO2 SLP175 T01220100,38.5066,-121.496,5,"Sacramento Exec, CA, US",CLR,[],VFR,,1017.5,,,,,,SAC,Sacramento Executive Airport,United States of America,Sacramento,https://www.worlddata.info/america/usa/airports.php
1226,KSAD,2025-11-23 01:54:13.474000+00:00,1763862660,2025-11-23T02:00:00.000Z,17.8,0.6,120,9.0,10+,1013.0,6,METAR,METAR KSAD 230151Z AUTO 12009G19KT 10SM FEW070 BKN100 OVC110 18/01 A2991 RMK AO2 PK WND 12026/0100 LTG DSNT N AND W SLP104 T01780006,32.8565,-109.636,937,"Safford Rgnl, AZ, US",OVC,"[{'cover': 'FEW', 'base': 7000}, {'cover': 'BKN', 'base': 10000}, {'cover': 'OVC', 'base': 11000}]",VFR,,1010.4,,,,19.0,,SAD,Safford Regional Airport,United States of America,Safford,https://www.worlddata.info/america/usa/airports.php
1227,KSAF,2025-11-23 02:02:59.911000+00:00,1763862780,2025-11-23T02:00:00.000Z,3.9,0.0,30,6.0,10+,1023.1,4,METAR,METAR KSAF 230153Z 03006KT 10SM CLR 04/00 A3021 RMK AO2 SLP218 T00390000,35.611,-106.0957,1918,"Santa Fe Cnty Muni, NM, US",CLR,[],VFR,,1021.8,,,,,,SAF,Santa Fe Municipal Airport,United States of America,Santa Fe,https://www.worlddata.info/america/usa/airports.php
1228,KSAN,2025-11-23 01:56:15.281000+00:00,1763862660,2025-11-23T02:00:00.000Z,17.2,7.8,360,4.0,10+,1013.3,4,METAR,METAR KSAN 230151Z 36004KT 10SM FEW030 SCT110 17/08 A2992 RMK AO2 SLP132 T01720078,32.7364,-117.1973,3,"San Diego Intl Arpt, CA, US",SCT,"[{'cover': 'FEW', 'base': 3000}, {'cover': 'SCT', 'base': 11000}]",VFR,,1013.2,,,,,,SAN,San Diego International Airport,United States of America,San Diego,https://www.worlddata.info/america/usa/airports.php
1229,KSAR,2025-11-23 01:42:25.451000+00:00,1763861700,2025-11-23T01:35:00.000Z,8.3,6.6,0,0.0,10+,1021.1,6,METAR,METAR KSAR 230135Z AUTO 00000KT 10SM CLR 08/07 A3015 RMK AO2 T00830066,38.1463,-89.7025,162,"Sparta/Hunter Fld, IL, US",CLR,[],VFR,,,,,,,,SAR,Sparta Community Airport - Hunter Field,United States of America,Sparta,https://www.worlddata.info/america/usa/airports.php
1230,KSAT,2025-11-23 01:56:15.301000+00:00,1763862660,2025-11-23T02:00:00.000Z,20.6,10.6,50,6.0,10+,1021.1,4,METAR,METAR KSAT 230151Z 05006KT 10SM SCT044 21/11 A3015 RMK AO2 SLP194 T02060106,29.5443,-98.4839,246,"San Antonio Intl, TX, US",SCT,"[{'cover': 'SCT', 'base': 4400}]",VFR,,1019.4,,,,,,SAT,San Antonio International Airport,United States of America,San Antonio,https://www.worlddata.info/america/usa/airports.php
1231,KSAV,2025-11-23 02:02:36.747000+00:00,1763862780,2025-11-23T02:00:00.000Z,21.7,18.3,210,8.0,10+,1016.0,4,METAR,METAR KSAV 230153Z 21008KT 10SM CLR 22/18 A3000 RMK AO2 SLP158 T02170183,32.1313,-81.2023,10,"Savannah Intl, GA, US",CLR,[],VFR,,1015.8,,,,,,SAV,Savannah Hilton Head International Airport,United States of America,Savannah,https://www.worlddata.info/america/usa/airports.php
1232,KSAW,2025-11-23 01:46:30.744000+00:00,1763862300,2025-11-23T02:00:00.000Z,1.0,-2.0,210,6.0,10+,1007.9,0,METAR,METAR KSAW 230145Z 21006KT 10SM SCT034 OVC044 01/M02 A2976,46.341,-87.395,359,"Marquette/Sawyer Intl, MI, US",OVC,"[{'cover': 'SCT', 'base': 3400}, {'cover': 'OVC', 'base': 4400}]",VFR,,,,,,,,MQT,Marquette/Sawyer International Airport,United States of America,Gwinn,https://www.worlddata.info/america/usa/airports.php
1233,KSBA,2025-11-23 02:02:36.845000+00:00,1763862780,2025-11-23T02:00:00.000Z,15.0,9.4,270,3.0,10+,1014.6,12,METAR,METAR KSBA 230153Z 27003KT 10SM CLR 15/09 A2996 RMK AO2 SLP143 T01500094 $,34.4241,-119.8425,2,"Santa Barbara Muni, CA, US",CLR,[],VFR,,1014.3,,,,,,SBA,Santa Barbara Municipal Airport,United States of America,Santa Barbara,https://www.worlddata.info/america/usa/airports.php
1234,KSBM,2025-11-23 02:02:59.976000+00:00,1763862780,2025-11-23T02:00:00.000Z,5.0,-0.6,250,10.0,10+,1012.6,6,METAR,METAR KSBM 230153Z AUTO 25010KT 10SM CLR 05/M01 A2990 RMK AO2 SLP133 T00501006,43.7748,-87.849,225,"Sheboygan Cnty Mem, WI, US",CLR,[],VFR,,1013.3,,,,,,SBM,Sheboygan County Memorial Airport,United States of America,Sheboygan,https://www.worlddata.info/america/usa/airports.php
1235,KSBN,2025-11-23 02:02:10.705000+00:00,1763862840,2025-11-23T02:00:00.000Z,7.2,1.7,230,11.0,10+,1015.7,4,METAR,METAR KSBN 230154Z 23011G17KT 10SM SCT070 SCT080 07/02 A2999 RMK AO2 SLP163 T00720017,41.7072,-86.3163,236,"South Bend Rgnl, IN, US",SCT,"[{'cover': 'SCT', 'base': 7000}, {'cover': 'SCT', 'base': 8000}]",VFR,,1016.3,,,,17.0,,SBN,South Bend Regional Airport,United States of America,South Bend,https://www.worlddata.info/america/usa/airports.php
1236,KSBS,2025-11-23 01:40:33.346000+00:00,1763861700,2025-11-23T01:35:00.000Z,2.4,-3.0,0,0.0,10+,1024.1,6,METAR,METAR KSBS 230135Z AUTO 00000KT 10SM CLR 02/M03 A3024 RMK AO1 T00241030,40.5153,-106.8677,2097,"Steamboat Springs/Adams Fld, CO, US",CLR,[],VFR,,,,,,,,SBS,Steamboat Springs Bob Adams Field,United States of America,Steamboat Springs,https://www.worlddata.info/america/usa/airports.php
1237,KSBX,2025-11-23 01:45:54.854000+00:00,1763861700,2025-11-23T01:35:00.000Z,8.0,-2.0,220,12.0,10+,1013.3,6,METAR,METAR KSBX 230135Z AUTO 22012G17KT 10SM CLR 08/M02 A2992 RMK AO2,48.541,-111.871,1049,"Shelby/Toole Cnty Arpt, MT, US",CLR,[],VFR,,,,,,17.0,,SBX,Shelby Airport,United States of America,Shelby,https://www.worlddata.info/america/usa/airports.php
1238,KSBY,2025-11-23 02:02:10.831000+00:00,1763862840,2025-11-23T02:00:00.000Z,5.6,5.6,0,0.0,0.25,1017.0,4,METAR,METAR KSBY 230154Z 00000KT 1/4SM FG VV002 06/06 A3003 RMK AO2 SLP170 T00560056,38.3409,-75.5132,14,"Salisbury/Ocean City, MD, US",OVX,"[{'cover': 'OVX', 'base': 200}]",LIFR,FG,1017.0,,2.0,,,,SBY,Salisbury Ocean City Wicomico Regional Airport,United States of America,Salisbury,https://www.worlddata.info/america/usa/airports.php
1239,KSDL,2025-11-23 02:02:52.833000+00:00,1763862780,2025-11-23T02:00:00.000Z,14.4,11.1,70,6.0,10+,1014.0,4,METAR,METAR KSDL 230153Z 07006KT 10SM -RA SCT070 OVC090 14/11 A2994 RMK AO2 RAB0056 SLP124 P0004 T01440111,33.6123,-111.9232,438,"Scottsdale Muni, AZ, US",OVC,"[{'cover': 'SCT', 'base': 7000}, {'cover': 'OVC', 'base': 9000}]",VFR,-RA,1012.4,0.04,,,,,SCF,Scottsdale Airport,United States of America,Scottsdale,https://www.worlddata.info/america/usa/airports.php
1240,KSDM,2025-11-23 02:02:36.974000+00:00,1763862780,2025-11-23T02:00:00.000Z,13.9,10.0,0,0.0,10+,1013.3,4,METAR,METAR KSDM 230153Z 00000KT 10SM FEW080 14/10 A2992 RMK AO2 SLP128 T01390100,32.5758,-116.9939,161,"San Diego/Brown Fld, CA, US",FEW,"[{'cover': 'FEW', 'base': 8000}]",VFR,,1012.8,,,,,,SDM,Brown Field Municipal Airport,United States of America,San Diego,https://www.worlddata.info/america/usa/airports.php
1241,KSEA,2025-11-23 02:02:37.078000+00:00,1763862780,2025-11-23T02:00:00.000Z,11.1,7.8,180,11.0,10+,1018.0,12,METAR,METAR KSEA 230153Z 18011KT 10SM FEW025 SCT090 OVC110 11/08 A3006 RMK AO2 SLP186 T01110078 $,47.4447,-122.3144,115,"Seattle-Tacoma Intl, WA, US",OVC,"[{'cover': 'FEW', 'base': 2500}, {'cover': 'SCT', 'base': 9000}, {'cover': 'OVC', 'base': 11000}]",VFR,,1018.6,,,,,,SEA,Seattle–Tacoma International Airport,United States of America,Seattle,https://www.worlddata.info/america/usa/airports.php
1242,KSEF,2025-11-23 01:40:30.464000+00:00,1763861700,2025-11-23T01:35:00.000Z,19.8,16.7,,,,1019.4,6,METAR,METAR KSEF 230135Z AUTO CLR 20/17 A3010 RMK AO2 T01980167,27.4553,-81.3415,17,"Sebring Rgnl, FL, US",CLR,[],,,,,,,,,SEF,Sebring Regional Airport,United States of America,Sebring,https://www.worlddata.info/america/usa/airports.php
1243,KSEG,2025-11-23 02:02:37.177000+00:00,1763862780,2025-11-23T02:00:00.000Z,-0.6,-1.1,0,0.0,8,1017.0,14,METAR,METAR KSEG 230153Z AUTO 00000KT 8SM CLR M01/M01 A3003 RMK AO2 SLP173 T10061011 $,40.8193,-76.8658,136,"Selinsgrove/Penn Valley Arpt, PA, US",CLR,[],VFR,,1017.3,,,,,,SEG,Penn Valley Airport,United States of America,Selinsgrove,https://www.worlddata.info/america/usa/airports.php
1244,KSEM,2025-11-23 01:46:07.597000+00:00,1763861700,2025-11-23T01:35:00.000Z,20.0,20.0,220,4.0,6,1017.7,6,METAR,METAR KSEM 230135Z AUTO 22004KT 6SM BR SCT060 20/20 A3005 RMK AO2,32.3367,-86.9836,48,"Selma/Craig Fld, AL, US",SCT,"[{'cover': 'SCT', 'base': 6000}]",VFR,BR,,,,,,,SEM,Craig Field,United States of America,Selma,https://www.worlddata.info/america/usa/airports.php
1245,KSEP,2025-11-23 01:38:27.114000+00:00,1763861700,2025-11-23T01:35:00.000Z,14.4,9.3,0,0.0,10+,1023.5,6,METAR,METAR KSEP 230135Z AUTO 00000KT 10SM CLR 14/09 A3022 RMK AO2 T01440093,32.215,-98.1793,399,"Stephenville/Clark Rgnl, TX, US",CLR,[],VFR,,,,,,,,SEP,Stephenville Clark Regional Airport,United States of America,Stephenville,https://www.worlddata.info/america/usa/airports.php
1246,KSEZ,2025-11-23 01:40:30.498000+00:00,1763861700,2025-11-23T01:35:00.000Z,8.0,7.0,50,8.0,5,1018.4,6,METAR,METAR KSEZ 230135Z AUTO 05008KT 5SM -RA BR SCT032 OVC038 08/07 A3007 RMK AO2,34.8467,-111.7884,1455,"Sedona Arpt, AZ, US",OVC,"[{'cover': 'SCT', 'base': 3200}, {'cover': 'OVC', 'base': 3800}]",MVFR,-RA BR,,,,,,,SDX,Sedona Airport,United States of America,Sedona,https://www.worlddata.info/america/usa/airports.php
1247,KSFF,2025-11-23 02:02:37.276000+00:00,1763862780,2025-11-23T02:00:00.000Z,6.1,3.9,0,0.0,10+,1018.0,4,METAR,METAR KSFF 230153Z 00000KT 10SM BKN050 OVC110 06/04 A3006 RMK AO2 SLP190 T00610039,47.6857,-117.3214,593,"Spokane/Felts Fld, WA, US",OVC,"[{'cover': 'BKN', 'base': 5000}, {'cover': 'OVC', 'base': 11000}]",VFR,,1019.0,,,,,,SFF,Felts Field,United States of America,Spokane,https://www.worlddata.info/america/usa/airports.php
1248,KSGF,2025-11-23 01:24:09.260000+00:00,1763860800,2025-11-23T01:20:00.000Z,8.9,8.3,230,3.0,10+,1021.8,4,SPECI,SPECI KSGF 230120Z 23003KT 10SM OVC005 09/08 A3017 RMK AO2 T00890083,37.2398,-93.3899,387,"Springfield Muni, MO, US",OVC,"[{'cover': 'OVC', 'base': 500}]",IFR,,,,,,,,SGF,Springfield Branson National Airport,United States of America,Springfield,https://www.worlddata.info/america/usa/airports.php
1249,KSGR,2025-11-23 02:02:37.368000+00:00,1763862780,2025-11-23T02:00:00.000Z,18.3,16.1,0,0.0,10+,1020.4,4,METAR,METAR KSGR 230153Z 00000KT 10SM CLR 18/16 A3013 RMK AO2 SLP203 T01830161,29.6197,-95.6575,22,"Houston/Sugar Land Rgnl, TX, US",CLR,[],VFR,,1020.3,,,,,,SGR,Sugar Land Regional Airport,United States of America,Houston,https://www.worlddata.info/america/usa/airports.php
1250,KSHD,2025-11-23 01:36:13.933000+00:00,1763861700,2025-11-23T01:35:00.000Z,7.2,7.2,0,0.0,4,1017.4,6,METAR,METAR KSHD 230135Z AUTO 00000KT 4SM BR SCT021 OVC043 07/07 A3004 RMK AO2 T00720072,38.2601,-78.9013,360,"Staunton/Shenandoah Valley Rgnl, VA, US",OVC,"[{'cover': 'SCT', 'base': 2100}, {'cover': 'OVC', 'base': 4300}]",MVFR,BR,,,,,,,SHD,Shenandoah Valley Regional Airport,United States of America,Weyers Cave,https://www.worlddata.info/america/usa/airports.php
1251,KSHN,2025-11-23 02:02:37.513000+00:00,1763862780,2025-11-23T02:00:00.000Z,10.6,9.4,210,7.0,9,1017.7,6,METAR,METAR KSHN 230153Z AUTO 21007KT 9SM SCT011 BKN018 OVC038 11/09 A3005 RMK AO2 SLP176 T01060094,47.2384,-123.1415,84,"Shelton/Sanderson Fld, WA, US",OVC,"[{'cover': 'SCT', 'base': 1100}, {'cover': 'BKN', 'base': 1800}, {'cover': 'OVC', 'base': 3800}]",MVFR,,1017.6,,,,,,SHN,Sanderson Field,United States of America,Shelton,https://www.worlddata.info/america/usa/airports.php
1252,KSHR,2025-11-23 02:02:37.607000+00:00,1763862780,2025-11-23T02:00:00.000Z,0.0,-3.9,0,0.0,10+,1017.4,6,METAR,METAR KSHR 230153Z AUTO 00000KT 10SM CLR 00/M04 A3004 RMK AO2 SLP204 T00001039,44.7603,-106.9741,1212,"Sheridan Cnty Arpt, WY, US",CLR,[],VFR,,1020.4,,,,,,SHR,Sheridan County Airport,United States of America,Sheridan,https://www.worlddata.info/america/usa/airports.php
1253,KSIK,2025-11-23 01:38:22.170000+00:00,1763861700,2025-11-23T01:35:00.000Z,7.8,7.8,0,0.0,,1021.1,142,METAR,METAR KSIK 230135Z AUTO 00000KT 08/08 A3015 RMK AO2 T00780078 PWINO $,36.9027,-89.5577,95,"Sikeston Arpt, MO, US",,,,,,,,,,,SIK,Sikeston Memorial Municipal Airport,United States of America,Sikeston,https://www.worlddata.info/america/usa/airports.php
1254,KSJC,2025-11-23 02:02:37.807000+00:00,1763862780,2025-11-23T02:00:00.000Z,16.1,7.2,0,0.0,10+,1017.4,4,METAR,METAR KSJC 230153Z 00000KT 10SM FEW035 16/07 A3004 RMK AO2 SLP172 T01610072,37.3594,-121.9244,13,"San Jose Intl Arpt, CA, US",FEW,"[{'cover': 'FEW', 'base': 3500}]",VFR,,1017.2,,,,,,SJC,Norman Y. Mineta San Jose International Airport,United States of America,San Jose,https://www.worlddata.info/america/usa/airports.php
1255,KSJN,2025-11-23 02:02:11.351000+00:00,1763862840,2025-11-23T02:00:00.000Z,10.0,0.6,50,4.0,10+,1017.0,6,METAR,METAR KSJN 230154Z AUTO 05004KT 10SM CLR 10/01 A3003 RMK AO2 SLP145 T01000006,34.5184,-109.3801,1747,"St Johns Ind Arpt, AZ, US",CLR,[],VFR,,1014.5,,,,,,SJN,St Johns Industrial Air Park,United States of America,St Johns,https://www.worlddata.info/america/usa/airports.php
1256,KSJT,2025-11-23 01:56:13.192000+00:00,1763862660,2025-11-23T02:00:00.000Z,14.4,10.0,90,4.0,10+,1022.4,12,METAR,METAR KSJT 230151Z 09004KT 10SM CLR 14/10 A3019 RMK AO2 SLP219 T01440100 $,31.3517,-100.4948,582,"San Angelo/Mathis Fld, TX, US",CLR,[],VFR,,1021.9,,,,,,SJT,San Angelo Regional Mathis Field,United States of America,San Angelo,https://www.worlddata.info/america/usa/airports.php
1257,KSKA,2025-11-23 01:58:11.676000+00:00,1763862900,2025-11-23T02:00:00.000Z,6.3,2.4,130,3.0,10+,1017.0,14,METAR,METAR KSKA 230155Z AUTO 13003KT 10SM FEW045 BKN100 OVC160 06/02 A3003 RMK AO2 SLP183 T00630024 $,47.612,-117.679,754,"Spokane/Fairchild AFB, WA, US",OVC,"[{'cover': 'FEW', 'base': 4500}, {'cover': 'BKN', 'base': 10000}, {'cover': 'OVC', 'base': 16000}]",VFR,,1018.3,,,,,,SKA,Fairchild Air Force Base,United States of America,Spokane,https://www.worlddata.info/america/usa/airports.php
1258,KSKF,2025-11-23 01:58:10.700000+00:00,1763862900,2025-11-23T02:00:00.000Z,23.3,8.9,50,6.0,10+,1019.4,14,METAR,METAR KSKF 230155Z AUTO 05006KT 10SM OVC043 23/09 A3010 RMK AO2 SLP188 T02330089 $,29.392,-98.581,214,"Lackland AFB/Kelly Fld, TX, US",OVC,"[{'cover': 'OVC', 'base': 4300}]",VFR,,1018.8,,,,,,SKF,Lackland Air Force Base,United States of America,San Antonio,https://www.worlddata.info/america/usa/airports.php
1259,KSLB,2025-11-23 01:42:37.150000+00:00,1763861700,2025-11-23T01:35:00.000Z,4.0,3.0,290,9.0,10+,1019.7,6,METAR,METAR KSLB 230135Z AUTO 29009KT 10SM CLR 04/03 A3011 RMK AO2,42.5972,-95.2399,450,"Storm Lake Muni, IA, US",CLR,[],VFR,,,,,,,,SLB,Storm Lake Municipal Airport,United States of America,Storm Lake,https://www.worlddata.info/america/usa/airports.php
1260,KSLC,2025-11-23 02:02:11.475000+00:00,1763862840,2025-11-23T02:00:00.000Z,5.6,3.3,0,0.0,8,1023.5,12,METAR,METAR KSLC 230154Z 00000KT 8SM FEW033 FEW100 SCT220 06/03 A3022 RMK AO2 SLP233 T00560033 VISNO NW RNWY $,40.7707,-111.965,1286,"Salt Lake City Intl, UT, US",SCT,"[{'cover': 'FEW', 'base': 3300}, {'cover': 'FEW', 'base': 10000}, {'cover': 'SCT', 'base': 22000}]",VFR,,1023.3,,,,,,SLC,Salt Lake City International Airport,United States of America,Salt Lake City,https://www.worlddata.info/america/usa/airports.php
1261,KSLK,2025-11-23 01:56:13.356000+00:00,1763862660,2025-11-23T02:00:00.000Z,-7.2,-8.3,0,0.0,4,1013.6,6,METAR,METAR KSLK 230151Z AUTO 00000KT 4SM BR CLR M07/M08 A2993 RMK AO2 SLP158 I1001 T10721083,44.3928,-74.2029,502,"Saranac Lake/Adirondack Rgnl, NY, US",CLR,[],MVFR,BR,1015.8,,,,,,SLK,Adirondack Regional Airport,United States of America,Saranac Lake,https://www.worlddata.info/america/usa/airports.php
1262,KSLN,2025-11-23 02:02:37.885000+00:00,1763862780,2025-11-23T02:00:00.000Z,7.8,6.7,170,5.0,10+,1021.8,4,METAR,METAR KSLN 230153Z 17005KT 10SM CLR 08/07 A3017 RMK AO2 SLP224 T00780067,38.78,-97.6446,377,"Salina Rgnl, KS, US",CLR,[],VFR,,1022.4,,,,,,SLN,Salina Municipal Airport,United States of America,Salina,https://www.worlddata.info/america/usa/airports.php
1263,KSLO,2025-11-23 01:40:22.671000+00:00,1763861700,2025-11-23T01:35:00.000Z,8.8,6.1,0,0.0,10+,1020.4,6,METAR,METAR KSLO 230135Z AUTO 00000KT 10SM CLR 09/06 A3013 RMK AO2 T00880061,38.6446,-88.9612,173,"Salem/Leckrone Arpt, IL, US",CLR,[],VFR,,,,,,,,SLO,Salem–Leckrone Airport,United States of America,Salem,https://www.worlddata.info/america/usa/airports.php
1264,KSLR,2025-11-23 01:42:37.173000+00:00,1763861700,2025-11-23T01:35:00.000Z,13.3,9.3,350,6.0,10+,1023.5,134,METAR,METAR KSLR 230135Z AUTO 35006KT 10SM CLR 13/09 A3022 RMK AO2 T01330093 PWINO,33.1615,-95.6189,144,"Sulphur Springs Muni, TX, US",CLR,[],VFR,,,,,,,,SLR,Sulphur Springs Municipal Airport,United States of America,Sulphur Springs,https://www.worlddata.info/america/usa/airports.php
1265,KSMD,2025-11-23 01:41:08.549000+00:00,1763861700,2025-11-23T01:35:00.000Z,6.0,-1.0,0,0.0,10+,1016.7,6,METAR,METAR KSMD 230135Z AUTO 00000KT 10SM FEW065 BKN100 06/M01 A3002 RMK A01,41.144,-85.1492,252,"Fort Wayne/Smith Fld, IN, US",BKN,"[{'cover': 'FEW', 'base': 6500}, {'cover': 'BKN', 'base': 10000}]",VFR,,,,,,,,SMD,Smith Field,United States of America,Fort Wayne,https://www.worlddata.info/america/usa/airports.php
1266,KSME,2025-11-23 01:43:02.202000+00:00,1763861700,2025-11-23T01:35:00.000Z,11.0,11.0,10,8.0,10+,1019.0,6,METAR,METAR KSME 230135Z AUTO 01008KT 10SM OVC011 11/11 A3009 RMK AO2,37.0529,-84.6141,279,"Somerset/Lake Cumberland Rgnl, KY, US",OVC,"[{'cover': 'OVC', 'base': 1100}]",MVFR,,,,,,,,SME,Lake Cumberland Regional Airport,United States of America,Somerset,https://www.worlddata.info/america/usa/airports.php
1267,KSMF,2025-11-23 02:02:37.968000+00:00,1763862780,2025-11-23T02:00:00.000Z,12.8,8.3,170,7.0,10+,1017.4,12,METAR,METAR KSMF 230153Z 17007KT 10SM FEW250 13/08 A3004 RMK AO2 SLP171 T01280083 $,38.7007,-121.5948,7,"Sacramento Intl, CA, US",FEW,"[{'cover': 'FEW', 'base': 25000}]",VFR,,1017.1,,,,,,SMF,Sacramento International Airport,United States of America,Sacramento,https://www.worlddata.info/america/usa/airports.php
1268,KSMO,2025-11-23 01:54:13.558000+00:00,1763862660,2025-11-23T02:00:00.000Z,18.9,6.7,0,0.0,10+,1013.6,4,METAR,METAR KSMO 230151Z 00000KT 10SM CLR 19/07 A2993 RMK AO2 SLP135 T01890067,34.021,-118.4471,56,"Santa Monica Muni, CA, US",CLR,[],VFR,,1013.5,,,,,,SMO,Santa Monica Municipal Airport,United States of America,Santa Monica,https://www.worlddata.info/america/usa/airports.php
1269,KSMS,2025-11-23 01:42:03.924000+00:00,1763861700,2025-11-23T01:35:00.000Z,19.0,18.0,210,3.0,10+,1014.6,134,METAR,METAR KSMS 230135Z AUTO 21003KT 10SM CLR 19/18 A2996 RMK AO2 PWINO,34.0003,-80.3582,53,"Sumter Muni, SC, US",CLR,[],VFR,,,,,,,,SUM,Sumter Airport,United States of America,Sumter,https://www.worlddata.info/america/usa/airports.php
1270,KSMX,2025-11-23 01:56:15.338000+00:00,1763862660,2025-11-23T02:00:00.000Z,13.3,11.1,0,0.0,10+,1016.0,4,METAR,METAR KSMX 230151Z 00000KT 10SM CLR 13/11 A3000 RMK AO2 SLP163 T01330111,34.894,-120.4522,73,"Santa Maria/Hancock Fld, CA, US",CLR,[],VFR,,1016.3,,,,,,SMX,Santa Maria Public Airport Captain G Allan Hancock Field,United States of America,Santa Maria,https://www.worlddata.info/america/usa/airports.php
1271,KSNA,2025-11-23 02:02:38.169000+00:00,1763862780,2025-11-23T02:00:00.000Z,18.3,8.9,0,0.0,10+,1013.3,12,METAR,METAR KSNA 230153Z 00000KT 10SM BKN110 18/09 A2992 RMK AO2 SLP131 T01830089 PNO $,33.6798,-117.8675,14,"Santa Ana/Wayne Arpt, CA, US",BKN,"[{'cover': 'BKN', 'base': 11000}]",VFR,,1013.1,,,,,,SNA,John Wayne Orange County International Airport,United States of America,Santa Ana,https://www.worlddata.info/america/usa/airports.php
1272,KSNK,2025-11-23 01:38:24.239000+00:00,1763861700,2025-11-23T01:35:00.000Z,14.0,6.1,70,5.0,10+,1022.8,6,METAR,METAR KSNK 230135Z AUTO 07005KT 10SM CLR 14/06 A3020 RMK AO2 T01400061,32.6917,-100.9505,738,"Snyder/Winston Fld, TX, US",CLR,[],VFR,,,,,,,,SNK,Winston Field,United States of America,Snyder,https://www.worlddata.info/america/usa/airports.php
1273,KSNL,2025-11-23 01:42:37.516000+00:00,1763861700,2025-11-23T01:35:00.000Z,9.0,5.8,0,0.0,10+,1023.1,6,METAR,METAR KSNL 230135Z AUTO 00000KT 10SM SCT012 09/06 A3021 RMK AO2 T00900058,35.3611,-96.9445,327,"Shawnee Rgnl, OK, US",SCT,"[{'cover': 'SCT', 'base': 1200}]",VFR,,,,,,,,SNL,Shawnee Regional Airport,United States of America,Shawnee,https://www.worlddata.info/america/usa/airports.php
1274,KSNS,2025-11-23 02:02:38.264000+00:00,1763862780,2025-11-23T02:00:00.000Z,13.3,11.1,350,4.0,10+,1017.4,4,METAR,METAR KSNS 230153Z 35004KT 10SM CLR 13/11 A3004 RMK AO2 SLP180 T01330111,36.6635,-121.6093,20,"Salinas Muni, CA, US",CLR,[],VFR,,1018.0,,,,,,SNS,Salinas Municipal Airport,United States of America,Salinas,https://www.worlddata.info/america/usa/airports.php
1275,KSNY,2025-11-23 02:02:52.910000+00:00,1763862780,2025-11-23T02:00:00.000Z,2.8,-2.8,140,5.0,10+,1021.8,6,METAR,METAR KSNY 230153Z AUTO 14005KT 10SM CLR 03/M03 A3017 RMK AO2 SLP233 T00281028,41.0993,-102.9864,1307,"Sidney/Carr Fld, NE, US",CLR,[],VFR,,1023.3,,,,,,SNY,Sidney Municipal Airport Lloyd W Carr Field,United States of America,Sidney,https://www.worlddata.info/america/usa/airports.php
1276,KSOW,2025-11-23 01:38:27.150000+00:00,1763861700,2025-11-23T01:35:00.000Z,9.0,3.0,100,7.0,10+,1017.7,6,METAR,METAR KSOW 230135Z AUTO 10007KT 10SM FEW110 09/03 A3005 RMK AO2,34.2686,-110.0019,1954,"Show Low Muni, AZ, US",FEW,"[{'cover': 'FEW', 'base': 11000}]",VFR,,,,,,,,SOW,Show Low Regional Airport,United States of America,Show Low,https://www.worlddata.info/america/usa/airports.php
1277,KSPA,2025-11-23 01:42:37.686000+00:00,1763861700,2025-11-23T01:35:00.000Z,18.0,10.0,0,0.0,10+,1015.0,6,METAR,METAR KSPA 230135Z AUTO 00000KT 10SM CLR 18/10 A2997 RMK AO2,34.9106,-81.9589,242,"Spartanburg/Downtown Arpt, SC, US",CLR,[],VFR,,,,,,,,SPA,Spartanburg Downtown Memorial Airport,United States of America,Spartanburg,https://www.worlddata.info/america/usa/airports.php
1278,KSPF,2025-11-23 01:40:21.242000+00:00,1763861700,2025-11-23T01:35:00.000Z,6.0,-3.0,180,5.0,10+,1019.4,6,METAR,METAR KSPF 230135Z AUTO 18005KT 10SM CLR 06/M03 A3010 RMK AO2,44.4811,-103.7879,1191,"Spearfish/Clyde Fld, SD, US",CLR,[],VFR,,,,,,,,SPF,Black Hills Airport-Clyde Ice Field,United States of America,Spearfish,https://www.worlddata.info/america/usa/airports.php
1279,KSPG,2025-11-23 02:02:38.475000+00:00,1763862780,2025-11-23T02:00:00.000Z,22.8,20.6,320,6.0,10+,1018.7,6,METAR,METAR KSPG 230153Z AUTO 32006KT 10SM CLR 23/21 A3008 RMK AO2 SLP186 T02280206,27.7685,-82.6257,1,"St Petersburg/Whitted Arpt, FL, US",CLR,[],VFR,,1018.6,,,,,,SPG,Albert Whitted Airport,United States of America,St Petersburg,https://www.worlddata.info/america/usa/airports.php
1280,KSPW,2025-11-23 02:02:38.572000+00:00,1763862780,2025-11-23T02:00:00.000Z,3.3,1.1,300,10.0,10+,1019.4,6,METAR,METAR KSPW 230153Z AUTO 30010KT 10SM CLR 03/01 A3010 RMK AO2 SLP205 T00330011,43.1682,-95.2101,407,"Spencer Muni, IA, US",CLR,[],VFR,,1020.5,,,,,,SPW,Spencer Municipal Airport,United States of America,Spencer,https://www.worlddata.info/america/usa/airports.php
1281,KSQL,2025-11-23 02:02:11.628000+00:00,1763862600,2025-11-23T02:00:00.000Z,14.0,12.0,0,0.0,10+,1017.7,0,METAR,METAR KSQL 230150Z 00000KT 10SM SKC 14/12 A3005,37.5119,-122.2483,1,"San Carlos Arpt, CA, US",SKC,[],VFR,,,,,,,,SQL,San Carlos Airport,United States of America,San Carlos,https://www.worlddata.info/america/usa/airports.php
1282,KSRQ,2025-11-23 02:02:38.655000+00:00,1763862780,2025-11-23T02:00:00.000Z,21.7,18.9,330,4.0,10+,1019.4,4,METAR,METAR KSRQ 230153Z 33004KT 10SM CLR 22/19 A3010 RMK AO2 SLP192 T02170189,27.4015,-82.5597,5,"Sarasota-Bradenton Intl, FL, US",CLR,[],VFR,,1019.2,,,,,,SRQ,Sarasota Bradenton International Airport,United States of America,Sarasota/Bradenton,https://www.worlddata.info/america/usa/airports.php
1283,KSRR,2025-11-23 01:38:24.287000+00:00,1763861700,2025-11-23T01:35:00.000Z,6.0,-5.0,150,7.0,10+,1025.5,38,METAR,METAR KSRR 230135Z AUTO 15007KT 10SM BKN050 06/M05 A3028 RMK AO2 TSNO,33.4667,-105.5278,2063,"Ruidoso Rgnl, NM, US",BKN,"[{'cover': 'BKN', 'base': 5000}]",VFR,,,,,,,,RUI,Sierra Blanca Regional Airport,United States of America,Alto,https://www.worlddata.info/america/usa/airports.php
1284,KSSC,2025-11-23 01:58:04.288000+00:00,1763862900,2025-11-23T02:00:00.000Z,18.8,16.9,210,3.0,10+,1014.0,14,METAR,METAR KSSC 230155Z AUTO 21003KT 10SM CLR 19/17 A2994 RMK AO2 SLP139 T01880169 $,33.978,-80.466,71,"Shaw AFB, SC, US",CLR,[],VFR,,1013.9,,,,,,SSC,Shaw Air Force Base,United States of America,Sumter,https://www.worlddata.info/america/usa/airports.php
1285,KSSF,2025-11-23 02:02:38.740000+00:00,1763862780,2025-11-23T02:00:00.000Z,22.8,10.6,40,6.0,10+,1020.1,12,METAR,METAR KSSF 230153Z 04006G14KT 10SM OVC044 23/11 A3012 RMK AO2 SLP191 T02280106 $,29.339,-98.472,175,"San Antonio/Stinson Muni, TX, US",OVC,"[{'cover': 'OVC', 'base': 4400}]",VFR,,1019.1,,,,14.0,,SSF,Stinson Municipal Airport,United States of America,San Antonio,https://www.worlddata.info/america/usa/airports.php
1286,KSSI,2025-11-23 01:43:02.512000+00:00,1763861700,2025-11-23T01:35:00.000Z,22.0,19.0,220,4.0,10+,1016.3,6,METAR,METAR KSSI 230135Z AUTO 22004KT 10SM CLR 22/19 A3001 RMK AO2,31.1527,-81.3905,6,"Brunswick/McKinnon St Simons Arpt, GA, US",CLR,[],VFR,,,,,,,,SSI,St Simons Island Airport,United States of America,St Simons Island,https://www.worlddata.info/america/usa/airports.php
1287,KSTC,2025-11-23 02:02:38.827000+00:00,1763862780,2025-11-23T02:00:00.000Z,6.7,-2.2,290,13.0,10+,1016.3,12,METAR,METAR KSTC 230153Z 29013KT 10SM CLR 07/M02 A3001 RMK AO2 SLP179 T00671022 $,45.5442,-94.0516,302,"St Cloud Rgnl, MN, US",CLR,[],VFR,,1017.9,,,,,,STC,Saint Cloud Regional Airport,United States of America,Saint Cloud,https://www.worlddata.info/america/usa/airports.php
1288,KSTE,2025-11-23 01:42:25.629000+00:00,1763861700,2025-11-23T01:35:00.000Z,5.2,0.9,260,5.0,10+,1012.3,6,METAR,METAR KSTE 230135Z AUTO 26005KT 10SM CLR 05/01 A2989 RMK AO2 T00520009,44.5437,-89.5347,335,"Stevens Point Muni, WI, US",CLR,[],VFR,,,,,,,,STE,Stevens Point Municipal Airport,United States of America,Stevens Point,https://www.worlddata.info/america/usa/airports.php
1289,KSTJ,2025-11-23 02:02:38.927000+00:00,1763862780,2025-11-23T02:00:00.000Z,7.8,6.1,200,6.0,10+,1020.4,6,METAR,METAR KSTJ 230153Z AUTO 20006KT 10SM CLR 08/06 A3013 RMK AO2 SLP208 T00780061,39.7683,-94.9095,247,"St Joseph/Rosecrans Mem, MO, US",CLR,[],VFR,,1020.8,,,,,,STJ,Rosecrans Memorial Airport,United States of America,St Joseph,https://www.worlddata.info/america/usa/airports.php
1290,KSTL,2025-11-23 01:54:13.599000+00:00,1763862660,2025-11-23T02:00:00.000Z,8.9,6.7,260,5.0,10+,1021.1,12,METAR,METAR KSTL 230151Z 26005KT 10SM FEW250 09/07 A3015 RMK AO2 SLP211 T00890067 $,38.7525,-90.3734,163,"St Louis/Lambert Intl, MO, US",FEW,"[{'cover': 'FEW', 'base': 25000}]",VFR,,1021.1,,,,,,STL,St. Louis Lambert International Airport,United States of America,St Louis,https://www.worlddata.info/america/usa/airports.php
1291,KSTP,2025-11-23 02:02:39.003000+00:00,1763862780,2025-11-23T02:00:00.000Z,8.3,-0.6,300,11.0,10+,1016.0,4,METAR,METAR KSTP 230153Z 30011KT 10SM CLR 08/M01 A3000 RMK AO2 SLP162 T00831006,44.9323,-93.0559,213,"Saint Paul/Downtown Arpt, MN, US",CLR,[],VFR,,1016.2,,,,,,STP,Saint Paul Downtown Holman Field,United States of America,Saint Paul,https://www.worlddata.info/america/usa/airports.php
1292,KSTS,2025-11-23 02:02:39.109000+00:00,1763862780,2025-11-23T02:00:00.000Z,11.1,9.4,150,6.0,10+,1017.0,4,METAR,METAR KSTS 230153Z 15006KT 10SM CLR 11/09 A3003 RMK AO2 SLP163 T01110094,38.5037,-122.811,35,"Santa Rosa/Schulz Arpt, CA, US",CLR,[],VFR,,1016.3,,,,,,STS,Charles M. Schulz Sonoma County Airport,United States of America,Santa Rosa,https://www.worlddata.info/america/usa/airports.php
1293,KSUA,2025-11-23 01:45:58.849000+00:00,1763862420,2025-11-23T02:00:00.000Z,21.0,19.0,0,0.0,7,1018.7,0,METAR,METAR KSUA 230147Z 00000KT 7SM CLR 21/19 A3008,27.1815,-80.2252,4,"Stuart/Witham Fld, FL, US",CLR,[],VFR,,,,,,,,SUA,Witham Field,United States of America,Stuart,https://www.worlddata.info/america/usa/airports.php
1294,KSUN,2025-11-23 01:44:10.396000+00:00,1763861700,2025-11-23T01:35:00.000Z,0.0,0.0,320,7.0,10+,1024.1,6,METAR,METAR KSUN 230135Z AUTO 32007KT 10SM CLR 00/00 A3024 RMK AO2,43.4969,-114.2923,1619,"Hailey/Friedman Mem, ID, US",CLR,[],VFR,,,,,,,,SUN,Friedman Memorial Airport,United States of America,Hailey,https://www.worlddata.info/america/usa/airports.php
1295,KSUS,2025-11-23 02:02:11.770000+00:00,1763862840,2025-11-23T02:00:00.000Z,6.1,5.6,0,0.0,7,1020.7,4,METAR,METAR KSUS 230154Z 00000KT 7SM CLR 06/06 A3014 RMK AO2 SLP210 T00610056,38.6575,-90.6557,140,"St Louis/Spirit of St Louis Arpt, MO, US",CLR,[],VFR,,1021.0,,,,,,SUS,Spirit of St Louis Airport,United States of America,St Louis,https://www.worlddata.info/america/usa/airports.php
1296,KSUU,2025-11-23 01:58:04.751000+00:00,1763862900,2025-11-23T02:00:00.000Z,10.3,8.7,110,3.0,10+,1016.7,14,METAR,METAR KSUU 230155Z AUTO 11003KT 10SM CLR 10/09 A3002 RMK AO2 SLP172 T01030087 $,38.25,-121.938,9,"Fairfield/Travis AFB, CA, US",CLR,[],VFR,,1017.2,,,,,,SUU,Travis Air Force Base,United States of America,Fairfield,https://www.worlddata.info/america/usa/airports.php
1297,KSUW,2025-11-23 01:40:32.646000+00:00,1763861700,2025-11-23T01:35:00.000Z,6.7,-0.2,250,9.0,10+,1012.3,6,METAR,METAR KSUW 230135Z AUTO 25009KT 10SM CLR 07/00 A2989 RMK AO2 T00671002,46.6833,-92.0926,205,"Superior/Bong Arpt, WI, US",CLR,[],VFR,,,,,,,,SUW,Richard I Bong Memorial Airport,United States of America,Superior,https://www.worlddata.info/america/usa/airports.php
1298,KSUX,2025-11-23 01:56:13.986000+00:00,1763862720,2025-11-23T02:00:00.000Z,5.0,1.1,320,3.0,10+,1020.7,4,METAR,METAR KSUX 230152Z 32003KT 10SM CLR 05/01 A3014 RMK AO2 SLP216 T00500011,42.3917,-96.3795,332,"Sioux City/Day Fld, IA, US",CLR,[],VFR,,1021.6,,,,,,SUX,Sioux Gateway Airport / Brigadier General Bud Day Field,United States of America,Sioux City,https://www.worlddata.info/america/usa/airports.php
1299,KSVC,2025-11-23 01:44:10.436000+00:00,1763861700,2025-11-23T01:35:00.000Z,11.9,-0.6,90,15.0,10+,1018.7,6,METAR,METAR KSVC 230135Z AUTO 09015KT 10SM CLR 12/M01 A3008 RMK AO2 T01191006,32.631,-108.1466,1638,"Silver City/Grant Cnty, NM, US",CLR,[],VFR,,,,,,,,SVC,Grant County Airport,United States of America,Silver City,https://www.worlddata.info/america/usa/airports.php
1300,KSVE,2025-11-23 01:40:27.973000+00:00,1763861700,2025-11-23T01:35:00.000Z,4.0,2.0,270,3.0,10+,1021.8,6,METAR,METAR KSVE 230135Z AUTO 27003KT 10SM CLR 04/02 A3017 RMK A01 P000,40.376,-120.5742,1263,"Susanville Muni, CA, US",CLR,[],VFR,,,,,,,,SVE,Susanville Municipal Airport,United States of America,Susanville,https://www.worlddata.info/america/usa/airports.php
1301,KSVH,2025-11-23 01:42:38.765000+00:00,1763861700,2025-11-23T01:35:00.000Z,15.7,8.0,0,0.0,10+,1015.3,6,METAR,METAR KSVH 230135Z AUTO 00000KT 10SM SCT080 16/08 A2998 RMK AO2 T01570080,35.7635,-80.9473,286,"Statesville Muni, NC, US",SCT,"[{'cover': 'SCT', 'base': 8000}]",VFR,,,,,,,,SVH,Statesville Regional Airport,United States of America,Statesville,https://www.worlddata.info/america/usa/airports.php
1302,KSVN,2025-11-23 02:00:50.518000+00:00,1763862900,2025-11-23T02:00:00.000Z,22.3,18.9,240,3.0,10+,1014.6,14,METAR,METAR KSVN 230155Z AUTO 24003KT 10SM CLR 22/19 A2996 RMK AO2 SLP148 T02230189 $,32.011,-81.131,13,"Savannah/Hunter AAF, GA, US",CLR,[],VFR,,1014.8,,,,,,SVN,Hunter Army Air Field,United States of America,Savannah,https://www.worlddata.info/america/usa/airports.php
1303,KSWF,2025-11-23 01:45:58.877000+00:00,1763862300,2025-11-23T02:00:00.000Z,0.0,-2.0,300,4.0,10+,1016.3,0,METAR,METAR KSWF 230145Z 30004KT 10SM SKC 00/M02 A3001,41.5045,-74.0999,139,"Newburgh/Stewart Intl, NY, US",SKC,[],VFR,,,,,,,,SWF,New York Stewart International Airport,United States of America,Newburgh,https://www.worlddata.info/america/usa/airports.php
1304,KSWO,2025-11-23 02:01:59.188000+00:00,1763862780,2025-11-23T02:00:00.000Z,5.6,5.6,210,3.0,7,1023.1,4,METAR,METAR KSWO 230153Z 21003KT 7SM CLR 06/06 A3021 RMK AO2 SLP230 T00560056,36.1624,-97.0832,293,"Stillwater Muni, OK, US",CLR,[],VFR,,1023.0,,,,,,SWO,Stillwater Regional Airport,United States of America,Stillwater,https://www.worlddata.info/america/usa/airports.php
1305,KSWW,2025-11-23 01:40:30.596000+00:00,1763861700,2025-11-23T01:35:00.000Z,13.5,8.5,90,7.0,7,1023.5,6,METAR,METAR KSWW 230135Z AUTO 09007KT 7SM 14/09 A3022 RMK AO2 T01350085,32.4688,-100.4669,718,"Sweetwater/Avenger Fld, TX, US",,,,,,,,,,,SWW,Avenger Field,United States of America,Sweetwater,https://www.worlddata.info/america/usa/airports.php
1306,KSYI,2025-11-23 01:46:07.780000+00:00,1763861700,2025-11-23T01:35:00.000Z,14.0,13.0,360,8.0,10+,1018.7,6,METAR,METAR KSYI 230135Z AUTO 36008KT 10SM OVC013 14/13 A3008 RMK A01,35.5594,-86.4406,244,"Shelbyville/Bomar Fld, TN, US",OVC,"[{'cover': 'OVC', 'base': 1300}]",MVFR,,,,,,,,SYI,Bomar Field Shelbyville Municipal Airport,United States of America,Shelbyville,https://www.worlddata.info/america/usa/airports.php
1307,KSYR,2025-11-23 02:02:12.196000+00:00,1763862840,2025-11-23T02:00:00.000Z,-0.6,-5.0,0,0.0,10+,1017.0,12,METAR,METAR KSYR 230154Z 00000KT 10SM BKN048 M01/M05 A3003 RMK AO2 SLP170 T10061050 $,43.1111,-76.1038,125,"Syracuse/Hancock Intl, NY, US",BKN,"[{'cover': 'BKN', 'base': 4800}]",VFR,,1017.0,,,,,,SYR,Syracuse Hancock International Airport,United States of America,Syracuse,https://www.worlddata.info/america/usa/airports.php
1308,KSZL,2025-11-23 01:58:11.435000+00:00,1763862900,2025-11-23T02:00:00.000Z,6.5,5.6,220,6.0,10+,1022.1,14,METAR,METAR KSZL 230155Z AUTO 22006KT 10SM CLR 07/06 A3018 RMK AO2 SLP226 T00650056 VISNO RWY01 CHINO RWY01 $,38.736,-93.55,259,"Whiteman AFB, MO, US",CLR,[],VFR,,1022.6,,,,,,SZL,Whiteman Air Force Base,United States of America,Knob Noster,https://www.worlddata.info/america/usa/airports.php
1309,KTAD,2025-11-23 02:02:12.322000+00:00,1763862840,2025-11-23T02:00:00.000Z,6.7,-2.2,VRB,3.0,10+,1023.5,6,METAR,METAR KTAD 230154Z AUTO VRB03KT 10SM CLR 07/M02 A3022 RMK AO2 SLP227 T00671022,37.2618,-104.3319,1751,"Trinidad/Stokes Arpt, CO, US",CLR,[],VFR,,1022.7,,,,,,TAD,Perry Stokes Airport,United States of America,Trinidad,https://www.worlddata.info/america/usa/airports.php
1310,KTBN,2025-11-23 02:01:12.454000+00:00,1763862900,2025-11-23T02:00:00.000Z,9.5,8.3,0,0.0,10+,1021.4,14,METAR,METAR KTBN 230155Z AUTO 00000KT 10SM OVC007 10/08 A3016 RMK AO2 SLP217 T00950083 $,37.7445,-92.1447,349,"Waynesville-St Robert Rgnl, MO, US",OVC,"[{'cover': 'OVC', 'base': 700}]",IFR,,1021.7,,,,,,TBN,Waynesville-St. Robert Regional Airport-Forney Field,United States of America,Fort Leonard Wood,https://www.worlddata.info/america/usa/airports.php
1311,KTBR,2025-11-23 01:42:48.296000+00:00,1763861700,2025-11-23T01:35:00.000Z,18.0,18.0,210,3.0,10+,1015.0,6,METAR,METAR KTBR 230135Z AUTO 21003KT 10SM FEW060 18/18 A2997 RMK AO2,32.48,-81.738,54,"Statesboro Muni, GA, US",FEW,"[{'cover': 'FEW', 'base': 6000}]",VFR,,,,,,,,TBR,Statesboro Bulloch County Airport,United States of America,Statesboro,https://www.worlddata.info/america/usa/airports.php
1312,KTCC,2025-11-23 02:02:52.982000+00:00,1763862780,2025-11-23T02:00:00.000Z,8.3,-0.6,70,3.0,10+,1022.4,14,METAR,METAR KTCC 230153Z AUTO 07003KT 10SM CLR 08/M01 A3019 RMK AO2 SLP215 T00831006 $,35.1805,-103.6014,1233,"Tucumcari Muni, NM, US",CLR,[],VFR,,1021.5,,,,,,TCC,Tucumcari Municipal Airport,United States of America,Tucumcari,https://www.worlddata.info/america/usa/airports.php
1313,KTCL,2025-11-23 02:01:59.219000+00:00,1763862780,2025-11-23T02:00:00.000Z,16.1,15.0,0,0.0,9,1017.7,4,METAR,METAR KTCL 230153Z 00000KT 9SM CLR 16/15 A3005 RMK AO2 SLP173 T01610150,33.2122,-87.6155,48,"Tuscaloosa Rgnl, AL, US",CLR,[],VFR,,1017.3,,,,,,TCL,Tuscaloosa National Airport,United States of America,Tuscaloosa,https://www.worlddata.info/america/usa/airports.php
1314,KTCM,2025-11-23 01:58:10.792000+00:00,1763862900,2025-11-23T02:00:00.000Z,11.5,8.5,220,6.0,10+,1018.4,14,METAR,METAR KTCM 230155Z AUTO 22006KT 10SM BKN049 OVC070 12/09 A3007 RMK AO2 SLP187 T01150085 $,47.149,-122.475,87,"Tacoma/McChord AFB, WA, US",OVC,"[{'cover': 'BKN', 'base': 4900}, {'cover': 'OVC', 'base': 7000}]",VFR,,1018.7,,,,,,TCM,McChord Air Force Base,United States of America,Tacoma,https://www.worlddata.info/america/usa/airports.php
1315,KTCS,2025-11-23 02:02:53.052000+00:00,1763862780,2025-11-23T02:00:00.000Z,13.9,2.2,350,3.0,10+,1019.7,6,METAR,METAR KTCS 230153Z AUTO 35003KT 10SM CLR 14/02 A3011 RMK AO2 SLP163 T01390022,33.2369,-107.2685,1471,"Truth or Consequence Muni, NM, US",CLR,[],VFR,,1016.3,,,,,,TCS,Truth or Consequences Municipal Airport,United States of America,Truth or Consequences,https://www.worlddata.info/america/usa/airports.php
1316,KTDZ,2025-11-23 02:01:59.241000+00:00,1763862780,2025-11-23T02:00:00.000Z,3.9,-1.1,190,5.0,10+,1017.0,6,METAR,METAR KTDZ 230153Z AUTO 19005KT 10SM OVC070 04/M01 A3003 RMK AO2 SLP173 T00391011,41.5633,-83.4767,189,"Toledo Executive Arpt, OH, US",OVC,"[{'cover': 'OVC', 'base': 7000}]",VFR,,1017.3,,,,,,TDZ,Toledo Executive Airport,United States of America,Toledo,https://www.worlddata.info/america/usa/airports.php
1317,KTEB,2025-11-23 01:54:13.630000+00:00,1763862660,2025-11-23T02:00:00.000Z,5.6,-3.3,330,4.0,10+,1016.3,12,METAR,METAR KTEB 230151Z 33004KT 10SM CLR 06/M03 A3001 RMK AO2 SLP163 T00561033 $,40.859,-74.0562,3,"Teterboro Arpt, NJ, US",CLR,[],VFR,,1016.3,,,,,,TEB,Teterboro Airport,United States of America,Teterboro,https://www.worlddata.info/america/usa/airports.php
1318,KTEX,2025-11-23 01:43:02.167000+00:00,1763861700,2025-11-23T01:35:00.000Z,0.0,-3.0,0,0.0,10+,1026.2,6,METAR,METAR KTEX 230135Z AUTO 00000KT 10SM CLR 00/M03 A3030 RMK AO2,37.954,-107.909,2760,"Telluride Rgnl, CO, US",CLR,[],VFR,,,,,,,,TEX,Telluride Regional Airport,United States of America,Telluride,https://www.worlddata.info/america/usa/airports.php
1319,KTHA,2025-11-23 01:46:07.936000+00:00,1763861700,2025-11-23T01:35:00.000Z,14.0,13.0,340,5.0,10+,1018.0,6,METAR,METAR KTHA 230135Z AUTO 34005KT 10SM OVC065 14/13 A3006 RMK A01,35.3804,-86.2419,333,"Tullahoma Rgnl, TN, US",OVC,"[{'cover': 'OVC', 'base': 6500}]",VFR,,,,,,,,THA,Tullahoma Regional Airport William Northern Field,United States of America,Tullahoma,https://www.worlddata.info/america/usa/airports.php
1320,KTHV,2025-11-23 02:01:59.266000+00:00,1763862780,2025-11-23T02:00:00.000Z,0.6,0.6,0,0.0,7,1016.7,6,METAR,METAR KTHV 230153Z AUTO 00000KT 7SM CLR 01/01 A3002 RMK AO2 SLP170 T00060006,39.9194,-76.8769,141,"York Arpt, PA, US",CLR,[],VFR,,1017.0,,,,,,THV,York Airport,United States of America,Thomasville,https://www.worlddata.info/america/usa/airports.php
1321,KTIK,2025-11-23 01:58:11.719000+00:00,1763862900,2025-11-23T02:00:00.000Z,7.5,5.8,80,4.0,10+,1021.1,14,METAR,METAR KTIK 230155Z AUTO 08004KT 10SM CLR 08/06 A3015 RMK AO2 SLP215 T00750058 $,35.415,-97.386,387,"Tinker AFB, OK, US",CLR,[],VFR,,1021.5,,,,,,TIK,Tinker Air Force Base,United States of America,Oklahoma City,https://www.worlddata.info/america/usa/airports.php
1322,KTIW,2025-11-23 02:01:59.290000+00:00,1763862780,2025-11-23T02:00:00.000Z,10.6,7.8,200,9.0,10+,1018.4,4,METAR,METAR KTIW 230153Z 20009G18KT 10SM FEW031 OVC050 11/08 A3007 RMK AO2 SLP183 T01060078,47.2674,-122.5762,89,"Tacoma Narrows Arpt, WA, US",OVC,"[{'cover': 'FEW', 'base': 3100}, {'cover': 'OVC', 'base': 5000}]",VFR,,1018.3,,,,18.0,,TIW,Tacoma Narrows Airport,United States of America,Tacoma,https://www.worlddata.info/america/usa/airports.php
1323,KTIX,2025-11-23 01:48:10.321000+00:00,1763862420,2025-11-23T02:00:00.000Z,20.0,17.0,190,5.0,7,1019.0,0,METAR,METAR KTIX 230147Z 19005KT 7SM SKC 20/17 A3009,28.508,-80.798,10,"Titusville/Space Coast Rgnl, FL, US",SKC,[],VFR,,,,,,,,TIX,Space Coast Regional Airport,United States of America,Titusville,https://www.worlddata.info/america/usa/airports.php
1324,KTKX,2025-11-23 01:38:20.455000+00:00,1763861700,2025-11-23T01:35:00.000Z,12.0,12.0,10,7.0,5,1020.7,6,METAR,METAR KTKX 230135Z AUTO 01007KT 5SM BR SCT008 OVC017 12/12 A3014 RMK AO2,36.2226,-90.0367,73,"Kennett Arpt, MO, US",OVC,"[{'cover': 'SCT', 'base': 800}, {'cover': 'OVC', 'base': 1700}]",MVFR,BR,,,,,,,KNT,Kennett Memorial Airport,United States of America,Kennett,https://www.worlddata.info/america/usa/airports.php
1325,KTLH,2025-11-23 02:01:59.341000+00:00,1763862780,2025-11-23T02:00:00.000Z,21.1,18.9,250,5.0,10+,1018.0,12,METAR,METAR KTLH 230153Z 25005KT 10SM FEW040 21/19 A3006 RMK AO2 SLP178 T02110189 $,30.3935,-84.3513,17,"Tallahassee Intl, FL, US",FEW,"[{'cover': 'FEW', 'base': 4000}]",VFR,,1017.8,,,,,,TLH,Tallahassee Regional Airport,United States of America,Tallahassee,https://www.worlddata.info/america/usa/airports.php
1326,KTMA,2025-11-23 01:40:23.532000+00:00,1763861700,2025-11-23T01:35:00.000Z,20.1,19.9,210,3.0,10+,1017.7,6,METAR,METAR KTMA 230135Z AUTO 21003KT 10SM CLR 20/20 A3005 RMK AO2 T02010199,31.4229,-83.4859,105,"Tifton/Myers Arpt, GA, US",CLR,[],VFR,,,,,,,,TMA,Henry Tift Myers Airport,United States of America,Tifton,https://www.worlddata.info/america/usa/airports.php
1327,KTMB,2025-11-23 02:01:59.362000+00:00,1763862780,2025-11-23T02:00:00.000Z,18.9,17.8,290,4.0,10+,1019.4,12,METAR,METAR KTMB 230153Z 29004KT 10SM CLR 19/18 A3010 RMK AO2 SLP191 T01890178 $,25.6423,-80.4347,2,"Miami Exec Arpt, FL, US",CLR,[],VFR,,1019.1,,,,,,TMB,Miami Executive Airport,United States of America,Miami,https://www.worlddata.info/america/usa/airports.php
1328,KTMK,2025-11-23 01:44:10.573000+00:00,1763861700,2025-11-23T01:35:00.000Z,11.0,10.0,0,0.0,5,1020.4,6,METAR,METAR KTMK 230135Z AUTO 00000KT 5SM BR OVC002 11/10 A3013 RMK AO2,45.421,-123.8144,8,"Tillamook Arpt, OR, US",OVC,"[{'cover': 'OVC', 'base': 200}]",LIFR,BR,,,,,,,OTK,Tillamook Airport,United States of America,Tillamook,https://www.worlddata.info/america/usa/airports.php
1329,KTNU,2025-11-23 01:42:49.118000+00:00,1763861700,2025-11-23T01:35:00.000Z,10.0,7.0,290,7.0,10+,1018.0,6,METAR,METAR KTNU 230135Z AUTO 29007KT 10SM CLR 10/07 A3006 RMK A01,41.6701,-93.019,287,"Newton Muni, IA, US",CLR,[],VFR,,,,,,,,TNU,Newton Municipal Airport,United States of America,Newton,https://www.worlddata.info/america/usa/airports.php
1330,KTOA,2025-11-23 01:53:40.955000+00:00,1763862420,2025-11-23T02:00:00.000Z,16.0,9.0,200,4.0,10+,1013.6,0,METAR,METAR KTOA 230147Z 20004KT 10SM SCT080 16/09 A2993,33.803,-118.336,30,"Torrance Muni, CA, US",SCT,"[{'cover': 'SCT', 'base': 8000}]",VFR,,,,,,,,TOA,Zamperini Field,United States of America,Torrance,https://www.worlddata.info/america/usa/airports.php
1331,KTOC,2025-11-23 01:40:30.659000+00:00,1763861700,2025-11-23T01:35:00.000Z,18.8,12.5,270,4.0,10+,1016.0,6,METAR,METAR KTOC 230135Z AUTO 27004KT 10SM CLR 19/12 A3000 RMK AO2 T01880125,34.588,-83.2974,292,"Toccoa/Lefourneau Fld, GA, US",CLR,[],VFR,,,,,,,,TOC,Toccoa Airport - R.G. Letourneau Field,United States of America,Toccoa,https://www.worlddata.info/america/usa/airports.php
1332,KTOI,2025-11-23 02:01:59.378000+00:00,1763862780,2025-11-23T02:00:00.000Z,17.8,17.2,0,0.0,0.5,1018.4,6,METAR,METAR KTOI 230153Z AUTO 00000KT 1/2SM FG CLR 18/17 A3007 RMK AO2 SLP178 T01780172,31.8574,-86.0103,120,"Troy Muni, AL, US",CLR,[],LIFR,FG,1017.8,,,,,,TOI,Troy Municipal Airport at N Kenneth Campbell Field,United States of America,Troy,https://www.worlddata.info/america/usa/airports.php
1333,KTOP,2025-11-23 02:01:59.400000+00:00,1763862780,2025-11-23T02:00:00.000Z,6.7,5.0,0,0.0,10+,1021.4,6,METAR,METAR KTOP 230153Z AUTO 00000KT 10SM CLR 07/05 A3016 RMK AO2 SLP218 T00670050,39.0725,-95.626,268,"Topeka/Billard Muni, KS, US",CLR,[],VFR,,1021.8,,,,,,TOP,Philip Billard Municipal Airport,United States of America,Topeka,https://www.worlddata.info/america/usa/airports.php
1334,KTOR,2025-11-23 02:02:53.120000+00:00,1763862780,2025-11-23T02:00:00.000Z,7.2,-3.9,120,8.0,10+,1020.7,6,METAR,METAR KTOR 230153Z AUTO 12008KT 10SM CLR 07/M04 A3014 RMK AO2 SLP213 T00721039,42.0613,-104.1585,1285,"Torrington Muni, WY, US",CLR,[],VFR,,1021.3,,,,,,TOR,Torrington Municipal Airport,United States of America,Torrington,https://www.worlddata.info/america/usa/airports.php
1335,KTPA,2025-11-23 02:01:59.422000+00:00,1763862780,2025-11-23T02:00:00.000Z,21.7,17.8,320,4.0,10+,1019.7,4,METAR,METAR KTPA 230153Z 32004KT 10SM CLR 22/18 A3011 RMK AO2 SLP195 T02170178,27.9633,-82.54,2,"Tampa Intl Arpt, FL, US",CLR,[],VFR,,1019.5,,,,,,TPA,Tampa International Airport,United States of America,Tampa,https://www.worlddata.info/america/usa/airports.php
1336,KTPL,2025-11-23 01:54:06.348000+00:00,1763862660,2025-11-23T02:00:00.000Z,15.0,10.6,50,4.0,,1022.4,142,METAR,METAR KTPL 230151Z AUTO 05004KT CLR 15/11 A3019 RMK AO2 SLP218 T01500106 PWINO RVRNO $,31.157,-97.4094,206,"Temple/Miller Rgnl, TX, US",CLR,[],,,1021.8,,,,,,TPL,Draughon Miller Central Texas Regional Airport,United States of America,Temple,https://www.worlddata.info/america/usa/airports.php
1337,KTRI,2025-11-23 02:01:59.446000+00:00,1763862780,2025-11-23T02:00:00.000Z,11.7,8.9,0,0.0,10+,1017.0,12,METAR,METAR KTRI 230153Z 00000KT 10SM SCT055 12/09 A3003 RMK AO2 SLP155 T01170089 $,36.4797,-82.3989,456,"Bristol/Tri-Cities Arpt, TN, US",SCT,"[{'cover': 'SCT', 'base': 5500}]",VFR,,1015.5,,,,,,TRI,Tri-Cities Regional TN/VA Airport,United States of America,Blountville,https://www.worlddata.info/america/usa/airports.php
1338,KTRK,2025-11-23 01:48:48.085000+00:00,1763862420,2025-11-23T02:00:00.000Z,2.0,-1.0,0,0.0,10+,1021.8,0,METAR,METAR KTRK 230147Z 00000KT 10SM FEW180 02/M01 A3017,39.3154,-120.1371,1800,"Truckee/Tahoe Arpt, CA, US",FEW,"[{'cover': 'FEW', 'base': 18000}]",VFR,,,,,,,,TKF,Truckee Tahoe Airport,United States of America,Truckee,https://www.worlddata.info/america/usa/airports.php
1339,KTRL,2025-11-23 02:01:59.476000+00:00,1763862780,2025-11-23T02:00:00.000Z,11.7,8.9,40,4.0,10+,1022.8,6,METAR,METAR KTRL 230153Z AUTO 04004KT 10SM CLR 12/09 A3020 RMK AO2 SLP227 T01170089,32.7131,-96.2687,144,"Terrell Muni, TX, US",CLR,[],VFR,,1022.7,,,,,,TRL,Terrell Municipal Airport,United States of America,Terrell,https://www.worlddata.info/america/usa/airports.php
1340,KTSP,2025-11-23 01:40:33.426000+00:00,1763861700,2025-11-23T01:35:00.000Z,7.0,6.0,0,0.0,10+,1019.0,6,METAR,METAR KTSP 230135Z AUTO 00000KT 10SM CLR 07/06 A3009 RMK AO2,35.1387,-118.4424,1209,"Tehachapi Muni, CA, US",CLR,[],VFR,,,,,,,,TSP,Tehachapi Municipal Airport,United States of America,Tehachapi,https://www.worlddata.info/america/usa/airports.php
1341,KTTD,2025-11-23 02:01:59.516000+00:00,1763862780,2025-11-23T02:00:00.000Z,6.7,4.4,0,0.0,10+,1021.1,4,METAR,METAR KTTD 230153Z 00000KT 10SM OVC037 07/04 A3015 RMK AO2 SLP211 T00670044,45.551,-122.4098,8,"Portland/Troutdale Arpt, OR, US",OVC,"[{'cover': 'OVC', 'base': 3700}]",VFR,,1021.1,,,,,,TTD,Portland Troutdale Airport,United States of America,Portland,https://www.worlddata.info/america/usa/airports.php
1342,KTTN,2025-11-23 02:01:59.543000+00:00,1763862780,2025-11-23T02:00:00.000Z,5.0,-1.7,10,4.0,10+,1016.7,4,METAR,METAR KTTN 230153Z 01004KT 10SM CLR 05/M02 A3002 RMK AO2 SLP161 T00501017,40.2768,-74.8159,58,"Trenton/Mercer Arpt, NJ, US",CLR,[],VFR,,1016.1,,,,,,TTN,Trenton Mercer Airport,United States of America,Ewing Township,https://www.worlddata.info/america/usa/airports.php
1343,KTUL,2025-11-23 02:01:59.566000+00:00,1763862780,2025-11-23T02:00:00.000Z,10.0,6.7,290,5.0,10+,1023.8,12,METAR,METAR KTUL 230153Z 29005KT 10SM OVC015 10/07 A3023 RMK AO2 SLP236 T01000067 PNO $,36.1985,-95.8782,196,"Tulsa Intl Arpt, OK, US",OVC,"[{'cover': 'OVC', 'base': 1500}]",MVFR,,1023.6,,,,,,TUL,Tulsa International Airport,United States of America,Tulsa,https://www.worlddata.info/america/usa/airports.php
1344,KTUP,2025-11-23 02:01:59.598000+00:00,1763862780,2025-11-23T02:00:00.000Z,16.7,13.9,330,5.0,10+,1019.0,12,METAR,METAR KTUP 230153Z 33005KT 10SM CLR 17/14 A3009 RMK AO2 SLP186 T01670139 $,34.2622,-88.7713,107,"Tupelo Rgnl, MS, US",CLR,[],VFR,,1018.6,,,,,,TUP,Tupelo Regional Airport,United States of America,Tupelo,https://www.worlddata.info/america/usa/airports.php
1345,KTUS,2025-11-23 02:02:53.190000+00:00,1763862780,2025-11-23T02:00:00.000Z,11.7,10.6,170,4.0,10+,1014.3,12,METAR,METAR KTUS 230153Z 17004KT 10SM FEW010 BKN060 OVC075 12/11 A2995 RMK AO2 LTG DSNT ALQDS RAE23B32E53 TSB00E20 SLP121 P0004 T01170106 $,32.1315,-110.9564,776,"Tucson Intl Arpt, AZ, US",OVC,"[{'cover': 'FEW', 'base': 1000}, {'cover': 'BKN', 'base': 6000}, {'cover': 'OVC', 'base': 7500}]",VFR,,1012.1,0.04,,,,,TUS,Tucson International Airport / Morris Air National Guard Base,United States of America,Tucson,https://www.worlddata.info/america/usa/airports.php
1346,KTVC,2025-11-23 02:01:59.620000+00:00,1763862780,2025-11-23T02:00:00.000Z,6.1,1.7,220,7.0,10+,1010.6,4,METAR,METAR KTVC 230153Z 22007KT 10SM SCT024 OVC032 06/02 A2984 RMK AO2 SLP112 LAST T00610017,44.739,-85.5694,188,"Traverse City/Cherry Capital Arpt, MI, US",OVC,"[{'cover': 'SCT', 'base': 2400}, {'cover': 'OVC', 'base': 3200}]",VFR,,1011.2,,,,,,TVC,Cherry Capital Airport,United States of America,Traverse City,https://www.worlddata.info/america/usa/airports.php
1347,KTVI,2025-11-23 01:42:49.421000+00:00,1763861700,2025-11-23T01:35:00.000Z,21.0,19.0,210,3.0,10+,1018.0,6,METAR,METAR KTVI 230135Z AUTO 21003KT 10SM CLR 21/19 A3006 RMK AO2,30.9026,-83.8826,74,"Thomasville Rgnl, GA, US",CLR,[],VFR,,,,,,,,TVI,Thomasville Regional Airport,United States of America,Thomasville,https://www.worlddata.info/america/usa/airports.php
1348,KTVL,2025-11-23 02:01:59.645000+00:00,1763862780,2025-11-23T02:00:00.000Z,0.6,-2.2,0,0.0,10+,1021.1,6,METAR,METAR KTVL 230153Z AUTO 00000KT 10SM CLR 01/M02 A3015 RMK AO2 SLP218 T00061022,38.8984,-119.9962,1907,"Lake Tahoe Arpt, CA, US",CLR,[],VFR,,1021.8,,,,,,TVL,Lake Tahoe Airport,United States of America,South Lake Tahoe,https://www.worlddata.info/america/usa/airports.php
1349,KTWF,2025-11-23 02:01:59.696000+00:00,1763862780,2025-11-23T02:00:00.000Z,1.7,-0.6,350,4.0,8,1022.8,12,METAR,METAR KTWF 230153Z 35004KT 8SM CLR 02/M01 A3020 RMK AO2 SLP235 T00171006 $,42.4785,-114.4775,1269,"Twin Falls/Joslin Fld, ID, US",CLR,[],VFR,,1023.5,,,,,,TWF,Joslin Field Magic Valley Regional Airport,United States of America,Twin Falls,https://www.worlddata.info/america/usa/airports.php
1350,KTXK,2025-11-23 02:01:59.717000+00:00,1763862780,2025-11-23T02:00:00.000Z,13.9,10.6,330,4.0,10+,1022.1,4,METAR,METAR KTXK 230153Z 33004KT 10SM CLR 14/11 A3018 RMK AO2 SLP217 T01390106,33.456,-93.9878,118,"Texarkana Rgnl, AR, US",CLR,[],VFR,,1021.7,,,,,,TXK,Texarkana Regional Airport (Webb Field),United States of America,Texarkana,https://www.worlddata.info/america/usa/airports.php
1351,KTYL,2025-11-23 01:40:30.747000+00:00,1763861700,2025-11-23T01:35:00.000Z,10.0,4.0,0,0.0,10+,1017.4,6,METAR,METAR KTYL 230135Z AUTO 00000KT 10SM BKN075 OVC100 10/04 A3004 RMK AO2,34.4577,-110.1118,1748,"Taylor Arpt, AZ, US",OVC,"[{'cover': 'BKN', 'base': 7500}, {'cover': 'OVC', 'base': 10000}]",VFR,,,,,,,,TYZ,Taylor Airport,United States of America,Taylor,https://www.worlddata.info/america/usa/airports.php
1352,KTYS,2025-11-23 02:01:59.738000+00:00,1763862780,2025-11-23T02:00:00.000Z,15.6,11.1,10,5.0,10+,1017.4,4,METAR,METAR KTYS 230153Z 01005KT 10SM FEW080 FEW150 16/11 A3004 RMK AO2 SLP167 T01560111,35.818,-83.9857,300,"Knoxville/Tyson Arpt, TN, US",FEW,"[{'cover': 'FEW', 'base': 8000}, {'cover': 'FEW', 'base': 15000}]",VFR,,1016.7,,,,,,TYS,McGhee Tyson Airport,United States of America,Alcoa,https://www.worlddata.info/america/usa/airports.php
1353,KUCY,2025-11-23 01:46:08.013000+00:00,1763861100,2025-11-23T01:25:00.000Z,12.0,12.0,10,5.0,10+,1020.1,6,METAR,METAR KUCY 230125Z AUTO 01005KT 10SM OVC012 12/12 A3012 RMK A01,36.3778,-88.9878,97,"Union City/Everett-Stewart Rgnl, TN, US",OVC,"[{'cover': 'OVC', 'base': 1200}]",MVFR,,,,,,,,UCY,Everett-Stewart Regional Airport,United States of America,Union City,https://www.worlddata.info/america/usa/airports.php
1354,KUES,2025-11-23 01:43:10.776000+00:00,1763862300,2025-11-23T02:00:00.000Z,6.0,1.0,240,8.0,10+,1014.0,0,METAR,METAR KUES 230145Z 24008G15KT 10SM CLR 06/01 A2994,43.0425,-88.2465,273,"Waukesha Cnty, WI, US",CLR,[],VFR,,,,,,15.0,,UES,Waukesha County Airport,United States of America,Waukesha,https://www.worlddata.info/america/usa/airports.php
1355,KUGN,2025-11-23 01:56:13.389000+00:00,1763862660,2025-11-23T02:00:00.000Z,7.2,1.1,240,13.0,10+,1014.0,4,METAR,METAR KUGN 230151Z 24013KT 10SM CLR 07/01 A2994 RMK AO2 SLP148 T00720011,42.4255,-87.8634,217,"Waukegan Rgnl, IL, US",CLR,[],VFR,,1014.8,,,,,,UGN,Waukegan National Airport,United States of America,Chicago/Waukegan,https://www.worlddata.info/america/usa/airports.php
1356,KUIL,2025-11-23 02:01:59.794000+00:00,1763862780,2025-11-23T02:00:00.000Z,11.7,11.1,200,7.0,3,1016.3,6,METAR,METAR KUIL 230153Z AUTO 20007G16KT 3SM -RA BR OVC004 12/11 A3001 RMK AO2 RAB24 SLP161 P0002 T01170111,47.937,-124.5576,58,"Quillayute State Arpt, WA, US",OVC,"[{'cover': 'OVC', 'base': 400}]",LIFR,-RA BR,1016.1,0.02,,,16.0,,UIL,Quillayute Airport,United States of America,Quillayute,https://www.worlddata.info/america/usa/airports.php
1357,KUIN,2025-11-23 02:02:53.757000+00:00,1763862840,2025-11-23T02:00:00.000Z,7.2,6.1,230,8.0,10+,1019.4,6,METAR,METAR KUIN 230154Z AUTO 23008KT 10SM CLR 07/06 A3010 RMK AO2 SLP196 T00720061,39.9371,-91.1966,233,"Quincy/Baldwin Fld, IL, US",CLR,[],VFR,,1019.6,,,,,,UIN,Quincy Regional Airport Baldwin Field,United States of America,Quincy,https://www.worlddata.info/america/usa/airports.php
1358,KUKF,2025-11-23 01:38:22.687000+00:00,1763861700,2025-11-23T01:35:00.000Z,13.0,6.0,10,3.0,10+,1017.4,6,METAR,METAR KUKF 230135Z AUTO 01003KT 10SM SCT065 13/06 A3004 RMK AO2,36.2188,-81.1002,383,"Wilkesboro/Wilkes Cnty, NC, US",SCT,"[{'cover': 'SCT', 'base': 6500}]",VFR,,,,,,,,IKB,Wilkes County Airport,United States of America,North Wilkesboro,https://www.worlddata.info/america/usa/airports.php
1359,KUKT,2025-11-23 01:40:23.571000+00:00,1763861700,2025-11-23T01:35:00.000Z,4.0,-1.0,360,4.0,10+,1016.7,6,METAR,METAR KUKT 230135Z AUTO 36004KT 10SM CLR 04/M01 A3002 RMK AO2,40.4368,-75.3802,156,"Quakertown Arpt, PA, US",CLR,[],VFR,,,,,,,,UKT,Quakertown Airport,United States of America,Quakertown,https://www.worlddata.info/america/usa/airports.php
1360,KULM,2025-11-23 01:40:32.712000+00:00,1763861700,2025-11-23T01:35:00.000Z,4.0,1.0,280,8.0,10+,1018.0,6,METAR,METAR KULM 230135Z AUTO 28008KT 10SM CLR 04/01 A3006 RMK AO2,44.3227,-94.5024,305,"New Ulm Muni, MN, US",CLR,[],VFR,,,,,,,,ULM,New Ulm Municipal Airport,United States of America,New Ulm,https://www.worlddata.info/america/usa/airports.php
1361,KUNU,2025-11-23 01:38:28.595000+00:00,1763861700,2025-11-23T01:35:00.000Z,1.8,-1.3,220,6.0,10+,1013.6,38,METAR,METAR KUNU 230135Z AUTO 22006KT 10SM CLR 02/M01 A2993 RMK AO2 T00181013 TSNO,43.4285,-88.7017,281,"Juneau/Dodge Cnty, WI, US",CLR,[],VFR,,,,,,,,UNU,Dodge County Airport,United States of America,Juneau,https://www.worlddata.info/america/usa/airports.php
1362,KUNV,2025-11-23 01:52:00.335000+00:00,1763862780,2025-11-23T02:00:00.000Z,2.0,-1.0,290,4.0,10+,1016.3,0,METAR,METAR KUNV 230153Z 29004KT 10SM CLR 02/M01 A3001,40.8534,-77.8401,365,"State College/Univ Park Arpt, PA, US",CLR,[],VFR,,,,,,,,SCE,State College Regional Airport,United States of America,State College,https://www.worlddata.info/america/usa/airports.php
1363,KUOX,2025-11-23 01:38:22.870000+00:00,1763861700,2025-11-23T01:35:00.000Z,15.0,13.0,340,3.0,10+,1020.1,134,METAR,METAR KUOX 230135Z AUTO 34003KT 10SM CLR 15/13 A3012 RMK AO2 PWINO,34.3851,-89.5435,123,"Oxford/University Arpt, MS, US",CLR,[],VFR,,,,,,,,UOX,University Oxford Airport,United States of America,Oxford,https://www.worlddata.info/america/usa/airports.php
1364,KUTA,2025-11-23 01:38:22.905000+00:00,1763861700,2025-11-23T01:35:00.000Z,14.9,14.9,10,7.0,10+,1020.4,14,METAR,METAR KUTA 230135Z AUTO 01007KT 340V080 10SM OVC012 15/15 A3013 RMK AO2 CIG 011V016 T01490149 $,34.6766,-90.344,58,"Tunica Muni, MS, US",OVC,"[{'cover': 'OVC', 'base': 1200}]",MVFR,,,,,,,,UTM,Tunica Municipal Airport,United States of America,Tunica,https://www.worlddata.info/america/usa/airports.php
1365,KUTS,2025-11-23 02:01:59.844000+00:00,1763862780,2025-11-23T02:00:00.000Z,16.1,11.1,10,6.0,10+,1021.4,6,METAR,METAR KUTS 230153Z AUTO 01006KT 10SM CLR 16/11 A3016 RMK AO1 SLP210 T01610111,30.7443,-95.5866,103,"Huntsville Muni, TX, US",CLR,[],VFR,,1021.0,,,,,,HTV,Huntsville Regional Airport,United States of America,Huntsville,https://www.worlddata.info/america/usa/airports.php
1366,KUUU,2025-11-23 02:02:53.279000+00:00,1763862780,2025-11-23T02:00:00.000Z,3.9,-2.2,350,4.0,10+,1014.6,6,METAR,METAR KUUU 230153Z AUTO 35004KT 10SM CLR 04/M02 A2996 RMK AO2 SLP146 T00391022,41.5299,-71.2833,45,"Newport State Arpt, RI, US",CLR,[],VFR,,1014.6,,,,,,NPT,Newport State Airport,United States of America,Newport,https://www.worlddata.info/america/usa/airports.php
1367,KUVA,2025-11-23 01:40:17.655000+00:00,1763861700,2025-11-23T01:35:00.000Z,21.0,12.0,80,5.0,10+,1020.7,6,METAR,METAR KUVA 230135Z AUTO 08005KT 10SM CLR 21/12 A3014 RMK AO2 T02100120,29.2135,-99.743,285,"Uvalde/Garner Fld, TX, US",CLR,[],VFR,,,,,,,,UVA,Garner Field,United States of America,Uvalde,https://www.worlddata.info/america/usa/airports.php
1368,KVAD,2025-11-23 02:00:42.946000+00:00,1763862900,2025-11-23T02:00:00.000Z,22.0,19.9,210,5.0,10+,1017.0,14,METAR,METAR KVAD 230155Z AUTO 21005KT 10SM FEW045 FEW065 BKN110 22/20 A3003 RMK AO2 RAB0055E05 SLP170 P0000 T02200199 $,30.979,-83.192,70,"Valdosta/Moody AFB, GA, US",BKN,"[{'cover': 'FEW', 'base': 4500}, {'cover': 'FEW', 'base': 6500}, {'cover': 'BKN', 'base': 11000}]",VFR,,1017.0,0.005,,,,,VAD,Moody Air Force Base,United States of America,Valdosta,https://www.worlddata.info/america/usa/airports.php
1369,KVAY,2025-11-23 02:02:53.836000+00:00,1763862840,2025-11-23T02:00:00.000Z,5.0,0.0,10,4.0,10+,1017.0,14,METAR,METAR KVAY 230154Z AUTO 01004KT 10SM CLR 05/00 A3003 RMK AO2 SLP167 T00500000 $,39.9408,-74.8407,15,"Mount Holly/S Jersey Rgnl, NJ, US",CLR,[],VFR,,1016.7,,,,,,LLY,South Jersey Regional Airport,United States of America,Lumberton,https://www.worlddata.info/america/usa/airports.php
1370,KVBG,2025-11-23 02:00:42.152000+00:00,1763862900,2025-11-23T02:00:00.000Z,14.0,12.4,330,11.0,7,1016.0,46,METAR,METAR KVBG 230155Z AUTO 33011KT 7SM CLR 14/12 A3000 RMK AO2 SLP162 T01400124 TSNO $,34.733,-120.583,96,"Vandenberg AFB, CA, US",CLR,[],VFR,,1016.2,,,,,,VBG,Vandenberg Space Force Base,United States of America,Lompoc,https://www.worlddata.info/america/usa/airports.php
1371,KVCT,2025-11-23 01:56:15.356000+00:00,1763862660,2025-11-23T02:00:00.000Z,23.3,15.0,70,5.0,10+,1020.1,4,METAR,METAR KVCT 230151Z 07005KT 10SM OVC047 23/15 A3012 RMK AO2 SLP199 T02330150,28.8624,-96.9301,33,"Victoria Rgnl, TX, US",OVC,"[{'cover': 'OVC', 'base': 4700}]",VFR,,1019.9,,,,,,VCT,Victoria Regional Airport,United States of America,Victoria,https://www.worlddata.info/america/usa/airports.php
1372,KVCV,2025-11-23 01:46:08.264000+00:00,1763861700,2025-11-23T01:35:00.000Z,12.0,8.0,0,0.0,10+,1017.7,6,METAR,METAR KVCV 230135Z AUTO 00000KT 10SM FEW055 OVC070 12/08 A3005 RMK AO2,34.5933,-117.3893,871,"Victorville/S California Arpt, CA, US",OVC,"[{'cover': 'FEW', 'base': 5500}, {'cover': 'OVC', 'base': 7000}]",VFR,,,,,,,,VCV,Southern California Logistics Airport,United States of America,Victorville,https://www.worlddata.info/america/usa/airports.php
1373,KVDI,2025-11-23 01:42:41.066000+00:00,1763861700,2025-11-23T01:35:00.000Z,20.0,18.0,240,3.0,10+,1016.0,6,METAR,METAR KVDI 230135Z AUTO 24003KT 10SM CLR 20/18 A3000 RMK AO2,32.1933,-82.3642,81,"Vidalia Rgnl, GA, US",CLR,[],VFR,,,,,,,,VDI,Vidalia Regional Airport,United States of America,Vidalia,https://www.worlddata.info/america/usa/airports.php
1374,KVEL,2025-11-23 02:01:59.904000+00:00,1763862780,2025-11-23T02:00:00.000Z,5.0,1.1,320,8.0,10+,1023.5,6,METAR,METAR KVEL 230153Z AUTO 32008KT 10SM CLR 05/01 A3022 RMK AO2 SLP246 T00500011,40.4429,-109.5128,1604,"Vernal Rgnl, UT, US",CLR,[],VFR,,1024.6,,,,,,VEL,Vernal Regional Airport,United States of America,Vernal,https://www.worlddata.info/america/usa/airports.php
1375,KVGT,2025-11-23 02:01:59.936000+00:00,1763862780,2025-11-23T02:00:00.000Z,15.6,3.3,330,9.0,10+,1015.7,4,METAR,METAR KVGT 230153Z 33009KT 10SM CLR 16/03 A2999 RMK AO2 SLP169 T01560033,36.212,-115.194,664,"Las Vegas/North Arpt, NV, US",CLR,[],VFR,,1016.9,,,,,,VGT,North Las Vegas Metropolitan International Airport,United States of America,Las Vegas,https://www.worlddata.info/america/usa/airports.php
1376,KVHN,2025-11-23 01:42:50.078000+00:00,1763861700,2025-11-23T01:35:00.000Z,14.6,1.4,60,7.0,10+,1022.1,6,METAR,METAR KVHN 230135Z AUTO 06007KT 10SM CLR 15/01 A3018 RMK AO2 T01460014,31.0602,-104.7832,1200,"Van Horn/Culberson Cnty, TX, US",CLR,[],VFR,,,,,,,,VHN,Culberson County Airport,United States of America,Van Horn,https://www.worlddata.info/america/usa/airports.php
1377,KVIH,2025-11-23 02:01:59.959000+00:00,1763862780,2025-11-23T02:00:00.000Z,8.3,7.2,240,5.0,10+,1021.8,6,METAR,METAR KVIH 230153Z AUTO 24005KT 10SM OVC006 08/07 A3017 RMK AO2 SLP219 T00830072,38.1318,-91.7647,342,"Vichy/Rolla Arpt, MO, US",OVC,"[{'cover': 'OVC', 'base': 600}]",IFR,,1021.9,,,,,,VIH,Rolla National Airport,United States of America,Vichy,https://www.worlddata.info/america/usa/airports.php
1378,KVJI,2025-11-23 01:40:30.844000+00:00,1763861700,2025-11-23T01:35:00.000Z,12.0,9.0,VRB,3.0,10+,1017.4,6,METAR,METAR KVJI 230135Z AUTO VRB03KT 10SM CLR 12/09 A3004 RMK AO2,36.6872,-82.037,636,"Abingdon/Virginia Highlands Arpt, VA, US",CLR,[],VFR,,,,,,,,VJI,Virginia Highlands Airport,United States of America,Abingdon,https://www.worlddata.info/america/usa/airports.php
1379,KVKS,2025-11-23 01:38:20.632000+00:00,1763861700,2025-11-23T01:35:00.000Z,18.0,11.0,0,0.0,10+,1019.4,6,METAR,METAR KVKS 230135Z AUTO 00000KT 10SM CLR 18/11 A3010 RMK A01,32.2359,-90.9269,31,"Vicksburg Arpt, MS, US",CLR,[],VFR,,,,,,,,VKS,Vicksburg Municipal Airport,United States of America,Vicksburg,https://www.worlddata.info/america/usa/airports.php
1380,KVLD,2025-11-23 02:01:59.982000+00:00,1763862780,2025-11-23T02:00:00.000Z,21.7,20.0,VRB,3.0,10+,1017.7,4,METAR,METAR KVLD 230153Z VRB03KT 10SM -RA FEW047 SCT055 OVC090 22/20 A3005 RMK AO2 RAB51 SLP184 P0000 T02170200,30.7763,-83.2739,59,"Valdosta Rgnl, GA, US",OVC,"[{'cover': 'FEW', 'base': 4700}, {'cover': 'SCT', 'base': 5500}, {'cover': 'OVC', 'base': 9000}]",VFR,-RA,1018.4,0.005,,,,,VLD,Valdosta Regional Airport,United States of America,Valdosta,https://www.worlddata.info/america/usa/airports.php
1381,KVNY,2025-11-23 01:56:13.210000+00:00,1763862660,2025-11-23T02:00:00.000Z,18.3,5.0,360,4.0,10+,1014.3,12,METAR,METAR KVNY 230151Z 36004KT 10SM OVC090 18/05 A2995 RMK AO2 SLP136 T01830050 $,34.2121,-118.4915,241,"Van Nuys Arpt, CA, US",OVC,"[{'cover': 'OVC', 'base': 9000}]",VFR,,1013.6,,,,,,VNY,Van Nuys Airport,United States of America,Van Nuys,https://www.worlddata.info/america/usa/airports.php
1382,KVPS,2025-11-23 01:58:04.001000+00:00,1763862900,2025-11-23T02:00:00.000Z,22.1,20.7,240,5.0,10+,1018.0,14,METAR,METAR KVPS 230155Z AUTO 24005KT 10SM CLR 22/21 A3006 RMK AO2 SLP186 T02210207 $,30.483,-86.526,21,"Valparaiso/Eglin AFB, FL, US",CLR,[],VFR,,1018.6,,,,,,VPS,Destin-Fort Walton Beach Airport,United States of America,Valparaiso,https://www.worlddata.info/america/usa/airports.php
1383,KVQQ,2025-11-23 01:46:30.793000+00:00,1763862600,2025-11-23T02:00:00.000Z,22.0,18.0,240,6.0,10+,1018.0,0,METAR,METAR KVQQ 230150Z 24006KT 10SM CLR 22/18 A3006,30.2035,-81.8725,21,"Jacksonville/Cecil Arpt, FL, US",CLR,[],VFR,,,,,,,,VQQ,Cecil Airport,United States of America,Jacksonville,https://www.worlddata.info/america/usa/airports.php
1384,KVRB,2025-11-23 02:02:00.004000+00:00,1763862780,2025-11-23T02:00:00.000Z,18.9,17.8,0,0.0,10+,1019.0,4,METAR,METAR KVRB 230153Z 00000KT 10SM CLR 19/18 A3009 RMK AO2 SLP189 T01890178,27.6553,-80.4142,7,"Vero Beach Muni, FL, US",CLR,[],VFR,,1018.9,,,,,,VRB,Vero Beach Regional Airport,United States of America,Vero Beach,https://www.worlddata.info/america/usa/airports.php
1385,KVSF,2025-11-23 02:02:53.923000+00:00,1763862840,2025-11-23T02:00:00.000Z,-3.3,-7.8,150,3.0,10+,1015.3,6,METAR,METAR KVSF 230154Z AUTO 15003KT 10SM CLR M03/M08 A2998 RMK AO2 SLP162 T10331078,43.3421,-72.5213,176,"Springfield/Hartness State Arpt, VT, US",CLR,[],VFR,,1016.2,,,,,,VSF,Hartness State Airport,United States of America,North Springfield,https://www.worlddata.info/america/usa/airports.php
1386,KVYS,2025-11-23 01:42:26.086000+00:00,1763861700,2025-11-23T01:35:00.000Z,8.5,2.5,230,11.0,10+,1016.7,6,METAR,METAR KVYS 230135Z AUTO 23011G15KT 10SM CLR 09/03 A3002 RMK AO2 T00850025,41.3518,-89.1496,198,"Peru/Illinois Valley Rgnl, IL, US",CLR,[],VFR,,,,,,15.0,,VYS,Illinois Valley Regional Airport Walter A Duncan Field,United States of America,Peru,https://www.worlddata.info/america/usa/airports.php
1387,KWAL,2025-11-23 02:02:54.078000+00:00,1763862840,2025-11-23T02:00:00.000Z,8.9,8.3,20,4.0,4,1017.0,6,METAR,METAR KWAL 230154Z AUTO 02004KT 4SM BR SCT080 09/08 A3003 RMK AO2 SLP164 T00890083,37.9372,-75.4662,10,"Wallops Island Facility Arpt, VA, US",SCT,"[{'cover': 'SCT', 'base': 8000}]",MVFR,BR,1016.4,,,,,,WAL,Wallops Flight Facility Airport,United States of America,Wallops Island,https://www.worlddata.info/america/usa/airports.php
1388,KWDG,2025-11-23 01:45:29.817000+00:00,1763862300,2025-11-23T02:00:00.000Z,7.0,6.0,190,4.0,10+,1023.1,0,METAR,METAR KWDG 230145Z 19004KT 10SM CLR 07/06 A3021,36.3781,-97.7888,352,"Enid/Woodring Arpt, OK, US",CLR,[],VFR,,,,,,,,WDG,Enid Woodring Regional Airport,United States of America,Enid,https://www.worlddata.info/america/usa/airports.php
1389,KWDR,2025-11-23 01:42:41.378000+00:00,1763861700,2025-11-23T01:35:00.000Z,18.0,12.0,,,10+,1016.7,4,METAR,METAR KWDR 230135Z 10SM CLR 18/12 A3002 RMK AO2,33.981,-83.667,280,"Winder/Barrow Cnty, GA, US",CLR,[],VFR,,,,,,,,WDR,Barrow County Airport,United States of America,Winder,https://www.worlddata.info/america/usa/airports.php
1390,KWHP,2025-11-23 01:47:38.857000+00:00,1763862900,2025-11-23T02:00:00.000Z,19.0,4.0,360,11.0,10+,1014.6,0,METAR,METAR KWHP 230155Z 36011G20KT 10SM FEW095 19/04 A2996,34.2596,-118.4146,302,"Los Angeles/Whiteman Arpt, CA, US",FEW,"[{'cover': 'FEW', 'base': 9500}]",VFR,,,,,,20.0,,WHP,Whiteman Airport,United States of America,Pacoima,https://www.worlddata.info/america/usa/airports.php
1391,KWLD,2025-11-23 02:02:54.186000+00:00,1763862840,2025-11-23T02:00:00.000Z,7.8,6.7,180,4.0,10+,1023.1,6,METAR,METAR KWLD 230154Z AUTO 18004KT 10SM CLR 08/07 A3021 RMK AO2 SLP232 T00780067,37.1649,-97.0349,351,"Winfield/Strother Fld, KS, US",CLR,[],VFR,,1023.2,,,,,,WLD,Strother Field,United States of America,Winfield / Arkansas City,https://www.worlddata.info/america/usa/airports.php
1392,KWMC,2025-11-23 02:00:44.111000+00:00,1763862960,2025-11-23T02:00:00.000Z,2.2,-0.6,310,5.0,10+,1021.4,14,METAR,METAR KWMC 230156Z AUTO 31005KT 10SM CLR 02/M01 A3016 RMK AO2 SLP233 T00221006 $,40.9018,-117.8081,1311,"Winnemucca Muni, NV, US",CLR,[],VFR,,1023.3,,,,,,WMC,Winnemucca Municipal Airport,United States of America,Winnemucca,https://www.worlddata.info/america/usa/airports.php
1393,KWRB,2025-11-23 01:58:10.868000+00:00,1763862900,2025-11-23T02:00:00.000Z,22.5,18.0,270,7.0,10+,1016.0,14,METAR,METAR KWRB 230155Z AUTO 27007KT 10SM CLR 23/18 A3000 RMK AO2 SLP159 T02250180 $,32.639,-83.593,82,"Warner Robins AFB, GA, US",CLR,[],VFR,,1015.9,,,,,,WRB,Robins Air Force Base,United States of America,Warner Robins,https://www.worlddata.info/america/usa/airports.php
1394,KWRI,2025-11-23 01:58:10.908000+00:00,1763862900,2025-11-23T02:00:00.000Z,5.2,-0.2,10,8.0,10+,1017.0,6,METAR,METAR KWRI 230155Z AUTO 01008KT 10SM CLR 05/M00 A3003 RMK AO2 SLP169 T00521002,40.016,-74.591,35,"McGuire AFB, NJ, US",CLR,[],VFR,,1016.9,,,,,,WRI,Mc Guire Air Force Base,United States of America,Wrightstown,https://www.worlddata.info/america/usa/airports.php
1395,KWRL,2025-11-23 02:02:01.094000+00:00,1763862780,2025-11-23T02:00:00.000Z,2.2,-5.6,0,0.0,10+,1018.0,6,METAR,METAR KWRL 230153Z AUTO 00000KT 10SM CLR 02/M06 A3006 RMK AO2 SLP211 T00221056,43.9654,-107.9502,1281,"Worland Muni, WY, US",CLR,[],VFR,,1021.1,,,,,,WRL,Worland Municipal Airport,United States of America,Worland,https://www.worlddata.info/america/usa/airports.php
1396,KWST,2025-11-23 02:02:53.409000+00:00,1763862780,2025-11-23T02:00:00.000Z,0.0,-0.6,0,0.0,10+,1015.3,6,METAR,METAR KWST 230153Z AUTO 00000KT 10SM CLR 00/M01 A2998 RMK AO2 SLP153 T00001006,41.3509,-71.8055,20,"Westerly State Arpt, RI, US",CLR,[],VFR,,1015.3,,,,,,WST,Westerly State Airport,United States of America,Westerly,https://www.worlddata.info/america/usa/airports.php
1397,KWVI,2025-11-23 02:02:01.126000+00:00,1763862780,2025-11-23T02:00:00.000Z,11.1,8.9,0,0.0,10+,1017.4,6,METAR,METAR KWVI 230153Z AUTO 00000KT 10SM CLR 11/09 A3004 RMK AO2 SLP173 T01110089,36.9394,-121.79,47,"Watsonville Muni, CA, US",CLR,[],VFR,,1017.3,,,,,,WVI,Watsonville Municipal Airport,United States of America,Watsonville,https://www.worlddata.info/america/usa/airports.php
1398,KWWR,2025-11-23 01:38:20.786000+00:00,1763861700,2025-11-23T01:35:00.000Z,9.0,6.0,150,6.0,10+,1023.8,6,METAR,METAR KWWR 230135Z AUTO 15006KT 10SM CLR 09/06 A3023 RMK AO2,36.4374,-99.5234,664,"Woodward Arpt, OK, US",CLR,[],VFR,,,,,,,,WWR,West Woodward Airport,United States of America,Woodward,https://www.worlddata.info/america/usa/airports.php
1399,KXNA,2025-11-23 02:02:01.192000+00:00,1763862780,2025-11-23T02:00:00.000Z,9.4,8.3,0,0.0,6,1023.1,4,METAR,METAR KXNA 230153Z 00000KT 6SM BR OVC003 09/08 A3021 RMK AO2 SLP229 T00940083,36.2897,-94.3115,390,"Fayetteville/NW Arkansas Rgnl, AR, US",OVC,"[{'cover': 'OVC', 'base': 300}]",LIFR,BR,1022.9,,,,,,XNA,Northwest Arkansas National Airport,United States of America,Fayetteville/Springdale/Rogers,https://www.worlddata.info/america/usa/airports.php
1400,KYIP,2025-11-23 02:02:01.218000+00:00,1763862780,2025-11-23T02:00:00.000Z,4.4,-0.6,190,7.0,10+,1015.7,4,METAR,METAR KYIP 230153Z 19007KT 10SM OVC065 04/M01 A2999 RMK AO2 RAB21E30 SLP160 P0000 T00441006,42.242,-83.5214,215,"Detroit/Willow Run Arpt, MI, US",OVC,"[{'cover': 'OVC', 'base': 6500}]",VFR,,1016.0,0.005,,,,,YIP,Willow Run Airport,United States of America,Detroit,https://www.worlddata.info/america/usa/airports.php
1401,KYKM,2025-11-23 02:02:01.246000+00:00,1763862780,2025-11-23T02:00:00.000Z,3.3,2.2,0,0.0,3,1018.7,4,METAR,METAR KYKM 230153Z 00000KT 3SM BR OVC003 03/02 A3008 RMK AO2 SFC VIS 4 SLP197 T00330022,46.564,-120.5349,319,"Yakima/McAllister Fld, WA, US",OVC,"[{'cover': 'OVC', 'base': 300}]",LIFR,BR,1019.7,,,,,,YKM,Yakima Air Terminal McAllister Field,United States of America,Yakima,https://www.worlddata.info/america/usa/airports.php
1402,KYNG,2025-11-23 01:56:15.450000+00:00,1763862660,2025-11-23T02:00:00.000Z,-1.7,-2.2,140,3.0,10+,1016.7,4,METAR,METAR KYNG 230151Z 14003KT 10SM SCT250 M02/M02 A3002 RMK AO2 SLP177 T10171022,41.2548,-80.6736,356,"Youngstown-Warren Rgnl, OH, US",SCT,"[{'cover': 'SCT', 'base': 25000}]",VFR,,1017.7,,,,,,YNG,Youngstown Warren Regional Airport,United States of America,Youngstown/Warren,https://www.worlddata.info/america/usa/airports.php
1403,KZPH,2025-11-23 01:42:34.395000+00:00,1763861700,2025-11-23T01:35:00.000Z,18.3,15.0,0,0.0,10+,1020.1,6,METAR,METAR KZPH 230135Z AUTO 00000KT 10SM CLR 18/15 A3012 RMK A02 T01830150,28.2268,-82.1564,26,"Zephyrhills Muni, FL, US",CLR,[],VFR,,,,,,,,ZPH,Zephyrhills Municipal Airport,United States of America,Zephyrhills,https://www.worlddata.info/america/usa/airports.php
1404,KZZV,2025-11-23 02:02:01.273000+00:00,1763862780,2025-11-23T02:00:00.000Z,1.7,-0.6,0,0.0,10+,1018.0,6,METAR,METAR KZZV 230153Z AUTO 00000KT 10SM CLR 02/M01 A3006 RMK AO2 SLP185 T00171006,39.9461,-81.8932,268,"Zanesville Muni, OH, US",CLR,[],VFR,,1018.5,,,,,,ZZV,Zanesville Municipal Airport,United States of America,Zanesville,https://www.worlddata.info/america/usa/airports.php
1405,LATI,2025-11-23 01:49:52.526000+00:00,1763862600,2025-11-23T02:00:00.000Z,8.0,5.0,160,3.0,6+,1013.0,16,METAR,METAR LATI 230150Z 16003KT 100V170 9999 SCT051 08/05 Q1013 NOSIG,41.419,19.716,32,"Tirana Intl, TR, AL",SCT,"[{'cover': 'SCT', 'base': 5100}]",VFR,,,,,,,,TIA,Tirana International Airport Mother Teresa,Albania,Rinas,https://www.worlddata.info/europe/albania/airports.php
1406,LBGO,2025-11-23 02:00:17.499000+00:00,1763863200,2025-11-23T02:00:00.000Z,10.0,10.0,260,5.0,6+,1014.0,2,METAR,METAR LBGO 230200Z AUTO 26005KT 9999 -SHRA OVC008/// 10/10 Q1014,43.151,25.713,84,"Gorna Orechovista Arpt, LO, BG",OVC,"[{'cover': 'OVC', 'base': 800}]",IFR,-SHRA,,,,,,,GOZ,Gorna Oryahovitsa Airport,Bulgaria,Gorna Oryahovitsa,https://www.worlddata.info/europe/bulgaria/airports.php
1407,LBPD,2025-11-23 02:00:17.447000+00:00,1763863200,2025-11-23T02:00:00.000Z,13.0,12.0,340,5.0,6+,1011.0,2,METAR,METAR LBPD 230200Z AUTO 34005KT 300V030 9999 SCT052/// OVC059/// 13/12 Q1011,42.064,24.86,182,"Plovdiv Arpt, PL, BG",OVC,"[{'cover': 'SCT', 'base': 5200}, {'cover': 'OVC', 'base': 5900}]",VFR,,,,,,,,PDV,Plovdiv International Airport,Bulgaria,Plovdiv,https://www.worlddata.info/europe/bulgaria/airports.php
1408,LBSF,2025-11-23 02:00:17.307000+00:00,1763863200,2025-11-23T02:00:00.000Z,6.0,5.0,290,8.0,6+,1013.0,18,METAR,METAR LBSF 230200Z AUTO 29008KT 260V330 9999 FEW007/// SCT038/// OVC046/// 06/05 Q1013 NOSIG,42.694,23.414,531,"Sofia Intl, SO, BG",OVC,"[{'cover': 'FEW', 'base': 700}, {'cover': 'SCT', 'base': 3800}, {'cover': 'OVC', 'base': 4600}]",VFR,,,,,,,,SOF,Sofia Airport,Bulgaria,Sofia,https://www.worlddata.info/europe/bulgaria/airports.php
1409,LBWN,2025-11-23 02:00:17.373000+00:00,1763863200,2025-11-23T02:00:00.000Z,16.0,10.0,200,6.0,6+,1013.0,18,METAR,METAR LBWN 230200Z AUTO 20006KT 9999 NSC 16/10 Q1013 NOSIG,43.232,27.825,74,"Varna Intl, VA, BG",CLR,[],VFR,,,,,,,,VAR,Varna Airport,Bulgaria,Varna,https://www.worlddata.info/europe/bulgaria/airports.php
1410,LCEN,2025-11-23 02:01:39.852000+00:00,1763862600,2025-11-23T02:00:00.000Z,11.0,9.0,250,4.0,6+,1020.0,16,METAR,METAR LCEN 230150Z 25004KT CAVOK 11/09 Q1020 NOSIG RMK RWY11R 27003KT,35.155,33.496,91,"Ercan Arpt, LE, CY",CAVOK,[],VFR,,,,,,,,ECN,Nicosia (Lefkoşa) Ercan International Airport,Cyprus,Tymbou (Kirklar),https://www.worlddata.info/asia/cyprus/airports.php
1411,LCLK,2025-11-23 01:32:47.277000+00:00,1763861400,2025-11-23T01:30:00.000Z,18.0,15.0,300,5.0,6+,1019.0,16,METAR,METAR LCLK 230130Z 30005KT CAVOK 18/15 Q1019 NOSIG,34.874,33.617,2,"Larnaca Intl, LA, CY",CAVOK,[],VFR,,,,,,,,LCA,Larnaca International Airport,Cyprus,Larnaca,https://www.worlddata.info/asia/cyprus/airports.php
1412,LCPH,2025-11-23 01:32:47.448000+00:00,1763861400,2025-11-23T01:30:00.000Z,23.0,2.0,80,7.0,6+,1018.0,18,METAR,METAR LCPH 230130Z AUTO 08007KT 9999 NCD 23/02 Q1018 NOSIG,34.715,32.479,8,"Paphos Intl, PA, CY",CLR,[],VFR,,,,,,,,PFO,Paphos International Airport,Cyprus,Paphos,https://www.worlddata.info/asia/cyprus/airports.php
1413,LCRA,2025-11-23 01:56:28.248000+00:00,1763862600,2025-11-23T02:00:00.000Z,21.0,15.0,60,7.0,6+,1018.0,0,METAR,METAR LCRA 230150Z 06007KT CAVOK 21/15 Q1018,34.59,32.988,23,"Akrotiri Arpt, LE, CY",CAVOK,[],VFR,,,,,,,,AKT,RAF Akrotiri,Cyprus,Akrotiri,https://www.worlddata.info/asia/cyprus/airports.php
1414,LDDU,2025-11-23 02:01:15.255000+00:00,1763863200,2025-11-23T02:00:00.000Z,10.0,6.0,110,4.0,6+,1012.0,0,METAR,METAR LDDU 230200Z 11004KT 050V180 9999 FEW033 SCT040 BKN060 10/06 Q1012,42.56,18.269,156,"Dubrovnik Arpt, DU, HR",BKN,"[{'cover': 'FEW', 'base': 3300}, {'cover': 'SCT', 'base': 4000}, {'cover': 'BKN', 'base': 6000}]",VFR,,,,,,,,DBV,Dubrovnik Ruđer Bošković Airport,Croatia,Čilipi,https://www.worlddata.info/europe/croatia/airports.php
1415,LDOS,2025-11-23 02:01:15.285000+00:00,1763863200,2025-11-23T02:00:00.000Z,0.0,-1.0,290,10.0,6+,1018.0,0,METAR,METAR LDOS 230200Z 29010KT 9999 SCT005 OVC010 00/M01 Q1018,45.463,18.81,82,"Osijek Arpt, OS, HR",OVC,"[{'cover': 'SCT', 'base': 500}, {'cover': 'OVC', 'base': 1000}]",MVFR,,,,,,,,OSI,Osijek Airport,Croatia,Klisa,https://www.worlddata.info/europe/croatia/airports.php
1416,LDPL,2025-11-23 02:01:15.316000+00:00,1763863200,2025-11-23T02:00:00.000Z,3.0,-3.0,40,7.0,6+,1017.0,2,METAR,METAR LDPL 230200Z AUTO 04007KT CAVOK 03/M03 Q1017,44.894,13.922,63,"Pula Arpt, IS, HR",CAVOK,[],VFR,,,,,,,,PUY,Pula Airport,Croatia,Pula,https://www.worlddata.info/europe/croatia/airports.php
1417,LDRI,2025-11-23 02:01:15.355000+00:00,1763863200,2025-11-23T02:00:00.000Z,3.0,-5.0,60,12.0,6+,1017.0,0,METAR,METAR LDRI 230200Z 06012G22KT 340V110 9999 FEW040 BKN062 03/M05 Q1017,45.218,14.573,80,"Rijeka Arpt, PR, HR",BKN,"[{'cover': 'FEW', 'base': 4000}, {'cover': 'BKN', 'base': 6200}]",VFR,,,,,,22.0,,RJK,Rijeka Airport,Croatia,Omišalj,https://www.worlddata.info/europe/croatia/airports.php
1418,LDSP,2025-11-23 02:01:15.400000+00:00,1763863200,2025-11-23T02:00:00.000Z,5.0,1.0,20,8.0,6+,1014.0,2,METAR,METAR LDSP 230200Z AUTO 02008KT CAVOK 05/01 Q1014,43.539,16.301,16,"Split Arpt, SP, HR",CAVOK,[],VFR,,,,,,,,SPU,Split Airport,Croatia,Kaštel Štafilić,https://www.worlddata.info/europe/croatia/airports.php
1419,LDZA,2025-11-23 02:01:15.435000+00:00,1763863200,2025-11-23T02:00:00.000Z,-1.0,-2.0,230,3.0,6+,1020.0,16,METAR,METAR LDZA 230200Z 23003KT 9999 OVC045 M01/M02 Q1020 NOSIG,45.729,16.054,103,"Zagreb/Tuđman Intl, ZA, HR",OVC,"[{'cover': 'OVC', 'base': 4500}]",VFR,,,,,,,,ZAG,Zagreb Franjo Tuđman International Airport,Croatia,Velika Gorica,https://www.worlddata.info/europe/croatia/airports.php
1420,LDZD,2025-11-23 02:01:15.467000+00:00,1763863200,2025-11-23T02:00:00.000Z,4.0,-3.0,80,8.0,6+,1015.0,0,METAR,METAR LDZD 230200Z 08008KT 9999 BKN045 04/M03 Q1015,44.108,15.347,82,"Zadar Arpt, ZG, HR",BKN,"[{'cover': 'BKN', 'base': 4500}]",VFR,,,,,,,,ZAD,Zadar Airport,Croatia,Zemunik Donji (Zadar),https://www.worlddata.info/europe/croatia/airports.php
1421,LEAB,2025-11-23 01:35:20.270000+00:00,1763861400,2025-11-23T01:30:00.000Z,2.0,-3.0,310,5.0,6+,1026.0,16,METAR,METAR LEAB 230130Z 31005KT CAVOK 02/M03 Q1026 NOSIG,38.952,-1.863,704,"Albacete Arpt, CM, ES",CAVOK,[],VFR,,,,,,,,ABC,Albacete Airport / Los Llanos Air Base,Spain,Albacete,https://www.worlddata.info/europe/spain/airports.php
1422,LEAL,2025-11-23 01:34:22.913000+00:00,1763861400,2025-11-23T01:30:00.000Z,13.0,-3.0,280,11.0,6+,1024.0,16,METAR,METAR LEAL 230130Z 28011KT CAVOK 13/M03 Q1024 NOSIG,38.282,-0.558,26,"Alicante Arpt, VC, ES",CAVOK,[],VFR,,,,,,,,ALC,Alicante-Elche Miguel Hernández Airport,Spain,Alicante,https://www.worlddata.info/europe/spain/airports.php
1423,LEAM,2025-11-23 01:34:21.107000+00:00,1763861400,2025-11-23T01:30:00.000Z,10.0,4.0,330,11.0,6+,1026.0,2,METAR,METAR LEAM 230130Z AUTO 33011KT CAVOK 10/04 Q1026,36.846,-2.357,16,"Almería Arpt, AN, ES",CAVOK,[],VFR,,,,,,,,LEI,Almería Airport,Spain,Almería,https://www.worlddata.info/europe/spain/airports.php
1424,LEAS,2025-11-23 01:34:21.202000+00:00,1763861400,2025-11-23T01:30:00.000Z,14.0,9.0,250,8.0,6+,1022.0,2,METAR,METAR LEAS 230130Z AUTO 25008KT 9999 OVC034 14/09 Q1022,43.567,-6.044,120,"Aviles/Asturias Arpt, O, ES",OVC,"[{'cover': 'OVC', 'base': 3400}]",VFR,,,,,,,,OVD,Asturias Airport,Spain,Ranón,https://www.worlddata.info/europe/spain/airports.php
1425,LEBA,2025-11-23 01:35:19.924000+00:00,1763861400,2025-11-23T01:30:00.000Z,2.0,2.0,VRB,1.0,6+,1028.0,2,METAR,METAR LEBA 230130Z AUTO VRB01KT CAVOK 02/02 Q1028,37.842,-4.849,88,"Córdoba Arpt, AN, ES",CAVOK,[],VFR,,,,,,,,ODB,Córdoba Airport,Spain,Córdoba,https://www.worlddata.info/europe/spain/airports.php
1426,LEBB,2025-11-23 01:34:21.276000+00:00,1763861400,2025-11-23T01:30:00.000Z,9.0,8.0,VRB,1.0,6+,1021.0,2,METAR,METAR LEBB 230130Z AUTO VRB01KT 9999 -RA BKN019 OVC025 09/08 Q1021,43.298,-2.906,38,"Bilbao Arpt, PV, ES",OVC,"[{'cover': 'BKN', 'base': 1900}, {'cover': 'OVC', 'base': 2500}]",MVFR,-RA,,,,,,,BIO,Bilbao Airport,Spain,Bilbao,https://www.worlddata.info/europe/spain/airports.php
1427,LEBG,2025-11-23 01:34:22.616000+00:00,1763861400,2025-11-23T01:30:00.000Z,3.0,-1.0,180,7.0,6+,1024.0,2,METAR,METAR LEBG 230130Z AUTO 18007KT 150V210 9999 OVC018 03/M01 Q1024,42.356,-3.622,892,"Burgos Arpt, CL, ES",OVC,"[{'cover': 'OVC', 'base': 1800}]",MVFR,,,,,,,,RGS,Burgos Airport,Spain,Burgos,https://www.worlddata.info/europe/spain/airports.php
1428,LEBL,2025-11-23 01:34:22.999000+00:00,1763861400,2025-11-23T01:30:00.000Z,6.0,-1.0,310,8.0,6+,1022.0,16,METAR,METAR LEBL 230130Z 31008KT 9999 FEW040 06/M01 Q1022 NOSIG,41.293,2.07,2,"Barcelona/Prat Arpt, CT, ES",FEW,"[{'cover': 'FEW', 'base': 4000}]",VFR,,,,,,,,BCN,Josep Tarradellas Barcelona-El Prat Airport,Spain,Barcelona,https://www.worlddata.info/europe/spain/airports.php
1429,LECH,2025-11-23 01:34:22.723000+00:00,1763861400,2025-11-23T01:30:00.000Z,4.0,-2.0,210,5.0,4.97,1023.0,2,METAR,METAR LECH 230130Z AUTO 21005KT 8000 NSC 04/M02 Q1023,40.211,0.067,360,"Castellón Arpt, VC, ES",CLR,[],MVFR,,,,,,,,CDT,Castellón-Costa Azahar Airport,Spain,Castellón de la Plana,https://www.worlddata.info/europe/spain/airports.php
1430,LECO,2025-11-23 01:34:21.357000+00:00,1763861400,2025-11-23T01:30:00.000Z,11.0,10.0,210,9.0,6+,1024.0,2,METAR,METAR LECO 230130Z AUTO 21009KT 9999 SCT048 11/10 Q1024,43.307,-8.372,80,"A Coruña Arpt, GA, ES",SCT,"[{'cover': 'SCT', 'base': 4800}]",VFR,,,,,,,,LCG,A Coruña Airport,Spain,Culleredo,https://www.worlddata.info/europe/spain/airports.php
1431,LEDA,2025-11-23 01:34:24.354000+00:00,1763861400,2025-11-23T01:30:00.000Z,3.0,-2.0,280,4.0,6+,1022.0,2,METAR,METAR LEDA 230130Z AUTO 28004KT CAVOK 03/M02 Q1022,41.734,0.538,352,"Lleida-Alguaire Arpt, CT, ES",CAVOK,[],VFR,,,,,,,,ILD,Lleida-Alguaire Airport,Spain,Lleida,https://www.worlddata.info/europe/spain/airports.php
1432,LEGE,2025-11-23 01:34:21.436000+00:00,1763861400,2025-11-23T01:30:00.000Z,-1.0,-5.0,0,0.0,6+,1021.0,16,METAR,METAR LEGE 230130Z 00000KT CAVOK M01/M05 Q1021 NOSIG,41.911,2.763,140,"Gerona/Costa Brava Arpt, CT, ES",CAVOK,[],VFR,,,,,,,,GRO,Girona-Costa Brava Airport,Spain,Girona,https://www.worlddata.info/europe/spain/airports.php
1433,LEGR,2025-11-23 01:34:21.507000+00:00,1763861400,2025-11-23T01:30:00.000Z,1.0,0.0,0,0.0,6+,1027.0,2,METAR,METAR LEGR 230130Z AUTO 00000KT CAVOK 01/00 Q1027,37.19,-3.789,560,"Granada/Lorca Arpt, AN, ES",CAVOK,[],VFR,,,,,,,,GRX,F.G.L. Airport Granada-Jaén Airport,Spain,Granada,https://www.worlddata.info/europe/spain/airports.php
1434,LEHC,2025-11-23 01:35:19.970000+00:00,1763861400,2025-11-23T01:30:00.000Z,4.0,0.0,260,11.0,6+,1021.0,2,METAR,METAR LEHC 230130Z AUTO 26011KT 9999 FEW042 04/00 Q1021,42.082,-0.324,540,"Huesca/Pirineos Arpt, AR, ES",FEW,"[{'cover': 'FEW', 'base': 4200}]",VFR,,,,,,,,HSK,Huesca-Pirineos Airport,Spain,Monflorite/Alcalá del Obispo,https://www.worlddata.info/europe/spain/airports.php
1435,LEIB,2025-11-23 01:34:23.085000+00:00,1763861400,2025-11-23T01:30:00.000Z,7.0,2.0,VRB,1.0,6+,1023.0,2,METAR,METAR LEIB 230130Z AUTO VRB01KT CAVOK 07/02 Q1023,38.876,1.384,4,"Ibiza Arpt, IB, ES",CAVOK,[],VFR,,,,,,,,IBZ,Ibiza Airport,Spain,Ibiza (Eivissa),https://www.worlddata.info/europe/spain/airports.php
1436,LEJR,2025-11-23 01:34:24.505000+00:00,1763861400,2025-11-23T01:30:00.000Z,6.0,4.0,30,3.0,5.59,1027.0,2,METAR,METAR LEJR 230130Z AUTO 03003KT 9000 NSC 06/04 Q1027,36.751,-6.056,25,"Jerez Arpt, AN, ES",CLR,[],VFR,,,,,,,,XRY,Jerez Airport,Spain,Jerez de la Frontera,https://www.worlddata.info/europe/spain/airports.php
1437,LELC,2025-11-23 01:34:21.984000+00:00,1763861400,2025-11-23T01:30:00.000Z,6.0,1.0,250,4.0,4.97,1026.0,2,METAR,METAR LELC 230130Z AUTO 25004KT 8000 NCD 06/01 Q1026,37.775,-0.812,3,"San Javier Arpt, MU, ES",CLR,[],MVFR,,,,,,,,MJV,San Javier Airport,Spain,San Javier,https://www.worlddata.info/europe/spain/airports.php
1438,LELN,2025-11-23 01:34:22.080000+00:00,1763861400,2025-11-23T01:30:00.000Z,4.0,4.0,260,5.0,6+,1023.0,2,METAR,METAR LELN 230130Z AUTO 26005KT 9999 BKN008 04/04 Q1023,42.588,-5.651,911,"León Arpt, CL, ES",BKN,"[{'cover': 'BKN', 'base': 800}]",IFR,,,,,,,,LEN,León Airport,Spain,León,https://www.worlddata.info/europe/spain/airports.php
1439,LELO,2025-11-23 01:35:20.047000+00:00,1763861400,2025-11-23T01:30:00.000Z,,,270,13.0,6+,1022.0,2,METAR,METAR LELO 230130Z AUTO 27013KT 9999 FEW066 ///// Q1022,42.452,-2.331,352,"Logrono Arpt, LO, ES",FEW,"[{'cover': 'FEW', 'base': 6600}]",VFR,,,,,,,,RJL,Logroño-Agoncillo Airport,Spain,Logroño,https://www.worlddata.info/europe/spain/airports.php
1440,LEMD,2025-11-23 01:34:23.177000+00:00,1763861400,2025-11-23T01:30:00.000Z,3.0,0.0,70,2.0,6+,1025.0,16,METAR,METAR LEMD 230130Z 07002KT CAVOK 03/M00 Q1025 NOSIG,40.466,-3.555,589,"Madrid/Barajas Arpt, M, ES",CAVOK,[],VFR,,,,,,,,MAD,Adolfo Suárez Madrid–Barajas Airport,Spain,Madrid,https://www.worlddata.info/europe/spain/airports.php
1441,LEMG,2025-11-23 01:34:23.252000+00:00,1763861400,2025-11-23T01:30:00.000Z,7.0,5.0,310,6.0,6+,1026.0,16,METAR,METAR LEMG 230130Z 31006KT CAVOK 07/05 Q1026 NOSIG,36.666,-4.482,5,"Málaga Arpt, AN, ES",CAVOK,[],VFR,,,,,,,,AGP,Málaga-Costa del Sol Airport,Spain,Málaga,https://www.worlddata.info/europe/spain/airports.php
1442,LEMH,2025-11-23 01:34:21.582000+00:00,1763861400,2025-11-23T01:30:00.000Z,11.0,2.0,270,8.0,6+,1023.0,2,METAR,METAR LEMH 230130Z AUTO 27008KT 240V300 9999 FEW043/// 11/02 Q1023,39.855,4.216,82,"Mahon/Menorca Arpt, IB, ES",FEW,"[{'cover': 'FEW', 'base': 4300}]",VFR,,,,,,,,MAH,Menorca Airport,Spain,Mahón (Maó),https://www.worlddata.info/europe/spain/airports.php
1443,LEMI,2025-11-23 01:34:22.254000+00:00,1763861400,2025-11-23T01:30:00.000Z,6.0,-3.0,310,3.0,6+,1025.0,2,METAR,METAR LEMI 230130Z AUTO 31003KT CAVOK 06/M03 Q1025,37.803,-1.125,193,"Murcia Intl, MU, ES",CAVOK,[],VFR,,,,,,,,RMU,Región de Murcia International Airport,Spain,Corvera,https://www.worlddata.info/europe/spain/airports.php
1444,LEMO,2025-11-23 01:35:12.492000+00:00,1763861400,2025-11-23T01:30:00.000Z,5.0,2.0,VRB,2.0,6+,1027.0,16,METAR,METAR LEMO 230130Z VRB02KT CAVOK 05/02 Q1027 NOSIG,37.175,-5.616,82,"Morón, AN, ES",CAVOK,[],VFR,,,,,,,,OZP,Moron Air Base,Spain,Morón,https://www.worlddata.info/europe/spain/airports.php
1445,LEPA,2025-11-23 01:34:23.335000+00:00,1763861400,2025-11-23T01:30:00.000Z,3.0,2.0,70,3.0,6+,1023.0,16,METAR,METAR LEPA 230130Z 07003KT 9999 FEW040 03/02 Q1023 NOSIG,39.561,2.737,8,"Palma De Mallorca Arpr, IB, ES",FEW,"[{'cover': 'FEW', 'base': 4000}]",VFR,,,,,,,,PMI,Palma de Mallorca Airport,Spain,Palma de Mallorca,https://www.worlddata.info/europe/spain/airports.php
1446,LEPP,2025-11-23 01:34:21.815000+00:00,1763861400,2025-11-23T01:30:00.000Z,4.0,3.0,VRB,1.0,6+,1022.0,2,METAR,METAR LEPP 230130Z AUTO VRB01KT 9999 -RA OVC029 04/03 Q1022,42.777,-1.65,448,"Pamplona Arpt, NA, ES",OVC,"[{'cover': 'OVC', 'base': 2900}]",MVFR,-RA,,,,,,,PNA,Pamplona Airport,Spain,Pamplona,https://www.worlddata.info/europe/spain/airports.php
1447,LERS,2025-11-23 01:34:21.656000+00:00,1763861400,2025-11-23T01:30:00.000Z,9.0,0.0,220,6.0,6+,1022.0,2,METAR,METAR LERS 230130Z AUTO 22006KT 190V250 CAVOK 09/M00 Q1022,41.15,1.179,68,"Reus Arpt, CT, ES",CAVOK,[],VFR,,,,,,,,REU,Reus Airport,Spain,Reus,https://www.worlddata.info/europe/spain/airports.php
1448,LERT,2025-11-23 01:35:12.545000+00:00,1763861400,2025-11-23T01:30:00.000Z,8.0,2.0,20,9.0,6+,1027.0,16,METAR,METAR LERT 230130Z 02009KT 350V050 CAVOK 08/02 Q1027 NOSIG,36.645,-6.349,27,"Rota), AN, ES",CAVOK,[],VFR,,,,,,,,ROZ,Rota Naval Station Airport,Spain,Rota,https://www.worlddata.info/europe/spain/airports.php
1449,LESA,2025-11-23 01:34:24.196000+00:00,1763861400,2025-11-23T01:30:00.000Z,4.0,0.0,230,6.0,6+,1026.0,2,METAR,METAR LESA 230130Z AUTO 23006KT 9999 BKN017 04/00 Q1026,40.96,-5.498,788,"Salamanca Arpt, CL, ES",BKN,"[{'cover': 'BKN', 'base': 1700}]",MVFR,,,,,,,,SLM,Salamanca Airport,Spain,Salamanca,https://www.worlddata.info/europe/spain/airports.php
1450,LESO,2025-11-23 01:34:21.733000+00:00,1763861400,2025-11-23T01:30:00.000Z,12.0,8.0,230,13.0,6+,1020.0,2,METAR,METAR LESO 230130Z AUTO 23013KT 190V260 9999 BKN026 BKN034 12/08 Q1020,43.361,-1.787,3,"San Sebastian Arpt, PV, ES",BKN,"[{'cover': 'BKN', 'base': 2600}, {'cover': 'BKN', 'base': 3400}]",MVFR,,,,,,,,EAS,San Sebastián Airport,Spain,Hondarribia,https://www.worlddata.info/europe/spain/airports.php
1451,LEST,2025-11-23 01:36:10.673000+00:00,1763861400,2025-11-23T01:30:00.000Z,10.0,9.0,200,5.0,0.06,1025.0,16,METAR,METAR LEST 230130Z 20005KT 170V230 0100 R17/1000U R35/0500N FG VV001 10/09 Q1025 NOSIG,42.888,-8.411,363,"Santiago Arpt, GA, ES",OVX,"[{'cover': 'OVX', 'base': 100}]",LIFR,FG,,,1.0,,,,SCQ,Santiago-Rosalía de Castro Airport,Spain,Santiago de Compostela,https://www.worlddata.info/europe/spain/airports.php
1452,LETL,2025-11-23 01:34:22.819000+00:00,1763861400,2025-11-23T01:30:00.000Z,-2.0,-4.0,0,0.0,6+,1024.0,2,METAR,METAR LETL 230130Z AUTO 00000KT CAVOK M02/M04 Q1024,40.404,-1.218,1024,"Teruel Arpt, AR, ES",CAVOK,[],VFR,,,,,,,,TEV,Teruel Airport,Spain,Teruel,https://www.worlddata.info/europe/spain/airports.php
1453,LETO,2025-11-23 01:35:12.632000+00:00,1763861400,2025-11-23T01:30:00.000Z,3.0,1.0,0,0.0,6+,1026.0,16,METAR,METAR LETO 230130Z 00000KT CAVOK 03/01 Q1026 NOSIG,40.489,-3.451,598,"Torrejon , M, ES",CAVOK,[],VFR,,,,,,,,TOJ,Madrid–Torrejón Airport / Torrejón Air Base,Spain,Madrid,https://www.worlddata.info/europe/spain/airports.php
1454,LEVC,2025-11-23 01:34:23.421000+00:00,1763861400,2025-11-23T01:30:00.000Z,5.0,-1.0,270,6.0,6+,1024.0,16,METAR,METAR LEVC 230130Z 27006KT CAVOK 05/M01 Q1024 NOSIG,39.489,-0.482,58,"Valencia Arpt, VC, ES",CAVOK,[],VFR,,,,,,,,VLC,Valencia Airport,Spain,Valencia,https://www.worlddata.info/europe/spain/airports.php
1455,LEVD,2025-11-23 01:34:24.270000+00:00,1763861400,2025-11-23T01:30:00.000Z,4.0,1.0,220,7.0,6+,1025.0,2,METAR,METAR LEVD 230130Z AUTO 22007KT 9999 BKN038 04/01 Q1025,41.706,-4.852,844,"Valladolid Arpt, CL, ES",BKN,"[{'cover': 'BKN', 'base': 3800}]",VFR,,,,,,,,VLL,Valladolid Airport,Spain,Valladolid,https://www.worlddata.info/europe/spain/airports.php
1456,LEVT,2025-11-23 01:34:24.582000+00:00,1763861400,2025-11-23T01:30:00.000Z,6.0,3.0,220,9.0,6+,1022.0,0,METAR,METAR LEVT 230130Z 22009KT 200V260 9999 -RA FEW033 BKN043 06/03 Q1022,42.872,-2.733,501,"Vitoria Arpt, PV, ES",BKN,"[{'cover': 'FEW', 'base': 3300}, {'cover': 'BKN', 'base': 4300}]",VFR,-RA,,,,,,,VIT,Vitoria Airport,Spain,Alava,https://www.worlddata.info/europe/spain/airports.php
1457,LEVX,2025-11-23 01:36:10.706000+00:00,1763861400,2025-11-23T01:30:00.000Z,8.0,8.0,190,7.0,0.03,1026.0,2,METAR,METAR LEVX 230130Z AUTO 19007KT 150V220 0050 R19/0600N R01/0350N -RA FG VV001 08/08 Q1026,42.239,-8.624,253,"Vigo/Peinador Arpt, GA, ES",OVX,"[{'cover': 'OVX', 'base': 100}]",LIFR,-RA FG,,,1.0,,,,VGO,Vigo Airport,Spain,Vigo,https://www.worlddata.info/europe/spain/airports.php
1458,LEXJ,2025-11-23 01:34:21.906000+00:00,1763861400,2025-11-23T01:30:00.000Z,13.0,8.0,230,11.0,3.11,1021.0,2,METAR,METAR LEXJ 230130Z AUTO 23011KT 200V260 5000 HZ OVC032 13/08 Q1021,43.429,-3.831,1,"Santander/Ballesteros Arpt, S, ES",OVC,"[{'cover': 'OVC', 'base': 3200}]",MVFR,HZ,,,,,,,SDR,Seve Ballesteros-Santander Airport,Spain,Santander,https://www.worlddata.info/europe/spain/airports.php
1459,LEZG,2025-11-23 01:34:24.649000+00:00,1763861400,2025-11-23T01:30:00.000Z,4.0,1.0,0,0.0,6+,1023.0,16,METAR,METAR LEZG 230130Z 00000KT 9999 FEW075 04/01 Q1023 NOSIG,41.661,-1.004,245,"Zaragoza Arpt, AR, ES",FEW,"[{'cover': 'FEW', 'base': 7500}]",VFR,,,,,,,,ZAZ,Zaragoza Airport,Spain,Zaragoza,https://www.worlddata.info/europe/spain/airports.php
1460,LEZL,2025-11-23 01:34:23.601000+00:00,1763861400,2025-11-23T01:30:00.000Z,7.0,4.0,40,1.0,6+,1027.0,2,METAR,METAR LEZL 230130Z AUTO 04001KT CAVOK 07/04 Q1027,37.418,-5.893,26,"Seville/San Pablo Arpt, AN, ES",CAVOK,[],VFR,,,,,,,,SVQ,Sevilla Airport,Spain,Sevilla,https://www.worlddata.info/europe/spain/airports.php
1461,LFAC,2025-11-23 01:32:19.451000+00:00,1763861400,2025-11-23T01:30:00.000Z,3.0,1.0,190,17.0,6+,1011.0,2,METAR,METAR LFAC 230130Z AUTO 19017KT 9999 BKN012 OVC018 03/01 Q1011,50.962,1.955,3,"Calais Arpt, HD, FR",OVC,"[{'cover': 'BKN', 'base': 1200}, {'cover': 'OVC', 'base': 1800}]",MVFR,,,,,,,,CQF,Calais-Dunkerque Airport,France,Marck,https://www.worlddata.info/europe/france/airports.php
1462,LFAQ,2025-11-23 01:34:19.420000+00:00,1763861400,2025-11-23T01:30:00.000Z,-1.0,-1.0,170,16.0,2.98,1014.0,2,METAR,METAR LFAQ 230130Z AUTO 17016KT 4800 -SN BR OVC004 M01/M01 Q1014,49.972,2.704,107,"Albert/Picardie Arpt, HD, FR",OVC,"[{'cover': 'OVC', 'base': 400}]",LIFR,-SN BR,,,,,,,BYF,Albert-Picardie Airport,France,"Méaulte, Somme",https://www.worlddata.info/europe/france/airports.php
1463,LFAT,2025-11-23 01:32:19.707000+00:00,1763861400,2025-11-23T01:30:00.000Z,2.0,1.0,160,9.0,6+,1012.0,2,METAR,METAR LFAT 230130Z AUTO 16009KT 9999 -DZ OVC006 02/01 Q1012,50.515,1.623,2,"Le Touquet Arpt, HD, FR",OVC,"[{'cover': 'OVC', 'base': 600}]",IFR,-DZ,,,,,,,LTQ,Le Touquet-Côte d'Opale Airport,France,Le Touquet-Paris-Plage,https://www.worlddata.info/europe/france/airports.php
1464,LFBA,2025-11-23 01:32:18.849000+00:00,1763861400,2025-11-23T01:30:00.000Z,3.0,3.0,110,9.0,2.17,1019.0,2,METAR,METAR LFBA 230130Z AUTO 11009KT 3500 -RA BR BKN004 OVC024 03/03 Q1019,44.176,0.593,68,"Agen/La Garenne Arpt, NA, FR",OVC,"[{'cover': 'BKN', 'base': 400}, {'cover': 'OVC', 'base': 2400}]",LIFR,-RA BR,,,,,,,AGF,Agen-La Garenne Airport,France,Agen/La Garenne,https://www.worlddata.info/europe/france/airports.php
1465,LFBD,2025-11-23 01:36:09.879000+00:00,1763861400,2025-11-23T01:30:00.000Z,5.0,5.0,170,6.0,4.35,1017.0,2,METAR,METAR LFBD 230130Z AUTO 17006KT 7000 -DZ OVC004 05/05 Q1017 TEMPO 0500 FG VV///,44.831,-0.691,48,"Bordeaux/Mérignac Arpt, NA, FR",OVC,"[{'cover': 'OVC', 'base': 400}]",LIFR,-DZ,,,,,,,BOD,Bordeaux-Mérignac Airport,France,Bordeaux/Mérignac,https://www.worlddata.info/europe/france/airports.php
1466,LFBE,2025-11-23 01:32:21.313000+00:00,1763861400,2025-11-23T01:30:00.000Z,3.0,2.0,130,10.0,2.73,1019.0,2,METAR,METAR LFBE 230130Z AUTO 13010KT 090V150 4400 -DZ BR FEW009 SCT019 OVC026 03/02 Q1019,44.826,0.516,49,"Bergerac/Perigord Arpt, NA, FR",OVC,"[{'cover': 'FEW', 'base': 900}, {'cover': 'SCT', 'base': 1900}, {'cover': 'OVC', 'base': 2600}]",IFR,-DZ BR,,,,,,,EGC,Bergerac Dordogne Périgord Airport,France,Bergerac/Roumanière,https://www.worlddata.info/europe/france/airports.php
1467,LFBG,2025-11-23 01:32:20.531000+00:00,1763861400,2025-11-23T01:30:00.000Z,5.0,4.0,160,6.0,3.73,1017.0,2,METAR,METAR LFBG 230130Z AUTO 16006KT 100V220 6000 OVC005 05/04 Q1017,45.665,-0.316,28,"Cognac/Parvaud Arpt, NA, FR",OVC,"[{'cover': 'OVC', 'base': 500}]",IFR,,,,,,,,CNG,Cognac-Châteaubernard (BA 709) Air Base,France,Cognac/Châteaubernard,https://www.worlddata.info/europe/france/airports.php
1468,LFBH,2025-11-23 01:32:16.716000+00:00,1763861400,2025-11-23T01:30:00.000Z,7.0,7.0,140,7.0,3.73,1015.0,18,METAR,METAR LFBH 230130Z AUTO 14007KT 6000 SCT003 SCT007 OVC023 07/07 Q1015 NOSIG,46.178,-1.193,18,"La Rochelle–Île de Ré, NA, FR",OVC,"[{'cover': 'SCT', 'base': 300}, {'cover': 'SCT', 'base': 700}, {'cover': 'OVC', 'base': 2300}]",MVFR,,,,,,,,LRH,La Rochelle-Île de Ré Airport,France,La Rochelle/Île de Ré,https://www.worlddata.info/europe/france/airports.php
1469,LFBI,2025-11-23 01:36:09.909000+00:00,1763861400,2025-11-23T01:30:00.000Z,3.0,3.0,180,14.0,4.97,1015.0,2,METAR,METAR LFBI 230130Z AUTO 18014KT 8000 -DZ OVC005 03/03 Q1015 TEMPO 19016G26KT 2500 -RADZ,46.584,0.309,117,"Poitiers/Biard Arpt, NA, FR",OVC,"[{'cover': 'OVC', 'base': 500}]",IFR,-DZ,,,,,,,PIS,Poitiers-Biard Airport,France,Poitiers/Biard,https://www.worlddata.info/europe/france/airports.php
1470,LFBL,2025-11-23 01:36:09.111000+00:00,1763861400,2025-11-23T01:30:00.000Z,0.0,0.0,150,10.0,3.11,1017.0,2,METAR,METAR LFBL 230130Z AUTO 15010KT 5000 -FZDZ BR OVC004 M00/M00 Q1017 TEMPO 15015G25KT 1200 SN OVC001,45.863,1.179,402,"Limoges/Bellegarde Arpt, NA, FR",OVC,"[{'cover': 'OVC', 'base': 400}]",LIFR,-FZDZ BR,,,,,,,LIG,Limoges Airport,France,Limoges/Bellegarde,https://www.worlddata.info/europe/france/airports.php
1471,LFBO,2025-11-23 01:36:09.962000+00:00,1763861400,2025-11-23T01:30:00.000Z,2.0,1.0,150,4.0,6+,1021.0,2,METAR,METAR LFBO 230130Z AUTO 15004KT 9999 -RA FEW032/// BKN039/// BKN048/// ///CB 02/01 Q1021 TEMPO 4500 -SNRA BKN010,43.621,1.379,150,"Toulouse/Blagnac Arpt, OC, FR",BKN,"[{'cover': 'FEW', 'base': 3200}, {'cover': 'BKN', 'base': 3900}, {'cover': 'BKN', 'base': 4800}]",VFR,-RA,,,,,,,TLS,Toulouse-Blagnac Airport,France,Toulouse/Blagnac,https://www.worlddata.info/europe/france/airports.php
1472,LFBP,2025-11-23 01:36:09.993000+00:00,1763861400,2025-11-23T01:30:00.000Z,5.0,4.0,130,6.0,6+,1018.0,2,METAR,METAR LFBP 230130Z AUTO 13006KT 9999 OVC023 05/04 Q1018 TEMPO 4000 RA BKN008 SCT020TCU BECMG 26014KT,43.385,-0.416,182,"Pau/Uzein Arpt, NA, FR",OVC,"[{'cover': 'OVC', 'base': 2300}]",MVFR,,,,,,,,PUF,Pau Pyrénées Airport,France,Pau/Pyrénées (Uzein),https://www.worlddata.info/europe/france/airports.php
1473,LFBT,2025-11-23 01:43:03.305000+00:00,1763861400,2025-11-23T01:30:00.000Z,7.0,6.0,210,13.0,6+,1019.0,2,METAR,METAR LFBT 230130Z AUTO 21013KT 9999 -RA BKN025/// OVC038/// //////TCU 07/06 Q1019 TEMPO 4000 RA BKN012 BECMG 27014KT,43.189,0.0,359,"Tarbes/Ossun Arpt, OC, FR",OVC,"[{'cover': 'BKN', 'base': 2500}, {'cover': 'OVC', 'base': 3800}]",MVFR,-RA,,,,,,,LDE,Tarbes-Lourdes-Pyrénées Airport,France,Tarbes/Lourdes/Pyrénées,https://www.worlddata.info/europe/france/airports.php
1474,LFBU,2025-11-23 01:34:19.528000+00:00,1763861400,2025-11-23T01:30:00.000Z,3.0,2.0,150,13.0,3.73,1017.0,2,METAR,METAR LFBU 230130Z AUTO 15013KT 6000 -DZ OVC006 03/02 Q1017,45.728,0.22,124,"Angouleme/Champniers, NA, FR",OVC,"[{'cover': 'OVC', 'base': 600}]",IFR,-DZ,,,,,,,ANG,Angoulême-Brie-Champniers Airport,France,Angoulême/Brie/Champniers,https://www.worlddata.info/europe/france/airports.php
1475,LFBX,2025-11-23 01:32:19.033000+00:00,1763861400,2025-11-23T01:30:00.000Z,2.0,1.0,100,4.0,6+,1019.0,2,METAR,METAR LFBX 230130Z AUTO 10004KT 9999 OVC029 02/01 Q1019,45.196,0.815,97,"Perigueux/Bassillac, NA, FR",OVC,"[{'cover': 'OVC', 'base': 2900}]",MVFR,,,,,,,,PGX,Périgueux-Bassillac Airport,France,Périgueux/Bassillac,https://www.worlddata.info/europe/france/airports.php
1476,LFBZ,2025-11-23 01:36:10.078000+00:00,1763861400,2025-11-23T01:30:00.000Z,12.0,9.0,240,11.0,6+,1019.0,2,METAR,METAR LFBZ 230130Z AUTO 24011G23KT 190V280 9999 OVC019/// ///TCU 12/09 Q1019 TEMPO 26020G40KT 1400 RA BKN010 SCT020CB,43.469,-1.534,70,"Biarritz/Parme Arpt, NA, FR",OVC,"[{'cover': 'OVC', 'base': 1900}]",MVFR,,,,,,23.0,,BIQ,Biarritz-Anglet-Bayonne Airport,France,Biarritz/Anglet/Bayonne,https://www.worlddata.info/europe/france/airports.php
1477,LFCK,2025-11-23 01:32:22.337000+00:00,1763861400,2025-11-23T01:30:00.000Z,2.0,-1.0,VRB,2.0,6+,1022.0,2,METAR,METAR LFCK 230130Z AUTO VRB02KT 9999 FEW036/// BKN047/// OVC058/// ///CB 02/M01 Q1022,43.556,2.289,223,"Castres/Mazamet Arpt, OC, FR",OVC,"[{'cover': 'FEW', 'base': 3600}, {'cover': 'BKN', 'base': 4700}, {'cover': 'OVC', 'base': 5800}]",VFR,,,,,,,,DCM,Castres-Mazamet Airport,France,Castres/Mazamet,https://www.worlddata.info/europe/france/airports.php
1478,LFCR,2025-11-23 01:36:12.320000+00:00,1763861400,2025-11-23T01:30:00.000Z,-1.0,-3.0,VRB,3.0,6+,1020.0,2,METAR,METAR LFCR 230130Z AUTO VRB03KT 9999 SCT040/// BKN046/// BKN054/// //////CB M01/M03 Q1020 TEMPO 2000 -FZRA BECMG OVC003,44.41,2.483,576,"Rodez/Marcillac Arpt, OC, FR",BKN,"[{'cover': 'SCT', 'base': 4000}, {'cover': 'BKN', 'base': 4600}, {'cover': 'BKN', 'base': 5400}]",VFR,,,,,,,,RDZ,Rodez–Aveyron Airport,France,Rodez/Marcillac,https://www.worlddata.info/europe/france/airports.php
1479,LFGJ,2025-11-23 01:34:20.226000+00:00,1763861400,2025-11-23T01:30:00.000Z,-4.0,-5.0,160,3.0,4.35,1021.0,2,METAR,METAR LFGJ 230130Z AUTO 16003KT 7000 OVC004 M04/M05 Q1021,47.044,5.427,191,"Dole/Tavaux Arpt, BF, FR",OVC,"[{'cover': 'OVC', 'base': 400}]",LIFR,,,,,,,,DLE,Dole-Jura Airport,France,"Tavaux, Jura",https://www.worlddata.info/europe/france/airports.php
1480,LFJL,2025-11-23 01:32:28.615000+00:00,1763861400,2025-11-23T01:30:00.000Z,-5.0,-6.0,130,7.0,4.35,1019.0,18,METAR,METAR LFJL 230130Z AUTO 13007KT 7000 NSC M05/M06 Q1019 NOSIG,48.982,6.251,259,"Metz/Lorraine Arpt, GE, FR",CLR,[],MVFR,,,,,,,,ETZ,Metz-Nancy-Lorraine Airport,France,Goin,https://www.worlddata.info/europe/france/airports.php
1481,LFJR,2025-11-23 01:32:19.966000+00:00,1763861400,2025-11-23T01:30:00.000Z,4.0,4.0,160,10.0,3.04,1014.0,2,METAR,METAR LFJR 230130Z AUTO 16010KT 4900 -DZ BR OVC004 04/04 Q1014,47.562,-0.317,50,"Anger/Loire Arpt, PD, FR",OVC,"[{'cover': 'OVC', 'base': 400}]",LIFR,-DZ BR,,,,,,,ANE,Angers-Loire Airport,France,"Marcé, Maine-et-Loire",https://www.worlddata.info/europe/france/airports.php
1482,LFKB,2025-11-23 01:32:15.921000+00:00,1763861400,2025-11-23T01:30:00.000Z,5.0,3.0,230,9.0,6+,1018.0,18,METAR,METAR LFKB 230130Z AUTO 23009KT CAVOK 05/03 Q1018 NOSIG,42.553,9.484,7,"Bastia/Poretta Arpt, OC, FR",CAVOK,[],VFR,,,,,,,,BIA,Bastia-Poretta Airport,France,Bastia/Poretta,https://www.worlddata.info/europe/france/airports.php
1483,LFKC,2025-11-23 01:36:10.105000+00:00,1763861400,2025-11-23T01:30:00.000Z,4.0,1.0,180,7.0,6+,1018.0,2,METAR,METAR LFKC 230130Z AUTO 18007KT 9999 // NSC 04/01 Q1018,42.531,8.793,38,"Calvi/St Catherine Arpt, CO, FR",CLR,[],VFR,,,,,,,,CLY,Calvi-Sainte-Catherine Airport,France,Calvi/Sainte-Catherine,https://www.worlddata.info/europe/france/airports.php
1484,LFKF,2025-11-23 01:36:09.220000+00:00,1763861400,2025-11-23T01:30:00.000Z,4.0,3.0,90,3.0,6+,1019.0,2,METAR,METAR LFKF 230130Z AUTO 09003KT 050V180 9999 -RA BKN050/// BKN064/// OVC086/// ///TCU 04/03 Q1019,41.501,9.098,15,"Figari/Corse Arpt, CO, FR",OVC,"[{'cover': 'BKN', 'base': 5000}, {'cover': 'BKN', 'base': 6400}, {'cover': 'OVC', 'base': 8600}]",VFR,-RA,,,,,,,FSC,Figari Sud-Corse Airport,France,Figari Sud-Corse,https://www.worlddata.info/europe/france/airports.php
1485,LFKJ,2025-11-23 01:36:10.176000+00:00,1763861400,2025-11-23T01:30:00.000Z,4.0,1.0,30,7.0,6+,1018.0,2,METAR,METAR LFKJ 230130Z AUTO 03007KT 9999 ///TCU 04/01 Q1018 TEMPO SHRA,41.924,8.803,9,"Ajaccio/Oro Arpt, CO, FR",,,,,,,,,,,AJA,Ajaccio-Napoléon Bonaparte Airport,France,Ajaccio/Napoléon Bonaparte,https://www.worlddata.info/europe/france/airports.php
1486,LFKS,2025-11-23 01:35:37.667000+00:00,1763861400,2025-11-23T01:30:00.000Z,5.0,2.0,270,6.0,6+,1018.0,2,METAR,METAR LFKS 230130Z AUTO 27006KT 240V300 9999 // NSC 05/02 Q1018,41.924,9.406,22,"Solenzara, CO, FR",CLR,[],VFR,,,,,,,,SOZ,Solenzara (BA 126) Air Base,France,Solenzara,https://www.worlddata.info/europe/france/airports.php
1487,LFLB,2025-11-23 01:32:16.120000+00:00,1763861400,2025-11-23T01:30:00.000Z,-4.0,-5.0,130,3.0,5.59,1022.0,2,METAR,METAR LFLB 230130Z AUTO 13003KT 9000 NSC M04/M05 Q1022,45.637,5.883,234,"Chambery Arpt, AR, FR",CLR,[],VFR,,,,,,,,CMF,Chambéry Savoie Mont Blanc Airport,France,Viviers-du-Lac,https://www.worlddata.info/europe/france/airports.php
1488,LFLC,2025-11-23 01:36:10.205000+00:00,1763861400,2025-11-23T01:30:00.000Z,-2.0,-6.0,VRB,4.0,6+,1019.0,2,METAR,METAR LFLC 230130Z AUTO VRB04KT 9999 SCT058 BKN072 BKN088 M02/M06 Q1019 TEMPO 18015G25KT 4000 -SN BKN009 OVC040,45.787,3.169,325,"Clermont-Ferrand/Auvergne Arpt, AR, FR",BKN,"[{'cover': 'SCT', 'base': 5800}, {'cover': 'BKN', 'base': 7200}, {'cover': 'BKN', 'base': 8800}]",VFR,,,,,,,,CFE,Clermont-Ferrand Auvergne Airport,France,"Aulnat, Puy-de-Dôme",https://www.worlddata.info/europe/france/airports.php
1489,LFLL,2025-11-23 01:32:16.892000+00:00,1763861400,2025-11-23T01:30:00.000Z,-3.0,-5.0,140,8.0,4.35,1021.0,16,METAR,METAR LFLL 230130Z 14008KT 7000 NSC M03/M05 Q1021 NOSIG,45.726,5.078,234,"Lyon/St-Exupéry Arpt, AR, FR",CLR,[],MVFR,,,,,,,,LYS,Lyon Saint-Exupéry Airport,France,"Colombier-Saugnieu, Rhône",https://www.worlddata.info/europe/france/airports.php
1490,LFLN,2025-11-23 01:32:29.919000+00:00,1763861400,2025-11-23T01:30:00.000Z,-5.0,-5.0,VRB,1.0,4.97,1020.0,2,METAR,METAR LFLN 230130Z AUTO VRB01KT 8000 NSC M05/M05 Q1020,46.412,4.025,238,"Saint Yan Arpt, BF, FR",CLR,[],MVFR,,,,,,,,SYT,Saint-Yan Airport,France,Saint-Yan,https://www.worlddata.info/europe/france/airports.php
1491,LFLP,2025-11-23 01:32:22.504000+00:00,1763861400,2025-11-23T01:30:00.000Z,-5.0,-6.0,30,3.0,6+,1021.0,2,METAR,METAR LFLP 230130Z AUTO 03003KT CAVOK M05/M06 Q1021,45.93,6.106,460,"Annecy/Meythet Arpt, AR, FR",CAVOK,[],VFR,,,,,,,,NCY,Annecy Haute-Savoie Mont Blanc Airport,France,Epagny Metz-Tessy,https://www.worlddata.info/europe/france/airports.php
1492,LFLS,2025-11-23 01:32:29.439000+00:00,1763861400,2025-11-23T01:30:00.000Z,-6.0,-7.0,VRB,1.0,4.35,1020.0,2,METAR,METAR LFLS 230130Z AUTO VRB01KT 7000 NSC M06/M07 Q1020,45.363,5.329,386,"Grenoble/Alpes–Isère Arpt, AR, FR",CLR,[],MVFR,,,,,,,,GNB,Grenoble Alpes Isère Airport,France,"Saint-Étienne-de-Saint-Geoirs, Isère",https://www.worlddata.info/europe/france/airports.php
1493,LFLW,2025-11-23 01:35:37.686000+00:00,1763861400,2025-11-23T01:30:00.000Z,-1.0,-6.0,140,3.0,6+,1019.0,2,METAR,METAR LFLW 230130Z AUTO 14003KT 9999 BKN032/// OVC042/// //////TCU M01/M06 Q1019,44.899,2.421,638,"Aurillac Arpt, AR, FR",OVC,"[{'cover': 'BKN', 'base': 3200}, {'cover': 'OVC', 'base': 4200}]",VFR,,,,,,,,AUR,Aurillac Airport,France,Aurillac,https://www.worlddata.info/europe/france/airports.php
1494,LFLX,2025-11-23 01:32:22.866000+00:00,1763861400,2025-11-23T01:30:00.000Z,2.0,0.0,150,9.0,6+,1016.0,2,METAR,METAR LFLX 230130Z AUTO 15009KT 9999 OVC027 02/M00 Q1016,46.87,1.741,157,"Chateauroux/Deols Arpt, CV, FR",OVC,"[{'cover': 'OVC', 'base': 2700}]",MVFR,,,,,,,,CHR,Châteauroux-Déols Marcel Dassault Airport,France,Châteauroux/Déols,https://www.worlddata.info/europe/france/airports.php
1495,LFLY,2025-11-23 01:32:23.537000+00:00,1763861400,2025-11-23T01:30:00.000Z,-4.0,-5.0,140,2.0,6+,1021.0,18,METAR,METAR LFLY 230130Z AUTO 14002KT CAVOK M04/M05 Q1021 NOSIG,45.726,4.938,197,"Lyon/Bron Arpt, AR, FR",CAVOK,[],VFR,,,,,,,,LYN,Lyon Bron Airport,France,"Chassieu, Lyon",https://www.worlddata.info/europe/france/airports.php
1496,LFMD,2025-11-23 01:32:21.486000+00:00,1763861400,2025-11-23T01:30:00.000Z,3.0,-1.0,360,4.0,6+,1018.0,2,METAR,METAR LFMD 230130Z AUTO 36004KT 330V040 CAVOK 03/M01 Q1018,43.544,6.953,2,"Cannes/Mandelieu Arpt, PA, FR",CAVOK,[],VFR,,,,,,,,CEQ,Cannes-Mandelieu Airport,France,"Cannes, Alpes-Maritimes",https://www.worlddata.info/europe/france/airports.php
1497,LFMH,2025-11-23 01:32:21.660000+00:00,1763861400,2025-11-23T01:30:00.000Z,-3.0,-7.0,160,6.0,6+,1020.0,2,METAR,METAR LFMH 230130Z AUTO 16006KT CAVOK M03/M07 Q1020,45.533,4.293,400,"St-Étienne/Bouthéon, AR, FR",CAVOK,[],VFR,,,,,,,,EBU,Saint-Étienne-Bouthéon Airport,France,Saint-Étienne/Bouthéon,https://www.worlddata.info/europe/france/airports.php
1498,LFMK,2025-11-23 01:36:12.340000+00:00,1763861400,2025-11-23T01:30:00.000Z,2.0,0.0,VRB,2.0,6+,1021.0,2,METAR,METAR LFMK 230130Z AUTO VRB02KT 9999 BKN066/// OVC080/// //////CB 02/M00 Q1021,43.214,2.31,124,"Carcassonne/Salvaza Arpt, OC, FR",OVC,"[{'cover': 'BKN', 'base': 6600}, {'cover': 'OVC', 'base': 8000}]",VFR,,,,,,,,CCF,Carcassonne Airport,France,Carcassonne/Salvaza,https://www.worlddata.info/europe/france/airports.php
1499,LFML,2025-11-23 01:32:16.338000+00:00,1763861400,2025-11-23T01:30:00.000Z,-3.0,-5.0,350,5.0,6+,1020.0,18,METAR,METAR LFML 230130Z AUTO 35005KT CAVOK M03/M05 Q1020 NOSIG,43.438,5.216,20,"Marseille Arpt, PA, FR",CAVOK,[],VFR,,,,,,,,MRS,Marseille Provence Airport,France,"Marignane, Bouches-du-Rhône",https://www.worlddata.info/europe/france/airports.php
1500,LFMN,2025-11-23 01:32:17.076000+00:00,1763861400,2025-11-23T01:30:00.000Z,6.0,-3.0,340,12.0,6+,1018.0,16,METAR,METAR LFMN 230130Z 34012KT CAVOK 06/M03 Q1018 NOSIG,43.658,7.216,4,"Nice/Côte d'Azur Arpt, PA, FR",CAVOK,[],VFR,,,,,,,,NCE,Nice-Côte d'Azur Airport,France,"Nice, Alpes-Maritimes",https://www.worlddata.info/europe/france/airports.php
1501,LFMP,2025-11-23 01:32:29.590000+00:00,1763861400,2025-11-23T01:30:00.000Z,4.0,-5.0,240,4.0,6+,1021.0,2,METAR,METAR LFMP 230130Z AUTO 24004KT 9999 BKN098 BKN110 04/M05 Q1021,42.737,2.873,41,"Perpignan/Rivesaltes Arpt, OC, FR",BKN,"[{'cover': 'BKN', 'base': 9800}, {'cover': 'BKN', 'base': 11000}]",VFR,,,,,,,,PGF,Perpignan-Rivesaltes (Llabanère) Airport,France,Perpignan/Rivesaltes,https://www.worlddata.info/europe/france/airports.php
1502,LFMT,2025-11-23 01:36:09.454000+00:00,1763861400,2025-11-23T01:30:00.000Z,1.0,-8.0,350,5.0,6+,1021.0,2,METAR,METAR LFMT 230130Z AUTO 35005KT CAVOK 01/M08 Q1021 TEMPO 4000 -SHRASN BKN014 FEW030CB BKN040,43.577,3.963,1,"Montpellier/Méditerranee Arpt, OC, FR",CAVOK,[],VFR,,,,,,,,MPL,Montpellier-Méditerranée Airport,France,Montpellier/Méditerranée,https://www.worlddata.info/europe/france/airports.php
1503,LFMU,2025-11-23 01:36:12.359000+00:00,1763861400,2025-11-23T01:30:00.000Z,3.0,-3.0,280,4.0,6+,1022.0,2,METAR,METAR LFMU 230130Z AUTO 28004KT 9999 //////TCU 03/M03 Q1022,43.322,3.353,14,"Béziers/Cap d'Agde, OC, FR",,,,,,,,,,,BZR,Béziers-Vias Airport,France,Béziers/Vias,https://www.worlddata.info/europe/france/airports.php
1504,LFMV,2025-11-23 01:34:19.318000+00:00,1763861400,2025-11-23T01:30:00.000Z,0.0,-4.0,350,5.0,6+,1021.0,2,METAR,METAR LFMV 230130Z AUTO 35005KT CAVOK M00/M04 Q1021,43.911,4.903,33,"Avignon/Caumont Arpt, PA, FR",CAVOK,[],VFR,,,,,,,,AVN,Avignon-Caumont Airport,France,"Avignon, Vaucluse",https://www.worlddata.info/europe/france/airports.php
1505,LFOB,2025-11-23 01:36:09.477000+00:00,1763861400,2025-11-23T01:30:00.000Z,1.0,0.0,170,11.0,3.11,1014.0,2,METAR,METAR LFOB 230130Z AUTO 17011KT 5000 -DZ BR OVC006 01/00 Q1014 TEMPO 18015G25KT 0800 SN BKN004 OVC008,49.454,2.113,99,"Beauvais/Tille Arpt, HD, FR",OVC,"[{'cover': 'OVC', 'base': 600}]",IFR,-DZ BR,,,,,,,BVA,Paris-Beauvais Airport,France,Tillé,https://www.worlddata.info/europe/france/airports.php
1506,LFOE,2025-11-23 01:36:09.240000+00:00,1763861400,2025-11-23T01:30:00.000Z,1.0,1.0,170,13.0,3.73,1013.0,2,METAR,METAR LFOE 230130Z AUTO 17013KT 6000 OVC005 01/01 Q1013 BECMG 17015G25KT,49.025,1.222,132,"Evreux/De LEure, NO, FR",OVC,"[{'cover': 'OVC', 'base': 500}]",IFR,,,,,,,,EVX,Évreux-Fauville (BA 105) Air Base,France,Évreux/Fauville,https://www.worlddata.info/europe/france/airports.php
1507,LFOH,2025-11-23 01:32:23.041000+00:00,1763861400,2025-11-23T01:30:00.000Z,5.0,3.0,190,12.0,6+,1012.0,2,METAR,METAR LFOH 230130Z AUTO 19012KT 9999 OVC008 05/03 Q1012,49.533,0.091,87,"Le Havre/Octeville Arpt, NO, FR",OVC,"[{'cover': 'OVC', 'base': 800}]",IFR,,,,,,,,LEH,Le Havre-Octeville Airport,France,Le Havre,https://www.worlddata.info/europe/france/airports.php
1508,LFOK,2025-11-23 01:34:06.908000+00:00,1763861400,2025-11-23T01:30:00.000Z,-3.0,-3.0,170,13.0,6+,1017.0,2,METAR,METAR LFOK 230130Z AUTO 17013KT 9999 ///CB M03/M03 Q1017 TEMPO 4000 -SN BKN014 BKN020,48.777,4.165,166,"Châlons-Vatry Arpt, GE, FR",,,,,,,,,,,XCR,Châlons-Vatry Airport,France,Bussy-Lettrée,https://www.worlddata.info/europe/france/airports.php
1509,LFOP,2025-11-23 01:32:23.202000+00:00,1763861400,2025-11-23T01:30:00.000Z,1.0,1.0,170,14.0,6+,1013.0,2,METAR,METAR LFOP 230130Z AUTO 17014KT 9999 OVC003 01/01 Q1013,49.383,1.182,149,"Rouen/Boos Arpt, NO, FR",OVC,"[{'cover': 'OVC', 'base': 300}]",LIFR,,,,,,,,URO,Rouen Vallée de Seine Airport,France,Boos,https://www.worlddata.info/europe/france/airports.php
1510,LFOT,2025-11-23 01:32:21.839000+00:00,1763861400,2025-11-23T01:30:00.000Z,3.0,2.0,180,14.0,3.73,1015.0,2,METAR,METAR LFOT 230130Z AUTO 18014KT 6000 -DZ OVC005 03/02 Q1015,47.444,0.728,107,"Tours/Val de Loire Arpt, CV, FR",OVC,"[{'cover': 'OVC', 'base': 500}]",IFR,-DZ,,,,,,,TUF,Tours Val de Loire Airport,France,"Tours, Indre-et-Loire",https://www.worlddata.info/europe/france/airports.php
1511,LFOV,2025-11-23 01:34:18.130000+00:00,1763861400,2025-11-23T01:30:00.000Z,4.0,3.0,160,5.0,3.11,1013.0,2,METAR,METAR LFOV 230130Z AUTO 16005KT 5000 BR OVC002 04/03 Q1013,48.031,-0.746,99,"Laval/Entrammes Arpt, PD, FR",OVC,"[{'cover': 'OVC', 'base': 200}]",LIFR,BR,,,,,,,LVA,Laval-Entrammes Airport,France,"Laval, Mayenne",https://www.worlddata.info/europe/france/airports.php
1512,LFPB,2025-11-23 01:36:09.518000+00:00,1763861400,2025-11-23T01:30:00.000Z,0.0,0.0,150,12.0,2.24,1016.0,2,METAR,METAR LFPB 230130Z AUTO 15012KT 3600 -SN BR OVC006 00/M00 Q1016 TEMPO 1600 -SN BR BKN010,48.967,2.428,50,"Paris/Le Bourge Arpt, ID, FR",OVC,"[{'cover': 'OVC', 'base': 600}]",IFR,-SN BR,,,,,,,LBG,Paris-Le Bourget Airport,France,"Paris (Le Bourget, Seine-Saint-Denis)",https://www.worlddata.info/europe/france/airports.php
1513,LFPG,2025-11-23 01:36:09.556000+00:00,1763861400,2025-11-23T01:30:00.000Z,0.0,-1.0,170,12.0,1.86,1015.0,0,METAR,METAR LFPG 230130Z 17012KT 3000 -SN BKN005 M00/M01 Q1015 TEMPO 18015G25KT 1200 SN BKN003,49.015,2.534,107,"Paris/De Gaulle Arpt, ID, FR",BKN,"[{'cover': 'BKN', 'base': 500}]",IFR,-SN,,,,,,,CDG,Charles de Gaulle International Airport,France,"Paris (Roissy-en-France, Val-d'Oise)",https://www.worlddata.info/europe/france/airports.php
1514,LFPN,2025-11-23 01:32:20.171000+00:00,1763861400,2025-11-23T01:30:00.000Z,0.0,0.0,170,13.0,3.73,1014.0,2,METAR,METAR LFPN 230130Z AUTO 17013KT 6000 -RADZ OVC005/// 00/M00 Q1014,48.752,2.114,152,"Toussus le Noble Arpt, NO, FR",OVC,"[{'cover': 'OVC', 'base': 500}]",IFR,-RA -DZ,,,,,,,TNF,Toussus-le-Noble Airport,France,"Toussus-le-Noble, Yvelines",https://www.worlddata.info/europe/france/airports.php
1515,LFPO,2025-11-23 01:36:09.580000+00:00,1763861400,2025-11-23T01:30:00.000Z,0.0,0.0,180,9.0,2.8,1016.0,2,METAR,METAR LFPO 230130Z AUTO 18009KT 4500 // OVC005 M00/M00 Q1016,48.717,2.384,88,"Paris/Orly Fld, ID, FR",OVC,"[{'cover': 'OVC', 'base': 500}]",IFR,,,,,,,,ORY,Paris-Orly Airport,France,"Paris (Orly, Val-de-Marne)",https://www.worlddata.info/europe/france/airports.php
1516,LFPT,2025-11-23 01:34:19.018000+00:00,1763861400,2025-11-23T01:30:00.000Z,0.0,0.0,180,10.0,2.36,1014.0,2,METAR,METAR LFPT 230130Z AUTO 18010KT 3800 -RA BR OVC005 00/00 Q1014,49.097,2.041,91,"Pontoise-Cormeilles, ID, FR",OVC,"[{'cover': 'OVC', 'base': 500}]",IFR,-RA BR,,,,,,,POX,Pontoise-Cormeilles Aerodrome,France,"Cormeilles-en-Vexin, Val-d'Oise",https://www.worlddata.info/europe/france/airports.php
1517,LFPV,2025-11-23 01:36:09.310000+00:00,1763861400,2025-11-23T01:30:00.000Z,0.0,0.0,170,12.0,3.11,1014.0,2,METAR,METAR LFPV 230130Z AUTO 17012KT 5000 -FZRADZ BR OVC003 M00/M00 Q1014 TEMPO 19015G30KT 0900 SN,48.77,2.205,171,"Villacoublay, ID, FR",OVC,"[{'cover': 'OVC', 'base': 300}]",LIFR,-FZRA DZ BR,,,,,,,VIY,Vélizy-Villacoublay Air Base,France,"Vélizy-Villacoublay, Yvelines",https://www.worlddata.info/europe/france/airports.php
1518,LFQQ,2025-11-23 01:36:09.615000+00:00,1763861400,2025-11-23T01:30:00.000Z,-1.0,-1.0,150,14.0,3.73,1013.0,2,METAR,METAR LFQQ 230130Z AUTO 15014KT 6000 -SN OVC007 M01/M01 Q1013 TEMPO 1500 FZDZ BKN003 OVC006 BECMG 18015G25KT,50.562,3.089,43,"Lille/Lesquin Arpt, HD, FR",OVC,"[{'cover': 'OVC', 'base': 700}]",IFR,-SN,,,,,,,LIL,Lille Airport,France,Lesquin,https://www.worlddata.info/europe/france/airports.php
1519,LFRB,2025-11-23 01:36:09.641000+00:00,1763861400,2025-11-23T01:30:00.000Z,10.0,10.0,220,10.0,6+,1011.0,2,METAR,METAR LFRB 230130Z AUTO 22010KT 9999 FEW015 BKN021 BKN029 10/10 Q1011 TEMPO 2000 RA BKN003 SCT020CB BECMG 25015G25KT,48.444,-4.412,91,"Brest/Guipavas Arpt, BR, FR",BKN,"[{'cover': 'FEW', 'base': 1500}, {'cover': 'BKN', 'base': 2100}, {'cover': 'BKN', 'base': 2900}]",MVFR,,,,,,,,BES,Brest Bretagne Airport,France,Brest/Guipavas,https://www.worlddata.info/europe/france/airports.php
1520,LFRC,2025-11-23 01:36:09.668000+00:00,1763861400,2025-11-23T01:30:00.000Z,6.0,6.0,210,12.0,0.99,1010.0,2,METAR,METAR LFRC 230130Z AUTO 21012KT 1600 1400 R28/1800D BR VV/// 06/06 Q1010,49.65,-1.47,137,"Cherbourg/Manche Arpt, NO, FR",OVX,[],LIFR,BR,,,,,,,CER,Cherbourg-Maupertus Airport,France,"Gonneville-Le Theil, Manche",https://www.worlddata.info/europe/france/airports.php
1521,LFRD,2025-11-23 01:36:09.693000+00:00,1763861400,2025-11-23T01:30:00.000Z,6.0,6.0,200,8.0,0.93,1012.0,2,METAR,METAR LFRD 230130Z AUTO 20008KT 1500 BR OVC002 06/06 Q1012 TEMPO 0400 FG VV///,48.589,-2.075,56,"Dinard/Pleurtuit Arpt, BR, FR",OVC,"[{'cover': 'OVC', 'base': 200}]",LIFR,BR,,,,,,,DNR,Dinard-Pleurtuit-Saint-Malo Airport,France,"Pleurtuit, Ille-et-Vilaine",https://www.worlddata.info/europe/france/airports.php
1522,LFRG,2025-11-23 01:34:20.329000+00:00,1763861400,2025-11-23T01:30:00.000Z,3.0,3.0,190,12.0,6+,1012.0,2,METAR,METAR LFRG 230130Z AUTO 19012KT 9999 OVC008 03/03 Q1012,49.365,0.154,146,"Deauville/Saint Gati, NO, FR",OVC,"[{'cover': 'OVC', 'base': 800}]",IFR,,,,,,,,DOL,Deauville-Normandie Airport,France,"Deauville, Calvados",https://www.worlddata.info/europe/france/airports.php
1523,LFRH,2025-11-23 01:36:09.361000+00:00,1763861400,2025-11-23T01:30:00.000Z,7.0,7.0,0,0.0,6+,1013.0,2,METAR,METAR LFRH 230130Z AUTO 00000KT 9999 BKN020 OVC027 07/07 Q1013 TEMPO 3000 BR VV/// BECMG 24012G22KT,47.761,-3.44,46,"Lorient/Bihoue Arpt, BR, FR",OVC,"[{'cover': 'BKN', 'base': 2000}, {'cover': 'OVC', 'base': 2700}]",MVFR,,,,,,,,LRT,Lorient South Brittany (Bretagne Sud) Airport,France,Lorient/Lann/Bihoué,https://www.worlddata.info/europe/france/airports.php
1524,LFRI,2025-11-23 01:40:47.905000+00:00,1763861400,2025-11-23T01:30:00.000Z,5.0,4.0,170,6.0,0.75,1014.0,2,METAR,METAR LFRI 230130Z AUTO 17006KT 1200 1000 R28/1500D BR VV/// 05/04 Q1014,46.702,-1.379,89,"La Roche/Les Ajoncs, PD, FR",OVX,[],LIFR,BR,,,,,,,EDM,La Roche-sur-Yon Airport,France,La Roche-sur-Yon/Les Ajoncs,https://www.worlddata.info/europe/france/airports.php
1525,LFRJ,2025-11-23 01:34:18.795000+00:00,1763861400,2025-11-23T01:30:00.000Z,8.0,8.0,200,10.0,6+,1011.0,2,METAR,METAR LFRJ 230130Z AUTO 20010KT 9999 FEW018 SCT033 BKN039 08/08 Q1011,48.527,-4.138,109,"Landivisiau, BR, FR",BKN,"[{'cover': 'FEW', 'base': 1800}, {'cover': 'SCT', 'base': 3300}, {'cover': 'BKN', 'base': 3900}]",VFR,,,,,,,,LDV,Landivisiau Air Base,France,Landivisiau,https://www.worlddata.info/europe/france/airports.php
1526,LFRK,2025-11-23 01:34:19.849000+00:00,1763861400,2025-11-23T01:30:00.000Z,3.0,2.0,180,9.0,6+,1012.0,2,METAR,METAR LFRK 230130Z AUTO 18009KT 9999 BKN015 03/02 Q1012,49.18,-0.456,66,"Caen/Carpiquet Arpt, NO, FR",BKN,"[{'cover': 'BKN', 'base': 1500}]",MVFR,,,,,,,,CFR,Caen-Carpiquet Airport,France,"Carpiquet, Calvados",https://www.worlddata.info/europe/france/airports.php
1527,LFRM,2025-11-23 01:34:18.354000+00:00,1763861400,2025-11-23T01:30:00.000Z,3.0,3.0,170,7.0,6+,1014.0,2,METAR,METAR LFRM 230130Z AUTO 17007KT 120V220 9999 -RA OVC006 03/03 Q1014,47.949,0.202,51,"Le Mans/Arnage Arpt, PD, FR",OVC,"[{'cover': 'OVC', 'base': 600}]",IFR,-RA,,,,,,,LME,Le Mans-Arnage Airport,France,"Le Mans, Sarthe",https://www.worlddata.info/europe/france/airports.php
1528,LFRN,2025-11-23 01:36:09.721000+00:00,1763861400,2025-11-23T01:30:00.000Z,6.0,6.0,150,3.0,1.43,1013.0,2,METAR,METAR LFRN 230130Z AUTO 15003KT 2300 BR OVC003 06/06 Q1013 TEMPO 0400 FG VV///,48.069,-1.734,35,"Rennes/St Jacques Arpt, BR, FR",OVC,"[{'cover': 'OVC', 'base': 300}]",LIFR,BR,,,,,,,RNS,Rennes-Saint-Jacques Airport,France,"Saint-Jacques-de-la-Lande, Ille-et-Vilaine",https://www.worlddata.info/europe/france/airports.php
1529,LFRQ,2025-11-23 01:34:19.229000+00:00,1763861400,2025-11-23T01:30:00.000Z,9.0,9.0,200,4.0,6+,1012.0,2,METAR,METAR LFRQ 230130Z AUTO 20004KT 9999 BKN020 BKN025 OVC033 09/09 Q1012,47.975,-4.168,94,"Quimper/Pluguffan Arpt, BR, FR",OVC,"[{'cover': 'BKN', 'base': 2000}, {'cover': 'BKN', 'base': 2500}, {'cover': 'OVC', 'base': 3300}]",MVFR,,,,,,,,UIP,Quimper-Cornouaille Airport,France,Quimper/Pluguffan,https://www.worlddata.info/europe/france/airports.php
1530,LFRS,2025-11-23 01:36:09.752000+00:00,1763861400,2025-11-23T01:30:00.000Z,5.0,5.0,180,3.0,0.4,1013.0,2,METAR,METAR LFRS 230130Z AUTO 18003KT 0650 0450 R03/0750N R21/1000D FG SCT008 BKN012 05/05 Q1013 TEMPO 0300 VV///,47.15,-1.609,26,"Nantes/Atlantique Arpt, PD, FR",BKN,"[{'cover': 'SCT', 'base': 800}, {'cover': 'BKN', 'base': 1200}]",LIFR,FG,,,,,,,NTE,Nantes Atlantique Airport,France,Nantes,https://www.worlddata.info/europe/france/airports.php
1531,LFRV,2025-11-23 01:34:18.453000+00:00,1763861400,2025-11-23T01:30:00.000Z,6.0,6.0,250,2.0,2.24,1013.0,2,METAR,METAR LFRV 230130Z AUTO 25002KT 3600 BR FEW026 BKN230 06/06 Q1013,47.722,-2.727,132,"Vannes/Meucon Arpt, BR, FR",BKN,"[{'cover': 'FEW', 'base': 2600}, {'cover': 'BKN', 'base': 23000}]",IFR,BR,,,,,,,VNE,Vannes-Meucon Airport,France,Vannes/Meucon,https://www.worlddata.info/europe/france/airports.php
1532,LFRZ,2025-11-23 01:36:09.774000+00:00,1763861400,2025-11-23T01:30:00.000Z,7.0,7.0,220,3.0,0.5,1013.0,2,METAR,METAR LFRZ 230130Z AUTO 22003KT 0800 R25/1200U FG NSC 07/07 Q1013 TEMPO 1500 BR BKN003 BECMG 16010KT,47.312,-2.163,2,"St Nazaire/Montoir Arpt, PD, FR",CLR,[],LIFR,FG,,,,,,,SNR,Saint-Nazaire-Montoir Airport,France,Saint-Nazaire/Montoir,https://www.worlddata.info/europe/france/airports.php
1533,LFSB,2025-11-23 01:36:09.798000+00:00,1763861400,2025-11-23T01:30:00.000Z,-7.0,-8.0,210,2.0,3.73,1021.0,2,METAR,METAR LFSB 230130Z AUTO 21002KT 6000 NSC M07/M08 Q1021 TEMPO 4500 BR,47.614,7.51,262,"Basel/Euro Arpt, GE, FR",CLR,[],MVFR,,,,,,,,BSL,EuroAirport Basel-Mulhouse-Freiburg,France,Saint-Louis,https://www.worlddata.info/europe/france/airports.php
1534,LFSL,2025-11-23 01:36:09.422000+00:00,1763861400,2025-11-23T01:30:00.000Z,0.0,0.0,130,7.0,4.97,1019.0,2,METAR,METAR LFSL 230130Z AUTO 13007KT 8000 -SNRA FEW014/// OVC042/// ///TCU M00/M00 Q1019,45.04,1.486,300,"Brive/Souillac Arpt, GE, FR",OVC,"[{'cover': 'FEW', 'base': 1400}, {'cover': 'OVC', 'base': 4200}]",MVFR,-SN -RA,,,,,,,BVE,Brive-Souillac,France,Brive la Gaillarde,https://www.worlddata.info/europe/france/airports.php
1535,LFSN,2025-11-23 01:32:23.359000+00:00,1763861400,2025-11-23T01:30:00.000Z,-6.0,-7.0,0,0.0,3.73,1020.0,2,METAR,METAR LFSN 230130Z AUTO 00000KT 6000 NSC M06/M07 Q1020,48.692,6.231,214,"Nancy/Essey Arpt, GE, FR",CLR,[],MVFR,,,,,,,,ENC,Nancy-Essey Airport,France,"Tomblaine, Meurthe-et-Moselle",https://www.worlddata.info/europe/france/airports.php
1536,LFST,2025-11-23 01:36:09.846000+00:00,1763861400,2025-11-23T01:30:00.000Z,-8.0,-9.0,140,2.0,2.73,1022.0,2,METAR,METAR LFST 230130Z AUTO 14002KT 4400 BR NSC M08/M09 Q1022 TEMPO 0300 FZFG VV///,48.549,7.64,149,"Strasbourg/Entzheim Arpt, PD, FR",CLR,[],IFR,BR,,,,,,,SXB,Strasbourg Airport,France,Strasbourg,https://www.worlddata.info/europe/france/airports.php
1537,LFTH,2025-11-23 01:34:20.440000+00:00,1763861400,2025-11-23T01:30:00.000Z,5.0,-4.0,310,7.0,6+,1018.0,18,METAR,METAR LFTH 230130Z AUTO 31007KT CAVOK 05/M04 Q1018 NOSIG,43.094,6.146,3,"Toulon/Hyères Arpt, PA, FR",CAVOK,[],VFR,,,,,,,,TLN,Toulon-Hyères Airport,France,"Hyères, Var",https://www.worlddata.info/europe/france/airports.php
1538,LFTW,2025-11-23 01:32:22.179000+00:00,1763861400,2025-11-23T01:30:00.000Z,0.0,-8.0,360,5.0,6+,1020.0,2,METAR,METAR LFTW 230130Z AUTO 36005KT CAVOK 00/M08 Q1020,43.757,4.416,91,"Nimes/Garons Arpt, OC, FR",CAVOK,[],VFR,,,,,,,,FNI,Nîmes-Arles-Camargue Airport,France,Nîmes/Garons,https://www.worlddata.info/europe/france/airports.php
1539,LFVP,2025-11-23 01:33:18.897000+00:00,1763861400,2025-11-23T01:30:00.000Z,7.0,6.0,200,13.0,6+,1007.0,2,METAR,METAR LFVP 230130Z AUTO 20013KT 9999 FEW012 SCT017 BKN032 07/06 Q1007,46.764,-56.169,5,"St Pierre Arpt, ML, PM",BKN,"[{'cover': 'FEW', 'base': 1200}, {'cover': 'SCT', 'base': 1700}, {'cover': 'BKN', 'base': 3200}]",VFR,,,,,,,,FSP,St Pierre Airport,Saint Pierre and Miquelon,Saint-Pierre,https://www.worlddata.info/america/stpierre-miquelon/airports.php
1540,LGAD,2025-11-23 01:55:28.335000+00:00,1763862600,2025-11-23T02:00:00.000Z,14.0,13.0,0,0.0,6+,1017.0,0,METAR,METAR LGAD 230150Z 00000KT 9999 FEW010 FEW018TCU BKN030 BKN080 14/13 Q1017,37.923,21.287,8,"Andravida Arpt, J, GR",BKN,"[{'cover': 'FEW', 'base': 1000}, {'cover': 'FEW', 'base': 1800}, {'cover': 'BKN', 'base': 3000}, {'cover': 'BKN', 'base': 8000}]",MVFR,,,,,,,,PYR,Andravida Air Base,Greece,Andravida,https://www.worlddata.info/europe/greece/airports.php
1541,LGAL,2025-11-23 01:55:25.872000+00:00,1763862600,2025-11-23T02:00:00.000Z,19.0,16.0,160,11.0,6+,1013.0,0,METAR,METAR LGAL 230150Z 16011KT 9999 SCT020 19/16 Q1013,40.856,25.945,5,"Alexandroupolis/Dimokritos Arpt, A, GR",SCT,"[{'cover': 'SCT', 'base': 2000}]",VFR,,,,,,,,AXD,Alexandroupoli Democritus Airport,Greece,Alexandroupolis,https://www.worlddata.info/europe/greece/airports.php
1542,LGAV,2025-11-23 01:58:44.502000+00:00,1763862600,2025-11-23T02:00:00.000Z,19.0,13.0,200,4.0,6+,1015.0,16,METAR,METAR LGAV 230150Z 20004KT 9999 SCT025 19/13 Q1015 NOSIG,37.936,23.945,83,"Athens/Venizelos Intl, I, GR",SCT,"[{'cover': 'SCT', 'base': 2500}]",VFR,,,,,,,,ATH,Athens Eleftherios Venizelos International Airport,Greece,Spata-Artemida,https://www.worlddata.info/europe/greece/airports.php
1543,LGBL,2025-11-23 01:56:28.187000+00:00,1763862600,2025-11-23T02:00:00.000Z,15.0,9.0,250,5.0,6+,1013.0,0,METAR,METAR LGBL 230150Z 25005KT 9999 SCT025 SCT080 15/09 Q1013,39.22,22.794,13,"Nea Anchialos Arpt, E, GR",SCT,"[{'cover': 'SCT', 'base': 2500}, {'cover': 'SCT', 'base': 8000}]",VFR,,,,,,,,VOL,Nea Anchialos National Airport,Greece,Nea Anchialos,https://www.worlddata.info/europe/greece/airports.php
1544,LGIO,2025-11-23 01:55:25.999000+00:00,1763862600,2025-11-23T02:00:00.000Z,10.0,7.0,140,6.0,,1015.0,2,METAR,METAR LGIO 230150Z AUTO 14006KT 100V180 //// // ////// 10/07 Q1015 RE//,39.696,20.823,476,"Ioannina Arpt, D, GR",,,,,,,,,,,IOA,Ioannina King Pyrrhus National Airport,Greece,Ioannina,https://www.worlddata.info/europe/greece/airports.php
1545,LGIR,2025-11-23 01:58:44.525000+00:00,1763862600,2025-11-23T02:00:00.000Z,19.0,11.0,220,7.0,6+,1018.0,16,METAR,METAR LGIR 230150Z 22007KT 9999 FEW020 19/11 Q1018 NOSIG,35.337,25.173,37,"Iraklion Intl, M, GR",FEW,"[{'cover': 'FEW', 'base': 2000}]",VFR,,,,,,,,HER,Heraklion International Nikos Kazantzakis Airport,Greece,Heraklion,https://www.worlddata.info/europe/greece/airports.php
1546,LGKL,2025-11-23 01:56:07.811000+00:00,1763862600,2025-11-23T02:00:00.000Z,15.0,14.0,VRB,1.0,,1017.0,2,METAR,METAR LGKL 230150Z AUTO VRB01KT //// -RA ////// 15/14 Q1017 RE//,37.068,22.026,4,"Kalamata Arpt, J, GR",,,,-RA,,,,,,,KLX,Kalamata Airport,Greece,Kalamata,https://www.worlddata.info/europe/greece/airports.php
1547,LGKO,2025-11-23 01:25:29.125000+00:00,1763860800,2025-11-23T01:20:00.000Z,19.0,16.0,130,6.0,6+,1019.0,0,METAR,METAR LGKO 230120Z 13006KT 9999 FEW018 19/16 Q1019,36.801,27.091,130,"Kos Arpt, K, GR",FEW,"[{'cover': 'FEW', 'base': 1800}]",VFR,,,,,,,,KGS,Kos Airport,Greece,Kos Island,https://www.worlddata.info/europe/greece/airports.php
1548,LGKP,2025-11-23 01:56:07.729000+00:00,1763862600,2025-11-23T02:00:00.000Z,19.0,16.0,VRB,3.0,,1018.0,2,METAR,METAR LGKP 230150Z AUTO VRB03KT //// // ////// 19/16 Q1018 RE//,35.421,27.146,20,"Karpathos Isl Arpt, M, GR",,,,,,,,,,,AOK,Karpathos Airport,Greece,Karpathos Island,https://www.worlddata.info/europe/greece/airports.php
1549,LGKR,2025-11-23 01:58:44.548000+00:00,1763862600,2025-11-23T02:00:00.000Z,11.0,10.0,230,6.0,6+,1014.0,16,METAR,METAR LGKR 230150Z 23006KT 9999 SCT018TCU BKN025 BKN080 11/10 Q1014 NOSIG,39.61,19.913,2,"Corfu/Kapodistinas Arpt, L, GR",BKN,"[{'cover': 'SCT', 'base': 1800}, {'cover': 'BKN', 'base': 2500}, {'cover': 'BKN', 'base': 8000}]",MVFR,,,,,,,,CFU,Corfu Ioannis Kapodistrias International Airport,Greece,Kerkyra (Corfu),https://www.worlddata.info/europe/greece/airports.php
1550,LGKZ,2025-11-23 01:56:07.752000+00:00,1763862600,2025-11-23T02:00:00.000Z,8.0,6.0,VRB,2.0,,1014.0,2,METAR,METAR LGKZ 230150Z AUTO VRB02KT //// // ////// 08/06 Q1014 RE//,40.288,21.842,615,"Kozani/Filippos Arpt, C, GR",,,,,,,,,,,KZI,Kozani National Airport Filippos,Greece,Kozani,https://www.worlddata.info/europe/greece/airports.php
1551,LGLM,2025-11-23 01:55:28.478000+00:00,1763862600,2025-11-23T02:00:00.000Z,19.0,17.0,160,8.0,6+,1013.0,0,METAR,METAR LGLM 230150Z 16008G18KT 9999 FEW020 19/17 Q1013,39.917,25.236,4,"Limnos Island Arpt, K, GR",FEW,"[{'cover': 'FEW', 'base': 2000}]",VFR,,,,,,18.0,,LXS,Limnos Airport,Greece,Limnos Island,https://www.worlddata.info/europe/greece/airports.php
1552,LGPA,2025-11-23 01:55:28.164000+00:00,1763862600,2025-11-23T02:00:00.000Z,18.0,17.0,150,5.0,,1016.0,2,METAR,METAR LGPA 230150Z AUTO 15005KT //// // ////// 18/17 Q1016 RE//,37.022,25.114,42,"Paros/Kratikos Arpt, K, GR",,,,,,,,,,,PAS,Paros National Airport,Greece,Paros,https://www.worlddata.info/europe/greece/airports.php
1553,LGPZ,2025-11-23 01:56:07.770000+00:00,1763862600,2025-11-23T02:00:00.000Z,13.0,9.0,240,11.0,,1016.0,2,METAR,METAR LGPZ 230150Z AUTO 24011G21KT 200V270 //// -RA ////// 13/09 Q1016 RE//,38.921,20.761,3,"Preveza/Aktion Arpt, G, GR",,,,-RA,,,,,21.0,,PVK,Aktion National Airport,Greece,Preveza,https://www.worlddata.info/europe/greece/airports.php
1554,LGRP,2025-11-23 01:58:44.569000+00:00,1763862600,2025-11-23T02:00:00.000Z,20.0,17.0,VRB,2.0,6+,1017.0,16,METAR,METAR LGRP 230150Z VRB02KT 9999 FEW018 20/17 Q1017 NOSIG,36.405,28.086,3,"Rhodes/Diagoras Arpt, K, GR",FEW,"[{'cover': 'FEW', 'base': 1800}]",VFR,,,,,,,,RHO,Diagoras Airport,Greece,Rhodes,https://www.worlddata.info/europe/greece/airports.php
1555,LGRX,2025-11-23 01:56:07.787000+00:00,1763862600,2025-11-23T02:00:00.000Z,15.0,12.0,180,5.0,6+,1016.0,0,METAR,METAR LGRX 230150Z 18005KT 9999 FEW018TCU BKN025 15/12 Q1016 RMK SCT070 BLU,38.151,21.426,16,"Araxos Arpt, J, GR",BKN,"[{'cover': 'FEW', 'base': 1800}, {'cover': 'BKN', 'base': 2500}]",MVFR,,,,,,,,GPA,Patras Araxos Agamemnon Airport,Greece,Patras,https://www.worlddata.info/europe/greece/airports.php
1556,LGSA,2025-11-23 01:55:28.552000+00:00,1763862600,2025-11-23T02:00:00.000Z,16.0,14.0,VRB,3.0,6+,1017.0,0,METAR,METAR LGSA 230150Z VRB03KT 9999 FEW016 16/14 Q1017,35.54,24.141,122,"Souda Bay/Chania Intl, M, GR",FEW,"[{'cover': 'FEW', 'base': 1600}]",VFR,,,,,,,,CHQ,Chania International Airport,Greece,Souda,https://www.worlddata.info/europe/greece/airports.php
1557,LGSO,2025-11-23 01:55:28.225000+00:00,1763862600,2025-11-23T02:00:00.000Z,19.0,16.0,200,9.0,,1016.0,2,METAR,METAR LGSO 230150Z AUTO 20009KT 160V220 //// // ////// 19/16 Q1016 RE//,37.422,24.95,71,"Syros Island Arpt, K, GR",,,,,,,,,,,JSY,Syros Airport,Greece,Syros Island,https://www.worlddata.info/europe/greece/airports.php
1558,LGTS,2025-11-23 01:55:28.611000+00:00,1763862600,2025-11-23T02:00:00.000Z,16.0,9.0,VRB,2.0,6+,1012.0,16,METAR,METAR LGTS 230150Z VRB02KT 9999 FEW025 16/09 Q1012 NOSIG,40.52,22.971,4,"Thessaloniki Intl, A, GR",FEW,"[{'cover': 'FEW', 'base': 2500}]",VFR,,,,,,,,SKG,Thessaloniki Macedonia International Airport,Greece,Thessaloniki,https://www.worlddata.info/europe/greece/airports.php
1559,LHBP,2025-11-23 02:01:13.795000+00:00,1763863200,2025-11-23T02:00:00.000Z,1.0,0.0,300,7.0,6+,1016.0,16,METAR,METAR LHBP 230200Z 30007KT 9999 SCT005 OVC016 01/00 Q1016 NOSIG,47.437,19.256,141,"Budapest/Liszt Intl, BU, HU",OVC,"[{'cover': 'SCT', 'base': 500}, {'cover': 'OVC', 'base': 1600}]",MVFR,,,,,,,,BUD,Budapest Liszt Ferenc International Airport,Hungary,Budapest,https://www.worlddata.info/europe/hungary/airports.php
1560,LHDC,2025-11-23 01:32:33.557000+00:00,1763860500,2025-11-23T01:15:00.000Z,2.0,1.0,230,4.0,6+,1015.0,2,METAR,METAR LHDC 230115Z AUTO 23004KT 9999 BKN003 02/01 Q1015,47.489,21.615,105,"Debrecen Arpt, HL, HU",BKN,"[{'cover': 'BKN', 'base': 300}]",LIFR,,,,,,,,DEB,Debrecen International Airport,Hungary,Debrecen,https://www.worlddata.info/europe/hungary/airports.php
1561,LHPP,2025-11-23 01:32:34.262000+00:00,1763860500,2025-11-23T01:15:00.000Z,-1.0,-1.0,290,5.0,6+,1018.0,2,METAR,METAR LHPP 230115Z AUTO 29005KT 9999 OVC010 M01/M01 Q1018,45.991,18.241,193,"Pécs/Pogány Intl, BA, HU",OVC,"[{'cover': 'OVC', 'base': 1000}]",MVFR,,,,,,,,PEV,Pécs-Pogány Airport,Hungary,Pogány,https://www.worlddata.info/europe/hungary/airports.php
1562,LHSM,2025-11-23 01:32:34.756000+00:00,1763860500,2025-11-23T01:15:00.000Z,-1.0,-3.0,340,9.0,6+,1019.0,2,METAR,METAR LHSM 230115Z AUTO 34009KT 9999 BKN028 M01/M03 Q1019,46.689,17.161,119,"Sármellék/Balaton Arpt, ZA, HU",BKN,"[{'cover': 'BKN', 'base': 2800}]",MVFR,,,,,,,,SOB,Hévíz–Balaton Airport,Hungary,Sármellék,https://www.worlddata.info/europe/hungary/airports.php
1563,LIBD,2025-11-23 01:55:26.234000+00:00,1763862600,2025-11-23T02:00:00.000Z,8.0,5.0,260,9.0,6+,1013.0,0,METAR,METAR LIBD 230150Z 26009KT 9999 FEW045 08/05 Q1013,41.138,16.765,42,"Bari/Palese Arpt, PU, IT",FEW,"[{'cover': 'FEW', 'base': 4500}]",VFR,,,,,,,,BRI,Bari Karol Wojtyła International Airport,Italy,Bari,https://www.worlddata.info/europe/italy/airports.php
1564,LIBN,2025-11-23 01:37:03.789000+00:00,1763861100,2025-11-23T01:25:00.000Z,8.0,7.0,320,5.0,6+,1013.0,0,SPECI,SPECI LIBN 230125Z 32005KT 9999 SCT030 08/07 Q1013 RETS RMK SCT VIS MIN 9999 WIND THR14 34004KT WIND THR32 33004KT BLU,40.238,18.138,46,"Lecce, PU, IT",SCT,"[{'cover': 'SCT', 'base': 3000}]",VFR,,,,,,,,LCC,Lecce Galatina Air Base / Galatina Fortunato Cesari Airport,Italy,Galatina (LE),https://www.worlddata.info/europe/italy/airports.php
1565,LIBP,2025-11-23 01:55:23.149000+00:00,1763862600,2025-11-23T02:00:00.000Z,7.0,1.0,240,3.0,6+,1016.0,2,METAR,METAR LIBP 230150Z AUTO 24003KT 210V280 9999 NCD 07/01 Q1016,42.432,14.181,10,"Pescara/Abruzzo Arpt, AB, IT",CLR,[],VFR,,,,,,,,PSR,Abruzzo Airport,Italy,Pescara,https://www.worlddata.info/europe/italy/airports.php
1566,LIBR,2025-11-23 01:55:26.297000+00:00,1763862600,2025-11-23T02:00:00.000Z,9.0,7.0,170,8.0,6+,1013.0,0,METAR,METAR LIBR 230150Z 17008KT 140V210 9999 VCTS FEW010CB SCT045 09/07 Q1013,40.658,17.951,5,"Brindisi/Casale Arpt, PU, IT",SCT,"[{'cover': 'FEW', 'base': 1000}, {'cover': 'SCT', 'base': 4500}]",VFR,VCTS,,,,,,,BDS,Brindisi Airport,Italy,Brindisi,https://www.worlddata.info/europe/italy/airports.php
1567,LICA,2025-11-23 01:55:23.215000+00:00,1763862600,2025-11-23T02:00:00.000Z,12.0,7.0,280,15.0,6+,1014.0,2,METAR,METAR LICA 230150Z AUTO 28015KT 250V320 9999 FEW023/// BKN032/// BKN140/// 12/07 Q1014,38.908,16.242,7,"Lamezia Terme Arpt, CA, IT",BKN,"[{'cover': 'FEW', 'base': 2300}, {'cover': 'BKN', 'base': 3200}, {'cover': 'BKN', 'base': 14000}]",VFR,,,,,,,,SUF,Lamezia Terme Sant'Eufemia International Airport,Italy,Lamezia Terme (CZ),https://www.worlddata.info/europe/italy/airports.php
1568,LICB,2025-11-23 01:55:26.875000+00:00,1763862600,2025-11-23T02:00:00.000Z,7.0,5.0,140,3.0,6+,1018.0,2,METAR,METAR LICB 230150Z AUTO 14003KT 110V190 9999 NCD 07/05 Q1018,36.994,14.606,212,"Comiso Arpt, RG, IT",CLR,[],VFR,,,,,,,,CIY,Comiso Airport,Italy,Comiso,https://www.worlddata.info/europe/italy/airports.php
1569,LICC,2025-11-23 01:55:26.349000+00:00,1763862600,2025-11-23T02:00:00.000Z,8.0,5.0,260,8.0,6+,1017.0,0,METAR,METAR LICC 230150Z 26008KT CAVOK 08/05 Q1017,37.467,15.064,6,"Catania/Fontanarossa Arpt, CT, IT",CAVOK,[],VFR,,,,,,,,CTA,Catania-Fontanarossa Airport,Italy,Catania,https://www.worlddata.info/europe/italy/airports.php
1570,LICD,2025-11-23 01:55:26.934000+00:00,1763862600,2025-11-23T02:00:00.000Z,15.0,8.0,300,16.0,6+,1021.0,2,METAR,METAR LICD 230150Z AUTO 30016KT 9999 BKN033/// 15/08 Q1021,35.498,12.618,20,"Lampedusa Island Arpt, AG, IT",BKN,"[{'cover': 'BKN', 'base': 3300}]",VFR,,,,,,,,LMP,Lampedusa Airport,Italy,Lampedusa,https://www.worlddata.info/europe/italy/airports.php
1571,LICG,2025-11-23 01:55:26.999000+00:00,1763862600,2025-11-23T02:00:00.000Z,12.0,9.0,280,14.0,6+,1020.0,2,METAR,METAR LICG 230150Z AUTO 28014KT 250V310 9999 BKN030/// BKN072/// 12/09 Q1020,36.814,11.971,192,"Pantelleria Arpt, TP, IT",BKN,"[{'cover': 'BKN', 'base': 3000}, {'cover': 'BKN', 'base': 7200}]",MVFR,,,,,,,,PNL,Pantelleria Airport,Italy,Pantelleria (TP),https://www.worlddata.info/europe/italy/airports.php
1572,LICJ,2025-11-23 01:55:26.409000+00:00,1763862600,2025-11-23T02:00:00.000Z,13.0,8.0,320,17.0,6+,1018.0,2,METAR,METAR LICJ 230150Z AUTO 32017G28KT 9999 -RA SCT035/// BKN075/// 13/08 Q1018,38.176,13.091,20,"Palermo Arpt, PA, IT",BKN,"[{'cover': 'SCT', 'base': 3500}, {'cover': 'BKN', 'base': 7500}]",VFR,-RA,,,,,28.0,,PMO,Falcone–Borsellino Airport,Italy,Palermo,https://www.worlddata.info/europe/italy/airports.php
1573,LICR,2025-11-23 01:55:23.289000+00:00,1763862600,2025-11-23T02:00:00.000Z,12.0,6.0,20,6.0,6+,1016.0,2,METAR,METAR LICR 230150Z AUTO 02006KT 340V070 9999 FEW047/// SCT120/// BKN150/// 12/06 Q1016,38.072,15.654,16,"Reggio Calabria Arpt, RE, IT",BKN,"[{'cover': 'FEW', 'base': 4700}, {'cover': 'SCT', 'base': 12000}, {'cover': 'BKN', 'base': 15000}]",VFR,,,,,,,,REG,Reggio Calabria Airport,Italy,Reggio Calabria,https://www.worlddata.info/europe/italy/airports.php
1574,LIEA,2025-11-23 01:55:23.628000+00:00,1763862600,2025-11-23T02:00:00.000Z,11.0,2.0,280,7.0,6+,1020.0,0,METAR,METAR LIEA 230150Z 28007KT 240V310 9999 SCT035 11/02 Q1020,40.631,8.289,22,"Alghero/Fertilia Arpt, SS, IT",SCT,"[{'cover': 'SCT', 'base': 3500}]",VFR,,,,,,,,AHO,Alghero-Fertilia Airport,Italy,Alghero,https://www.worlddata.info/europe/italy/airports.php
1575,LIEE,2025-11-23 01:55:23.702000+00:00,1763862600,2025-11-23T02:00:00.000Z,9.0,5.0,330,7.0,6+,1021.0,0,METAR,METAR LIEE 230150Z 33007KT 300V360 9999 SCT050 09/05 Q1021,39.243,9.06,1,"Cagliari/Elmas Arpt, CA, IT",SCT,"[{'cover': 'SCT', 'base': 5000}]",VFR,,,,,,,,CAG,Cagliari Elmas Airport,Italy,Cagliari,https://www.worlddata.info/europe/italy/airports.php
1576,LIEO,2025-11-23 01:55:23.764000+00:00,1763862600,2025-11-23T02:00:00.000Z,8.0,5.0,240,8.0,6+,1019.0,0,METAR,METAR LIEO 230150Z 24008KT 9999 FEW040 08/05 Q1019,40.899,9.518,8,"Olbia/Costa Smeralda Arpt, OT, IT",FEW,"[{'cover': 'FEW', 'base': 4000}]",VFR,,,,,,,,OLB,Olbia Costa Smeralda Airport,Italy,Olbia (SS),https://www.worlddata.info/europe/italy/airports.php
1577,LIMC,2025-11-23 01:55:23.839000+00:00,1763862600,2025-11-23T02:00:00.000Z,-4.0,-5.0,20,4.0,6+,1018.0,16,METAR,METAR LIMC 230150Z 02004KT CAVOK M04/M05 Q1018 NOSIG,45.631,8.728,221,"Milan/Malpensa Arpt, MI, IT",CAVOK,[],VFR,,,,,,,,MXP,Milan Malpensa International Airport,Italy,Ferno (VA),https://www.worlddata.info/europe/italy/airports.php
1578,LIME,2025-11-23 01:55:23.906000+00:00,1763862600,2025-11-23T02:00:00.000Z,1.0,-3.0,360,4.0,6+,1018.0,2,METAR,METAR LIME 230150Z AUTO 36004KT 9999 NCD 01/M03 Q1018,45.674,9.704,239,"Milan/Bergamo, BG, IT",CLR,[],VFR,,,,,,,,BGY,Milan Bergamo Airport / Antonio Locatelli Air Base,Italy,Orio al Serio (BG),https://www.worlddata.info/europe/italy/airports.php
1579,LIMF,2025-11-23 01:55:23.975000+00:00,1763862600,2025-11-23T02:00:00.000Z,0.0,-7.0,320,2.0,6+,1018.0,0,METAR,METAR LIMF 230150Z 32002KT CAVOK 00/M07 Q1018,45.203,7.649,295,"Torino/Caselle Arpt, TO, IT",CAVOK,[],VFR,,,,,,,,TRN,Turin Airport,Italy,Caselle Torinese (TO),https://www.worlddata.info/europe/italy/airports.php
1580,LIMJ,2025-11-23 01:55:24.054000+00:00,1763862600,2025-11-23T02:00:00.000Z,6.0,-3.0,40,9.0,6+,1018.0,0,METAR,METAR LIMJ 230150Z 04009KT CAVOK 06/M03 Q1018,44.413,8.838,3,"Genoa/Colombo Arpt, GE, IT",CAVOK,[],VFR,,,,,,,,GOA,Genoa Cristoforo Colombo Airport,Italy,Genova (GE),https://www.worlddata.info/europe/italy/airports.php
1581,LIML,2025-11-23 01:55:24.137000+00:00,1763862600,2025-11-23T02:00:00.000Z,-2.0,-3.0,360,3.0,6+,1018.0,16,METAR,METAR LIML 230150Z 36003KT CAVOK M02/M03 Q1018 NOSIG,45.461,9.263,109,"Milan/Linate Arpt, MI, IT",CAVOK,[],VFR,,,,,,,,LIN,Milano Linate Airport,Italy,Segrate (MI),https://www.worlddata.info/europe/italy/airports.php
1582,LIMZ,2025-11-23 01:55:23.358000+00:00,1763862600,2025-11-23T02:00:00.000Z,-4.0,-6.0,240,5.0,6+,1017.0,2,METAR,METAR LIMZ 230150Z AUTO 24005KT 9999 NCD M04/M06 Q1017,44.547,7.623,377,"Cuneo/Levaldigi Arpt, CN, IT",CLR,[],VFR,,,,,,,,CUF,Cuneo International Airport,Italy,Levaldigi (CN),https://www.worlddata.info/europe/italy/airports.php
1583,LIPE,2025-11-23 01:55:26.451000+00:00,1763862600,2025-11-23T02:00:00.000Z,2.0,0.0,210,7.0,6+,1019.0,0,METAR,METAR LIPE 230150Z 21007KT CAVOK 02/00 Q1019,44.531,11.297,37,"Bologna/Marconi Arpt, BO, IT",CAVOK,[],VFR,,,,,,,,BLQ,Bologna Guglielmo Marconi Airport,Italy,Bologna,https://www.worlddata.info/europe/italy/airports.php
1584,LIPH,2025-11-23 01:55:26.505000+00:00,1763862600,2025-11-23T02:00:00.000Z,1.0,-1.0,0,0.0,6+,1018.0,2,METAR,METAR LIPH 230150Z AUTO 00000KT 9999 NCD 01/M01 Q1018,45.648,12.194,10,"Treviso Arpt, TV, IT",CLR,[],VFR,,,,,,,,TSF,Treviso Antonio Canova Airport,Italy,Treviso (TV),https://www.worlddata.info/europe/italy/airports.php
1585,LIPO,2025-11-23 01:55:27.062000+00:00,1763862600,2025-11-23T02:00:00.000Z,-1.0,-1.0,20,3.0,6+,1018.0,2,METAR,METAR LIPO 230150Z AUTO 02003KT 9999 NCD M01/M01 Q1018,45.429,10.331,104,"Brescia Arpt, BS, IT",CLR,[],VFR,,,,,,,,VBS,Brescia Gabriele d'Annunzio Airport,Italy,Montichiari (BS),https://www.worlddata.info/europe/italy/airports.php
1586,LIPQ,2025-11-23 01:55:26.552000+00:00,1763862600,2025-11-23T02:00:00.000Z,-1.0,-3.0,40,2.0,6+,1018.0,2,METAR,METAR LIPQ 230150Z AUTO 04002KT 9999 FEW082/// M01/M03 Q1018,45.828,13.472,6,"Trieste Airport, CU, IT",FEW,"[{'cover': 'FEW', 'base': 8200}]",VFR,,,,,,,,TRS,Trieste–Friuli Venezia Giulia Airport,Italy,Ronchi dei Legionari (GO),https://www.worlddata.info/europe/italy/airports.php
1587,LIPR,2025-11-23 01:55:26.606000+00:00,1763862600,2025-11-23T02:00:00.000Z,3.0,1.0,290,10.0,6+,1018.0,2,METAR,METAR LIPR 230150Z AUTO 29010KT 9999 FEW075/// 03/01 Q1018,44.02,12.612,10,"Rimini/Miramare Arpt, RN, IT",FEW,"[{'cover': 'FEW', 'base': 7500}]",VFR,,,,,,,,RMI,Federico Fellini International Airport,Italy,Rimini (RN),https://www.worlddata.info/europe/italy/airports.php
1588,LIPX,2025-11-23 01:55:26.665000+00:00,1763862600,2025-11-23T02:00:00.000Z,1.0,0.0,270,5.0,6+,1018.0,0,METAR,METAR LIPX 230150Z 27005KT CAVOK 01/M00 Q1018,45.387,10.872,67,"Verona Arpt, TO, IT",CAVOK,[],VFR,,,,,,,,VRN,Verona Villafranca Valerio Catullo Airport,Italy,Caselle (VR),https://www.worlddata.info/europe/italy/airports.php
1589,LIPY,2025-11-23 01:55:23.421000+00:00,1763862600,2025-11-23T02:00:00.000Z,5.0,5.0,270,8.0,6+,1017.0,2,METAR,METAR LIPY 230150Z AUTO 27008KT 9999 -RA OVC028/// 05/05 Q1017,43.617,13.36,11,"Falconara/Ancona Arpt, AN, IT",OVC,"[{'cover': 'OVC', 'base': 2800}]",MVFR,-RA,,,,,,,AOI,Marche Airport,Italy,Falconara Marittima (AN),https://www.worlddata.info/europe/italy/airports.php
1590,LIPZ,2025-11-23 01:55:26.719000+00:00,1763862600,2025-11-23T02:00:00.000Z,1.0,-3.0,20,5.0,6+,1018.0,16,METAR,METAR LIPZ 230150Z 02005KT CAVOK 01/M03 Q1018 NOSIG,45.505,12.352,3,"Venice/Polo Arpt, VE, IT",CAVOK,[],VFR,,,,,,,,VCE,Venice Marco Polo Airport,Italy,Venezia (VE),https://www.worlddata.info/europe/italy/airports.php
1591,LIRA,2025-11-23 01:55:24.210000+00:00,1763862600,2025-11-23T02:00:00.000Z,3.0,2.0,70,6.0,6+,1016.0,0,METAR,METAR LIRA 230150Z 07006KT CAVOK 03/02 Q1016,41.808,12.585,101,"Rome/Ciampino Arpt, RM, IT",CAVOK,[],VFR,,,,,,,,CIA,Ciampino–G. B. Pastine International Airport,Italy,Rome,https://www.worlddata.info/europe/italy/airports.php
1592,LIRF,2025-11-23 01:55:24.291000+00:00,1763862600,2025-11-23T02:00:00.000Z,1.0,-1.0,VRB,2.0,6+,1016.0,16,METAR,METAR LIRF 230150Z VRB02KT CAVOK 01/M01 Q1016 NOSIG,41.8,12.239,2,"Rome/Fiumicino, RM, IT",CAVOK,[],VFR,,,,,,,,FCO,Rome–Fiumicino Leonardo da Vinci International Airport,Italy,Rome,https://www.worlddata.info/europe/italy/airports.php
1593,LIRN,2025-11-23 01:55:24.361000+00:00,1763862600,2025-11-23T02:00:00.000Z,3.0,3.0,VRB,2.0,6+,1015.0,16,METAR,METAR LIRN 230150Z VRB02KT CAVOK 03/03 Q1015 NOSIG,40.885,14.292,76,"Naples Intl, NA, IT",CAVOK,[],VFR,,,,,,,,NAP,Naples International Airport,Italy,Napoli,https://www.worlddata.info/europe/italy/airports.php
1594,LIRP,2025-11-23 01:55:24.437000+00:00,1763862300,2025-11-23T02:00:00.000Z,1.0,0.0,110,3.0,6+,1018.0,16,METAR,METAR LIRP 230145Z 11003KT 9999 FEW070 01/M00 Q1018 NOSIG,43.684,10.393,1,"Pisa/Galilei Arpt, PI, IT",FEW,"[{'cover': 'FEW', 'base': 7000}]",VFR,,,,,,,,PSA,Pisa International Airport,Italy,Pisa (PI),https://www.worlddata.info/europe/italy/airports.php
1595,LIRQ,2025-11-23 01:55:24.502000+00:00,1763862600,2025-11-23T02:00:00.000Z,3.0,-1.0,320,3.0,6+,1018.0,0,METAR,METAR LIRQ 230150Z 32003KT 290V360 CAVOK 03/M01 Q1018,43.81,11.205,33,"Florence/Peretola Arpt, FI, IT",CAVOK,[],VFR,,,,,,,,FLR,"Florence Airport, Peretola",Italy,Firenze (FI),https://www.worlddata.info/europe/italy/airports.php
1596,LIRZ,2025-11-23 01:55:23.496000+00:00,1763862600,2025-11-23T02:00:00.000Z,3.0,1.0,10,5.0,6+,1017.0,2,METAR,METAR LIRZ 230150Z AUTO 01005KT 9999 SCT035/// 03/01 Q1017,43.097,12.51,206,"Perugia/Egidio Arpt, PG, IT",SCT,"[{'cover': 'SCT', 'base': 3500}]",VFR,,,,,,,,PEG,Perugia San Francesco d'Assisi – Umbria International Airport,Italy,Perugia (PG),https://www.worlddata.info/europe/italy/airports.php
1597,LJLJ,2025-11-23 01:34:12.477000+00:00,1763861400,2025-11-23T01:30:00.000Z,-1.0,-2.0,240,2.0,6+,1019.0,16,METAR,METAR LJLJ 230130Z 24002KT 9999 FEW020 BKN060 M01/M02 Q1019 NOSIG,46.218,14.477,363,"Ljubljana/Pucnik Arpt, LJ, SI",BKN,"[{'cover': 'FEW', 'base': 2000}, {'cover': 'BKN', 'base': 6000}]",VFR,,,,,,,,LJU,Ljubljana Jože Pučnik Airport,Slovenia,Zgornji Brnik,https://www.worlddata.info/europe/slovenia/airports.php
1598,LJMB,2025-11-23 01:34:12.573000+00:00,1763861400,2025-11-23T01:30:00.000Z,-1.0,-3.0,160,1.0,6+,1019.0,2,METAR,METAR LJMB 230130Z AUTO 16001KT 9999 BKN056/// OVC079/// M01/M03 Q1019,46.48,15.682,263,"Maribor/Rusjan Arpt, MA, SI",OVC,"[{'cover': 'BKN', 'base': 5600}, {'cover': 'OVC', 'base': 7900}]",VFR,,,,,,,,MBX,Maribor Edvard Rusjan Airport,Slovenia,Orehova Vas,https://www.worlddata.info/europe/slovenia/airports.php
1599,LJPZ,2025-11-23 01:34:12.694000+00:00,1763861400,2025-11-23T01:30:00.000Z,4.0,-6.0,50,4.0,6+,1018.0,2,METAR,METAR LJPZ 230130Z AUTO 05004KT 360V110 9999 NCD 04/M06 Q1018,45.473,13.615,2,"Portorož Arpt, PI, SI",CLR,[],VFR,,,,,,,,POW,Portorož Airport,Slovenia,Sečovlje,https://www.worlddata.info/europe/slovenia/airports.php
1600,LKMT,2025-11-23 01:32:14.210000+00:00,1763861400,2025-11-23T01:30:00.000Z,-2.0,-3.0,20,10.0,0.93,1019.0,16,METAR,METAR LKMT 230130Z 02010KT 1500 -SN BR BKN006 OVC012 M02/M03 Q1019 NOSIG,49.696,18.111,251,"Ostrava/Janáček Arpt, MO, CZ",OVC,"[{'cover': 'BKN', 'base': 600}, {'cover': 'OVC', 'base': 1200}]",LIFR,-SN BR,,,,,,,OSR,Ostrava Leos Janáček Airport,Czechia,Mošnov,https://www.worlddata.info/europe/czechia/airports.php
1601,LKPR,2025-11-23 01:32:14.424000+00:00,1763861400,2025-11-23T01:30:00.000Z,-8.0,-9.0,200,6.0,6+,1021.0,16,METAR,METAR LKPR 230130Z 20006KT CAVOK M08/M09 Q1021 NOSIG,50.101,14.26,364,"Prague/Havel Arpt, ST, CZ",CAVOK,[],VFR,,,,,,,,PRG,Václav Havel Airport Prague,Czechia,Prague,https://www.worlddata.info/europe/czechia/airports.php
1602,LKTB,2025-11-23 01:32:14.636000+00:00,1763861400,2025-11-23T01:30:00.000Z,-2.0,-5.0,330,13.0,6+,1019.0,16,METAR,METAR LKTB 230130Z 33013KT 9999 -SN OVC049 M02/M05 Q1019 NOSIG,49.151,16.694,233,"Brno/Tuřany Arpt, JM, CZ",OVC,"[{'cover': 'OVC', 'base': 4900}]",VFR,-SN,,,,,,,BRQ,Brno-Tuřany Airport,Czechia,Brno,https://www.worlddata.info/europe/czechia/airports.php
1603,LLBG,2025-11-23 01:55:29.786000+00:00,1763862600,2025-11-23T02:00:00.000Z,25.0,1.0,110,10.0,6+,1017.0,16,METAR,METAR LLBG 230150Z 11010KT CAVOK 25/01 Q1017 NOSIG RMK REP AT 0110Z 1000FT-WIND 100/30KT,32.011,34.887,35,"Tel Aviv/Ben Gurion Arpt, C, IL",CAVOK,[],VFR,,,,,,,,TLV,Ben Gurion International Airport,Israel,Tel Aviv,https://www.worlddata.info/asia/israel/airports.php
1604,LMML,2025-11-23 01:46:50.156000+00:00,1763862300,2025-11-23T02:00:00.000Z,12.0,8.0,270,7.0,,1019.0,16,METAR,METAR LMML 230145Z 27007KT 240V300 FEW036 12/08 Q1019 NOSIG,35.858,14.477,78,"Malta Intl, LU, MT",FEW,"[{'cover': 'FEW', 'base': 3600}]",,,,,,,,,MLA,Malta International Airport,Malta,Valletta,https://www.worlddata.info/europe/malta/airports.php
1605,LOWG,2025-11-23 01:55:19.217000+00:00,1763862600,2025-11-23T02:00:00.000Z,0.0,-6.0,270,3.0,6+,1018.0,2,METAR,METAR LOWG 230150Z AUTO 27003KT 240V300 9999 FEW060 OVC070 M00/M06 Q1018,46.997,15.447,337,"Graz Arpt, ST, AT",OVC,"[{'cover': 'FEW', 'base': 6000}, {'cover': 'OVC', 'base': 7000}]",VFR,,,,,,,,GRZ,Graz Airport,Austria,Feldkirchen bei Graz,https://www.worlddata.info/europe/austria/airports.php
1606,LOWI,2025-11-23 01:55:19.087000+00:00,1763862600,2025-11-23T02:00:00.000Z,-5.0,-10.0,VRB,1.0,6+,1021.0,2,METAR,METAR LOWI 230150Z AUTO VRB01KT 9999 FEW024 BKN028 M05/M10 Q1021,47.26,11.344,570,"Innsbruck Arpt, TI, AT",BKN,"[{'cover': 'FEW', 'base': 2400}, {'cover': 'BKN', 'base': 2800}]",MVFR,,,,,,,,INN,Innsbruck Airport,Austria,Innsbruck,https://www.worlddata.info/europe/austria/airports.php
1607,LOWK,2025-11-23 01:55:19.348000+00:00,1763862600,2025-11-23T02:00:00.000Z,-2.0,-4.0,280,3.0,6+,1018.0,2,METAR,METAR LOWK 230150Z AUTO 28003KT 9999 FEW100 M02/M04 Q1018,46.648,14.318,450,"Klagenfurt Arpt, KA, AT",FEW,"[{'cover': 'FEW', 'base': 10000}]",VFR,,,,,,,,KLU,Klagenfurt Airport,Austria,Klagenfurt am Wörthersee,https://www.worlddata.info/europe/austria/airports.php
1608,LOWL,2025-11-23 01:55:18.885000+00:00,1763862600,2025-11-23T02:00:00.000Z,-6.0,-7.0,240,5.0,5.59,1022.0,2,METAR,METAR LOWL 230150Z AUTO 24005KT 9000 BKN022 M06/M07 Q1022,48.233,14.188,290,"Linz Arpt, OB, AT",BKN,"[{'cover': 'BKN', 'base': 2200}]",MVFR,,,,,,,,LNZ,Linz-Hörsching Airport / Vogler Air Base,Austria,Linz,https://www.worlddata.info/europe/austria/airports.php
1609,LOWS,2025-11-23 01:55:18.986000+00:00,1763862600,2025-11-23T02:00:00.000Z,-8.0,-8.0,170,3.0,6+,1021.0,2,METAR,METAR LOWS 230150Z AUTO 17003KT 9999 NCD M08/M08 Q1021,47.789,13.009,427,"Salzburg/Mozart Arpt, SA, AT",CLR,[],VFR,,,,,,,,SZG,Salzburg Airport,Austria,Salzburg,https://www.worlddata.info/europe/austria/airports.php
1610,LOWW,2025-11-23 01:55:18.743000+00:00,1763862600,2025-11-23T02:00:00.000Z,-2.0,-4.0,310,15.0,2.61,1019.0,16,METAR,METAR LOWW 230150Z 31015KT 4200 -SN FEW007 SCT022 OVC028 M02/M04 Q1019 NOSIG,48.117,16.582,179,"Vienna Intl, NE, AT",OVC,"[{'cover': 'FEW', 'base': 700}, {'cover': 'SCT', 'base': 2200}, {'cover': 'OVC', 'base': 2800}]",IFR,-SN,,,,,,,VIE,Vienna International Airport,Austria,Vienna,https://www.worlddata.info/europe/austria/airports.php
1611,LPAZ,2025-11-23 01:34:37.884000+00:00,1763861400,2025-11-23T01:30:00.000Z,14.0,13.0,90,6.0,6+,1030.0,0,METAR,METAR LPAZ 230130Z 09006KT CAVOK 14/13 Q1030,36.971,-25.171,96,"Santa Maria Island Arpt, AZ, PT",CAVOK,[],VFR,,,,,,,,SMA,Santa Maria Airport,Portugal,Vila do Porto,https://www.worlddata.info/europe/portugal/airports.php
1612,LPFR,2025-11-23 01:34:31.191000+00:00,1763861400,2025-11-23T01:30:00.000Z,11.0,0.0,40,8.0,6+,1027.0,0,METAR,METAR LPFR 230130Z 04008KT CAVOK 11/M00 Q1027,37.014,-7.966,3,"Faro Arpt, FA, PT",CAVOK,[],VFR,,,,,,,,FAO,Faro Airport,Portugal,Faro,https://www.worlddata.info/europe/portugal/airports.php
1613,LPMA,2025-11-23 01:34:31.260000+00:00,1763861400,2025-11-23T01:30:00.000Z,18.0,11.0,10,13.0,6+,1026.0,0,METAR,METAR LPMA 230130Z 01013KT 330V030 9999 SCT015 18/11 Q1026,32.698,-16.774,54,"Madeira Arpt, MD, PT",SCT,"[{'cover': 'SCT', 'base': 1500}]",VFR,,,,,,,,FNC,Madeira International Airport Cristiano Ronaldo,Portugal,Funchal,https://www.worlddata.info/europe/portugal/airports.php
1614,LPPD,2025-11-23 01:34:37.949000+00:00,1763861400,2025-11-23T01:30:00.000Z,16.0,13.0,110,4.0,6+,1030.0,0,METAR,METAR LPPD 230130Z 11004KT 070V140 9999 FEW016 BKN020 16/13 Q1030,37.741,-25.698,62,"Ponta Delgada/Paulo II Arpt, AZ, PT",BKN,"[{'cover': 'FEW', 'base': 1600}, {'cover': 'BKN', 'base': 2000}]",MVFR,,,,,,,,PDL,João Paulo II Airport,Portugal,Ponta Delgada,https://www.worlddata.info/europe/portugal/airports.php
1615,LPPR,2025-11-23 01:34:31.337000+00:00,1763861400,2025-11-23T01:30:00.000Z,11.0,11.0,180,11.0,3.73,1027.0,0,METAR,METAR LPPR 230130Z 18011KT 6000 -RA SCT004 SCT008 BKN012 11/11 Q1027,41.235,-8.684,64,"Porto/Cameriro Arpt, PT, PT",BKN,"[{'cover': 'SCT', 'base': 400}, {'cover': 'SCT', 'base': 800}, {'cover': 'BKN', 'base': 1200}]",MVFR,-RA,,,,,,,OPO,Francisco de Sá Carneiro Airport,Portugal,Porto,https://www.worlddata.info/europe/portugal/airports.php
1616,LPPS,2025-11-23 01:34:31.413000+00:00,1763861400,2025-11-23T01:30:00.000Z,18.0,12.0,80,13.0,6+,1026.0,0,METAR,METAR LPPS 230130Z 08013KT 050V110 9999 SCT015 18/12 Q1026,33.073,-16.35,89,"Porto Santo Isl Arpt, MD, PT",SCT,"[{'cover': 'SCT', 'base': 1500}]",VFR,,,,,,,,PXO,Porto Santo Airport,Portugal,Vila Baleira,https://www.worlddata.info/europe/portugal/airports.php
1617,LPPT,2025-11-23 01:34:31.489000+00:00,1763861400,2025-11-23T01:30:00.000Z,10.0,6.0,300,4.0,6+,1028.0,0,METAR,METAR LPPT 230130Z 30004KT CAVOK 10/06 Q1028,38.781,-9.136,98,"Lisbon Arpt, LI, PT",CAVOK,[],VFR,,,,,,,,LIS,Humberto Delgado Airport (Lisbon Portela Airport),Portugal,Lisbon,https://www.worlddata.info/europe/portugal/airports.php
1618,LQBK,2025-11-23 01:33:30.520000+00:00,1763861400,2025-11-23T01:30:00.000Z,0.0,-1.0,270,7.0,6+,1020.0,16,METAR,METAR LQBK 230130Z 27007KT 9999 BKN014 BKN027 M00/M01 Q1020 NOSIG,44.937,17.299,114,"Banja Luka Intl, SR, BA",BKN,"[{'cover': 'BKN', 'base': 1400}, {'cover': 'BKN', 'base': 2700}]",MVFR,,,,,,,,BNX,Banja Luka International Airport,Bosnia and Herzegovina,Banja Luka,https://www.worlddata.info/europe/bosnia-and-herzegovina/airports.php
1619,LQMO,2025-11-23 01:33:30.653000+00:00,1763861400,2025-11-23T01:30:00.000Z,3.0,3.0,240,4.0,6+,1015.0,0,METAR,METAR LQMO 230130Z 24004KT 9999 FEW006 SCT035 BKN065 03/03 Q1015,43.285,17.84,49,"Mostar Intl, BI, BA",BKN,"[{'cover': 'FEW', 'base': 600}, {'cover': 'SCT', 'base': 3500}, {'cover': 'BKN', 'base': 6500}]",VFR,,,,,,,,OMO,Mostar International Airport,Bosnia and Herzegovina,Mostar,https://www.worlddata.info/europe/bosnia-and-herzegovina/airports.php
1620,LQSA,2025-11-23 01:33:30.765000+00:00,1763861400,2025-11-23T01:30:00.000Z,-2.0,-2.0,VRB,1.0,1.55,1017.0,0,METAR,METAR LQSA 230130Z VRB01KT 2500 SN BR BKN005 OVC020 M02/M02 Q1017,43.825,18.331,505,"Sarajevo Intl, BI, BA",OVC,"[{'cover': 'BKN', 'base': 500}, {'cover': 'OVC', 'base': 2000}]",IFR,SN BR,,,,,,,SJJ,Sarajevo International Airport,Bosnia and Herzegovina,Sarajevo,https://www.worlddata.info/europe/bosnia-and-herzegovina/airports.php
1621,LQTZ,2025-11-23 01:33:30.885000+00:00,1763861400,2025-11-23T01:30:00.000Z,-1.0,-1.0,290,3.0,1.86,1018.0,0,METAR,METAR LQTZ 230130Z 29003KT 3000 -SN BR OVC015 M01/M01 Q1018,44.461,18.728,242,"Tuzla Intl, BI, BA",OVC,"[{'cover': 'OVC', 'base': 1500}]",IFR,-SN BR,,,,,,,TZL,Tuzla International Airport,Bosnia and Herzegovina,Dubrave Gornje,https://www.worlddata.info/europe/bosnia-and-herzegovina/airports.php
1622,LRAR,2025-11-23 01:34:27.758000+00:00,1763861400,2025-11-23T01:30:00.000Z,3.0,3.0,230,8.0,3.11,1017.0,2,METAR,METAR LRAR 230130Z AUTO 23008KT 5000 BR OVC002/// 03/03 Q1017,46.176,21.264,102,"Arad Intl, AD, RO",OVC,"[{'cover': 'OVC', 'base': 200}]",LIFR,BR,,,,,,,ARW,Arad International Airport,Romania,Arad,https://www.worlddata.info/europe/romania/airports.php
1623,LRBC,2025-11-23 01:34:27.285000+00:00,1763861400,2025-11-23T01:30:00.000Z,2.0,2.0,330,8.0,6+,1017.0,0,METAR,METAR LRBC 230130Z 33008KT 9999 OVC008 02/02 Q1017,46.522,26.91,183,"Bacău Intl, BA, RO",OVC,"[{'cover': 'OVC', 'base': 800}]",IFR,,,,,,,,BCM,Bacău George Enescu International Airport,Romania,Bacău,https://www.worlddata.info/europe/romania/airports.php
1624,LRBM,2025-11-23 01:34:27.841000+00:00,1763861400,2025-11-23T01:30:00.000Z,4.0,4.0,0,0.0,4.97,1015.0,2,METAR,METAR LRBM 230130Z AUTO 00000KT 8000 BKN015/// OVC018/// 04/04 Q1015,47.658,23.47,180,"Baia Mare Arpt, MA, RO",OVC,"[{'cover': 'BKN', 'base': 1500}, {'cover': 'OVC', 'base': 1800}]",MVFR,,,,,,,,BAY,Maramureș International Airport,Romania,Tăuții-Măgherăuș,https://www.worlddata.info/europe/romania/airports.php
1625,LRBS,2025-11-23 01:34:20.626000+00:00,1763861400,2025-11-23T01:30:00.000Z,6.0,5.0,60,13.0,4.97,1014.0,16,METAR,METAR LRBS 230130Z 06013KT 8000 OVC005 06/05 Q1014 NOSIG,44.511,26.078,91,"Bucharest/Băneasa Intl, B, RO",OVC,"[{'cover': 'OVC', 'base': 500}]",IFR,,,,,,,,BBU,Bucharest Băneasa Aurel Vlaicu International Airport,Romania,Bucharest,https://www.worlddata.info/europe/romania/airports.php
1626,LRCK,2025-11-23 01:34:20.735000+00:00,1763861400,2025-11-23T01:30:00.000Z,10.0,10.0,70,9.0,0.06,1014.0,16,METAR,METAR LRCK 230130Z 07009KT 0100 R18/0325N FG VV001 10/10 Q1014 NOSIG,44.362,28.488,108,"Constanta/Kogălniceanu Arpt, CT, RO",OVX,"[{'cover': 'OVX', 'base': 100}]",LIFR,FG,,,1.0,,,,CND,Mihail Kogălniceanu International Airport,Romania,Mihail Kogălniceanu,https://www.worlddata.info/europe/romania/airports.php
1627,LRCL,2025-11-23 01:34:27.928000+00:00,1763861400,2025-11-23T01:30:00.000Z,5.0,4.0,90,3.0,6+,1013.0,0,METAR,METAR LRCL 230130Z 09003KT 9999 BKN011 OVC060 05/04 Q1013,46.783,23.676,313,"Cluj-Napoca Intl, CJ, RO",OVC,"[{'cover': 'BKN', 'base': 1100}, {'cover': 'OVC', 'base': 6000}]",MVFR,,,,,,,,CLJ,Cluj Avram Iancu International Airport,Romania,Cluj-Napoca,https://www.worlddata.info/europe/romania/airports.php
1628,LRCV,2025-11-23 01:34:27.367000+00:00,1763861400,2025-11-23T01:30:00.000Z,5.0,3.0,290,10.0,6+,1014.0,0,METAR,METAR LRCV 230130Z 29010KT 9999 BKN006 FEW045CB 05/03 Q1014,44.31,23.867,192,"Craiova Arpt, DO, RO",FEW,"[{'cover': 'BKN', 'base': 600}, {'cover': 'FEW', 'base': 4500}]",IFR,,,,,,,,CRA,Craiova International Airport,Romania,Craiova,https://www.worlddata.info/europe/romania/airports.php
1629,LRIA,2025-11-23 01:34:27.446000+00:00,1763861400,2025-11-23T01:30:00.000Z,3.0,3.0,300,7.0,1.55,1017.0,0,METAR,METAR LRIA 230130Z 30007KT 2500 DZ BR OVC002 03/03 Q1017,47.164,27.627,71,"Iaşi Intl, IS, RO",OVC,"[{'cover': 'OVC', 'base': 200}]",LIFR,DZ BR,,,,,,,IAS,Iaşi Airport,Romania,Iaşi,https://www.worlddata.info/europe/romania/airports.php
1630,LROD,2025-11-23 01:34:27.996000+00:00,1763861400,2025-11-23T01:30:00.000Z,2.0,2.0,210,12.0,6+,1015.0,0,METAR,METAR LROD 230130Z 21012KT 9999 SCT005 OVC007 02/02 Q1015,47.036,21.896,132,"Oradea Intl, BH, RO",OVC,"[{'cover': 'SCT', 'base': 500}, {'cover': 'OVC', 'base': 700}]",IFR,,,,,,,,OMR,Oradea International Airport,Romania,Oradea,https://www.worlddata.info/europe/romania/airports.php
1631,LROP,2025-11-23 01:34:20.833000+00:00,1763861400,2025-11-23T01:30:00.000Z,6.0,6.0,80,13.0,6+,1014.0,16,METAR,METAR LROP 230130Z 08013KT 9999 OVC006 06/06 Q1014 NOSIG,44.572,26.102,92,"Bucharest/Coandă Intl, B, RO",OVC,"[{'cover': 'OVC', 'base': 600}]",IFR,,,,,,,,OTP,Bucharest Henri Coandă International Airport,Romania,Otopeni,https://www.worlddata.info/europe/romania/airports.php
1632,LRSB,2025-11-23 01:34:20.932000+00:00,1763861400,2025-11-23T01:30:00.000Z,5.0,5.0,290,4.0,6+,1013.0,0,METAR,METAR LRSB 230130Z 29004KT 230V320 9999 -RA FEW008 BKN012 BKN030 05/05 Q1013,45.789,24.091,442,"Sibiu Intl, SO, RO",BKN,"[{'cover': 'FEW', 'base': 800}, {'cover': 'BKN', 'base': 1200}, {'cover': 'BKN', 'base': 3000}]",MVFR,-RA,,,,,,,SBZ,Sibiu International Airport,Romania,Sibiu,https://www.worlddata.info/europe/romania/airports.php
1633,LRSM,2025-11-23 01:34:28.083000+00:00,1763861400,2025-11-23T01:30:00.000Z,3.0,2.0,230,7.0,6+,1015.0,2,METAR,METAR LRSM 230130Z AUTO 23007KT 9999 SCT005/// BKN007/// 03/02 Q1015,47.703,22.886,123,"Satu Mare Arpt, SM, RO",BKN,"[{'cover': 'SCT', 'base': 500}, {'cover': 'BKN', 'base': 700}]",IFR,,,,,,,,SUJ,Satu Mare International Airport,Romania,Satu Mare,https://www.worlddata.info/europe/romania/airports.php
1634,LRSV,2025-11-23 01:34:27.518000+00:00,1763861400,2025-11-23T01:30:00.000Z,0.0,0.0,340,4.0,6+,1016.0,0,METAR,METAR LRSV 230130Z 34004KT 9999 BKN004 BKN036 00/M00 Q1016,47.686,26.354,406,"Suceava/Salcea Arpt, BV, RO",BKN,"[{'cover': 'BKN', 'base': 400}, {'cover': 'BKN', 'base': 3600}]",LIFR,,,,,,,,SCV,Suceava Stefan cel Mare Airport,Romania,Suceava,https://www.worlddata.info/europe/romania/airports.php
1635,LRTC,2025-11-23 01:34:27.603000+00:00,1763861400,2025-11-23T01:30:00.000Z,8.0,8.0,340,7.0,0.87,1015.0,2,METAR,METAR LRTC 230130Z AUTO 34007KT 1400 R34/1500N -SN BKN001/// 08/08 Q1015,45.065,28.716,52,"Tulcea Arpt, TU, RO",BKN,"[{'cover': 'BKN', 'base': 100}]",LIFR,-SN,,,,,,,TCE,Tulcea Danube Delta Airport,Romania,Mihail Kogălniceanu,https://www.worlddata.info/europe/romania/airports.php
1636,LRTM,2025-11-23 01:34:28.164000+00:00,1763861400,2025-11-23T01:30:00.000Z,7.0,6.0,200,2.0,6+,1014.0,2,METAR,METAR LRTM 230130Z AUTO 20002KT 9999 FEW006/// SCT008/// BKN012/// 07/06 Q1014 RERA,46.468,24.421,289,"Targu Mures Arpt, MU, RO",BKN,"[{'cover': 'FEW', 'base': 600}, {'cover': 'SCT', 'base': 800}, {'cover': 'BKN', 'base': 1200}]",MVFR,,,,,,,,TGM,Târgu Mureş Transilvania International Airport,Romania,Recea,https://www.worlddata.info/europe/romania/airports.php
1637,LRTR,2025-11-23 01:34:21.026000+00:00,1763861400,2025-11-23T01:30:00.000Z,2.0,2.0,210,7.0,6+,1017.0,0,METAR,METAR LRTR 230130Z 21007KT 9999 BKN005 OVC020 02/02 Q1017,45.811,21.333,104,"Timişoara/Traian Vuia Arpt, SI, RO",OVC,"[{'cover': 'BKN', 'base': 500}, {'cover': 'OVC', 'base': 2000}]",IFR,,,,,,,,TSR,Timişoara Traian Vuia Airport,Romania,Timişoara,https://www.worlddata.info/europe/romania/airports.php
1638,LSGG,2025-11-23 01:52:13.042000+00:00,1763862600,2025-11-23T02:00:00.000Z,-4.0,-7.0,VRB,1.0,6+,1021.0,18,METAR,METAR LSGG 230150Z AUTO VRB01KT 9999 BKN024 M04/M07 Q1021 NOSIG,46.248,6.128,411,"Geneva/Cointrin Arpt, GE, CH",BKN,"[{'cover': 'BKN', 'base': 2400}]",MVFR,,,,,,,,GVA,Geneva Cointrin International Airport,Switzerland,Geneva,https://www.worlddata.info/europe/switzerland/airports.php
1639,LSGS,2025-11-23 01:52:14.127000+00:00,1763862600,2025-11-23T02:00:00.000Z,-5.0,-8.0,90,5.0,6+,1022.0,2,METAR,METAR LSGS 230150Z AUTO 09005KT CAVOK M05/M08 Q1022,46.219,7.33,482,"Sion Arpt, VS, CH",CAVOK,[],VFR,,,,,,,,SIR,Sion Airport,Switzerland,Sion,https://www.worlddata.info/europe/switzerland/airports.php
1640,LSME,2025-11-23 01:53:10.938000+00:00,1763862600,2025-11-23T02:00:00.000Z,-6.0,-8.0,220,3.0,,1021.0,2,METAR,METAR LSME 230150Z AUTO 22003KT 200V260 9999NDV SCT015 M06/M08 Q1021 RMK,47.092,8.305,427,"Emmen Arpt, LU, CH",SCT,"[{'cover': 'SCT', 'base': 1500}]",,,,,,,,,EML,Emmen Air Base,Switzerland,Emmen,https://www.worlddata.info/europe/switzerland/airports.php
1641,LSMP,2025-11-23 01:53:11.284000+00:00,1763862600,2025-11-23T02:00:00.000Z,-6.0,-8.0,190,3.0,,1021.0,2,METAR,METAR LSMP 230150Z AUTO 19003KT 160V220 6000NDV NCD M06/M08 Q1021 RMK,46.844,6.916,490,"Payerne Arpt, VD, CH",CLR,[],,,,,,,,,VIP,Payerne Air Base,Switzerland,Payerne,https://www.worlddata.info/europe/switzerland/airports.php
1642,LSZA,2025-11-23 01:52:13.533000+00:00,1763862600,2025-11-23T02:00:00.000Z,-3.0,-6.0,360,3.0,6+,1018.0,2,METAR,METAR LSZA 230150Z AUTO 36003KT CAVOK M03/M06 Q1018,46.004,8.91,276,"Lugano Arpt, TI, CH",CAVOK,[],VFR,,,,,,,,LUG,Lugano Airport,Switzerland,Agno,https://www.worlddata.info/europe/switzerland/airports.php
1643,LSZB,2025-11-23 01:52:13.303000+00:00,1763862600,2025-11-23T02:00:00.000Z,-8.0,-9.0,90,2.0,5.59,1020.0,2,METAR,METAR LSZB 230150Z AUTO 09002KT 9000 FEW018 M08/M09 Q1020,46.914,7.497,510,"Bern Arpt, BE, CH",FEW,"[{'cover': 'FEW', 'base': 1800}]",VFR,,,,,,,,BRN,Bern Airport,Switzerland,Bern,https://www.worlddata.info/europe/switzerland/airports.php
1644,LSZC,2025-11-23 01:52:15.260000+00:00,1763862600,2025-11-23T02:00:00.000Z,-8.0,-10.0,260,4.0,6+,1021.0,2,METAR,METAR LSZC 230150Z AUTO 26004KT CAVOK M08/M10 Q1021,46.972,8.392,445,"Buochs Arpt, NW, CH",CAVOK,[],VFR,,,,,,,,BXO,Buochs Airport,Switzerland,Buochs,https://www.worlddata.info/europe/switzerland/airports.php
1645,LSZG,2025-11-23 01:52:14.435000+00:00,1763862600,2025-11-23T02:00:00.000Z,-6.0,-6.0,VRB,2.0,2.92,1021.0,2,METAR,METAR LSZG 230150Z AUTO VRB02KT 4700 BR OVC004 M06/M06 Q1021,47.179,7.415,428,"Grenchen Arpt, SO, CH",OVC,"[{'cover': 'OVC', 'base': 400}]",LIFR,BR,,,,,,,ZHI,Grenchen Airport,Switzerland,Grenchen,https://www.worlddata.info/europe/switzerland/airports.php
1646,LSZH,2025-11-23 01:56:12.362000+00:00,1763862600,2025-11-23T02:00:00.000Z,-8.0,-9.0,320,2.0,3.73,1021.0,2,METAR,METAR LSZH 230150Z AUTO 32002KT 6000 NCD M08/M09 Q1021 TEMPO 4000 BR,47.48,8.536,424,"Zürich Intl Arpt, ZH, CH",CLR,[],MVFR,,,,,,,,ZRH,Zürich Airport,Switzerland,Zurich,https://www.worlddata.info/europe/switzerland/airports.php
1647,LSZR,2025-11-23 01:52:14.747000+00:00,1763862600,2025-11-23T02:00:00.000Z,-6.0,-7.0,VRB,3.0,6+,1020.0,2,METAR,METAR LSZR 230150Z AUTO VRB03KT 9999 FEW014 M06/M07 Q1020,47.485,9.561,396,"Rheineck/Altenrhein, SG, CH",FEW,"[{'cover': 'FEW', 'base': 1400}]",VFR,,,,,,,,ACH,Sankt Gallen Altenrhein Airport,Switzerland,St. Gallen,https://www.worlddata.info/europe/switzerland/airports.php
1648,LSZS,2025-11-23 01:52:15.003000+00:00,1763862600,2025-11-23T02:00:00.000Z,-19.0,-21.0,VRB,1.0,0.5,1014.0,2,METAR,METAR LSZS 230150Z AUTO VRB01KT 0800 BR NCD M19/M21 Q1014 RESN,46.526,9.879,1708,"Samedan Arpt, GR, CH",CLR,[],LIFR,BR,,,,,,,SMV,Samedan Airport,Switzerland,Samedan,https://www.worlddata.info/europe/switzerland/airports.php
1649,LTAC,2025-11-23 02:01:39.872000+00:00,1763862600,2025-11-23T02:00:00.000Z,2.0,-1.0,VRB,2.0,6+,1023.0,16,METAR,METAR LTAC 230150Z VRB02KT CAVOK 02/M01 Q1023 NOSIG RMK RWY21C 06002KT RWY03L 00000KT RWY21R 00000KT RWY03R 00000KT RWY21L /////KT,40.128,32.995,952,"Ankara/Esenboğa Intl, AN, TR",CAVOK,[],VFR,,,,,,,,ESB,Esenboğa International Airport,Turkey,Ankara,https://www.worlddata.info/asia/turkey/airports.php
1650,LTAF,2025-11-23 02:01:39.890000+00:00,1763862600,2025-11-23T02:00:00.000Z,12.0,9.0,40,2.0,6+,1020.0,16,METAR,METAR LTAF 230150Z 04002KT CAVOK 12/09 Q1020 NOSIG RMK RWY23 VRB02KT 3CI200,36.989,35.293,19,"Adana Arpt, AD, TR",CAVOK,[],VFR,,,,,,,,ADA,Adana Şakirpaşa Airport,Turkey,Seyhan,https://www.worlddata.info/asia/turkey/airports.php
1651,LTAG,2025-11-23 02:01:40.377000+00:00,1763862600,2025-11-23T02:00:00.000Z,14.0,6.0,VRB,2.0,6+,1020.0,16,METAR,METAR LTAG 230150Z VRB02KT CAVOK 14/06 Q1020 NOSIG RMK 3CI200,37.002,35.426,62,"Adana/Incirlik, AD, TR",CAVOK,[],VFR,,,,,,,,UAB,İncirlik Air Base,Turkey,Sarıçam,https://www.worlddata.info/asia/turkey/airports.php
1652,LTAI,2025-11-23 02:01:39.911000+00:00,1763862600,2025-11-23T02:00:00.000Z,15.0,9.0,340,7.0,6+,1019.0,16,METAR,METAR LTAI 230150Z 34007KT CAVOK 15/09 Q1019 NOSIG RMK RWY18C 35004KT RWY36R 34006KT RWY18L 36003KT 320V050,36.9,30.798,50,"Antalya Arpt, AN, TR",CAVOK,[],VFR,,,,,,,,AYT,Antalya International Airport,Turkey,Antalya,https://www.worlddata.info/asia/turkey/airports.php
1653,LTAJ,2025-11-23 02:01:39.941000+00:00,1763862600,2025-11-23T02:00:00.000Z,6.0,3.0,330,4.0,6+,1025.0,16,METAR,METAR LTAJ 230150Z 33004KT CAVOK 06/03 Q1025 NOSIG RMK RWY10 VRB02KT SKC,36.947,37.479,684,"Gaziantep Arpt, GA, TR",CAVOK,[],VFR,,,,,,,,GZT,Gaziantep International Airport,Turkey,Gaziantep,https://www.worlddata.info/asia/turkey/airports.php
1654,LTAN,2025-11-23 01:59:16.343000+00:00,1763862600,2025-11-23T02:00:00.000Z,9.0,0.0,360,4.0,6+,1024.0,16,METAR,METAR LTAN 230150Z 36004KT CAVOK 09/00 Q1024 NOSIG,37.979,32.562,1029,"Konya Arpt, KA, TR",CAVOK,[],VFR,,,,,,,,KYA,Konya Airport,Turkey,Konya,https://www.worlddata.info/asia/turkey/airports.php
1655,LTAP,2025-11-23 01:59:16.363000+00:00,1763862600,2025-11-23T02:00:00.000Z,5.0,2.0,330,2.0,6+,1023.0,16,METAR,METAR LTAP 230150Z 33002KT CAVOK 05/02 Q1023 NOSIG,40.826,35.52,536,"Merzifon Arpt, AM, TR",CAVOK,[],VFR,,,,,,,,MZH,Amasya Merzifon Airport,Turkey,Amasya,https://www.worlddata.info/asia/turkey/airports.php
1656,LTAR,2025-11-23 01:59:16.387000+00:00,1763862600,2025-11-23T02:00:00.000Z,2.0,-3.0,110,8.0,6+,1029.0,0,METAR,METAR LTAR 230150Z 11008KT CAVOK 02/M03 Q1029,39.798,36.894,1601,"Sivas Arpt, SI, TR",CAVOK,[],VFR,,,,,,,,VAS,Sivas Nuri Demirağ Airport,Turkey,Sivas,https://www.worlddata.info/asia/turkey/airports.php
1657,LTAT,2025-11-23 02:01:39.962000+00:00,1763862600,2025-11-23T02:00:00.000Z,4.0,3.0,VRB,2.0,2.49,1030.0,16,METAR,METAR LTAT 230150Z VRB02KT 4000 BR OVC003 04/03 Q1030 NOSIG RMK RWY03 07003KT 020V140,38.435,38.092,850,"Malatya Arpt, MA, TR",OVC,"[{'cover': 'OVC', 'base': 300}]",LIFR,BR,,,,,,,MLX,Malatya Erhaç Airport,Turkey,Malatya,https://www.worlddata.info/asia/turkey/airports.php
1658,LTAU,2025-11-23 02:01:39.987000+00:00,1763862600,2025-11-23T02:00:00.000Z,5.0,2.0,80,6.0,6+,1026.0,16,METAR,METAR LTAU 230150Z 08006KT CAVOK 05/02 Q1026 NOSIG RMK RWY07 11006KT,38.77,35.495,1053,"Kayseri Intl, KA, TR",CAVOK,[],VFR,,,,,-0.6,,,ASR,Kayseri Erkilet Airport,Turkey,Kayseri,https://www.worlddata.info/asia/turkey/airports.php
1659,LTAY,2025-11-23 01:59:16.410000+00:00,1763862600,2025-11-23T02:00:00.000Z,15.0,5.0,140,12.0,6+,1020.0,16,METAR,METAR LTAY 230150Z 14012KT CAVOK 15/05 Q1020 NOSIG,37.785,29.701,851,"Çardak Arpt, DE, TR",CAVOK,[],VFR,,,,,,,,DNZ,Çardak Airport,Turkey,Denizli,https://www.worlddata.info/asia/turkey/airports.php
1660,LTAZ,2025-11-23 02:01:40.011000+00:00,1763862600,2025-11-23T02:00:00.000Z,10.0,2.0,130,12.0,6+,1025.0,0,METAR,METAR LTAZ 230150Z 13012KT CAVOK 10/02 Q1025 RMK RWY29 16005KT,38.771,34.521,944,"Nevsehir Arpt, NE, TR",CAVOK,[],VFR,,,,,,,,NAV,Nevşehir Kapadokya Airport,Turkey,Nevşehir,https://www.worlddata.info/asia/turkey/airports.php
1661,LTBA,2025-11-23 02:01:40.032000+00:00,1763862600,2025-11-23T02:00:00.000Z,18.0,13.0,250,7.0,6+,1016.0,0,METAR,METAR LTBA 230150Z 25007KT CAVOK 18/13 Q1016 RMK RWY23 25006KT,40.982,28.821,33,"Istanbul/Ataturk Intl, IS, TR",CAVOK,[],VFR,,,,,,,,ISL,İstanbul Atatürk Airport,Turkey,"Bakırköy, Istanbul",https://www.worlddata.info/asia/turkey/airports.php
1662,LTBD,2025-11-23 01:59:15.206000+00:00,1763862600,2025-11-23T02:00:00.000Z,14.0,11.0,80,8.0,6+,1018.0,0,METAR,METAR LTBD 230150Z 08008KT CAVOK 14/11 Q1018,37.816,27.886,29,"Aydin/Çıldır Arpt, AY, TR",CAVOK,[],VFR,,,,,,,,CII,Aydın Çıldır Airport,Turkey,Aydın,https://www.worlddata.info/asia/turkey/airports.php
1663,LTBF,2025-11-23 01:59:16.434000+00:00,1763862600,2025-11-23T02:00:00.000Z,9.0,9.0,0,0.0,2.49,1017.0,16,METAR,METAR LTBF 230150Z 00000KT 4000 BR SCT010 09/09 Q1017 NOSIG,39.619,27.926,95,"Balikesir Arpt, BA, TR",SCT,"[{'cover': 'SCT', 'base': 1000}]",IFR,BR,,,,,,,BZI,Balıkesir Airport,Turkey,Balıkesir,https://www.worlddata.info/asia/turkey/airports.php
1664,LTBH,2025-11-23 01:59:16.457000+00:00,1763862600,2025-11-23T02:00:00.000Z,19.0,13.0,160,10.0,6+,1015.0,0,METAR,METAR LTBH 230150Z 16010KT 9999 SCT035 SCT100 BKN200 19/13 Q1015,40.14,26.425,8,"Çanakkale Arpt, CK, TR",BKN,"[{'cover': 'SCT', 'base': 3500}, {'cover': 'SCT', 'base': 10000}, {'cover': 'BKN', 'base': 20000}]",VFR,,,,,,,,CKZ,Çanakkale Airport,Turkey,Çanakkale,https://www.worlddata.info/asia/turkey/airports.php
1665,LTBJ,2025-11-23 02:01:40.055000+00:00,1763862600,2025-11-23T02:00:00.000Z,12.0,10.0,180,3.0,6+,1017.0,16,METAR,METAR LTBJ 230150Z 18003KT 140V210 9999 FEW030 BKN200 12/10 Q1017 NOSIG RMK RWY16 19006KT,38.285,27.155,123,"Izmir/Menderes Arpt, IZ, TR",BKN,"[{'cover': 'FEW', 'base': 3000}, {'cover': 'BKN', 'base': 20000}]",VFR,,,,,,,,ADB,Adnan Menderes International Airport,Turkey,Gaziemir,https://www.worlddata.info/asia/turkey/airports.php
1666,LTBQ,2025-11-23 01:59:16.480000+00:00,1763862600,2025-11-23T02:00:00.000Z,11.0,10.0,VRB,2.0,6+,1017.0,16,METAR,METAR LTBQ 230150Z VRB02KT CAVOK 11/10 Q1017 NOSIG,40.735,30.083,51,"Topel Arpt), KO, TR",CAVOK,[],VFR,,,,,,,,KCO,Cengiz Topel Airport,Turkey,Kartepe,https://www.worlddata.info/asia/turkey/airports.php
1667,LTBR,2025-11-23 02:01:40.075000+00:00,1763862600,2025-11-23T02:00:00.000Z,9.0,7.0,VRB,3.0,5.59,1017.0,16,METAR,METAR LTBR 230150Z VRB03KT 9000 FEW040 SCT100 BKN180 09/07 Q1017 NOSIG RMK RWY07 VRB01KT,40.255,29.562,233,"Bursa/Yenisehir Arpt, BR, TR",BKN,"[{'cover': 'FEW', 'base': 4000}, {'cover': 'SCT', 'base': 10000}, {'cover': 'BKN', 'base': 18000}]",VFR,,,,,,,,YEI,Bursa Yenişehir Airport,Turkey,Yenişehir,https://www.worlddata.info/asia/turkey/airports.php
1668,LTBS,2025-11-23 02:01:40.098000+00:00,1763862600,2025-11-23T02:00:00.000Z,13.0,11.0,30,6.0,6+,1018.0,16,METAR,METAR LTBS 230150Z 03006KT CAVOK 13/11 Q1018 NOSIG RMK RWY19 33004KT 6CI180,36.713,28.793,2,"Dalaman Arpt, MU, TR",CAVOK,[],VFR,,,,,,,,DLM,Dalaman International Airport,Turkey,Dalaman,https://www.worlddata.info/asia/turkey/airports.php
1669,LTBU,2025-11-23 02:01:40.121000+00:00,1763862600,2025-11-23T02:00:00.000Z,15.0,13.0,130,5.0,6+,1016.0,0,METAR,METAR LTBU 230150Z 13005KT 050V180 CAVOK 15/13 Q1016 RMK RWY22 VRB03KT,41.139,27.919,165,"Corlu Arpt, TE, TR",CAVOK,[],VFR,,,,,,,,TEQ,Tekirdağ Çorlu Airport,Turkey,Çorlu,https://www.worlddata.info/asia/turkey/airports.php
1670,LTBY,2025-11-23 01:59:16.501000+00:00,1763862600,2025-11-23T02:00:00.000Z,9.0,3.0,40,4.0,6+,1021.0,0,METAR,METAR LTBY 230150Z 04004KT 010V120 CAVOK 09/03 Q1021,39.81,30.519,788,"Eskisehir/Polatkan Arpt, ES, TR",CAVOK,[],VFR,,,,,,,,AOE,Anadolu Airport,Turkey,Eskişehir,https://www.worlddata.info/asia/turkey/airports.php
1671,LTCA,2025-11-23 02:00:06.366000+00:00,1763862600,2025-11-23T02:00:00.000Z,5.0,5.0,220,6.0,4.35,1030.0,0,METAR,METAR LTCA 230150Z 22006KT 7000 OVC011 05/05 Q1030 TEMPO FM0300 4000 BR OVC008,38.607,39.291,887,"Elazığ Arpt, EL, TR",OVC,"[{'cover': 'OVC', 'base': 1100}]",MVFR,,,,,,,,EZS,Elazığ Airport,Turkey,Elazığ,https://www.worlddata.info/asia/turkey/airports.php
1672,LTCB,2025-11-23 01:59:16.559000+00:00,1763862600,2025-11-23T02:00:00.000Z,13.0,6.0,0,0.0,6+,1020.0,16,METAR,METAR LTCB 230150Z 00000KT CAVOK 13/06 Q1020 NOSIG,40.967,38.081,5,"Ordu/Giresun Arpt, GI, TR",CAVOK,[],VFR,,,,,,,,OGU,Ordu–Giresun Airport,Turkey,Ordu,https://www.worlddata.info/asia/turkey/airports.php
1673,LTCC,2025-11-23 02:01:40.144000+00:00,1763862600,2025-11-23T02:00:00.000Z,2.0,1.0,180,1.0,1.55,1026.0,16,METAR,METAR LTCC 230150Z 18001KT 2500 R34/1300U R16/P1500N BR NSC 02/01 Q1026 NOSIG RMK RWY16 18001KT SKC,37.894,40.201,676,"Diyarbakır, DI, TR",CLR,[],IFR,BR,,,,,,,DIY,Diyarbakır Airport,Turkey,Diyarbakır,https://www.worlddata.info/asia/turkey/airports.php
1674,LTCD,2025-11-23 01:59:16.580000+00:00,1763862600,2025-11-23T02:00:00.000Z,-5.0,-6.0,0,0.0,2.49,1031.0,16,METAR,METAR LTCD 230150Z 00000KT 4000 BR NSC M05/M06 Q1031 NOSIG,39.71,39.527,1146,"Erzincan Arpt, EZ, TR",CLR,[],IFR,BR,,,,,,,ERC,Erzincan Airport,Turkey,Erzincan,https://www.worlddata.info/asia/turkey/airports.php
1675,LTCE,2025-11-23 02:01:40.171000+00:00,1763862600,2025-11-23T02:00:00.000Z,-7.0,-9.0,0,0.0,6+,1031.0,16,METAR,METAR LTCE 230150Z 00000KT CAVOK M07/M09 Q1031 NOSIG RMK RWY08R VRB01KT RWY26R 00000KT RWY08L 03002KT SKC,39.956,41.17,1758,"Erzurum Intl, EZ, TR",CAVOK,[],VFR,,,,,,,,ERZ,Erzurum International Airport,Turkey,Erzurum,https://www.worlddata.info/asia/turkey/airports.php
1676,LTCF,2025-11-23 01:59:16.607000+00:00,1763862600,2025-11-23T02:00:00.000Z,-9.0,-10.0,280,5.0,6+,1032.0,16,METAR,METAR LTCF 230150Z 28005KT CAVOK M09/M10 Q1032 NOSIG,40.562,43.115,1794,"Kars/Harakani Arpt, KR, TR",CAVOK,[],VFR,,,,,,,,KSY,Kars Airport,Turkey,Kars,https://www.worlddata.info/asia/turkey/airports.php
1677,LTCG,2025-11-23 02:01:40.199000+00:00,1763862600,2025-11-23T02:00:00.000Z,19.0,-3.0,160,4.0,6+,1021.0,16,METAR,METAR LTCG 230150Z 16004KT 090V220 CAVOK 19/M03 Q1021 NOSIG RMK RWY29 VRB01G12KT,40.995,39.782,28,"Trabzon Arpt, TR, TR",CAVOK,[],VFR,,,,,,,,TZX,Trabzon International Airport,Turkey,Trabzon,https://www.worlddata.info/asia/turkey/airports.php
1678,LTCI,2025-11-23 01:59:16.631000+00:00,1763862600,2025-11-23T02:00:00.000Z,0.0,-1.0,70,3.0,6+,1030.0,16,METAR,METAR LTCI 230150Z 07003KT 9999 FEW030 M00/M01 Q1030 NOSIG,38.469,43.337,1654,"Van Arpt, VA, TR",FEW,"[{'cover': 'FEW', 'base': 3000}]",VFR,,,,,,,,VAN,Van Ferit Melen Airport,Turkey,Van,https://www.worlddata.info/asia/turkey/airports.php
1679,LTCJ,2025-11-23 02:01:40.220000+00:00,1763862600,2025-11-23T02:00:00.000Z,3.0,3.0,0,0.0,0.19,1026.0,16,METAR,METAR LTCJ 230150Z 00000KT 0300 R02/0500N R20/0300N FG OVC001 03/03 Q1026 NOSIG RMK RWY20 00000KT 8ST001,37.93,41.117,559,"Batman Arpt, SI, TR",OVC,"[{'cover': 'OVC', 'base': 100}]",LIFR,FG,,,,,,,BAL,Batman Airport,Turkey,Batman,https://www.worlddata.info/asia/turkey/airports.php
1680,LTCK,2025-11-23 01:59:15.318000+00:00,1763862600,2025-11-23T02:00:00.000Z,2.0,2.0,VRB,2.0,3.11,1032.0,0,METAR,METAR LTCK 230150Z VRB02KT 5000 BR SCT003 02/02 Q1032,38.748,41.661,1267,"Muş Arpt, MU, TR",SCT,"[{'cover': 'SCT', 'base': 300}]",MVFR,BR,,,,,,,MSR,Muş Airport,Turkey,Muş,https://www.worlddata.info/asia/turkey/airports.php
1681,LTCN,2025-11-23 01:59:16.652000+00:00,1763862600,2025-11-23T02:00:00.000Z,5.0,4.0,80,4.0,6+,1025.0,0,METAR,METAR LTCN 230150Z 08004KT CAVOK 05/04 Q1025,37.539,36.953,505,"Kahramanmaraş Arpt, KA, TR",CAVOK,[],VFR,,,,,,,,KCM,Kahramanmaraş Airport,Turkey,Kahramanmaraş,https://www.worlddata.info/asia/turkey/airports.php
1682,LTCR,2025-11-23 01:59:15.373000+00:00,1763862600,2025-11-23T02:00:00.000Z,16.0,1.0,360,5.0,6+,1023.0,0,METAR,METAR LTCR 230150Z 36005KT 330V030 CAVOK 16/01 Q1023,37.232,40.638,529,"Mardin Arpt, MA, TR",CAVOK,[],VFR,,,,,,,,MQM,Mardin Airport,Turkey,Mardin,https://www.worlddata.info/asia/turkey/airports.php
1683,LTCS,2025-11-23 02:01:40.246000+00:00,1763862600,2025-11-23T02:00:00.000Z,7.0,-1.0,10,6.0,6+,1025.0,0,METAR,METAR LTCS 230150Z 01006KT CAVOK 07/M01 Q1025 RMK RWY22 04007KT SKC,37.445,38.904,825,"Şanlıurfa GAP Arpt, SA, TR",CAVOK,[],VFR,,,,,,,,GNY,Şanlıurfa GAP Airport,Turkey,Şanlıurfa,https://www.worlddata.info/asia/turkey/airports.php
1684,LTCV,2025-11-23 01:59:16.672000+00:00,1763862600,2025-11-23T02:00:00.000Z,8.0,3.0,280,11.0,6+,1024.0,0,METAR,METAR LTCV 230150Z 28011KT CAVOK 08/03 Q1024,37.365,42.06,620,"Sirnak Arpt, SN, TR",CAVOK,[],VFR,,,,,,,,NKT,Şırnak Şerafettin Elçi Airport,Turkey,Şırnak,https://www.worlddata.info/asia/turkey/airports.php
1685,LTCW,2025-11-23 01:59:15.397000+00:00,1763862600,2025-11-23T02:00:00.000Z,-8.0,-9.0,VRB,2.0,2.67,1032.0,0,METAR,METAR LTCW 230150Z VRB02KT 4300 BR SCT009 M08/M09 Q1032,37.55,44.238,1852,"Yüksekova Arpt, HA, TR",SCT,"[{'cover': 'SCT', 'base': 900}]",IFR,BR,,,,,,,YKO,Hakkari Yüksekova Airport,Turkey,Hakkari,https://www.worlddata.info/asia/turkey/airports.php
1686,LTDA,2025-11-23 01:59:39.419000+00:00,1763862600,2025-11-23T02:00:00.000Z,8.0,6.0,310,4.0,5.59,1023.0,16,METAR,METAR LTDA 230150Z 31004KT 9000 NSC 08/06 Q1023 NOSIG SKC,36.361,36.283,80,"Hatay Arpt, HT, TR",CLR,[],VFR,,,,,,,,HTY,Hatay Airport,Turkey,Antakya,https://www.worlddata.info/asia/turkey/airports.php
1687,LTFC,2025-11-23 02:01:40.268000+00:00,1763862600,2025-11-23T02:00:00.000Z,8.0,3.0,VRB,2.0,6+,1022.0,0,METAR,METAR LTFC 230150Z VRB02KT CAVOK 08/03 Q1022 RMK RWY23 VRB03KT 6CI180,37.855,30.368,862,"Isparta/Demirel Arpt, IZ, TR",CAVOK,[],VFR,,,,,,,,ISE,Süleyman Demirel International Airport,Turkey,Isparta,https://www.worlddata.info/asia/turkey/airports.php
1688,LTFD,2025-11-23 01:59:16.716000+00:00,1763862600,2025-11-23T02:00:00.000Z,13.0,11.0,80,4.0,6+,1016.0,0,METAR,METAR LTFD 230150Z 08004KT 050V150 9999 SCT035 13/11 Q1016,39.559,27.025,15,"Balikesir/Seyit Arpt, BA, TR",SCT,"[{'cover': 'SCT', 'base': 3500}]",VFR,,,,,,,,EDO,Balıkesir Koca Seyit Airport,Turkey,Edremit,https://www.worlddata.info/asia/turkey/airports.php
1689,LTFE,2025-11-23 02:01:40.294000+00:00,1763862600,2025-11-23T02:00:00.000Z,13.0,12.0,140,4.0,6+,1018.0,16,METAR,METAR LTFE 230150Z 14004KT CAVOK 13/12 Q1018 NOSIG RMK RWY10 11007KT,37.245,27.673,6,"Milas-Bodrun Arpt, MU, TR",CAVOK,[],VFR,,,,,-0.7,,,BJV,Milas Bodrum International Airport,Turkey,Bodrum,https://www.worlddata.info/asia/turkey/airports.php
1690,LTFG,2025-11-23 01:59:16.735000+00:00,1763862600,2025-11-23T02:00:00.000Z,15.0,7.0,110,6.0,6+,1019.0,0,METAR,METAR LTFG 230150Z 11006KT CAVOK 15/07 Q1019,36.299,32.3,26,"Gazipasa Arpt, AN, TR",CAVOK,[],VFR,,,,,,,,GZP,Gazipaşa-Alanya Airport,Turkey,Gazipaşa,https://www.worlddata.info/asia/turkey/airports.php
1691,LTFH,2025-11-23 01:59:16.757000+00:00,1763862600,2025-11-23T02:00:00.000Z,12.0,6.0,90,3.0,6+,1019.0,16,METAR,METAR LTFH 230150Z 09003KT 040V180 CAVOK 12/06 Q1019 NOSIG,41.255,36.567,7,"Samsun-Çarşamba Arpt, SA, TR",CAVOK,[],VFR,,,,,,,,SZF,Samsun-Çarşamba Airport,Turkey,Samsun,https://www.worlddata.info/asia/turkey/airports.php
1692,LTFJ,2025-11-23 02:01:40.320000+00:00,1763862600,2025-11-23T02:00:00.000Z,13.0,8.0,50,4.0,6+,1017.0,16,METAR,METAR LTFJ 230150Z 05004KT 350V160 CAVOK 13/08 Q1017 NOSIG RMK RWY24R 10003KT 060V140 RWY06R 07004KT 020V090 RWY24L 13006KT,40.899,29.309,83,"Istanbul/Gokcen Intl, KO, TR",CAVOK,[],VFR,,,,,0.3,,,SAW,Istanbul Sabiha Gökçen International Airport,Turkey,"Pendik, Istanbul",https://www.worlddata.info/asia/turkey/airports.php
1693,LTFM,2025-11-23 02:01:40.348000+00:00,1763862600,2025-11-23T02:00:00.000Z,17.0,12.0,200,14.0,6+,1016.0,16,METAR,METAR LTFM 230150Z 20014KT CAVOK 17/12 Q1016 NOSIG RMK RWY17L 21012KT RWY34L 20014KT RWY16R 21012KT RWY36 22017KT RWY18 22019KT,41.262,28.74,99,"Istanbul Arpt, IS, TR",CAVOK,[],VFR,,,,,,,-1.2,IST,İstanbul Airport,Turkey,"Arnavutköy, Istanbul",https://www.worlddata.info/asia/turkey/airports.php
1694,LUKK,2025-11-23 01:36:08.458000+00:00,1763861400,2025-11-23T01:30:00.000Z,6.0,6.0,360,5.0,3.11,1016.0,0,METAR,METAR LUKK 230130Z 36005KT 330V060 5000 -DZ BR OVC003 06/06 Q1016 BECMG 1200 BR,46.928,28.931,102,"Chişinău Arpt, CU, MD",OVC,"[{'cover': 'OVC', 'base': 300}]",LIFR,-DZ BR,,,,,,,RMO,Chişinău International Airport,Moldova,Chişinău,https://www.worlddata.info/europe/moldova/airports.php
1695,LWSK,2025-11-23 01:17:38.485000+00:00,1763860800,2025-11-23T01:20:00.000Z,9.0,7.0,30,9.0,6+,1014.0,16,METAR,METAR LWSK 230120Z 03009KT 9999 SCT050 OVC070 09/07 Q1014 NOSIG,41.952,21.627,232,"Skopje Intl, IL, MK",OVC,"[{'cover': 'SCT', 'base': 5000}, {'cover': 'OVC', 'base': 7000}]",VFR,,,,,,,,SKP,Skopje International Airport,North Macedonia,Ilinden,https://www.worlddata.info/europe/northmacedonia/airports.php
1696,LXGB,2025-11-23 01:32:36+00:00,1763860800,2025-11-23T01:20:00.000Z,12.0,8.0,250,6.0,6+,1026.0,2,METAR,METAR LXGB 230120Z AUTO 25006KT 9999 NCD 12/08 Q1026,36.151,-5.35,5,"Gibraltar Arpt, , GI",CLR,[],VFR,,,,,,,,GIB,Gibraltar Airport,Gibraltar,Gibraltar,https://www.worlddata.info/europe/gibraltar/airports.php
1697,LYBE,2025-11-23 01:33:19.087000+00:00,1763861400,2025-11-23T01:30:00.000Z,1.0,1.0,270,7.0,4.97,1018.0,16,METAR,METAR LYBE 230130Z 27007KT 8000 OVC004 01/01 Q1018 NOSIG,44.824,20.291,93,"Belgrade/Tesla Arpt, BE, RS",OVC,"[{'cover': 'OVC', 'base': 400}]",LIFR,,,,,,,,BEG,Belgrade Nikola Tesla Airport,Serbia,Belgrade,https://www.worlddata.info/europe/serbia/airports.php
1698,LYBT,2025-11-23 01:33:19.185000+00:00,1763861400,2025-11-23T01:30:00.000Z,2.0,2.0,260,6.0,6+,1018.0,16,METAR,METAR LYBT 230130Z 26006KT 9999 OVC004 02/02 Q1018 NOSIG,44.935,20.258,78,"Batajnica, VO, RS",OVC,"[{'cover': 'OVC', 'base': 400}]",LIFR,,,,,,,,BJY,Batajnica Air Base,Serbia,Zemun,https://www.worlddata.info/europe/serbia/airports.php
1699,LYKV,2025-11-23 01:33:19.294000+00:00,1763861400,2025-11-23T01:30:00.000Z,1.0,1.0,VRB,2.0,6+,1018.0,16,METAR,METAR LYKV 230130Z VRB02KT 9999 -RA SCT017 BKN033 01/01 Q1018 NOSIG,43.818,20.587,209,"Kraljevo/Ladevci Arpt, RA, RS",BKN,"[{'cover': 'SCT', 'base': 1700}, {'cover': 'BKN', 'base': 3300}]",VFR,-RA,,,,,,,KVO,Morava Airport,Serbia,Kraljevo,https://www.worlddata.info/europe/serbia/airports.php
1700,LYNI,2025-11-23 01:33:19.419000+00:00,1763861400,2025-11-23T01:30:00.000Z,2.0,0.0,320,12.0,6+,1018.0,16,METAR,METAR LYNI 230130Z 32012KT 9999 -SN SCT005 OVC020 02/00 Q1018 NOSIG,43.338,21.863,197,"Niš Arpt, NI, RS",OVC,"[{'cover': 'SCT', 'base': 500}, {'cover': 'OVC', 'base': 2000}]",MVFR,-SN,,,,,,,INI,Niš Constantine the Great Airport,Serbia,Niš,https://www.worlddata.info/europe/serbia/airports.php
1701,LYPG,2025-11-23 01:36:10.257000+00:00,1763861400,2025-11-23T01:30:00.000Z,7.0,6.0,300,5.0,6+,1014.0,0,METAR,METAR LYPG 230130Z 30005KT 9999 TS FEW027CB SCT040 BKN070 07/06 Q1014 TEMPO 5000 TSRA,42.359,19.252,32,"Podgorica Arpt, PO, ME",BKN,"[{'cover': 'FEW', 'base': 2700}, {'cover': 'SCT', 'base': 4000}, {'cover': 'BKN', 'base': 7000}]",VFR,TS,,,,,,,TGD,Podgorica Airport / Podgorica Golubovci Airbase,Montenegro,Podgorica,https://www.worlddata.info/europe/montenegro/airports.php
1702,LYTV,2025-11-23 01:33:19.664000+00:00,1763861400,2025-11-23T01:30:00.000Z,7.0,6.0,VRB,3.0,5.59,1013.0,2,METAR,METAR LYTV 230130Z AUTO VRB03KT 9000 +RA BKN035/// OVC041/// 07/06 Q1013,42.405,18.723,3,"Tivat Arpt, TI, ME",OVC,"[{'cover': 'BKN', 'base': 3500}, {'cover': 'OVC', 'base': 4100}]",VFR,+RA,,,,,,,TIV,Tivat Airport,Montenegro,Tivat,https://www.worlddata.info/europe/montenegro/airports.php
1703,LZIB,2025-11-23 02:01:16.128000+00:00,1763863200,2025-11-23T02:00:00.000Z,-1.0,-3.0,300,14.0,6+,1017.0,16,METAR,METAR LZIB 230200Z 30014KT 9999 -SN FEW008 SCT013 BKN030 M01/M03 Q1017 NOSIG,48.17,17.207,129,"Bratislava/Ivanka Arpt, BL, SK",BKN,"[{'cover': 'FEW', 'base': 800}, {'cover': 'SCT', 'base': 1300}, {'cover': 'BKN', 'base': 3000}]",MVFR,-SN,,,,,,,BTS,M. R. Štefánik Airport,Slovakia,Bratislava,https://www.worlddata.info/europe/slovakia/airports.php
1704,LZKZ,2025-11-23 02:01:16.158000+00:00,1763863200,2025-11-23T02:00:00.000Z,0.0,0.0,360,16.0,2.17,1013.0,16,METAR,METAR LZKZ 230200Z 36016KT 3500 -SN BR FEW010 OVC030 00/M00 Q1013 NOSIG,48.661,21.24,227,"Košice Intl, KI, SK",OVC,"[{'cover': 'FEW', 'base': 1000}, {'cover': 'OVC', 'base': 3000}]",IFR,-SN BR,,,,,,,KSC,Košice International Airport,Slovakia,Košice,https://www.worlddata.info/europe/slovakia/airports.php
1705,LZPP,2025-11-23 01:34:06.931000+00:00,1763861400,2025-11-23T01:30:00.000Z,-1.0,-1.0,360,10.0,1.99,1017.0,2,METAR,METAR LZPP 230130Z AUTO 36010KT 3200 // BKN026/// OVC033/// M01/M01 Q1017,48.613,17.832,160,"Piešťany Arpt, TA, SK",OVC,"[{'cover': 'BKN', 'base': 2600}, {'cover': 'OVC', 'base': 3300}]",IFR,,,,,,,,PZY,Piešťany Airport,Slovakia,Piešťany,https://www.worlddata.info/europe/slovakia/airports.php
1706,LZTT,2025-11-23 02:01:16.185000+00:00,1763863200,2025-11-23T02:00:00.000Z,-2.0,-3.0,60,10.0,1.06,1013.0,0,METAR,METAR LZTT 230200Z 06010KT 1700 SN FEW005 OVC016 M02/M03 Q1013,49.068,20.25,693,"Poprad/Tatry Arpt, NI, SK",OVC,"[{'cover': 'FEW', 'base': 500}, {'cover': 'OVC', 'base': 1600}]",IFR,SN,,,,,,,TAT,Poprad-Tatry Airport,Slovakia,Poprad,https://www.worlddata.info/europe/slovakia/airports.php
1707,LZZI,2025-11-23 01:34:06.951000+00:00,1763861400,2025-11-23T01:30:00.000Z,0.0,-3.0,30,7.0,6+,1016.0,2,METAR,METAR LZZI 230130Z AUTO 03007KT 360V060 9999 // FEW027/// OVC041/// M00/M03 Q1016,49.231,18.613,311,"Žilina Arpt, ZI, SK",OVC,"[{'cover': 'FEW', 'base': 2700}, {'cover': 'OVC', 'base': 4100}]",VFR,,,,,,,,ILZ,Žilina-Dolný Hričov Airport,Slovakia,Dolný Hričov,https://www.worlddata.info/europe/slovakia/airports.php
1708,MDJB,2025-11-23 01:58:06.610000+00:00,1763863200,2025-11-23T02:00:00.000Z,24.0,20.0,0,0.0,6+,1016.0,0,METAR,METAR MDJB 230200Z 00000KT 9999 SCT016 24/20 Q1016,18.577,-69.984,24,"La Isabela Intl, DN, DO",SCT,"[{'cover': 'SCT', 'base': 1600}]",VFR,,,,,,,,JBQ,La Isabela International Airport,Dominican Republic,La Isabela,https://www.worlddata.info/america/dominican-republic/airports.php
1709,MDLR,2025-11-23 01:58:06.650000+00:00,1763863200,2025-11-23T02:00:00.000Z,22.0,20.0,10,5.0,6+,1016.0,0,METAR,METAR MDLR 230200Z 01005KT 9999 FEW016 22/20 Q1016,18.451,-68.921,66,"La Romana Intl, RO, DO",FEW,"[{'cover': 'FEW', 'base': 1600}]",VFR,,,,,,,,LRM,Casa De Campo International Airport,Dominican Republic,La Romana,https://www.worlddata.info/america/dominican-republic/airports.php
1710,MDPC,2025-11-23 01:58:06.593000+00:00,1763863200,2025-11-23T02:00:00.000Z,25.0,20.0,0,0.0,6+,1015.0,0,METAR,METAR MDPC 230200Z 00000KT 9999 FEW018 25/20 Q1015,18.566,-68.356,10,"Punta Cana Intl, AL, DO",FEW,"[{'cover': 'FEW', 'base': 1800}]",VFR,,,,,,,,PUJ,Punta Cana International Airport,Dominican Republic,Punta Cana,https://www.worlddata.info/america/dominican-republic/airports.php
1711,MDPP,2025-11-23 01:58:06.555000+00:00,1763863200,2025-11-23T02:00:00.000Z,24.0,23.0,0,0.0,6+,1015.0,0,METAR,METAR MDPP 230200Z 00000KT 9999 FEW016 24/23 Q1015,19.759,-70.571,9,"Puerto Plata Arpt, PP, DO",FEW,"[{'cover': 'FEW', 'base': 1600}]",VFR,,,,,,,,POP,Gregorio Luperon International Airport,Dominican Republic,Puerto Plata,https://www.worlddata.info/america/dominican-republic/airports.php
1712,MDSD,2025-11-23 01:58:06.632000+00:00,1763863200,2025-11-23T02:00:00.000Z,26.0,22.0,60,8.0,6+,1016.0,0,METAR,METAR MDSD 230200Z 06008KT 9999 FEW018 26/22 Q1016,18.433,-69.667,18,"Santo Domingo/Améric, DN, DO",FEW,"[{'cover': 'FEW', 'base': 1800}]",VFR,,,,,,,,SDQ,Las Américas International Airport,Dominican Republic,Santo Domingo,https://www.worlddata.info/america/dominican-republic/airports.php
1713,MDST,2025-11-23 01:58:06.573000+00:00,1763863200,2025-11-23T02:00:00.000Z,22.0,21.0,0,0.0,6+,1016.0,0,METAR,METAR MDST 230200Z 00000KT 9999 FEW016 22/21 Q1016,19.407,-70.614,175,"Santiago/Cibao Intl, SA, DO",FEW,"[{'cover': 'FEW', 'base': 1600}]",VFR,,,,,,,,STI,Cibao International Airport,Dominican Republic,Santiago,https://www.worlddata.info/america/dominican-republic/airports.php
1714,MGGT,2025-11-23 01:54:01.060000+00:00,1763863200,2025-11-23T02:00:00.000Z,18.0,15.0,20,20.0,6+,1023.0,0,METAR,METAR MGGT 230200Z 02020KT 9999 BKN015 18/15 Q1023 A3021,14.585,-90.526,1497,"Guatemala/Aurora Arpt, GU, GT",BKN,"[{'cover': 'BKN', 'base': 1500}]",MVFR,,,,,,,,GUA,La Aurora Airport,Guatemala,Guatemala City,https://www.worlddata.info/america/guatemala/airports.php
1715,MGHT,2025-11-23 01:54:00.882000+00:00,1763863200,2025-11-23T02:00:00.000Z,16.0,10.0,0,0.0,6+,,0,METAR,METAR MGHT 230200Z 00000KT 9999 BKN020 16/10,15.317,-91.503,1875,"Huehuetenango Arpt, HU, GT",BKN,"[{'cover': 'BKN', 'base': 2000}]",MVFR,,,,,,,,HUG,Huehuetenango Airport,Guatemala,Huehuetenango,https://www.worlddata.info/america/guatemala/airports.php
1716,MGPB,2025-11-23 01:54:00.960000+00:00,1763863200,2025-11-23T02:00:00.000Z,25.0,24.0,0,0.0,6+,1014.0,0,METAR,METAR MGPB 230200Z 00000KT 9999 SCT018 BKN080 25/24 Q1014 A2994,15.737,-88.589,6,"Puerto Barrios Arpt, IZ, GT",BKN,"[{'cover': 'SCT', 'base': 1800}, {'cover': 'BKN', 'base': 8000}]",VFR,,,,,,,,PBR,Puerto Barrios Airport,Guatemala,Puerto Barrios,https://www.worlddata.info/america/guatemala/airports.php
1717,MHLC,2025-11-23 01:54:53.642000+00:00,1763863200,2025-11-23T02:00:00.000Z,24.0,22.0,VRB,2.0,6+,1015.0,16,METAR,METAR MHLC 230200Z VRB02KT 9999 SCT020 OVC070 24/22 Q1015 A2997 NOSIG,15.737,-86.864,13,"La Ceiba/Goloson Intl, AT, HN",OVC,"[{'cover': 'SCT', 'base': 2000}, {'cover': 'OVC', 'base': 7000}]",VFR,,,,,,,,LCE,Goloson International Airport,Honduras,La Ceiba,https://www.worlddata.info/america/honduras/airports.php
1718,MHLM,2025-11-23 01:54:53.721000+00:00,1763863200,2025-11-23T02:00:00.000Z,24.0,22.0,VRB,2.0,6+,1016.0,16,METAR,METAR MHLM 230200Z VRB02KT 9999 SCT026 BKN080 24/22 Q1016 A3000 NOSIG,15.442,-87.934,32,"San Pedro Sula/Moral, CR, HN",BKN,"[{'cover': 'SCT', 'base': 2600}, {'cover': 'BKN', 'base': 8000}]",VFR,,,,,,,,SAP,Ramón Villeda Morales International Airport,Honduras,San Pedro Sula,https://www.worlddata.info/america/honduras/airports.php
1719,MHRO,2025-11-23 01:54:53.538000+00:00,1763863200,2025-11-23T02:00:00.000Z,25.0,23.0,50,4.0,6+,1016.0,16,METAR,METAR MHRO 230200Z 05004KT 9999 SCT022 FEW024CB BKN080 25/23 Q1016 A3000 NOSIG,16.316,-86.523,6,"Roatan/Galvez Intl, IB, HN",BKN,"[{'cover': 'SCT', 'base': 2200}, {'cover': 'FEW', 'base': 2400}, {'cover': 'BKN', 'base': 8000}]",VFR,,,,,,,,RTB,Juan Manuel Gálvez International Airport,Honduras,Coxen Hole,https://www.worlddata.info/america/honduras/airports.php
1720,MHTE,2025-11-23 01:50:24.453000+00:00,1763863200,2025-11-23T02:00:00.000Z,25.0,22.0,VRB,2.0,6+,1016.0,0,METAR,METAR MHTE 230200Z VRB02KT 9999 SCT022 SCT080 25/22 Q1016 A3000,15.776,-87.473,7,"Tela Arpt, AT, HN",SCT,"[{'cover': 'SCT', 'base': 2200}, {'cover': 'SCT', 'base': 8000}]",VFR,,,,,,,,TEA,Tela Airport,Honduras,Tela,https://www.worlddata.info/america/honduras/airports.php
1721,MHTG,2025-11-23 01:54:53.794000+00:00,1763863200,2025-11-23T02:00:00.000Z,22.0,19.0,0,0.0,4.35,1020.0,16,METAR,METAR MHTG 230200Z 00000KT 7000 VCSH SCT034 BKN080 22/19 Q1020 A3012 NOSIG,14.06,-87.216,1001,"Tegucigalpa/Toncontín Intl, FM, HN",BKN,"[{'cover': 'SCT', 'base': 3400}, {'cover': 'BKN', 'base': 8000}]",MVFR,VCSH,,,,,,,TGU,Toncontín International Airport,Honduras,Tegucigalpa,https://www.worlddata.info/america/honduras/airports.php
1722,MKJP,2025-11-23 02:01:12.468000+00:00,1763863200,2025-11-23T02:00:00.000Z,28.0,23.0,320,3.0,,1014.0,0,METAR,METAR MKJP 230200Z 32003KT //// ////// 28/23 Q1014 RMK CLD FROM CEILOMETER RWY 30 NCD,17.942,-76.798,3,"Kingston/Manley Intl, KI, JM",,,,,,,,,,,KIN,Norman Manley International Airport,Jamaica,Kingston,https://www.worlddata.info/america/jamaica/airports.php
1723,MMAA,2025-11-23 02:00:15.216000+00:00,1763862120,2025-11-23T01:42:00.000Z,28.0,25.0,270,4.0,6,1010.9,0,METAR,METAR MMAA 230142Z 27004KT 6SM FEW015TCU SCT100 SCT300 28/25 A2985 RMK 8/232 HZY,16.758,-99.754,5,"Acapulco/Alvarez Intl, GR, MX",SCT,"[{'cover': 'FEW', 'base': 1500}, {'cover': 'SCT', 'base': 10000}, {'cover': 'SCT', 'base': 30000}]",VFR,,,,,,,,ACA,Aeropuerto Internacional Juan N. Álvarez,Mexico,Ciudad de Acapulco,https://www.worlddata.info/america/mexico/airports.php
1724,MMAN,2025-11-23 02:00:16.115000+00:00,1763862000,2025-11-23T01:40:00.000Z,24.0,19.0,10,4.0,5,1019.4,0,METAR,METAR MMAN 230140Z 01004KT 5SM BKN020 24/19 A3010 RMK 8/500 HZY,25.865,-100.239,447,"Monterrey/Del Norte Intl, NL, MX",BKN,"[{'cover': 'BKN', 'base': 2000}]",MVFR,,,,,,,,NTR,Del Norte International Airport,Mexico,Monterrey,https://www.worlddata.info/america/mexico/airports.php
1725,MMAS,2025-11-23 02:00:14.427000+00:00,1763862120,2025-11-23T01:42:00.000Z,21.0,7.0,90,11.0,7,1024.1,0,METAR,METAR MMAS 230142Z 09011KT 7SM BKN200 21/07 A3024 RMK 8/008,21.702,-102.318,1866,"Aguascalientes Arpt, AG, MX",BKN,"[{'cover': 'BKN', 'base': 20000}]",VFR,,,,,,,,AGU,Aeropuerto Internacional Jesús Terán Peredo,Mexico,Aguascalientes,https://www.worlddata.info/america/mexico/airports.php
1726,MMCB,2025-11-23 02:00:16.158000+00:00,1763862000,2025-11-23T01:40:00.000Z,21.0,12.0,0,0.0,5,1020.1,0,METAR,METAR MMCB 230140Z 00000KT 5SM SKC 21/12 A3012 RMK HZY,18.83,-99.265,1281,"Cuernavaca Intl, MO, MX",SKC,[],MVFR,,,,,,,,CVJ,Aeropuerto Internacional Mariano Matamoros,Mexico,Temixco,https://www.worlddata.info/america/mexico/airports.php
1727,MMCE,2025-11-23 02:00:03.434000+00:00,1763862000,2025-11-23T01:40:00.000Z,27.0,24.0,30,8.0,7,1016.7,0,METAR,METAR MMCE 230140Z 03008KT 7SM SKC 27/24 A3002 RMK CU,18.651,-91.8,5,"Ciudad Del Carmen Arpt, CM, MX",SKC,[],VFR,,,,,,,,CME,Ciudad del Carmen International Airport,Mexico,Ciudad del Carmen,https://www.worlddata.info/america/mexico/airports.php
1728,MMCL,2025-11-23 02:00:14.451000+00:00,1763862060,2025-11-23T01:41:00.000Z,26.0,19.0,270,6.0,10+,1014.0,0,METAR,METAR MMCL 230141Z 27006KT 10SM SCT220 26/19 A2994 RMK 8/002,24.766,-107.476,35,"Culiacan Intl, SI, MX",SCT,"[{'cover': 'SCT', 'base': 22000}]",VFR,,,,,,,,CUL,Bachigualato Federal International Airport,Mexico,Culiacán,https://www.worlddata.info/america/mexico/airports.php
1729,MMCN,2025-11-23 02:00:14.482000+00:00,1763862000,2025-11-23T01:40:00.000Z,19.0,13.0,210,3.0,10+,1015.0,0,METAR,METAR MMCN 230140Z 21003KT 10SM SKC 19/13 A2997 RMK HZY,27.395,-109.837,57,"Ciudad Obregón Intl, SO, MX",SKC,[],VFR,,,,,,,,CEN,Ciudad Obregón International Airport,Mexico,Ciudad Obregón,https://www.worlddata.info/america/mexico/airports.php
1730,MMCS,2025-11-23 01:59:16.155000+00:00,1763862000,2025-11-23T01:40:00.000Z,16.0,0.0,60,11.0,10+,1019.4,0,METAR,METAR MMCS 230140Z 06011KT 10SM SKC 16/00 A3010,31.636,-106.427,1194,"Ciudad Juarez/Gonzales Intl, CH, MX",SKC,[],VFR,,,,,,,,CJS,Abraham González International Airport,Mexico,Ciudad Juárez,https://www.worlddata.info/america/mexico/airports.php
1731,MMCU,2025-11-23 02:00:14.547000+00:00,1763862000,2025-11-23T01:40:00.000Z,15.0,-1.0,230,6.0,10+,1019.7,0,METAR,METAR MMCU 230140Z 23006KT 10SM SCT090 BKN200 15/M01 A3011 RMK 8/038,28.701,-105.965,1349,"Chihuahua Intl, CH, MX",BKN,"[{'cover': 'SCT', 'base': 9000}, {'cover': 'BKN', 'base': 20000}]",VFR,,,,,,,,CUU,General Roberto Fierro Villalobos International Airport,Mexico,Chihuahua,https://www.worlddata.info/america/mexico/airports.php
1732,MMCV,2025-11-23 01:59:16.189000+00:00,1763862000,2025-11-23T01:40:00.000Z,24.0,20.0,120,4.0,5,1018.0,0,METAR,METAR MMCV 230140Z 12004KT 5SM FEW020 24/20 A3006 RMK 8/500 HZY ISOL AS,23.706,-98.959,230,"Ciudad Victoria Intl, TM, MX",FEW,"[{'cover': 'FEW', 'base': 2000}]",MVFR,,,,,,,,CVM,General Pedro Jose Mendez International Airport,Mexico,Ciudad Victoria,https://www.worlddata.info/america/mexico/airports.php
1733,MMCZ,2025-11-23 02:00:03.568000+00:00,1763862060,2025-11-23T01:41:00.000Z,26.0,21.0,0,0.0,7,1017.4,0,METAR,METAR MMCZ 230141Z 00000KT 7SM SKC 26/21 A3004 RMK SC,20.516,-86.932,7,"Cozumel Intl, QR, MX",SKC,[],VFR,,,,,,,,CZM,Aeropuerto Internacional de Cozumel,Mexico,Ciudad de Cozumel,https://www.worlddata.info/america/mexico/airports.php
1734,MMDO,2025-11-23 02:00:14.680000+00:00,1763862240,2025-11-23T01:44:00.000Z,18.0,1.0,180,5.0,8,1024.8,0,METAR,METAR MMDO 230144Z 18005KT 8SM FEW200 18/01 A3026 RMK 8/001,24.124,-104.532,1863,"Durango/Victoria Intl, DG, MX",FEW,"[{'cover': 'FEW', 'base': 20000}]",VFR,,,,,,,,DGO,Aeropuerto Internacional General Guadalupe Victoria,Mexico,Ciudad de Durango,https://www.worlddata.info/america/mexico/airports.php
1735,MMEP,2025-11-23 02:00:16.194000+00:00,1763862000,2025-11-23T01:40:00.000Z,21.0,19.0,360,5.0,7,1018.7,0,METAR,METAR MMEP 230140Z 36005KT 7SM SCT025 SCT180 21/19 A3008 RMK 8/508,21.418,-104.842,921,"Tepic/Nervo Intl, NA, MX",SCT,"[{'cover': 'SCT', 'base': 2500}, {'cover': 'SCT', 'base': 18000}]",VFR,,,,,,,,TPQ,Amado Nervo National Airport,Mexico,Tepic,https://www.worlddata.info/america/mexico/airports.php
1736,MMGL,2025-11-23 02:01:04.196000+00:00,1763862960,2025-11-23T01:56:00.000Z,18.0,8.0,0,0.0,5,1021.4,0,SPECI,SPECI MMGL 230156Z 00000KT 5SM FEW100 SCT300 18/08 A3016 RMK 8/078 HZY,20.523,-103.312,1531,"Guadalajara Arpt, GT, MX",SCT,"[{'cover': 'FEW', 'base': 10000}, {'cover': 'SCT', 'base': 30000}]",MVFR,,,,,,,,GDL,Guadalajara International Airport,Mexico,Guadalajara,https://www.worlddata.info/america/mexico/airports.php
1737,MMGM,2025-11-23 01:59:14.123000+00:00,1763862000,2025-11-23T01:40:00.000Z,23.0,12.0,0,0.0,10+,1013.6,0,METAR,METAR MMGM 230140Z 00000KT 10SM SKC 23/12 A2993,27.964,-110.928,13,"Guaymas/Yáñez Intl, SO, MX",SKC,[],VFR,,,,,,,,GYM,General José María Yáñez International Airport,Mexico,Guaymas,https://www.worlddata.info/america/mexico/airports.php
1738,MMHO,2025-11-23 02:00:14.804000+00:00,1763862000,2025-11-23T01:40:00.000Z,21.0,11.0,210,8.0,10+,1014.0,0,METAR,METAR MMHO 230140Z 21008KT 10SM SCT030 21/11 A2994 RMK 8/400 HZY,29.097,-111.051,186,"Hermosillo/Garcia Intl, SO, MX",SCT,"[{'cover': 'SCT', 'base': 3000}]",VFR,,,,,,,,HMO,General Ignacio P. Garcia International Airport,Mexico,Hermosillo,https://www.worlddata.info/america/mexico/airports.php
1739,MMIA,2025-11-23 02:00:16.239000+00:00,1763862300,2025-11-23T02:00:00.000Z,23.0,21.0,0,0.0,5,1016.3,0,METAR,METAR MMIA 230145Z 00000KT 5SM SKC 23/21 A3001 RMK HZY,19.276,-103.576,744,"Colima Arpt, CL, MX",SKC,[],MVFR,,,,,,,,CLQ,Aeropuerto Internacional Licenciado Miguel de la Madrid,Mexico,Colima,https://www.worlddata.info/america/mexico/airports.php
1740,MMIO,2025-11-23 02:00:16.279000+00:00,1763862120,2025-11-23T01:42:00.000Z,18.0,17.0,20,7.0,3,1024.1,0,METAR,METAR MMIO 230142Z 02007KT 3SM BR SKC 18/17 A3024 RMK ISOL SC,25.544,-100.928,1430,"Saltillo/Guadalupe Intl, CO, MX",SKC,[],MVFR,BR,,,,,,,SLW,Plan De Guadalupe International Airport,Mexico,Saltillo,https://www.worlddata.info/america/mexico/airports.php
1741,MMLM,2025-11-23 01:59:14.163000+00:00,1763862120,2025-11-23T01:42:00.000Z,24.0,19.0,240,8.0,10+,1014.6,0,METAR,METAR MMLM 230142Z 24008KT 10SM SKC 24/19 A2996,25.688,-109.085,6,"Los Mochis Arpt, SI, MX",SKC,[],VFR,,,,,,,,LMM,Valle del Fuerte International Airport,Mexico,Los Mochis,https://www.worlddata.info/america/mexico/airports.php
1742,MMLO,2025-11-23 02:00:16.340000+00:00,1763862000,2025-11-23T01:40:00.000Z,21.0,8.0,70,17.0,8,1024.1,0,METAR,METAR MMLO 230140Z 07017KT 8SM FEW030 21/08 A3024 RMK 8/500,20.997,-101.481,1805,"Leon/Del Bajío Arpt, GT, MX",FEW,"[{'cover': 'FEW', 'base': 3000}]",VFR,,,,,,,,BJX,Aeropuerto Internacional del Bajío,Mexico,Silao,https://www.worlddata.info/america/mexico/airports.php
1743,MMLP,2025-11-23 02:00:14.908000+00:00,1763862060,2025-11-23T01:41:00.000Z,24.0,14.0,250,8.0,10+,1017.0,0,METAR,METAR MMLP 230141Z 25008KT 10SM FEW030 SCT080 24/14 A3003 RMK 8/530,24.077,-110.364,16,"La Paz/de León Intl, BS, MX",SCT,"[{'cover': 'FEW', 'base': 3000}, {'cover': 'SCT', 'base': 8000}]",VFR,,,,,,,,LAP,Manuel Márquez de León International Airport,Mexico,La Paz,https://www.worlddata.info/america/mexico/airports.php
1744,MMLT,2025-11-23 02:00:16.367000+00:00,1763862000,2025-11-23T01:40:00.000Z,22.0,12.0,240,10.0,7,1015.3,0,METAR,METAR MMLT 230140Z 24010KT 7SM SCT120 22/12 A2998 RMK 8/030,25.993,-111.35,4,"Loreto Intl, BS, MX",SCT,"[{'cover': 'SCT', 'base': 12000}]",VFR,,,,,,,,LTO,Loreto International Airport,Mexico,Loreto,https://www.worlddata.info/america/mexico/airports.php
1745,MMMA,2025-11-23 02:00:15.032000+00:00,1763862000,2025-11-23T01:40:00.000Z,25.0,23.0,110,6.0,10+,1018.0,0,METAR,METAR MMMA 230140Z 11006KT 10SM FEW017 SCT200 25/23 A3006 RMK 8/103,25.77,-97.523,7,"Matamoros/Canales Intl, TM, MX",SCT,"[{'cover': 'FEW', 'base': 1700}, {'cover': 'SCT', 'base': 20000}]",VFR,,,,,,,,MAM,General Servando Canales International Airport,Mexico,Matamoros,https://www.worlddata.info/america/mexico/airports.php
1746,MMMD,2025-11-23 02:00:05.223000+00:00,1763862060,2025-11-23T01:41:00.000Z,25.0,20.0,40,5.0,6,1017.7,0,METAR,METAR MMMD 230141Z 04005KT 6SM SKC 25/20 A3005 RMK HZY,20.936,-89.659,10,"Mérida Intl, YU, MX",SKC,[],VFR,,,,,,,,MID,Aeropuerto Internacional Manuel Crescencio Rejón,Mexico,Ciudad de Mérida,https://www.worlddata.info/america/mexico/airports.php
1747,MMML,2025-11-23 02:00:15.063000+00:00,1763862360,2025-11-23T02:00:00.000Z,14.0,11.0,260,4.0,10+,1013.6,0,METAR,METAR MMML 230146Z 26004KT 10SM FEW060 SCT200 14/11 A2993 RMK 8/108,32.631,-115.238,21,"Mexicali Intl, BC, MX",SCT,"[{'cover': 'FEW', 'base': 6000}, {'cover': 'SCT', 'base': 20000}]",VFR,,,,,,,,MXL,Aeropuerto Internacional Gral. Rodolfo Sánchez Taboada,Mexico,Mexicali,https://www.worlddata.info/america/mexico/airports.php
1748,MMMM,2025-11-23 02:00:15.113000+00:00,1763862000,2025-11-23T01:40:00.000Z,17.0,3.0,0,0.0,7,1024.5,0,METAR,METAR MMMM 230140Z 00000KT 7SM FEW030 SCT280 17/03 A3025 RMK 8/502 HZY,19.844,-101.037,1840,"Morelia/Mujica Intl, MI, MX",SCT,"[{'cover': 'FEW', 'base': 3000}, {'cover': 'SCT', 'base': 28000}]",VFR,,,,,,,,MLM,General Francisco J. Mujica International Airport,Mexico,Morelia,https://www.worlddata.info/america/mexico/airports.php
1749,MMMT,2025-11-23 02:00:04.013000+00:00,1763862000,2025-11-23T01:40:00.000Z,26.0,24.0,350,8.0,10+,1016.3,0,METAR,METAR MMMT 230140Z 35008KT 10SM BKN020 26/24 A3001 RMK 8/800 HZY,18.098,-94.583,15,"Minatitlán Arpt, VE, MX",BKN,"[{'cover': 'BKN', 'base': 2000}]",MVFR,,,,,,,,MTT,Minatitlán/Coatzacoalcos International Airport,Mexico,Cosoleacaque,https://www.worlddata.info/america/mexico/airports.php
1750,MMMX,2025-11-23 02:00:15.270000+00:00,1763862000,2025-11-23T01:40:00.000Z,17.0,7.0,360,8.0,7,1027.9,16,METAR,METAR MMMX 230140Z 36008KT 7SM SKC 17/07 A3035 NOSIG RMK HZY,19.436,-99.072,2224,"Mexico City Intl, DF, MX",SKC,[],VFR,,,,,,,,MEX,Benito Juárez International Airport,Mexico,Ciudad de México,https://www.worlddata.info/america/mexico/airports.php
1751,MMMY,2025-11-23 02:00:15.346000+00:00,1763862000,2025-11-23T01:40:00.000Z,24.0,20.0,0,0.0,5,1019.0,0,METAR,METAR MMMY 230140Z 00000KT 5SM BKN020 24/20 A3009 RMK 8/500 HZY,25.774,-100.104,382,"Monterrey Intl, NL, MX",BKN,"[{'cover': 'BKN', 'base': 2000}]",MVFR,,,,,,,,MTY,Monterrey International Airport,Mexico,Monterrey,https://www.worlddata.info/america/mexico/airports.php
1752,MMMZ,2025-11-23 02:00:15.415000+00:00,1763862120,2025-11-23T01:42:00.000Z,26.0,20.0,330,5.0,10+,1013.3,0,METAR,METAR MMMZ 230142Z 33005KT 10SM BKN240 26/20 A2992 RMK 8/008,23.161,-106.271,7,"Mazatlàn/Buelna Intl, SI, MX",BKN,"[{'cover': 'BKN', 'base': 24000}]",VFR,,,,,,,,MZT,General Rafael Buelna International Airport,Mexico,Mazatlàn,https://www.worlddata.info/america/mexico/airports.php
1753,MMNL,2025-11-23 02:00:15.147000+00:00,1763862180,2025-11-23T01:43:00.000Z,27.0,22.0,80,12.0,5,1017.7,0,METAR,METAR MMNL 230143Z 08012KT 5SM SCT020 27/22 A3005 RMK 8/400 HZY,27.448,-99.574,146,"Nuevo Laredo Intl, TM, MX",SCT,"[{'cover': 'SCT', 'base': 2000}]",MVFR,,,,,,,,NLD,Quetzalcóatl International Airport,Mexico,Nuevo Laredo,https://www.worlddata.info/america/mexico/airports.php
1754,MMOX,2025-11-23 02:00:16.413000+00:00,1763862120,2025-11-23T01:42:00.000Z,20.0,8.0,110,7.0,8,1024.1,0,METAR,METAR MMOX 230142Z 11007KT 8SM FEW040 20/08 A3024 RMK 8/500 HZY,17.002,-96.724,1528,"Oaxaca/Xoxocotlán Intl, OA, MX",FEW,"[{'cover': 'FEW', 'base': 4000}]",VFR,,,,,,,,OAX,Aeropuerto Internacional Xoxocotlán,Mexico,Oaxaca,https://www.worlddata.info/america/mexico/airports.php
1755,MMPB,2025-11-23 02:00:16.436000+00:00,1763862000,2025-11-23T01:40:00.000Z,14.0,6.0,220,4.0,9,1028.5,0,METAR,METAR MMPB 230140Z 22004KT 9SM SKC 14/06 A3037 RMK HZY,19.17,-98.371,2250,"Puebla/Serdan Intl, PU, MX",SKC,[],VFR,,,,,,,,PBC,Aeropuerto Internacional Hermanos Serdán,Mexico,Puebla,https://www.worlddata.info/america/mexico/airports.php
1756,MMPR,2025-11-23 02:00:15.505000+00:00,1763862000,2025-11-23T01:40:00.000Z,28.0,24.0,140,3.0,11,1013.6,0,METAR,METAR MMPR 230140Z 14003KT 11SM SCT080 28/24 A2993 RMK 8/030 SC HZY,20.68,-105.25,6,"Puerto Vallarta Intl, JA, MX",SCT,"[{'cover': 'SCT', 'base': 8000}]",VFR,,,,,,,,PVR,Puerto Vallarta International Airport,Mexico,Puerto Vallarta,https://www.worlddata.info/america/mexico/airports.php
1757,MMPS,2025-11-23 01:59:21.358000+00:00,1763862600,2025-11-23T02:00:00.000Z,27.0,25.0,360,2.0,7,1015.0,0,METAR,METAR MMPS 230150Z 36002KT 7SM SKC 27/25 A2997 RMK HZY,15.876,-97.093,65,"Puerto Escondido Arpt, OA, MX",SKC,[],VFR,,,,,,,,PXM,Aeropuerto Internacional de Puerto Escondido,Mexico,Puerto Escondido,https://www.worlddata.info/america/mexico/airports.php
1758,MMQT,2025-11-23 01:59:21.376000+00:00,1763862060,2025-11-23T01:41:00.000Z,16.0,9.0,70,15.0,8,1028.2,0,METAR,METAR MMQT 230141Z 07015KT 8SM SKC 16/09 A3036,20.617,-100.194,1909,"Querétaro Intl, QT, MX",SKC,[],VFR,,,,,,,,QRO,Querétaro Intercontinental Airport,Mexico,Querétaro,https://www.worlddata.info/america/mexico/airports.php
1759,MMSD,2025-11-23 02:00:13.818000+00:00,1763862240,2025-11-23T01:44:00.000Z,26.0,19.0,330,5.0,10+,1016.0,0,METAR,METAR MMSD 230144Z 33005KT 10SM BKN120 26/19 A3000 RMK 8/030 SC,23.157,-109.72,107,"San Jose Del Cabo Intl, BS, MX",BKN,"[{'cover': 'BKN', 'base': 12000}]",VFR,,,,,,,,SJD,Aeropuerto Internacional de Los Cabos,Mexico,San José del Cabo,https://www.worlddata.info/america/mexico/airports.php
1760,MMSM,2025-11-23 01:59:21.395000+00:00,1763862060,2025-11-23T01:41:00.000Z,15.0,8.0,10,9.0,8,1028.5,0,METAR,METAR MMSM 230141Z 01009KT 8SM SKC 15/08 A3037 RMK HZY,19.763,-99.002,2250,"Santa Lucia, MX, MX",SKC,[],VFR,,,,,,,,NLU,Aeropuerto Internacional General Felipe Ángeles,Mexico,Mexico City,https://www.worlddata.info/america/mexico/airports.php
1761,MMSP,2025-11-23 02:00:13.870000+00:00,1763862000,2025-11-23T01:40:00.000Z,16.0,11.0,110,5.0,8,1027.2,0,METAR,METAR MMSP 230140Z 11005KT 8SM SKC 16/11 A3033 RMK HZY S,22.256,-100.93,1841,"San Luis Potosi Intl, SL, MX",SKC,[],VFR,,,,,,,,SLP,Ponciano Arriaga International Airport,Mexico,San Luis Potosí,https://www.worlddata.info/america/mexico/airports.php
1762,MMTC,2025-11-23 02:00:13.987000+00:00,1763862240,2025-11-23T01:44:00.000Z,22.0,3.0,0,0.0,8,1019.0,0,METAR,METAR MMTC 230144Z 00000KT 8SM SCT100 BKN230 22/03 A3009 RMK 8/072,25.564,-103.408,1128,"Torreón Intl, CO, MX",BKN,"[{'cover': 'SCT', 'base': 10000}, {'cover': 'BKN', 'base': 23000}]",VFR,,,,,,,,TRC,Francisco Sarabia Tinoco International Airport,Mexico,Torreón,https://www.worlddata.info/america/mexico/airports.php
1763,MMTG,2025-11-23 01:56:40.233000+00:00,1763862240,2025-11-23T01:44:00.000Z,25.0,18.0,300,7.0,6,1016.3,0,METAR,METAR MMTG 230144Z 30007KT 6SM SKC 25/18 A3001,16.571,-93.03,463,"Tuxtla Gutierre Intl, CS, MX",SKC,[],VFR,,,,,,,,TGZ,Angel Albino Corzo International Airport,Mexico,Tuxtla Gutiérrez,https://www.worlddata.info/america/mexico/airports.php
1764,MMTJ,2025-11-23 02:00:14.139000+00:00,1763862300,2025-11-23T02:00:00.000Z,15.0,10.0,110,4.0,10+,1014.0,0,METAR,METAR MMTJ 230145Z 11004KT 10SM FEW080 15/10 A2994 RMK 8/030,32.544,-116.982,150,"Tijuana Intl, BC, MX",FEW,"[{'cover': 'FEW', 'base': 8000}]",VFR,,,,,,,,TIJ,Aeropuerto Internacional Gral. Abelardo Rodriguez,Mexico,Ciudad de Tijuana,https://www.worlddata.info/america/mexico/airports.php
1765,MMTL,2025-11-23 01:56:40.408000+00:00,1763862060,2025-11-23T01:41:00.000Z,22.0,21.0,0,0.0,6,1018.4,0,METAR,METAR MMTL 230141Z 00000KT 6SM SKC 22/21 A3007,20.1725,-87.6622,20,"Tulum Intl, QR, MX",SKC,[],VFR,,,,,,,,TQO,Felipe Carrillo Puerto International Airport,Mexico,Tulum,https://www.worlddata.info/america/mexico/airports.php
1766,MMTM,2025-11-23 02:00:15.554000+00:00,1763862240,2025-11-23T01:44:00.000Z,26.0,24.0,120,4.0,8,1017.0,0,METAR,METAR MMTM 230144Z 12004KT 8SM SKC 26/24 A3003 RMK SC HZY,22.29,-97.863,21,"Tampico/Mina Intl, TM, MX",SKC,[],VFR,,,,,,,,TAM,General Francisco Javier Mina International Airport,Mexico,Tampico,https://www.worlddata.info/america/mexico/airports.php
1767,MMTO,2025-11-23 02:00:14.255000+00:00,1763862060,2025-11-23T01:41:00.000Z,13.0,9.0,140,8.0,6,1030.2,0,METAR,METAR MMTO 230141Z 14008KT 6SM SKC 13/09 A3042 RMK HZY,19.343,-99.568,2582,"Toluca Arpt, EM, MX",SKC,[],VFR,,,,,,,,TLC,Adolfo López Mateos International Airport,Mexico,Toluca,https://www.worlddata.info/america/mexico/airports.php
1768,MMTP,2025-11-23 02:00:13.067000+00:00,1763862300,2025-11-23T02:00:00.000Z,25.0,24.0,0,0.0,6,1012.6,0,METAR,METAR MMTP 230145Z 00000KT 6SM SCT200 25/24 A2990 RMK 8/005 TWR HZY,14.795,-92.371,27,"Tapachula Intl, TM, MX",SCT,"[{'cover': 'SCT', 'base': 20000}]",VFR,,,,,,,,TAP,Aeropuerto Internacional de Tapachula,Mexico,Tapachula,https://www.worlddata.info/america/mexico/airports.php
1769,MMUN,2025-11-23 02:00:04.567000+00:00,1763862120,2025-11-23T01:42:00.000Z,22.0,20.0,0,0.0,7,1018.0,0,METAR,METAR MMUN 230142Z 00000KT 7SM FEW015 22/20 A3006 RMK 8/100 MDT CU,21.038,-86.855,13,"Cancún Intl, QR, MX",FEW,"[{'cover': 'FEW', 'base': 1500}]",VFR,,,,,,,,CUN,Aeropuerto Internacional de Cancún,Mexico,Cancún,https://www.worlddata.info/america/mexico/airports.php
1770,MMVA,2025-11-23 02:00:04.688000+00:00,1763862000,2025-11-23T01:40:00.000Z,27.0,24.0,0,0.0,5,1015.7,0,METAR,METAR MMVA 230140Z 00000KT 5SM SCT020 27/24 A2999 RMK 8/500,17.998,-92.817,13,"Villahermosa/Perez Intl, TB, MX",SCT,"[{'cover': 'SCT', 'base': 2000}]",MVFR,,,,,,,,VSA,Carlos Rovirosa Pérez International Airport,Mexico,Villahermosa,https://www.worlddata.info/america/mexico/airports.php
1771,MMVR,2025-11-23 02:00:15.590000+00:00,1763862000,2025-11-23T01:40:00.000Z,26.0,24.0,60,3.0,9,1017.4,0,METAR,METAR MMVR 230140Z 06003KT 9SM FEW020 26/24 A3004 RMK 8/100 HZY,19.144,-96.189,26,"Veracruz/Jara Intl, VE, MX",FEW,"[{'cover': 'FEW', 'base': 2000}]",VFR,,,,,,,,VER,General Heriberto Jara International Airport,Mexico,Veracruz,https://www.worlddata.info/america/mexico/airports.php
1772,MMZC,2025-11-23 02:00:14.300000+00:00,1763862000,2025-11-23T01:40:00.000Z,19.0,9.0,90,12.0,8,1025.8,0,METAR,METAR MMZC 230140Z E09012KT 8SM FEW040 19/09 A3029 RMK 8/100,22.904,-102.68,2175,"Zacatecas/Ruiz Intl, ZA, MX",FEW,"[{'cover': 'FEW', 'base': 4000}]",VFR,,,,,,,,ZCL,Aeropuerto Internacional General Leobardo C. Ruiz,Mexico,Zacatecas,https://www.worlddata.info/america/mexico/airports.php
1773,MMZH,2025-11-23 02:00:14.331000+00:00,1763862780,2025-11-23T02:00:00.000Z,28.0,24.0,0,0.0,7,1012.3,0,METAR,METAR MMZH 230153Z 00000KT 7SM FEW020 SCT100 SCT250 28/24 A2989 RMK 8/532 HZY,17.605,-101.464,9,"Ixtapa-Zihuatanejo Intl, GR, MX",SCT,"[{'cover': 'FEW', 'base': 2000}, {'cover': 'SCT', 'base': 10000}, {'cover': 'SCT', 'base': 25000}]",VFR,,,,,,,,ZIH,Aeropuerto Internacional de Zihuatanejo,Mexico,Ixtapa,https://www.worlddata.info/america/mexico/airports.php
1774,MMZO,2025-11-23 02:00:14.378000+00:00,1763862360,2025-11-23T02:00:00.000Z,28.0,25.0,0,0.0,8,1010.9,0,METAR,METAR MMZO 230146Z 00000KT 8SM BKN030 BKN200 28/25 A2985 RMK 8/109,19.147,-104.565,11,"Manzanillo/Oro Intl, CL, MX",BKN,"[{'cover': 'BKN', 'base': 3000}, {'cover': 'BKN', 'base': 20000}]",MVFR,,,,,,,,ZLO,Aeropuerto Internacional Playa de Oro,Mexico,Manzanillo,https://www.worlddata.info/america/mexico/airports.php
1775,MPDA,2025-11-23 01:58:44.480000+00:00,1763863200,2025-11-23T02:00:00.000Z,25.0,24.0,250,2.0,6+,1008.0,16,METAR,METAR MPDA 230200Z 25002KT 9999 FEW020 25/24 Q1008 NOSIG,8.391,-82.434,15,"David/Malek Intl, CH, PA",FEW,"[{'cover': 'FEW', 'base': 2000}]",VFR,,,,,,,,DAV,Enrique Malek International Airport,Panama,David,https://www.worlddata.info/america/panama/airports.php
1776,MPMG,2025-11-23 01:53:46.363000+00:00,1763863200,2025-11-23T02:00:00.000Z,27.0,25.0,320,7.0,6+,1009.0,16,METAR,METAR MPMG 230200Z 32007KT 9999 FEW018 SCT080 27/25 Q1009 NOSIG,8.967,-79.555,6,"Panama/Gelabert Intl, PA, PA",SCT,"[{'cover': 'FEW', 'base': 1800}, {'cover': 'SCT', 'base': 8000}]",VFR,,,,,,,,PAC,Marcos A. Gelabert International Airport,Panama,Albrook,https://www.worlddata.info/america/panama/airports.php
1777,MPTO,2025-11-23 01:52:40.884000+00:00,1763863200,2025-11-23T02:00:00.000Z,27.0,24.0,290,5.0,6+,1009.0,16,METAR,METAR MPTO 230200Z 29005KT 260V360 9999 FEW018 SCT090 27/24 Q1009 NOSIG,9.056,-79.391,7,"Tocumen Intl, PA, PA",SCT,"[{'cover': 'FEW', 'base': 1800}, {'cover': 'SCT', 'base': 9000}]",VFR,,,,,,,,PTY,Tocumen International Airport,Panama,Tocumen,https://www.worlddata.info/america/panama/airports.php
1778,MRLB,2025-11-23 01:55:23.542000+00:00,1763863200,2025-11-23T02:00:00.000Z,27.0,22.0,90,6.0,6+,1010.6,0,METAR,METAR MRLB 230200Z 09006KT CAVOK 27/22 A2984,10.589,-85.552,79,"Liberia/Oduber Intl, G, CR",CAVOK,[],VFR,,,,,,,,LIR,Guanacaste Airport,Costa Rica,Liberia,https://www.worlddata.info/america/costa-rica/airports.php
1779,MROC,2025-11-23 01:59:34.090000+00:00,1763863200,2025-11-23T02:00:00.000Z,22.0,20.0,340,3.0,6+,1016.0,16,METAR,METAR MROC 230200Z 34003KT 290V050 9999 FEW035 22/20 A3000 NOSIG,9.991,-84.218,900,"San José/Santamaria Arpt, A, CR",FEW,"[{'cover': 'FEW', 'base': 3500}]",VFR,,,,,,,,SJO,Juan Santamaría International Airport,Costa Rica,San José (Alajuela),https://www.worlddata.info/america/costa-rica/airports.php
1780,MSLP,2025-11-23 01:59:33.831000+00:00,1763863200,2025-11-23T02:00:00.000Z,25.0,23.0,VRB,2.0,6+,1011.0,16,METAR,METAR MSLP 230200Z VRB02KT 9999 FEW073 25/23 Q1011 A2986 NOSIG,13.438,-89.056,25,"El Salvador Intl, PA, SV",FEW,"[{'cover': 'FEW', 'base': 7300}]",VFR,,,,,,,,SAL,Monseñor Óscar Arnulfo Romero International Airport,El Salvador,San Salvador (San Luis Talpa),https://www.worlddata.info/america/el-salvador/airports.php
1781,MUCC,2025-11-23 02:00:43.589000+00:00,1763862600,2025-11-23T02:00:00.000Z,25.0,21.0,70,8.0,5.59,1017.0,0,METAR,METAR MUCC 230150Z 07008KT 9000 FEW020 25/21 Q1017,22.456,-78.339,7,"Cayo Coco/Rey Arpt, 8, CU",FEW,"[{'cover': 'FEW', 'base': 2000}]",VFR,,,,,,,,CCC,Jardines Del Rey Airport,Cuba,Cayo Coco,https://www.worlddata.info/america/cuba/airports.php
1782,MUCM,2025-11-23 02:00:43.566000+00:00,1763862600,2025-11-23T02:00:00.000Z,23.0,22.0,50,6.0,5.59,1017.0,0,METAR,METAR MUCM 230150Z 05006KT 9000 FEW020 23/22 Q1017,21.42,-77.85,125,"Camaguey/Agramonte Intl, 9, CU",FEW,"[{'cover': 'FEW', 'base': 2000}]",VFR,,,,,,,,CMW,Ignacio Agramonte International Airport,Cuba,Camaguey,https://www.worlddata.info/america/cuba/airports.php
1783,MUCU,2025-11-23 02:00:43.537000+00:00,1763862600,2025-11-23T02:00:00.000Z,25.0,21.0,330,7.0,5.59,1015.0,0,METAR,METAR MUCU 230150Z 33007KT 300V360 9000 SCT020 25/21 Q1015,19.971,-75.837,70,"Santiago de Cuba Arpt, 13, CU",SCT,"[{'cover': 'SCT', 'base': 2000}]",VFR,,,,,,,,SCU,Antonio Maceo International Airport,Cuba,Santiago,https://www.worlddata.info/america/cuba/airports.php
1784,MUGM,2025-11-23 01:58:03.550000+00:00,1763862660,2025-11-23T02:00:00.000Z,25.0,21.1,310,7.0,10+,1016.3,12,METAR,METAR MUGM 230151Z 31007KT 10SM FEW030 SCT080 BKN250 25/21 A3001 RMK AO2 SLP161 T02500211 $,19.909,-75.206,21,"Guantanamo Bayi/Point Arpt, 14, CU",BKN,"[{'cover': 'FEW', 'base': 3000}, {'cover': 'SCT', 'base': 8000}, {'cover': 'BKN', 'base': 25000}]",VFR,,1016.1,,,,,,NBW,Leeward Point Field,Cuba,Guantanamo Bay Naval Station,https://www.worlddata.info/america/cuba/airports.php
1785,MUHA,2025-11-23 02:00:43.511000+00:00,1763862600,2025-11-23T02:00:00.000Z,21.0,19.0,70,5.0,5.59,1018.0,0,METAR,METAR MUHA 230150Z 07005KT 9000 FEW030 21/19 Q1018,22.991,-82.41,61,"Havana/Martí Intl, 3, CU",FEW,"[{'cover': 'FEW', 'base': 3000}]",VFR,,,,,,,,HAV,José Martí International Airport,Cuba,Havana,https://www.worlddata.info/america/cuba/airports.php
1786,MUHG,2025-11-23 02:00:43.482000+00:00,1763862600,2025-11-23T02:00:00.000Z,24.0,23.0,100,3.0,5.59,1017.0,0,METAR,METAR MUHG 230150Z 10003KT 9000 FEW030 BKN060 24/23 Q1017,20.786,-76.316,100,"Holguin/Pais Intl, 11, CU",BKN,"[{'cover': 'FEW', 'base': 3000}, {'cover': 'BKN', 'base': 6000}]",VFR,,,,,,,,HOG,Frank Pais International Airport,Cuba,Holguin,https://www.worlddata.info/america/cuba/airports.php
1787,MUSC,2025-11-23 02:00:43.455000+00:00,1763862600,2025-11-23T02:00:00.000Z,21.0,20.0,VRB,2.0,5.59,1018.0,0,METAR,METAR MUSC 230150Z VRB02KT 9000 NSC 21/20 Q1018,22.494,-79.931,97,"Santa Clara/Santamaria Intl, 5, CU",CLR,[],VFR,,,,,,,,SNU,Abel Santamaria Airport,Cuba,Santa Clara,https://www.worlddata.info/america/cuba/airports.php
1788,MUVR,2025-11-23 02:00:43.429000+00:00,1763862600,2025-11-23T02:00:00.000Z,21.0,19.0,VRB,2.0,5.59,1018.0,0,METAR,METAR MUVR 230150Z VRB02KT 9000 SKC 21/19 Q1018,23.033,-81.435,65,"Varadero/Gomez Arpt, 4, CU",SKC,[],VFR,,,,,,,,VRA,Juan Gualberto Gomez International Airport,Cuba,Matanzas,https://www.worlddata.info/america/cuba/airports.php
1789,MWCR,2025-11-23 01:46:01.762000+00:00,1763863200,2025-11-23T02:00:00.000Z,28.0,24.0,60,11.0,6+,1015.0,0,METAR,METAR MWCR 230200Z 06011KT 9999 FEW018 28/24 Q1015,19.294,-81.357,4,"Grand Cayman/Roberts Intl, GC, KY",FEW,"[{'cover': 'FEW', 'base': 1800}]",VFR,,,,,,,,GCM,Owen Roberts International Airport,Cayman Islands,George Town,https://www.worlddata.info/america/cayman-islands/airports.php
1790,MYGF,2025-11-23 02:00:42.971000+00:00,1763863200,2025-11-23T02:00:00.000Z,20.0,19.0,90,3.0,,1019.4,2,METAR,METAR MYGF 230200Z AUTO 09003KT //// R06///// // NCD 20/19 A3010,26.555,-78.698,2,"Freeport Intl, WG, BS",CLR,[],,,,,,,,,FPO,Grand Bahama International Airport,Bahamas,Freeport,https://www.worlddata.info/america/bahamas/airports.php
1791,MYNN,2025-11-23 02:00:41.101000+00:00,1763863200,2025-11-23T02:00:00.000Z,24.0,20.0,110,5.0,6+,1019.4,0,METAR,METAR MYNN 230200Z 11005KT 9999 FEW025 24/20 A3010,25.04,-77.467,5,"Nassau Intl, NP, BS",FEW,"[{'cover': 'FEW', 'base': 2500}]",VFR,,,,,,,,NAS,Lynden Pindling International Airport,Bahamas,Nassau,https://www.worlddata.info/america/bahamas/airports.php
1792,MYSM,2025-11-23 02:00:16.955000+00:00,1763863200,2025-11-23T02:00:00.000Z,,,80,5.0,,,2,METAR,METAR MYSM 230200Z AUTO 08005KT //// R28///// // NCD ///// A////,24.064,-74.529,5,"Cockburn Town Arpt, , BS",CLR,[],,,,,,,,,ZSA,San Salvador Airport,Bahamas,San Salvador,https://www.worlddata.info/america/bahamas/airports.php
1793,MZBZ,2025-11-23 02:00:32.753000+00:00,1763863200,2025-11-23T02:00:00.000Z,26.0,24.0,90,4.0,6+,1016.0,16,METAR,METAR MZBZ 230200Z 09004KT 9999 FEW026 26/24 A3001 Q1016 NOSIG,17.538,-88.309,6,"Belize/Goldson Intl, BZ, BZ",FEW,"[{'cover': 'FEW', 'base': 2600}]",VFR,,,,,,,,BZE,Philip S. W. Goldson International Airport,Belize,Belize City,https://www.worlddata.info/america/belize/airports.php
1794,NCAI,2025-11-23 01:58:39.292000+00:00,1763863200,2025-11-23T02:00:00.000Z,29.0,22.0,60,16.0,,1009.0,2,METAR,METAR NCAI 230200Z AUTO 06016KT //// ////// 29/22 Q1009,-18.829,-159.766,7,"Cook Isl/Aitutaki Arpt, , CK",,,,,,,,,,,AIT,Aitutaki Airport,Cook Islands,Aitutaki,https://www.worlddata.info/oceania/cook-islands/airports.php
1795,NCAT,2025-11-23 01:58:39.314000+00:00,1763863200,2025-11-23T02:00:00.000Z,27.0,22.0,130,3.0,,1009.0,2,METAR,METAR NCAT 230200Z AUTO 13003KT //// ////// 27/22 Q1009,-19.968,-158.119,11,"Cook Isl/Atui Enua, , CK",,,,,,,,,,,AIU,Enua Airport,Cook Islands,Atiu Island,https://www.worlddata.info/oceania/cook-islands/airports.php
1796,NCMG,2025-11-23 01:58:39.337000+00:00,1763863200,2025-11-23T02:00:00.000Z,25.0,19.0,100,12.0,,1011.0,2,METAR,METAR NCMG 230200Z AUTO 10012G22KT //// ////// 25/19 Q1011,-21.896,-157.907,14,"Cook Isl/Mangaia Arpt, , CK",,,,,,,,,22.0,,MGS,Mangaia Island Airport,Cook Islands,Mangaia Island,https://www.worlddata.info/oceania/cook-islands/airports.php
1797,NCMH,2025-11-23 01:58:39.359000+00:00,1763863200,2025-11-23T02:00:00.000Z,30.0,25.0,50,3.0,,1006.0,2,METAR,METAR NCMH 230200Z AUTO 05003KT //// ////// 30/25 Q1006,-10.374,-161.004,1,"Cook Isl/Manihiki Arpt, , CK",,,,,,,,,,,MHX,Manihiki Island Airport,Cook Islands,Manihiki Island,https://www.worlddata.info/oceania/cook-islands/airports.php
1798,NCMK,2025-11-23 01:58:39.378000+00:00,1763863200,2025-11-23T02:00:00.000Z,26.0,20.0,110,7.0,,1010.0,2,METAR,METAR NCMK 230200Z AUTO 11007KT //// ////// 26/20 Q1010,-20.137,-157.344,13,"Cook Isl/Mauke Arpt, , CK",,,,,,,,,,,MUK,Mauke Airport,Cook Islands,Mauke Island,https://www.worlddata.info/oceania/cook-islands/airports.php
1799,NCMR,2025-11-23 01:58:39.399000+00:00,1763863200,2025-11-23T02:00:00.000Z,26.0,21.0,80,7.0,,1010.0,2,METAR,METAR NCMR 230200Z AUTO 08007KT //// ////// 26/21 Q1010,-19.842,-157.703,8,"Cook Isl/Mitiaro Arpt, , CK",,,,,,,,,,,MOI,Mitiaro Island Airport,Cook Islands,Mitiaro Island,https://www.worlddata.info/oceania/cook-islands/airports.php
1800,NCPK,2025-11-23 01:58:39.455000+00:00,1763863200,2025-11-23T02:00:00.000Z,,,,,,,2,METAR,METAR NCPK 230200Z AUTO NIL,-10.915,-165.839,5,"Cook Isl/Pukapuka Arpt, , CK",,,,,,,,,,,PZK,Pukapuka Island Airport,Cook Islands,Pukapuka Atoll,https://www.worlddata.info/oceania/cook-islands/airports.php
1801,NCPY,2025-11-23 01:58:39.497000+00:00,1763863200,2025-11-23T02:00:00.000Z,29.0,24.0,50,14.0,,1005.0,2,METAR,METAR NCPY 230200Z AUTO 05014KT //// ////// 29/24 Q1005,-9.01,-158.034,2,"Cook Isl/Penrhyn Arpt, , CK",,,,,,,,,,,PYE,Tongareva Airport,Cook Islands,Penrhyn Island,https://www.worlddata.info/oceania/cook-islands/airports.php
1802,NCRG,2025-11-23 01:58:39.272000+00:00,1763863200,2025-11-23T02:00:00.000Z,27.0,20.0,100,12.0,6+,1010.0,0,METAR,METAR NCRG 230200Z 10012KT 040V120 9999 BKN023 27/20 Q1010,-21.203,-159.806,7,"Cook Isl/Rarotonga Arpt, , CK",BKN,"[{'cover': 'BKN', 'base': 2300}]",MVFR,,,,,,,,RAR,Rarotonga International Airport,Cook Islands,Avarua,https://www.worlddata.info/oceania/cook-islands/airports.php
1803,NFFN,2025-11-23 02:00:02.038000+00:00,1763863200,2025-11-23T02:00:00.000Z,28.0,24.0,280,15.0,6+,1003.0,0,METAR,METAR NFFN 230200Z 28015KT 9999 SCT022 SCT045 BKN120 28/24 Q1003 TEMPO 5000 RA,-17.755,177.443,14,"Nadi Intl, WG, FJ",BKN,"[{'cover': 'SCT', 'base': 2200}, {'cover': 'SCT', 'base': 4500}, {'cover': 'BKN', 'base': 12000}]",VFR,,,,,,,,NAN,Nadi International Airport,Fiji,Nadi,https://www.worlddata.info/oceania/fiji/airports.php
1804,NFNA,2025-11-23 01:57:29.272000+00:00,1763863200,2025-11-23T02:00:00.000Z,29.0,24.0,140,7.0,6+,1001.0,0,METAR,METAR NFNA 230200Z 14007KT 9999 SCT020 BKN045 29/24 Q1001,-18.043,178.559,6,"Fiji/Nausori Intl, C, FJ",BKN,"[{'cover': 'SCT', 'base': 2000}, {'cover': 'BKN', 'base': 4500}]",VFR,,,,,,,,SUV,Nausori International Airport,Fiji,Nausori,https://www.worlddata.info/oceania/fiji/airports.php
1805,NFNL,2025-11-23 01:57:14.610000+00:00,1763863200,2025-11-23T02:00:00.000Z,31.0,24.0,280,11.0,6+,1003.0,1,METAR,METAR NFNL 230200Z COR 28011KT 9999 SCT026TCU SCT120 BKN300 31/24 Q1003,-16.467,179.339,17,"Lambasa Arpt, N, FJ",BKN,"[{'cover': 'SCT', 'base': 2600}, {'cover': 'SCT', 'base': 12000}, {'cover': 'BKN', 'base': 30000}]",VFR,,,,,,,,LBS,Labasa Airport,Fiji,Labasa,https://www.worlddata.info/oceania/fiji/airports.php
1806,NFNM,2025-11-23 01:55:31.398000+00:00,1763863200,2025-11-23T02:00:00.000Z,31.0,27.0,10,13.0,6+,1002.0,0,METAR,METAR NFNM 230200Z 01013KT 9999 FEW017TCU SCT046 31/27 Q1002,-16.691,-179.877,21,"Matei Taveuni Isl, N, FJ",SCT,"[{'cover': 'FEW', 'base': 1700}, {'cover': 'SCT', 'base': 4600}]",VFR,,,,,,,,TVU,Matei Airport,Fiji,Matei,https://www.worlddata.info/oceania/fiji/airports.php
1807,NFNS,2025-11-23 01:55:26.169000+00:00,1763863200,2025-11-23T02:00:00.000Z,29.0,26.0,200,6.0,6+,1003.0,0,METAR,METAR NFNS 230200Z 20006KT 9999 SCT016TCU BKN045 29/26 Q1003,-16.803,179.341,4,"Sususavu Arpt, N, FJ",BKN,"[{'cover': 'SCT', 'base': 1600}, {'cover': 'BKN', 'base': 4500}]",VFR,,,,,,,,SVU,Savusavu Airport,Fiji,Savusavu,https://www.worlddata.info/oceania/fiji/airports.php
1808,NFTF,2025-11-23 01:58:58.031000+00:00,1763863200,2025-11-23T02:00:00.000Z,26.0,22.0,80,18.0,6+,1007.0,0,METAR,METAR NFTF 230200Z 08018KT 010V130 9999 FEW010 FEW014TCU BKN110 26/22 Q1007,-21.241,-175.15,38,"Tonga/Fua Amotu Intl, 4, TO",BKN,"[{'cover': 'FEW', 'base': 1000}, {'cover': 'FEW', 'base': 1400}, {'cover': 'BKN', 'base': 11000}]",VFR,,,,,,,,TBU,Fua'amotu International Airport,Tonga,Nuku'alofa,https://www.worlddata.info/oceania/tonga/airports.php
1809,NFTV,2025-11-23 01:58:58.013000+00:00,1763863200,2025-11-23T02:00:00.000Z,25.0,24.0,80,11.0,6+,1005.0,0,METAR,METAR NFTV 230200Z 08011KT 9999 -RA SCT007 BKN016TCU OVC110 25/24 Q1005,-18.585,-173.9628,71,"Vavau Isl/Lupepau Arpt, 5, TO",OVC,"[{'cover': 'SCT', 'base': 700}, {'cover': 'BKN', 'base': 1600}, {'cover': 'OVC', 'base': 11000}]",MVFR,-RA,,,,,,,VAV,Vava'u International Airport,Tonga,Vava'u Island,https://www.worlddata.info/oceania/tonga/airports.php
1810,NGFU,2025-11-23 01:55:15.887000+00:00,1763863200,2025-11-23T02:00:00.000Z,29.0,24.0,30,11.0,,1004.0,0,METAR,METAR NGFU 230200Z 03011KT SCT018TCU OVC110 29/24 Q1004,-8.523,179.198,2,"Funafuti Intl, FU, TV",OVC,"[{'cover': 'SCT', 'base': 1800}, {'cover': 'OVC', 'base': 11000}]",,,,,,,,,FUN,Funafuti International Airport,Tuvalu,Funafuti,https://www.worlddata.info/oceania/tuvalu/airports.php
1811,NGTA,2025-11-23 01:58:38.940000+00:00,1763863200,2025-11-23T02:00:00.000Z,31.0,24.0,90,12.0,6+,1004.0,0,METAR,METAR NGTA 230200Z 09012KT 9999 FEW020 BKN300 31/24 Q1004,1.381,173.147,8,"Kiribati/Tarawa Intl, G, KI",BKN,"[{'cover': 'FEW', 'base': 2000}, {'cover': 'BKN', 'base': 30000}]",VFR,,,,,,,,TRW,Bonriki International Airport,Kiribati,Tarawa,https://www.worlddata.info/oceania/kiribati/airports.php
1812,NIUE,2025-11-23 01:34:41.645000+00:00,1763861400,2025-11-23T01:30:00.000Z,29.0,21.0,90,10.0,6+,1007.0,2,METAR,METAR NIUE 230130Z AUTO 09010KT 050V120 9999 SCT029/// SCT035/// 29/21 Q1007,-19.079,-169.926,22,"Niue/Hanan Intl, , NU",SCT,"[{'cover': 'SCT', 'base': 2900}, {'cover': 'SCT', 'base': 3500}]",VFR,,,,,,,,IUE,Niue International Airport,Niue,Alofi,https://www.worlddata.info/oceania/niue/airports.php
1813,NSTU,2025-11-23 02:00:41.728000+00:00,1763862900,2025-11-23T02:00:00.000Z,26.5,23.1,VRB,4.0,11,1005.8,0,METAR,METAR NSTU 230155Z VRB04KT 11SM SCT019TCU BKN040 OVC100 27/23 A2970 RMK TCU NW-NE SLP059 T02650231,-14.337,-170.721,8,"Pago Pago/Tafuna Intl, , AS",OVC,"[{'cover': 'SCT', 'base': 1900}, {'cover': 'BKN', 'base': 4000}, {'cover': 'OVC', 'base': 10000}]",VFR,,1005.9,,,,,,PPG,Pago Pago International Airport,American Samoa,Pago Pago,https://www.worlddata.info/oceania/american-samoa/airports.php
1814,NTAA,2025-11-23 01:37:11.532000+00:00,1763861400,2025-11-23T01:30:00.000Z,25.0,22.0,90,3.0,6+,1006.0,2,METAR,METAR NTAA 230130Z AUTO 09003KT 040V140 9999 SCT037 BKN056 BKN066 25/22 Q1006 TEMPO 06020G30KT 1000 TSRA SCT008 SCT015CB,-17.554,-149.607,2,"Tahiti Island/Faaa Intl, WI, PF",BKN,"[{'cover': 'SCT', 'base': 3700}, {'cover': 'BKN', 'base': 5600}, {'cover': 'BKN', 'base': 6600}]",VFR,,,,,,,,PPT,Faa'a International Airport,French Polynesia,Papeete,https://www.worlddata.info/oceania/french-polynesia/airports.php
1815,NTTB,2025-11-23 02:00:59.981000+00:00,1763863200,2025-11-23T02:00:00.000Z,26.0,23.0,0,0.0,,1006.0,2,METAR,METAR NTTB 230200Z AUTO 00000KT //// R29///// // BKN074/// BKN096/// BKN230/// 26/23 Q1006,-16.445,-151.752,6,"Bora-Bora, LI, PF",BKN,"[{'cover': 'BKN', 'base': 7400}, {'cover': 'BKN', 'base': 9600}, {'cover': 'BKN', 'base': 23000}]",,,,,,,,,BOB,Bora Bora Airport,French Polynesia,Motu Mute,https://www.worlddata.info/oceania/french-polynesia/airports.php
1816,NTTO,2025-11-23 02:01:18.097000+00:00,1763863200,2025-11-23T02:00:00.000Z,26.0,22.0,100,23.0,6+,1010.0,2,METAR,METAR NTTO 230200Z AUTO 10023KT 9999 FEW024/// OVC086/// 26/22 Q1010,-18.075,-140.946,3,"Hao/Tuamoto , TG, PF",OVC,"[{'cover': 'FEW', 'base': 2400}, {'cover': 'OVC', 'base': 8600}]",VFR,,,,,,,,HOI,Hao Airport,French Polynesia,Otepa,https://www.worlddata.info/oceania/french-polynesia/airports.php
1817,NVSS,2025-11-23 01:56:37.914000+00:00,1763863200,2025-11-23T02:00:00.000Z,29.0,24.0,160,8.0,6+,1004.0,0,METAR,METAR NVSS 230200Z 16008KT 9999 FEW025 29/24 Q1004,-15.505,167.22,47,"Santo/Pekoa Intl, SA, VU",FEW,"[{'cover': 'FEW', 'base': 2500}]",VFR,,,,,,,,SON,Santo Pekoa International Airport,Vanuatu,Luganville,https://www.worlddata.info/oceania/vanuatu/airports.php
1818,NVVV,2025-11-23 01:56:37.956000+00:00,1763863200,2025-11-23T02:00:00.000Z,30.0,24.0,180,8.0,6+,1004.0,0,METAR,METAR NVVV 230200Z 18008KT 150V230 9999 SCT020 30/24 Q1004,-17.695,168.313,23,"Efate/Bauerfield Intl, SE, VU",SCT,"[{'cover': 'SCT', 'base': 2000}]",VFR,,,,,,,,VLI,Bauerfield International Airport,Vanuatu,Port Vila,https://www.worlddata.info/oceania/vanuatu/airports.php
1819,NVVW,2025-11-23 01:59:57.369000+00:00,1763863200,2025-11-23T02:00:00.000Z,28.0,23.0,140,7.0,6+,,0,METAR,METAR NVVW 230200Z 14007KT 9999 SCT020 BKN300 28/23 Q10 ,-19.455,169.224,5,"Tanna Arpt, TA, VU",BKN,"[{'cover': 'SCT', 'base': 2000}, {'cover': 'BKN', 'base': 30000}]",VFR,,,,,,,,TAH,Tanna Airport,Vanuatu,Imanaka,https://www.worlddata.info/oceania/vanuatu/airports.php
1820,NWWW,2025-11-23 02:01:08.723000+00:00,1763863200,2025-11-23T02:00:00.000Z,31.0,21.0,140,16.0,6+,1005.0,2,METAR,METAR NWWW 230200Z AUTO 14016KT 9999 FEW036/// ///CB 31/21 Q1005 TEMPO 15015G25KT,-22.015,166.213,16,"La Tontouta Arpt, SU, NC",FEW,"[{'cover': 'FEW', 'base': 3600}]",VFR,,,,,,,,NOU,La Tontouta International Airport,New Caledonia,Nouméa (La Tontouta),https://www.worlddata.info/oceania/new-caledonia/airports.php
1821,NZAA,2025-11-23 01:34:41.434000+00:00,1763861400,2025-11-23T01:30:00.000Z,21.0,14.0,230,12.0,6+,1013.0,2,METAR,METAR NZAA 230130Z AUTO 23012KT 9999 FEW049/// SCT060/// 21/14 Q1013,-37.008,174.792,7,"Auckland Intl, AU, NZ",SCT,"[{'cover': 'FEW', 'base': 4900}, {'cover': 'SCT', 'base': 6000}]",VFR,,,,,,,,AKL,Auckland International Airport,New Zealand,Auckland,https://www.worlddata.info/oceania/new-zealand/airports.php
1822,NZCH,2025-11-23 01:34:41.558000+00:00,1763861400,2025-11-23T01:30:00.000Z,19.0,11.0,70,9.0,6+,1011.0,2,METAR,METAR NZCH 230130Z AUTO 07009KT 020V110 9999 NCD 19/11 Q1011,-43.489,172.528,36,"Christchurch Intl, CA, NZ",CLR,[],VFR,,,,,,,,CHC,Christchurch International Airport,New Zealand,Christchurch,https://www.worlddata.info/oceania/new-zealand/airports.php
1823,NZDN,2025-11-23 01:34:38.619000+00:00,1763861400,2025-11-23T01:30:00.000Z,20.0,7.0,210,13.0,6+,1011.0,2,METAR,METAR NZDN 230130Z AUTO 21013KT 9999 FEW065/// 20/07 Q1011,-45.928,170.198,2,"Dunedin Arpt, OT, NZ",FEW,"[{'cover': 'FEW', 'base': 6500}]",VFR,,,,,,,,DUD,Dunedin International Airport,New Zealand,Dunedin,https://www.worlddata.info/oceania/new-zealand/airports.php
1824,NZOH,2025-11-23 01:34:38.548000+00:00,1763861400,2025-11-23T01:30:00.000Z,21.0,11.0,270,10.0,6+,1012.0,2,METAR,METAR NZOH 230130Z AUTO 27010KT 220V300 9999 NCD 21/11 Q1012,-40.196,175.381,45,"Ohakea Arpt, MW, NZ",CLR,[],VFR,,,,,,,,OHA,RNZAF Base Ohakea,New Zealand,,https://www.worlddata.info/oceania/new-zealand/airports.php
1825,NZQN,2025-11-23 01:34:38.704000+00:00,1763861400,2025-11-23T01:30:00.000Z,19.0,5.0,240,9.0,6+,1010.0,2,METAR,METAR NZQN 230130Z AUTO 24009KT 190V270 9999 NCD 19/05 Q1010,-45.021,168.739,356,"Queenstown Arpt, OT, NZ",CLR,[],VFR,,,,,,,,ZQN,Queenstown International Airport,New Zealand,Queenstown,https://www.worlddata.info/oceania/new-zealand/airports.php
1826,NZWN,2025-11-23 01:34:41.493000+00:00,1763861400,2025-11-23T01:30:00.000Z,20.0,12.0,360,14.0,6+,1012.0,2,METAR,METAR NZWN 230130Z AUTO 36014KT 9999 BKN029/// 20/12 Q1012,-41.331,174.806,12,"Wellington Intl, WG, NZ",BKN,"[{'cover': 'BKN', 'base': 2900}]",MVFR,,,,,,,,WLG,Wellington International Airport,New Zealand,Wellington,https://www.worlddata.info/oceania/new-zealand/airports.php
1827,OBBI,2025-11-23 01:36:14.233000+00:00,1763861400,2025-11-23T01:30:00.000Z,22.0,18.0,270,5.0,4.35,1019.0,16,METAR,METAR OBBI 230130Z 27005KT 240V300 7000 NSC 22/18 Q1019 NOSIG,26.271,50.634,6,"Bahrain Intl, MU, BH",CLR,[],MVFR,,,,,,,,BAH,Bahrain International Airport,Bahrain,Manama,https://www.worlddata.info/asia/bahrain/airports.php
1828,OEAB,2025-11-23 02:00:32.689000+00:00,1763863200,2025-11-23T02:00:00.000Z,8.0,-4.0,0,0.0,6+,1027.0,16,METAR,METAR OEAB 230200Z 00000KT CAVOK 08/M04 Q1027 NOSIG,18.24,42.657,2092,"Abha Intl, AS, SA",CAVOK,[],VFR,,,,,,,,AHB,Abha International Airport,Saudi Arabia,Abha,https://www.worlddata.info/asia/saudi-arabia/airports.php
1829,OEAH,2025-11-23 02:00:38.493000+00:00,1763863200,2025-11-23T02:00:00.000Z,15.0,-1.0,310,11.0,6+,1020.0,16,METAR,METAR OEAH 230200Z 31011KT CAVOK 15/M01 Q1020 NOSIG,25.285,49.485,180,"Al Ahsa Arpt, AS, SA",CAVOK,[],VFR,,,,,,,,HOF,Al-Ahsa International Airport,Saudi Arabia,Hofuf,https://www.worlddata.info/asia/saudi-arabia/airports.php
1830,OEBA,2025-11-23 02:00:38.540000+00:00,1763863200,2025-11-23T02:00:00.000Z,11.0,-4.0,150,2.0,6+,1025.0,16,METAR,METAR OEBA 230200Z 15002KT CAVOK 11/M04 Q1025 NOSIG,20.296,41.634,1659,"Al Baha Arpt, BH, SA",CAVOK,[],VFR,,,,,,,,ABT,King Saud Bin Abdulaziz (Al Baha) Airport,Saudi Arabia,Al-Baha,https://www.worlddata.info/asia/saudi-arabia/airports.php
1831,OEBH,2025-11-23 02:00:38.562000+00:00,1763863200,2025-11-23T02:00:00.000Z,12.0,-4.0,120,2.0,6+,1022.0,16,METAR,METAR OEBH 230200Z 12002KT CAVOK 12/M04 Q1022 NOSIG,19.984,42.621,1167,"Bisha Arpt, AS, SA",CAVOK,[],VFR,,,,,,,,BHH,Bisha Airport,Saudi Arabia,Bisha,https://www.worlddata.info/asia/saudi-arabia/airports.php
1832,OEDF,2025-11-23 02:00:32.546000+00:00,1763863200,2025-11-23T02:00:00.000Z,14.0,9.0,310,6.0,6+,1020.0,16,METAR,METAR OEDF 230200Z 31006KT CAVOK 14/09 Q1020 NOSIG,26.45,49.817,15,"Dammam/King Fahd Intl, AS, SA",CAVOK,[],VFR,,,,,,,,DMM,King Fahd International Airport,Saudi Arabia,Ad Dammam,https://www.worlddata.info/asia/saudi-arabia/airports.php
1833,OEDM,2025-11-23 02:00:38.586000+00:00,1763863200,2025-11-23T02:00:00.000Z,10.0,-5.0,150,8.0,6+,1024.0,16,METAR,METAR OEDM 230200Z 15008KT CAVOK 10/M05 Q1024 NOSIG,24.45,44.121,922,"Dawadmi Arpt, RD, SA",CAVOK,[],VFR,,,,,,,,DWD,King Salman Abdulaziz Airport,Saudi Arabia,Dawadmi,https://www.worlddata.info/asia/saudi-arabia/airports.php
1834,OEDR,2025-11-23 02:00:32.581000+00:00,1763863200,2025-11-23T02:00:00.000Z,15.0,5.0,VRB,5.0,6+,1017.0,0,METAR,METAR OEDR 230200Z VRB05KT CAVOK 15/05 Q1017,26.265,50.152,17,"Dhahran, AS, SA",CAVOK,[],VFR,,,,,,,,DHA,King Abdulaziz Air Base,Saudi Arabia,Dhahran,https://www.worlddata.info/asia/saudi-arabia/airports.php
1835,OEGN,2025-11-23 02:00:38.604000+00:00,1763863200,2025-11-23T02:00:00.000Z,24.0,19.0,130,3.0,6+,1016.0,16,METAR,METAR OEGN 230200Z 13003KT CAVOK 24/19 Q1016 NOSIG,16.901,42.586,5,"Jazan/King Abdulaziz Arpt, JZ, SA",CAVOK,[],VFR,,,,,,,,GIZ,Jizan Regional Airport / King Abdullah bin Abdulaziz Airport,Saudi Arabia,Jizan,https://www.worlddata.info/asia/saudi-arabia/airports.php
1836,OEGS,2025-11-23 02:00:38.620000+00:00,1763863200,2025-11-23T02:00:00.000Z,10.0,-3.0,360,7.0,6+,1023.0,16,METAR,METAR OEGS 230200Z 36007KT CAVOK 10/M03 Q1023 NOSIG,26.303,43.774,647,"Qassim Arpt, QS, SA",CAVOK,[],VFR,,,,,,,,ELQ,Gassim Airport,Saudi Arabia,Buraidah,https://www.worlddata.info/asia/saudi-arabia/airports.php
1837,OEGT,2025-11-23 02:00:38.637000+00:00,1763863200,2025-11-23T02:00:00.000Z,10.0,-5.0,90,3.0,6+,1023.0,16,METAR,METAR OEGT 230200Z 09003KT CAVOK 10/M05 Q1023 NOSIG,31.412,37.279,512,"Guriat Arpt, TB, SA",CAVOK,[],VFR,,,,,,,,URY,Gurayat Domestic Airport,Saudi Arabia,Gurayat,https://www.worlddata.info/asia/saudi-arabia/airports.php
1838,OEHL,2025-11-23 02:00:38.653000+00:00,1763863200,2025-11-23T02:00:00.000Z,8.0,-1.0,0,0.0,6+,1025.0,16,METAR,METAR OEHL 230200Z 00000KT CAVOK 08/M01 Q1025 NOSIG,27.438,41.686,1002,"Hail Arpt, HL, SA",CAVOK,[],VFR,,,,,,,,HAS,Ha'il Airport,Saudi Arabia,Ha'il,https://www.worlddata.info/asia/saudi-arabia/airports.php
1839,OEJN,2025-11-23 02:00:32.606000+00:00,1763863200,2025-11-23T02:00:00.000Z,26.0,22.0,0,0.0,6+,1014.0,16,METAR,METAR OEJN 230200Z 00000KT CAVOK 26/22 Q1014 NOSIG,21.685,39.166,8,"Jeddah/King Abdulaziz Intl, ML, SA",CAVOK,[],VFR,,,,,,,,JED,King Abdulaziz International Airport,Saudi Arabia,Jeddah,https://www.worlddata.info/asia/saudi-arabia/airports.php
1840,OEKM,2025-11-23 02:01:02.567000+00:00,1763863200,2025-11-23T02:00:00.000Z,6.0,-5.0,0,0.0,6+,1027.0,16,METAR,METAR OEKM 230200Z 00000KT CAVOK 06/M05 Q1027 NOSIG,18.301,42.798,2038,"Khamis Mushait Arpt, AS, SA",CAVOK,[],VFR,,,,,,,,KMX,King Khalid Air Base,Saudi Arabia,Khamis Mushait,https://www.worlddata.info/asia/saudi-arabia/airports.php
1841,OEMA,2025-11-23 02:00:32.628000+00:00,1763863200,2025-11-23T02:00:00.000Z,20.0,-1.0,60,5.0,6+,1023.0,16,METAR,METAR OEMA 230200Z 06005KT CAVOK 20/M01 Q1023 NOSIG,24.553,39.705,639,"Madinah/Abdulaziz Intl, MD, SA",CAVOK,[],VFR,,,,,,,,MED,Prince Mohammad Bin Abdulaziz Airport,Saudi Arabia,Medina,https://www.worlddata.info/asia/saudi-arabia/airports.php
1842,OENG,2025-11-23 02:01:02.617000+00:00,1763863200,2025-11-23T02:00:00.000Z,12.0,0.0,290,2.0,6+,1025.0,16,METAR,METAR OENG 230200Z 29002KT CAVOK 12/00 Q1025 NOSIG,17.611,44.419,1210,"Nejran Arpt, NR, SA",CAVOK,[],VFR,,,,,,,,EAM,Najran Domestic Airport,Saudi Arabia,Najran,https://www.worlddata.info/asia/saudi-arabia/airports.php
1843,OEPA,2025-11-23 02:01:02.642000+00:00,1763863200,2025-11-23T02:00:00.000Z,10.0,-9.0,280,4.0,6+,1023.0,16,METAR,METAR OEPA 230200Z 28004KT CAVOK 10/M09 Q1023 NOSIG,28.335,46.125,361,"Al Qaisumah/Hafr Al-Batin Arpt, AS, SA",CAVOK,[],VFR,,,,,,,,AQI,Al Qaisumah/Hafr Al Batin Airport,Saudi Arabia,Qaisumah,https://www.worlddata.info/asia/saudi-arabia/airports.php
1844,OEPS,2025-11-23 02:01:02.344000+00:00,1763862900,2025-11-23T01:55:00.000Z,14.6,-7.2,260,4.0,6+,1024.5,4,SPECI,SPECI OEPS 230155Z 26004KT 9999 SKC 15/M07 A3025 RMK AO2A SLP224 WND DATA ESTMD ALTSG/SLP ESTMD T01461072,24.063,47.581,503,"Al-Kharj/Sultan Arpt, RD, SA",SKC,[],VFR,,1022.4,,,,,,AKH,Prince Sultan Air Base,Saudi Arabia,,https://www.worlddata.info/asia/saudi-arabia/airports.php
1845,OERF,2025-11-23 02:01:02.671000+00:00,1763863200,2025-11-23T02:00:00.000Z,9.0,-5.0,0,0.0,6+,1023.0,16,METAR,METAR OERF 230200Z 00000KT CAVOK 09/M05 Q1023 NOSIG,29.626,43.491,441,"Rafha Arpt, HS, SA",CAVOK,[],VFR,,,,,,,,RAH,Rafha Domestic Airport,Saudi Arabia,Rafha,https://www.worlddata.info/asia/saudi-arabia/airports.php
1846,OERK,2025-11-23 02:00:32.666000+00:00,1763863200,2025-11-23T02:00:00.000Z,11.0,-9.0,280,7.0,6+,1023.0,16,METAR,METAR OERK 230200Z 28007KT CAVOK 11/M09 Q1023 NOSIG,24.945,46.702,618,"Riyadh/King Khaled Intl, RD, SA",CAVOK,[],VFR,,,,,,,,RUH,King Khaled International Airport,Saudi Arabia,Riyadh,https://www.worlddata.info/asia/saudi-arabia/airports.php
1847,OERR,2025-11-23 02:01:02.695000+00:00,1763863200,2025-11-23T02:00:00.000Z,11.0,-4.0,260,6.0,6+,1024.0,16,METAR,METAR OERR 230200Z 26006KT CAVOK 11/M04 Q1024 NOSIG,30.907,41.138,554,"Arar Arpt, HS, SA",CAVOK,[],VFR,,,,,,,,RAE,Arar Domestic Airport,Saudi Arabia,Arar,https://www.worlddata.info/asia/saudi-arabia/airports.php
1848,OESH,2025-11-23 02:01:02.745000+00:00,1763863200,2025-11-23T02:00:00.000Z,13.0,-3.0,0,0.0,6+,1023.0,16,METAR,METAR OESH 230200Z 00000KT CAVOK 13/M03 Q1023 NOSIG,17.467,47.121,720,"Sharurah Arpt, NR, SA",CAVOK,[],VFR,,,,,,,,SHW,Sharurah Domestic Airport,Saudi Arabia,Sharurah,https://www.worlddata.info/asia/saudi-arabia/airports.php
1849,OESK,2025-11-23 02:01:02.768000+00:00,1763863200,2025-11-23T02:00:00.000Z,12.0,-3.0,20,5.0,6+,1026.0,16,METAR,METAR OESK 230200Z 02005KT CAVOK 12/M03 Q1026 NOSIG,29.785,40.1,671,"Al-Jouf Arpt, AJ, SA",CAVOK,[],VFR,,,,,,,,AJF,Al-Jawf Domestic Airport,Saudi Arabia,Al-Jawf,https://www.worlddata.info/asia/saudi-arabia/airports.php
1850,OETB,2025-11-23 02:01:02.802000+00:00,1763863200,2025-11-23T02:00:00.000Z,13.0,-4.0,90,7.0,6+,1022.0,16,METAR,METAR OETB 230200Z 09007KT CAVOK 13/M04 Q1022 NOSIG,28.366,36.619,770,"Tabuk Arpt, TB, SA",CAVOK,[],VFR,,,,,,,,TUU,Tabuk Airport,Saudi Arabia,Tabuk,https://www.worlddata.info/asia/saudi-arabia/airports.php
1851,OETF,2025-11-23 02:01:02.832000+00:00,1763863200,2025-11-23T02:00:00.000Z,11.0,-4.0,170,3.0,6+,1024.0,16,METAR,METAR OETF 230200Z 17003KT CAVOK 11/M04 Q1024 NOSIG,21.483,40.544,1460,"Taif Arpt, ML, SA",CAVOK,[],VFR,,,,,,,,TIF,Ta’if Regional Airport,Saudi Arabia,Ta’if,https://www.worlddata.info/asia/saudi-arabia/airports.php
1852,OETR,2025-11-23 02:01:02.880000+00:00,1763863200,2025-11-23T02:00:00.000Z,10.0,-4.0,10,6.0,6+,1025.0,16,METAR,METAR OETR 230200Z 01006KT CAVOK 10/M04 Q1025 NOSIG,31.693,38.731,854,"Turaif Arpt, HS, SA",CAVOK,[],VFR,,,,,,,,TUI,Turaif Domestic Airport,Saudi Arabia,Turaif,https://www.worlddata.info/asia/saudi-arabia/airports.php
1853,OEWD,2025-11-23 02:01:02.907000+00:00,1763863200,2025-11-23T02:00:00.000Z,13.0,-1.0,80,4.0,6+,1022.0,16,METAR,METAR OEWD 230200Z 08004KT CAVOK 13/M01 Q1022 NOSIG,20.504,45.197,629,"Wadi/Al Dawasir Arpt, RD, SA",CAVOK,[],VFR,,,,,,,,WAE,Wadi Al Dawasir Domestic Airport,Saudi Arabia,Wadi Al Dawasir,https://www.worlddata.info/asia/saudi-arabia/airports.php
1854,OEWJ,2025-11-23 02:01:02.931000+00:00,1763863200,2025-11-23T02:00:00.000Z,23.0,-1.0,40,4.0,6+,1015.0,16,METAR,METAR OEWJ 230200Z 04004KT CAVOK 23/M01 Q1015 NOSIG,26.199,36.476,8,"Al Wejh Arpt, TB, SA",CAVOK,[],VFR,,,,,,,,EJH,Al Wajh Domestic Airport,Saudi Arabia,Al Wajh,https://www.worlddata.info/asia/saudi-arabia/airports.php
1855,OEYN,2025-11-23 02:01:02.953000+00:00,1763863200,2025-11-23T02:00:00.000Z,21.0,9.0,60,4.0,6+,1013.0,16,METAR,METAR OEYN 230200Z 06004KT CAVOK 21/09 Q1013 NOSIG,24.144,38.063,20,"Yenbo/Moshin Bin Arpt, MD, SA",CAVOK,[],VFR,,,,,,,,YNB,Prince Abdul Mohsin bin Abdulaziz International Airport / Yanbu Airport,Saudi Arabia,Yanbu,https://www.worlddata.info/asia/saudi-arabia/airports.php
1856,OIFM,2025-11-23 01:33:18.324000+00:00,1763861400,2025-11-23T01:30:00.000Z,-3.0,-16.0,310,8.0,6+,1030.0,0,METAR,METAR OIFM 230130Z 31008KT CAVOK M03/M16 Q1030 A3043,32.752,51.866,1539,"Esfahan Intl, EF, IR",CAVOK,[],VFR,,,,,,,,IFN,Isfahan Shahid Beheshti International Airport,Iran,Isfahan,https://www.worlddata.info/asia/iran/airports.php
1857,OIII,2025-11-23 01:33:18.449000+00:00,1763861400,2025-11-23T01:30:00.000Z,9.0,-6.0,0,0.0,3.11,1027.0,0,METAR,METAR OIII 230130Z 00000KT 5000 HZ NSC 09/M06 Q1027 A3035,35.686,51.304,1182,"Tehran/Mehrabad Intl, TH, IR",CLR,[],MVFR,HZ,,,,,,,THR,Mehrabad International Airport,Iran,Tehran,https://www.worlddata.info/asia/iran/airports.php
1858,OIMM,2025-11-23 01:33:18.563000+00:00,1763861400,2025-11-23T01:30:00.000Z,3.0,-8.0,200,4.0,6+,1028.0,0,METAR,METAR OIMM 230130Z 20004KT CAVOK 03/M08 Q1028 A3036,36.236,59.639,995,"Mashhad Intl, KR, IR",CAVOK,[],VFR,,,,,,,,MHD,Mashhad International Airport,Iran,Mashhad,https://www.worlddata.info/asia/iran/airports.php
1859,OISS,2025-11-23 01:33:18.673000+00:00,1763861400,2025-11-23T01:30:00.000Z,5.0,-6.0,0,0.0,6+,1027.0,0,METAR,METAR OISS 230130Z 00000KT CAVOK 05/M06 Q1027 A3034,29.539,52.59,1484,"Shiraz Intl, FA, IR",CAVOK,[],VFR,,,,,,,,SYZ,Shiraz Shahid Dastghaib International Airport,Iran,Shiraz,https://www.worlddata.info/asia/iran/airports.php
1860,OITT,2025-11-23 02:01:11.864000+00:00,1763861400,2025-11-23T01:30:00.000Z,1.0,-3.0,50,6.0,0.62,1031.0,1,METAR,METAR OITT 230130Z COR 05006KT 1000 R30/P2000 HZ NSC 01/M03 Q1031 A3046,38.13,46.24,1353,"Tabriz Intl, EA, IR",CLR,[],LIFR,HZ,,,,,,,TBZ,Tabriz International Airport,Iran,Tabriz,https://www.worlddata.info/asia/iran/airports.php
1861,OJAI,2025-11-23 01:55:29.857000+00:00,1763863200,2025-11-23T02:00:00.000Z,13.0,2.0,100,3.0,3.11,1024.0,16,METAR,METAR OJAI 230200Z 10003KT 5000 HZ NSC 13/02 Q1024 NOSIG,31.723,35.993,723,"Amman/Alia Intl, AM, JO",CLR,[],MVFR,HZ,,,,,,,AMM,Queen Alia International Airport,Jordan,Amman,https://www.worlddata.info/asia/jordan/airports.php
1862,OJAM,2025-11-23 01:55:29.926000+00:00,1763863200,2025-11-23T02:00:00.000Z,16.0,0.0,290,4.0,4.35,1024.0,16,METAR,METAR OJAM 230200Z 29004KT 7000 NSC 16/M00 Q1024 NOSIG,31.973,35.992,765,"Amman Arpt, AM, JO",CLR,[],MVFR,,,,,,,,ADJ,Amman Civil (Marka International) Airport,Jordan,Amman,https://www.worlddata.info/asia/jordan/airports.php
1863,OJAQ,2025-11-23 01:51:11.171000+00:00,1763863200,2025-11-23T02:00:00.000Z,23.0,0.0,10,4.0,3.73,1018.0,16,METAR,METAR OJAQ 230200Z 01004KT 6000 NSC 23/00 Q1018 NOSIG,29.612,35.018,45,"Aqaba/Hussein Intl, MN, JO",CLR,[],MVFR,,,,,,,,AQJ,Aqaba King Hussein International Airport,Jordan,Aqaba,https://www.worlddata.info/asia/jordan/airports.php
1864,OMAA,2025-11-23 02:01:00.713000+00:00,1763863200,2025-11-23T02:00:00.000Z,22.0,18.0,100,2.0,6+,1017.0,16,METAR,METAR OMAA 230200Z 10002KT CAVOK 22/18 Q1017 NOSIG,24.433,54.651,13,"Abu Dhabi Intl, AZ, AE",CAVOK,[],VFR,,,,,,,,AUH,Zayed International Airport,United Arab Emirates,Abu Dhabi,https://www.worlddata.info/asia/arab-emirates/airports.php
1865,OMAD,2025-11-23 02:01:00.763000+00:00,1763863200,2025-11-23T02:00:00.000Z,23.0,18.0,260,2.0,6+,1018.0,16,METAR,METAR OMAD 230200Z 26002KT CAVOK 23/18 Q1018 NOSIG,24.428,54.458,9,"Abu Dhabi/Bateen Arpt, AZ, AE",CAVOK,[],VFR,,,,,,,,AZI,Al Bateen Executive Airport,United Arab Emirates,Abu Dhabi,https://www.worlddata.info/asia/arab-emirates/airports.php
1866,OMAL,2025-11-23 02:01:00.733000+00:00,1763863200,2025-11-23T02:00:00.000Z,18.0,18.0,40,3.0,4.35,1019.0,16,METAR,METAR OMAL 230200Z 04003KT 7000 NSC 18/18 Q1019 NOSIG,24.262,55.609,247,"Al Ain Intl, AZ, AE",CLR,[],MVFR,,,,,,,,AAN,Al Ain International Airport,United Arab Emirates,Al Ain,https://www.worlddata.info/asia/arab-emirates/airports.php
1867,OMDB,2025-11-23 02:01:00.820000+00:00,1763863200,2025-11-23T02:00:00.000Z,22.0,10.0,150,3.0,6+,1017.0,16,METAR,METAR OMDB 230200Z 15003KT CAVOK 22/10 Q1017 NOSIG,25.254,55.366,5,"Dubai Intl, DU, AE",CAVOK,[],VFR,,,,,,,,DXB,Dubai International Airport,United Arab Emirates,Dubai,https://www.worlddata.info/asia/arab-emirates/airports.php
1868,OMDW,2025-11-23 02:01:00.787000+00:00,1763863200,2025-11-23T02:00:00.000Z,18.0,16.0,140,5.0,3.73,1018.0,0,METAR,METAR OMDW 230200Z 14005KT 6000 NSC 18/16 Q1018 BECMG 4000 HZ,24.897,55.161,34,"Dubai/Al Maktoum Intl, DU, AE",CLR,[],MVFR,,,,,,,,DWC,Al Maktoum International Airport,United Arab Emirates,Jebel Ali,https://www.worlddata.info/asia/arab-emirates/airports.php
1869,OMFJ,2025-11-23 02:01:00.839000+00:00,1763863200,2025-11-23T02:00:00.000Z,21.0,3.0,290,7.0,6+,1018.0,0,METAR,METAR OMFJ 230200Z 29007KT CAVOK 21/03 Q1018 A3006,25.112,56.324,27,"Fujairah Intl, FU, AE",CAVOK,[],VFR,,,,,,,,FJR,Fujairah International Airport,United Arab Emirates,Fujairah,https://www.worlddata.info/asia/arab-emirates/airports.php
1870,OMRK,2025-11-23 02:01:00.880000+00:00,1763863200,2025-11-23T02:00:00.000Z,16.0,4.0,200,5.0,6+,1018.0,0,METAR,METAR OMRK 230200Z 20005KT CAVOK 16/04 Q1018 A3008,25.613,55.939,18,"Ras Al Khaimah Intl, RK, AE",CAVOK,[],VFR,,,,,,,,RKT,Ras Al Khaimah International Airport,United Arab Emirates,Ras Al Khaimah,https://www.worlddata.info/asia/arab-emirates/airports.php
1871,OMSJ,2025-11-23 02:01:00.859000+00:00,1763863200,2025-11-23T02:00:00.000Z,15.0,4.0,130,5.0,6+,1018.0,16,METAR,METAR OMSJ 230200Z 13005KT CAVOK 15/04 Q1018 NOSIG,25.329,55.517,33,"Sharjah Intl, SH, AE",CAVOK,[],VFR,,,,,,,,SHJ,Sharjah International Airport,United Arab Emirates,Sharjah,https://www.worlddata.info/asia/arab-emirates/airports.php
1872,OOMS,2025-11-23 02:01:00.597000+00:00,1763862600,2025-11-23T02:00:00.000Z,21.0,18.0,230,2.0,6+,1018.0,16,METAR,METAR OOMS 230150Z 23002KT CAVOK 21/18 Q1018 NOSIG,23.595,58.298,8,"Muscat/Seeb Intl, MA, OM",CAVOK,[],VFR,,,,,,,,MCT,Muscat International Airport,Oman,Muscat,https://www.worlddata.info/asia/oman/airports.php
1873,OOSA,2025-11-23 02:01:00.624000+00:00,1763862600,2025-11-23T02:00:00.000Z,21.0,13.0,80,5.0,6+,1017.0,16,METAR,METAR OOSA 230150Z 08005KT CAVOK 21/13 Q1017 NOSIG,17.044,54.102,20,"Salalah Arpt, MA, OM",CAVOK,[],VFR,,,,,,,,SLL,Salalah Airport,Oman,Salalah,https://www.worlddata.info/asia/oman/airports.php
1874,OOSH,2025-11-23 02:01:00.646000+00:00,1763862600,2025-11-23T02:00:00.000Z,19.0,13.0,240,5.0,6+,1017.0,2,METAR,METAR OOSH 230150Z AUTO 24005KT CAVOK ////// 19/13 Q1017,24.388,56.624,35,"Suhar Intl, BS, OM",CAVOK,[],VFR,,,,,,,,OHS,Sohar Airport,Oman,Sohar,https://www.worlddata.info/asia/oman/airports.php
1875,OPFA,2025-11-23 02:01:26.610000+00:00,1763863200,2025-11-23T02:00:00.000Z,10.0,7.0,0,0.0,0.62,1018.0,0,METAR,METAR OPFA 230200Z 00000KT 1000 BR NSC 10/07 Q1018 BECMG 0800,31.365,72.995,180,"Faisalabad Intl, , PK",CLR,[],LIFR,BR,,,,,,,LYP,Faisalabad International Airport,Pakistan,Faisalabad,https://www.worlddata.info/asia/pakistan/airports.php
1876,OPIS,2025-11-23 02:01:26.657000+00:00,1763863200,2025-11-23T02:00:00.000Z,7.0,6.0,90,6.0,1.12,1018.0,0,METAR,METAR OPIS 230200Z 09006KT 1800 BR NSC 07/06 Q1018 TEMPO 1000,33.551,72.827,542,"Islamabad/Gandhara Intl, IS, PK",CLR,[],IFR,BR,,,,,,,ISB,Islamabad International Airport,Pakistan,Attock,https://www.worlddata.info/asia/pakistan/airports.php
1877,OPKC,2025-11-23 02:01:26.680000+00:00,1763863200,2025-11-23T02:00:00.000Z,15.0,11.0,50,3.0,1.55,1017.0,0,METAR,METAR OPKC 230200Z 05003KT 2500 BR NSC 15/11 Q1017 TEMPO 1500 BR,24.902,67.139,20,"Karachi/Jinnah Intl, SD, PK",CLR,[],IFR,BR,,,,,,,KHI,Jinnah International Airport,Pakistan,Karachi,https://www.worlddata.info/asia/pakistan/airports.php
1878,OPLA,2025-11-23 02:01:26.704000+00:00,1763863200,2025-11-23T02:00:00.000Z,11.0,10.0,0,0.0,0.5,1018.0,0,METAR,METAR OPLA 230200Z 00000KT 0800 R36/0900 R18/1100 FG NSC 11/10 Q1018 BECMG 0600 FG RMK RMID/P2000 QFE992 A30.07,31.522,74.404,217,"Lahore/Iqbal Intl, PB, PK",CLR,[],LIFR,FG,,,,,,,LHE,Allama Iqbal International Airport,Pakistan,Lahore,https://www.worlddata.info/asia/pakistan/airports.php
1879,OPMT,2025-11-23 02:01:26.729000+00:00,1763863200,2025-11-23T02:00:00.000Z,11.0,9.0,0,0.0,0.37,1017.0,0,METAR,METAR OPMT 230200Z 00000KT 0600 BR NSC 11/09 Q1017 TEMPO 0500,30.203,71.419,122,"Multan Intl, PB, PK",CLR,[],LIFR,BR,,,,,,,MUX,Multan International Airport,Pakistan,Multan,https://www.worlddata.info/asia/pakistan/airports.php
1880,OPPS,2025-11-23 02:01:26.754000+00:00,1763863200,2025-11-23T02:00:00.000Z,10.0,2.0,230,4.0,1.86,1019.0,0,METAR,METAR OPPS 230200Z 23004KT 3000 HZ NSC 10/02 Q1019,33.996,71.515,356,"Peshawar/Khan Intl, KP, PK",CLR,[],IFR,HZ,,,,,,,PEW,Peshawar International Airport,Pakistan,Peshawar,https://www.worlddata.info/asia/pakistan/airports.php
1881,OPST,2025-11-23 02:01:26.778000+00:00,1763863200,2025-11-23T02:00:00.000Z,11.0,10.0,0,0.0,0.22,1018.0,0,METAR,METAR OPST 230200Z 00000KT 0350 FG NSC 11/10 Q1018 BECMG 0600 RH94,32.536,74.364,234,"Sailkot Arpt, PB, PK",CLR,[],LIFR,FG,,,,,,,SKT,Sialkot International Airport,Pakistan,Sialkot,https://www.worlddata.info/asia/pakistan/airports.php
1882,ORBI,2025-11-23 02:00:04.871000+00:00,1763863200,2025-11-23T02:00:00.000Z,8.0,0.0,320,6.0,6+,1021.0,16,METAR,METAR ORBI 230200Z 32006KT CAVOK 08/00 Q1021 NOSIG,33.263,44.235,37,"Baghdad Intl, BG, IQ",CAVOK,[],VFR,,,,,,,,BGW,Baghdad International Airport / New Al Muthana Air Base,Iraq,Baghdad,https://www.worlddata.info/asia/iraq/airports.php
1883,ORER,2025-11-23 01:51:02.195000+00:00,1763863200,2025-11-23T02:00:00.000Z,5.0,-4.0,VRB,2.0,6+,1022.0,0,METAR,METAR ORER 230200Z VRB02KT CAVOK 05/M04 Q1022,36.232,43.951,399,"Erbil Intl, AR, IQ",CAVOK,[],VFR,,,,,,,,EBL,Erbil International Airport,Iraq,Arbil,https://www.worlddata.info/asia/iraq/airports.php
1884,ORNI,2025-11-23 01:47:02.449000+00:00,1763863200,2025-11-23T02:00:00.000Z,10.0,2.0,290,5.0,3.73,1021.0,0,METAR,METAR ORNI 230200Z 29005KT 6000 NSC 10/02 Q1021,31.99,44.405,33,"Al Najaf Intl, NA, IQ",CLR,[],MVFR,,,,,,,,NJF,Al Najaf International Airport,Iraq,Najaf,https://www.worlddata.info/asia/iraq/airports.php
1885,ORSU,2025-11-23 01:53:03.991000+00:00,1763863200,2025-11-23T02:00:00.000Z,4.0,1.0,310,2.0,4.97,1025.0,0,METAR,METAR ORSU 230200Z 31002KT 8000 NSC 04/01 Q1025,35.56,45.318,760,"Sulaymaniyah Intl, SU, IQ",CLR,[],MVFR,,,,,,,,ISU,Sulaymaniyah International Airport,Iraq,Sulaymaniyah,https://www.worlddata.info/asia/iraq/airports.php
1886,OSDI,2025-11-23 01:48:58.944000+00:00,1763863200,2025-11-23T02:00:00.000Z,9.0,-1.0,340,5.0,6+,1024.0,0,METAR,METAR OSDI 230200Z 34005KT CAVOK 09/M01 Q1024,33.411,36.516,614,"Damascus Intl, DI, SY",CAVOK,[],VFR,,,,,,,,DAM,Damascus International Airport,Syria,Damascus,https://www.worlddata.info/asia/syria/airports.php
1887,OTBD,2025-11-23 01:33:39.055000+00:00,1763861400,2025-11-23T01:30:00.000Z,22.0,16.0,290,5.0,6+,1018.0,18,METAR,METAR OTBD 230130Z AUTO 29005KT 240V320 CAVOK 22/16 Q1018 NOSIG,25.261,51.565,13,"Doha Intl, DA, QA",CAVOK,[],VFR,,,,,,,,DIA,Doha International Airport,Qatar,Doha,https://www.worlddata.info/asia/qatar/airports.php
1888,OTBH,2025-11-23 01:57:23.892000+00:00,1763862900,2025-11-23T02:00:00.000Z,17.7,11.0,280,5.0,5.59,1018.0,76,METAR,METAR OTBH 230155Z 28005KT 9000 HZ CLR 18/11 A3006 Q1018 RMK AO2A SLP180 T01770110 FZRANO $,25.117,51.315,40,"Doha/Al Udeid AB, RA, QA",CLR,[],VFR,HZ,1018.0,,,,,,XJD,Al Udeid Air Base,Qatar,Ar Rayyan,https://www.worlddata.info/asia/qatar/airports.php
1889,OYAA,2025-11-23 02:00:32.723000+00:00,1763863200,2025-11-23T02:00:00.000Z,26.0,19.0,50,4.0,6+,1016.0,16,METAR,METAR OYAA 230200Z 05004KT 9999 SCT018 26/19 Q1016 NOSIG,12.829,45.029,3,"Aden Intl, AD, YE",SCT,"[{'cover': 'SCT', 'base': 1800}]",VFR,,,,,,,,ADE,Aden International Airport,Yemen,Aden,https://www.worlddata.info/asia/yemen/airports.php
1890,OYSY,2025-11-23 01:59:16.802000+00:00,1763863200,2025-11-23T02:00:00.000Z,15.0,5.0,0,0.0,6+,1021.0,0,METAR,METAR OYSY 230200Z 00000KT CAVOK 15/05 Q1021,15.966,48.788,701,"Sayun Arpt, HD, YE",CAVOK,[],VFR,,,,,,,,GXF,Seiyun Hadhramaut International Airport,Yemen,Seiyun,https://www.worlddata.info/asia/yemen/airports.php
1891,PAAQ,2025-11-23 02:02:53.432000+00:00,1763862780,2025-11-23T02:00:00.000Z,-5.6,-6.1,30,3.0,0.25,1006.2,12,METAR,METAR PAAQ 230153Z 03003KT 1/4SM FZFG VV002 M06/M06 A2971 RMK AO2 SLP065 I1001 T10561061 $,61.5951,-149.0917,68,"Palmer Muni, AK, US",OVX,"[{'cover': 'OVX', 'base': 200}]",LIFR,FZFG,1006.5,,2.0,,,,PAQ,Warren Bud Woods Palmer Municipal Airport,United States of America,Palmer,https://www.worlddata.info/america/usa/airports.php
1892,PABE,2025-11-23 02:02:53.458000+00:00,1763862780,2025-11-23T02:00:00.000Z,-5.6,-7.2,320,12.0,10+,1014.6,4,METAR,METAR PABE 230153Z 32012KT 10SM OVC025 M06/M07 A2996 RMK AO2 SLP149 T10561072,60.785,-161.8293,28,"Bethel Arpt, AK, US",OVC,"[{'cover': 'OVC', 'base': 2500}]",MVFR,,1014.9,,,,,,BET,Bethel Airport,United States of America,Bethel,https://www.worlddata.info/america/usa/airports.php
1893,PABI,2025-11-23 02:02:53.486000+00:00,1763862780,2025-11-23T02:00:00.000Z,-6.1,-7.2,0,0.0,5,1006.2,12,METAR,METAR PABI 230153Z 00000KT 5SM -SN BR BKN030 OVC060 M06/M07 A2971 RMK AO2 SLP093 P0001 T10611072 $,63.9931,-145.7214,388,"Ft Greely/Allen Fld, AK, US",OVC,"[{'cover': 'BKN', 'base': 3000}, {'cover': 'OVC', 'base': 6000}]",MVFR,-SN BR,1009.3,0.01,,,,,BIG,Allen Army Airfield,United States of America,Delta Junction Ft Greely,https://www.worlddata.info/america/usa/airports.php
1894,PABR,2025-11-23 02:02:46.852000+00:00,1763862780,2025-11-23T02:00:00.000Z,-11.1,-12.2,350,3.0,10+,1013.0,12,METAR,METAR PABR 230153Z 35003KT 10SM OVC007 M11/M12 A2991 RMK AO2 SLP130 I1000 T11111122 $,71.2837,-156.7843,6,"Utqiaġvik, AK, US",OVC,"[{'cover': 'OVC', 'base': 700}]",IFR,,1013.0,,,,,,BRW,Wiley Post Will Rogers Memorial Airport,United States of America,Utqiaġvik,https://www.worlddata.info/america/usa/airports.php
1895,PABT,2025-11-23 02:02:46.983000+00:00,1763862780,2025-11-23T02:00:00.000Z,-11.7,-13.3,310,3.0,10+,1006.9,12,METAR,METAR PABT 230153Z 31003KT 10SM -SN BKN011 OVC015 M12/M13 A2973 RMK AO2 SLP087 FGBANK DSNT N T11171133 $,66.9176,-151.5189,195,"Bettles Arpt, AK, US",OVC,"[{'cover': 'BKN', 'base': 1100}, {'cover': 'OVC', 'base': 1500}]",MVFR,-SN,1008.7,,,,,,BTT,Bettles Airport,United States of America,Bettles,https://www.worlddata.info/america/usa/airports.php
1896,PACD,2025-11-23 02:02:47.174000+00:00,1763862780,2025-11-23T02:00:00.000Z,0.6,-3.3,330,14.0,10+,1015.7,12,METAR,METAR PACD 230153Z 33014G20KT 10SM SCT038 OVC046 01/M03 A2999 RMK AO2 PK WND 36027/0125 SNE01 SLP155 P0000 T00061033 $,55.2207,-162.7323,23,"Cold Bay Arpt, AK, US",OVC,"[{'cover': 'SCT', 'base': 3800}, {'cover': 'OVC', 'base': 4600}]",VFR,,1015.5,0.005,,,20.0,,CDB,Cold Bay Airport,United States of America,Cold Bay,https://www.worlddata.info/america/usa/airports.php
1897,PACV,2025-11-23 02:02:47.293000+00:00,1763862780,2025-11-23T02:00:00.000Z,-1.7,-2.2,0,0.0,10+,1006.5,4,METAR,METAR PACV 230153Z 00000KT 10SM FEW044 FEW060 M02/M02 A2972 RMK AO2 SLP065 I1000 T10171022,60.486,-145.4445,15,"Cordova/Smith Arpt, AK, US",FEW,"[{'cover': 'FEW', 'base': 4400}, {'cover': 'FEW', 'base': 6000}]",VFR,,1006.5,,,,,,CDV,Merle K (Mudhole) Smith Airport,United States of America,Cordova,https://www.worlddata.info/america/usa/airports.php
1898,PACX,2025-11-23 01:44:06.558000+00:00,1763862120,2025-11-23T01:42:00.000Z,-9.0,-10.0,0,0.0,8,1005.5,70,SPECI,SPECI PACX 230142Z AUTO 00000KT 8SM -SN OVC014 M09/M10 A2969 RMK AO2 P0000 FZRANO,67.252,-150.204,319,"Coldfoot Arpt, AK, US",OVC,"[{'cover': 'OVC', 'base': 1400}]",MVFR,-SN,,0.005,,,,,CXF,Coldfoot Airport,United States of America,Coldfoot,https://www.worlddata.info/america/usa/airports.php
1899,PACZ,2025-11-23 01:58:03.560000+00:00,1763862900,2025-11-23T02:00:00.000Z,-5.8,-8.7,10,30.0,,1016.0,206,METAR,METAR PACZ 230155Z AUTO 01030G33KT 360V060 OVC016 M06/M09 A3000 RMK AO2 PK WND 36038/0133 SLP171 T10581087 PWINO FZRANO $,61.776,-166.043,129,"Cape Romanzof Arpt, AK, US",OVC,"[{'cover': 'OVC', 'base': 1600}]",,,1017.1,,,,33.0,,CZF,Cape Romanzof LRRS Airport,United States of America,Cape Romanzof,https://www.worlddata.info/america/usa/airports.php
1900,PADE,2025-11-23 02:02:47.388000+00:00,1763862780,2025-11-23T02:00:00.000Z,-5.0,-7.8,290,24.0,10+,1012.6,46,METAR,METAR PADE 230153Z AUTO 29024G34KT 10SM OVC018 M05/M08 A2990 RMK AO2 PK WND 29035/0103 UPB25E44SNE25 SLP126 P0000 T10501078 TSNO $,66.0696,-162.7613,5,"Deering Arpt, AK, US",OVC,"[{'cover': 'OVC', 'base': 1800}]",MVFR,,1012.6,0.005,,,34.0,,DRG,Deering Airport,United States of America,Deering,https://www.worlddata.info/america/usa/airports.php
1901,PADQ,2025-11-23 02:02:53.545000+00:00,1763862780,2025-11-23T02:00:00.000Z,1.7,-4.4,300,4.0,10+,1005.2,12,METAR,METAR PADQ 230153Z 30004KT 10SM OVC030 02/M04 A2968 RMK AO2 SLP052 T00171044 $,57.7507,-152.4881,5,"Kodiak Arpt, AK, US",OVC,"[{'cover': 'OVC', 'base': 3000}]",MVFR,,1005.2,,,,,,ADQ,Kodiak Airport,United States of America,Kodiak,https://www.worlddata.info/america/usa/airports.php
1902,PAED,2025-11-23 01:58:03.572000+00:00,1763862900,2025-11-23T02:00:00.000Z,-2.5,-3.5,30,5.0,0.06,1005.8,12,METAR,METAR PAED 230155Z 03005KT 1/16SM R06/2200V2800FT FZFG VV001 M02/M03 A2970 RMK AO2A SLP056 T10251035 $,61.25,-149.837,54,"Anchorage/Elmendorf AFB, AK, US",OVX,"[{'cover': 'OVX', 'base': 100}]",LIFR,FZFG,1005.6,,1.0,,,,EDF,Elmendorf Air Force Base,United States of America,Anchorage,https://www.worlddata.info/america/usa/airports.php
1903,PAEG,2025-11-23 02:02:47.660000+00:00,1763862780,2025-11-23T02:00:00.000Z,-4.4,-5.6,0,0.0,1.75,1003.1,46,METAR,METAR PAEG 230153Z AUTO 00000KT 1 3/4SM -SN BR OVC027 M04/M06 A2962 RMK AO2 SLP045 P0001 T10441056 TSNO $,64.7761,-141.1635,273,"Eagle Arpt, AK, US",OVC,"[{'cover': 'OVC', 'base': 2700}]",IFR,-SN BR,1004.5,0.01,,,,,EAA,Eagle Airport,United States of America,Eagle,https://www.worlddata.info/america/usa/airports.php
1904,PAEH,2025-11-23 02:00:12.306000+00:00,1763862900,2025-11-23T02:00:00.000Z,-4.3,-6.8,360,25.0,10+,1014.0,14,METAR,METAR PAEH 230155Z AUTO 36025G31KT 310V090 10SM -SHSN OVC014 M04/M07 A2994 RMK AO2 PK WND 36032/0129 SHSNB0112 SLP149 P0000 T10431068 $,58.652,-162.062,101,"Cape Newenham Arpt, AK, US",OVC,"[{'cover': 'OVC', 'base': 1400}]",MVFR,-SHSN,1014.9,0.005,,,31.0,,EHM,Cape Newenham LRRS Airport,United States of America,Cape Newenham,https://www.worlddata.info/america/usa/airports.php
1905,PAEI,2025-11-23 02:01:12.502000+00:00,1763862900,2025-11-23T02:00:00.000Z,-4.9,-6.3,0,0.0,4,1006.5,12,METAR,METAR PAEI 230155Z 00000KT 4SM -SN BR SCT007 BKN030 M05/M06 A2972 RMK AO2A SLP076 P0000 T10491063 $,64.654,-147.094,166,"Fairbanks/Eielson AFB, AK, US",BKN,"[{'cover': 'SCT', 'base': 700}, {'cover': 'BKN', 'base': 3000}]",MVFR,-SN BR,1007.6,0.005,,,,,EIL,Eielson Air Force Base,United States of America,Fairbanks,https://www.worlddata.info/america/usa/airports.php
1906,PAEN,2025-11-23 02:02:47.784000+00:00,1763862780,2025-11-23T02:00:00.000Z,-5.0,-6.1,10,4.0,0.25,1006.5,4,METAR,METAR PAEN 230153Z 01004KT 1/4SM FZFG VV002 M05/M06 A2972 RMK AO2 SLP066 I1001 T10501061,60.579,-151.242,30,"Kenai Muni, AK, US",OVX,"[{'cover': 'OVX', 'base': 200}]",LIFR,FZFG,1006.6,,2.0,,,,ENA,Kenai Municipal Airport,United States of America,Kenai,https://www.worlddata.info/america/usa/airports.php
1907,PAFA,2025-11-23 02:02:47.961000+00:00,1763862780,2025-11-23T02:00:00.000Z,-5.6,-6.7,200,4.0,5,1006.9,12,METAR,METAR PAFA 230153Z 20004KT 5SM -SN BR SCT055 BKN070 OVC075 M06/M07 A2973 RMK AO2 SLP079 P0000 T10561067 VISNO NE $,64.8031,-147.8761,130,"Fairbanks Intl, AK, US",OVC,"[{'cover': 'SCT', 'base': 5500}, {'cover': 'BKN', 'base': 7000}, {'cover': 'OVC', 'base': 7500}]",MVFR,-SN BR,1007.9,0.005,,,,,FAI,Fairbanks International Airport,United States of America,Fairbanks,https://www.worlddata.info/america/usa/airports.php
1908,PAFB,2025-11-23 01:58:09.326000+00:00,1763862900,2025-11-23T02:00:00.000Z,-5.0,-6.3,230,4.0,2.5,1006.5,14,METAR,METAR PAFB 230155Z AUTO 23004KT 2 1/2SM BR CLR M05/M06 A2972 RMK AO2 VIS 2 1/4V2 3/4 SNB0055E26 SLP076 P0000 T10501063 $,64.836,-147.614,137,"Fairbanks/Ladd AAF, AK, US",CLR,[],IFR,BR,1007.6,0.005,,,,,FBK,Ladd Army Airfield,United States of America,Fairbanks,https://www.worlddata.info/america/usa/airports.php
1909,PAFS,2025-11-23 01:50:36.977000+00:00,1763862420,2025-11-23T01:47:00.000Z,-6.0,-7.0,270,3.0,10+,1009.2,70,SPECI,SPECI PAFS 230147Z AUTO 27003KT 10SM OVC029 M06/M07 A2980 RMK AO2 FZRANO,63.015,-154.367,131,"Nikolai Arpt, AK, US",OVC,"[{'cover': 'OVC', 'base': 2900}]",MVFR,,,,,,,,NIB,Nikolai Airport,United States of America,Nikolai,https://www.worlddata.info/america/usa/airports.php
1910,PAGL,2025-11-23 01:28:05.339000+00:00,1763861100,2025-11-23T01:25:00.000Z,-7.0,-8.0,320,5.0,10+,1015.0,78,SPECI,SPECI PAGL 230125Z AUTO 32005KT 10SM OVC029 M07/M08 A2997 RMK AO2 FZRANO $,64.548,-163.013,20,"Golovin Arpt, AK, US",OVC,"[{'cover': 'OVC', 'base': 2900}]",MVFR,,,,,,,,GLV,Golovin Airport,United States of America,Golovin,https://www.worlddata.info/america/usa/airports.php
1911,PAGM,2025-11-23 01:40:32.156000+00:00,1763861820,2025-11-23T01:37:00.000Z,-9.0,-12.0,170,6.0,10+,1022.1,70,SPECI,SPECI PAGM 230137Z AUTO 17006KT 10SM SCT015 M09/M12 A3018 RMK AO2 FZRANO,63.777,-171.735,6,"Gambell Arpt, AK, US",SCT,"[{'cover': 'SCT', 'base': 1500}]",VFR,,,,,,,,GAM,Gambell Airport,United States of America,Gambell,https://www.worlddata.info/america/usa/airports.php
1912,PAGY,2025-11-23 02:02:48.100000+00:00,1763862780,2025-11-23T02:00:00.000Z,4.4,1.1,210,14.0,10+,1007.9,38,METAR,METAR PAGY 230153Z AUTO 21014G24KT 10SM OVC070 04/01 A2976 RMK AO2 PK WND 20030/0100 SLP079 T00440011 TSNO,59.457,-135.322,7,"Skagway Arpt, AK, US",OVC,"[{'cover': 'OVC', 'base': 7000}]",VFR,,1007.9,,,,24.0,,SGY,Skagway Airport,United States of America,Skagway,https://www.worlddata.info/america/usa/airports.php
1913,PAHN,2025-11-23 01:38:28.998000+00:00,1763861640,2025-11-23T01:34:00.000Z,3.3,1.1,VRB,6.0,10+,1008.9,46,SPECI,SPECI PAHN 230134Z AUTO VRB06KT 10SM FEW023 SCT028 BKN070 03/01 A2979 RMK AO2 T00330011 TSNO $,59.243,-135.511,15,"Haines Arpt, AK, US",BKN,"[{'cover': 'FEW', 'base': 2300}, {'cover': 'SCT', 'base': 2800}, {'cover': 'BKN', 'base': 7000}]",VFR,,,,,,,,HNS,Haines Airport,United States of America,Haines,https://www.worlddata.info/america/usa/airports.php
1914,PAHO,2025-11-23 02:02:48.185000+00:00,1763862780,2025-11-23T02:00:00.000Z,-2.8,-3.3,0,0.0,10+,1005.8,4,METAR,METAR PAHO 230153Z 00000KT 10SM CLR M03/M03 A2970 RMK AO2 SLP059 T10281033,59.642,-151.491,6,"Homer Arpt, AK, US",CLR,[],VFR,,1005.9,,,,,,HOM,Homer Airport,United States of America,Homer,https://www.worlddata.info/america/usa/airports.php
1915,PAIG,2025-11-23 01:34:05.906000+00:00,1763861460,2025-11-23T01:31:00.000Z,-3.0,-4.0,310,4.0,10+,1008.9,70,SPECI,SPECI PAIG 230131Z AUTO 31004KT 10SM OVC029 M03/M04 A2979 RMK AO2 SNE19 P0000 FZRANO,59.325,-155.897,24,"Igiugig Arpt, AK, US",OVC,"[{'cover': 'OVC', 'base': 2900}]",MVFR,,,0.005,,,,,IGG,Igiugig Airport,United States of America,Igiugig,https://www.worlddata.info/america/usa/airports.php
1916,PAII,2025-11-23 01:14:20.452000+00:00,1763860320,2025-11-23T01:12:00.000Z,-2.0,-3.0,350,6.0,9,1010.6,70,SPECI,SPECI PAII 230112Z AUTO 35006KT 9SM -SN FEW014 BKN021 OVC042 M02/M03 A2984 RMK AO2 PRESFR P0000 FZRANO,58.186,-157.375,31,"Egegik Arpt, AK, US",OVC,"[{'cover': 'FEW', 'base': 1400}, {'cover': 'BKN', 'base': 2100}, {'cover': 'OVC', 'base': 4200}]",MVFR,-SN,,0.005,,,,,EGX,Egegik Airport,United States of America,Egegik,https://www.worlddata.info/america/usa/airports.php
1917,PAIL,2025-11-23 02:02:48.241000+00:00,1763862780,2025-11-23T02:00:00.000Z,-2.8,-4.4,340,5.0,2.5,1008.2,4,METAR,METAR PAIL 230153Z 34005KT 2 1/2SM -SN BR OVC039 M03/M04 A2977 RMK AO2 SNE0055B37 SLP084 P0000 T10281044,59.7492,-154.9091,44,"Iliamna Arpt, AK, US",OVC,"[{'cover': 'OVC', 'base': 3900}]",IFR,-SN BR,1008.4,0.005,,,,,ILI,Iliamna Airport,United States of America,Iliamna,https://www.worlddata.info/america/usa/airports.php
1918,PAIM,2025-11-23 01:58:03.650000+00:00,1763862900,2025-11-23T02:00:00.000Z,-13.5,-14.0,0,0.0,10+,1005.2,6,METAR,METAR PAIM 230155Z AUTO 00000KT 10SM BKN010 BKN120 M13/M14 A2968 RMK AO2 SLP088 T11351140,65.994,-153.695,309,"Indian Mtn Arpt, AK, US",BKN,"[{'cover': 'BKN', 'base': 1000}, {'cover': 'BKN', 'base': 12000}]",MVFR,,1008.8,,,,,,UTO,Indian Mountain LRRS Airport,United States of America,Utopia Creek,https://www.worlddata.info/america/usa/airports.php
1919,PAIN,2025-11-23 01:23:00.168000+00:00,1763860800,2025-11-23T01:20:00.000Z,-6.0,-7.0,0,0.0,3,1004.5,110,SPECI,SPECI PAIN 230120Z AUTO 00000KT 3SM -SN BR M06/M07 A2966 RMK AO2 P0000 FZRANO TSNO $,63.733,-148.912,525,"McKinley Park Arpt, AK, US",,,,-SN BR,,0.005,,,,,MCL,Denali National Park Airport,United States of America,Denali Park,https://www.worlddata.info/america/usa/airports.php
1920,PAJN,2025-11-23 02:02:48.353000+00:00,1763862780,2025-11-23T02:00:00.000Z,3.3,1.1,80,7.0,10+,1010.9,12,METAR,METAR PAJN 230153Z 08007KT 10SM FEW015 BKN041 BKN055 03/01 A2985 RMK AO2 SLP109 T00330011 $,58.354,-134.5561,6,"Juneau Intl, AK, US",BKN,"[{'cover': 'FEW', 'base': 1500}, {'cover': 'BKN', 'base': 4100}, {'cover': 'BKN', 'base': 5500}]",VFR,,1010.9,,,,,,JNU,Juneau International Airport,United States of America,Juneau,https://www.worlddata.info/america/usa/airports.php
1921,PAJZ,2025-11-23 01:32:09.992000+00:00,1763861400,2025-11-23T01:30:00.000Z,-4.0,-6.0,350,6.0,6,1011.3,70,SPECI,SPECI PAJZ 230130Z AUTO 35006KT 6SM BR SCT025 M04/M06 A2986 RMK AO2 SNE30 P0000 FZRANO,59.727,-157.267,80,"Koliganek Arpt, AK, US",SCT,"[{'cover': 'SCT', 'base': 2500}]",VFR,BR,,0.005,,,,,KGK,Koliganek Airport,United States of America,Koliganek,https://www.worlddata.info/america/usa/airports.php
1922,PAKF,2025-11-23 01:48:06.672000+00:00,1763862360,2025-11-23T01:46:00.000Z,1.0,-4.0,330,12.0,10+,1016.7,78,SPECI,SPECI PAKF 230146Z AUTO 33012G17KT 10SM FEW019 SCT027 BKN041 01/M04 A3002 RMK AO2 RAB41E45SNE41 FZRANO PNO $,54.85,-163.409,2,"False Pass Arpt, AK, US",BKN,"[{'cover': 'FEW', 'base': 1900}, {'cover': 'SCT', 'base': 2700}, {'cover': 'BKN', 'base': 4100}]",VFR,,,,,,17.0,,KFP,False Pass Airport,United States of America,False Pass,https://www.worlddata.info/america/usa/airports.php
1923,PAKH,2025-11-23 01:14:09.385000+00:00,1763860320,2025-11-23T01:12:00.000Z,2.0,-4.0,310,9.0,10+,1006.2,70,SPECI,SPECI PAKH 230112Z AUTO 31009KT 10SM FEW001 OVC036 02/M04 A2971 RMK AO2 FZRANO,56.94,-154.181,15,"Akhiok Arpt, AK, US",OVC,"[{'cover': 'FEW', 'base': 100}, {'cover': 'OVC', 'base': 3600}]",VFR,,,,,,,,AKK,Akhiok Airport,United States of America,Akhiok,https://www.worlddata.info/america/usa/airports.php
1924,PAKI,2025-11-23 01:50:36.992000+00:00,1763862420,2025-11-23T01:47:00.000Z,-5.0,-7.0,340,14.0,9,1017.0,70,SPECI,SPECI PAKI 230147Z AUTO 34014G20KT 9SM -SN SCT023 OVC032 M05/M07 A3003 RMK AO2 SNB28 P0000 FZRANO,59.935,-164.033,4,"Kipnuk Arpt, AK, US",OVC,"[{'cover': 'SCT', 'base': 2300}, {'cover': 'OVC', 'base': 3200}]",VFR,-SN,,0.005,,,20.0,,KPN,Kipnuk Airport,United States of America,Kipnuk,https://www.worlddata.info/america/usa/airports.php
1925,PAKN,2025-11-23 02:02:54.309000+00:00,1763862840,2025-11-23T02:00:00.000Z,-3.3,-4.4,340,7.0,10+,1008.5,4,METAR,METAR PAKN 230154Z 34007KT 10SM SCT020 BKN050 OVC065 M03/M04 A2978 RMK AO2 SNE39 SLP086 P0000 T10331044,58.683,-156.656,20,"King Salmon Arpt, AK, US",OVC,"[{'cover': 'SCT', 'base': 2000}, {'cover': 'BKN', 'base': 5000}, {'cover': 'OVC', 'base': 6500}]",VFR,,1008.6,0.005,,,,,AKN,King Salmon Airport,United States of America,King Salmon,https://www.worlddata.info/america/usa/airports.php
1926,PAKP,2025-11-23 01:54:09.040000+00:00,1763862660,2025-11-23T01:51:00.000Z,-14.0,-17.0,30,8.0,9,1005.8,70,SPECI,SPECI PAKP 230151Z AUTO 03008KT 9SM -SN SCT026 OVC036 M14/M17 A2970 RMK AO2 P0000 FZRANO,68.136,-151.74,649,"Anaktuvuk Pass Arpt, AK, US",OVC,"[{'cover': 'SCT', 'base': 2600}, {'cover': 'OVC', 'base': 3600}]",VFR,-SN,,0.005,,,,,AKP,Anaktuvuk Pass Airport,United States of America,Anaktuvuk Pass,https://www.worlddata.info/america/usa/airports.php
1927,PAKU,2025-11-23 01:51:20.283000+00:00,1763862600,2025-11-23T02:00:00.000Z,-11.0,-12.0,280,12.0,7,1011.6,0,METAR,METAR PAKU 230150Z 28012KT 7SM R24/P6000FT -SN BKN032 OVC055 M11/M12 A2987,70.331,-149.613,23,"Kuparuk Arpt, AK, US",OVC,"[{'cover': 'BKN', 'base': 3200}, {'cover': 'OVC', 'base': 5500}]",VFR,-SN,,,,,,,UUK,Ugnu-Kuparuk Airport,United States of America,Kuparuk,https://www.worlddata.info/america/usa/airports.php
1928,PAKV,2025-11-23 02:02:48.483000+00:00,1763862780,2025-11-23T02:00:00.000Z,-10.0,-11.7,0,0.0,10+,1010.9,110,METAR,METAR PAKV 230153Z AUTO 00000KT 10SM FEW033 BKN085 M10/M12 A2985 RMK AO2 SLP113 T11001117 FZRANO TSNO $,64.321,-158.732,53,"Kaltag Arpt, AK, US",BKN,"[{'cover': 'FEW', 'base': 3300}, {'cover': 'BKN', 'base': 8500}]",VFR,,1011.3,,,,,,KAL,Kaltag Airport,United States of America,Kaltag,https://www.worlddata.info/america/usa/airports.php
1929,PALG,2025-11-23 01:28:06.705000+00:00,1763861160,2025-11-23T01:26:00.000Z,-7.0,-8.0,0,0.0,10+,1013.6,70,SPECI,SPECI PALG 230126Z AUTO 00000KT 10SM BKN021 M07/M08 A2993 RMK AO2 FZRANO,61.538,-160.34,13,"Kalskag Arpt, AK, US",BKN,"[{'cover': 'BKN', 'base': 2100}]",MVFR,,,,,,,,KLG,Kalskag Airport,United States of America,Kalskag,https://www.worlddata.info/america/usa/airports.php
1930,PALU,2025-11-23 02:00:12.435000+00:00,1763862900,2025-11-23T02:00:00.000Z,-4.7,-7.7,320,12.0,10+,1018.4,6,METAR,METAR PALU 230155Z AUTO 32012KT 260V340 10SM OVC019 M05/M08 A3007 RMK AO2 SLP181 T10471077,68.873,-166.101,8,"Cape Lisburne Arpt, AK, US",OVC,"[{'cover': 'OVC', 'base': 1900}]",MVFR,,1018.1,,,,,,LUR,Cape Lisburne LRRS Airport,United States of America,Cape Lisburne,https://www.worlddata.info/america/usa/airports.php
1931,PAMC,2025-11-23 02:02:48.685000+00:00,1763862780,2025-11-23T02:00:00.000Z,-5.0,-6.7,VRB,3.0,10+,1009.6,38,METAR,METAR PAMC 230153Z AUTO VRB03KT 10SM OVC032 M05/M07 A2981 RMK AO2 SLP103 T10501067 TSNO,62.957,-155.61,101,"McGrath Arpt, AK, US",OVC,"[{'cover': 'OVC', 'base': 3200}]",VFR,,1010.3,,,,,,MCG,McGrath Airport,United States of America,McGrath,https://www.worlddata.info/america/usa/airports.php
1932,PAMR,2025-11-23 02:02:48.766000+00:00,1763862780,2025-11-23T02:00:00.000Z,-2.8,-3.3,10,4.0,0.25,1006.5,12,METAR,METAR PAMR 230153Z 01004KT 1/4SM FZFG VV002 M03/M03 A2972 RMK AO2 SLP065 I1001 T10281033 $,61.215,-149.85,43,"Anchorage/Merrill Fld, AK, US",OVX,"[{'cover': 'OVX', 'base': 200}]",LIFR,FZFG,1006.5,,2.0,,,,MRI,Merrill Field,United States of America,Anchorage,https://www.worlddata.info/america/usa/airports.php
1933,PANC,2025-11-23 02:02:48.870000+00:00,1763862780,2025-11-23T02:00:00.000Z,-2.8,-2.8,VRB,4.0,0.25,1006.2,4,METAR,METAR PANC 230153Z VRB04KT 1/4SM FZFG VV002 M03/M03 A2971 RMK AO2 SLP064 I1002 T10281028 RVRNO,61.1691,-150.0277,39,"Anchorage Intl, AK, US",OVX,"[{'cover': 'OVX', 'base': 200}]",LIFR,FZFG,1006.4,,2.0,,,,ANC,Ted Stevens Anchorage International Airport,United States of America,Anchorage,https://www.worlddata.info/america/usa/airports.php
1934,PANN,2025-11-23 02:02:49.021000+00:00,1763862780,2025-11-23T02:00:00.000Z,-5.0,-6.1,0,0.0,1.75,1006.9,46,METAR,METAR PANN 230153Z AUTO 00000KT 1 3/4SM -SN BR OVC027 M05/M06 A2973 RMK AO2 SLP078 P0001 T10501061 TSNO $,64.547,-149.087,110,"Nenana Muni, AK, US",OVC,"[{'cover': 'OVC', 'base': 2700}]",IFR,-SN BR,1007.8,0.01,,,,,ENN,Nenana Municipal Airport,United States of America,Nenana,https://www.worlddata.info/america/usa/airports.php
1935,PAOH,2025-11-23 01:48:06.693000+00:00,1763862360,2025-11-23T01:46:00.000Z,-1.0,-1.0,0,0.0,9,1010.9,70,SPECI,SPECI PAOH 230146Z AUTO 00000KT 9SM BKN001 M01/M01 A2985 RMK AO2 FZRANO,58.108,-135.448,0,"Hoonah, AK, US",BKN,"[{'cover': 'BKN', 'base': 100}]",LIFR,,,,,,,,HNH,Hoonah Airport,United States of America,Hoonah,https://www.worlddata.info/america/usa/airports.php
1936,PAOM,2025-11-23 02:02:49.169000+00:00,1763862780,2025-11-23T02:00:00.000Z,-9.4,-13.3,280,10.0,10+,1017.0,4,METAR,METAR PAOM 230153Z 28010KT 10SM CLR M09/M13 A3003 RMK AO2 SLP170 T10941133,64.5111,-165.4401,6,"Nome Arpt, AK, US",CLR,[],VFR,,1017.0,,,,,,OME,Nome Airport,United States of America,Nome,https://www.worlddata.info/america/usa/airports.php
1937,PAOO,2025-11-23 01:48:06.716000+00:00,1763862360,2025-11-23T01:46:00.000Z,-5.0,-8.0,310,16.0,9,1017.7,110,SPECI,SPECI PAOO 230146Z AUTO 31016KT 9SM -SN FEW025 SCT033 M05/M08 A3005 RMK AO2 SNB0059 P0000 FZRANO TSNO $,60.537,-165.089,15,"Tooksok Bay Arpt, AK, US",SCT,"[{'cover': 'FEW', 'base': 2500}, {'cover': 'SCT', 'base': 3300}]",VFR,-SN,,0.005,,,,,OOK,Toksook Bay Airport,United States of America,Toksook Bay,https://www.worlddata.info/america/usa/airports.php
1938,PAOR,2025-11-23 02:02:49.308000+00:00,1763862780,2025-11-23T02:00:00.000Z,-12.8,-13.9,0,0.0,0.5,1004.5,12,METAR,METAR PAOR 230153Z 00000KT 1/2SM FZFG VV004 M13/M14 A2966 RMK AO2 SLP106 T11281139 $,62.962,-141.938,524,"Northway Arpt, AK, US",OVX,"[{'cover': 'OVX', 'base': 400}]",LIFR,FZFG,1010.6,,4.0,,,,ORT,Northway Airport,United States of America,Northway,https://www.worlddata.info/america/usa/airports.php
1939,PAOT,2025-11-23 02:02:49.441000+00:00,1763862780,2025-11-23T02:00:00.000Z,-7.8,-10.0,310,13.0,10+,1011.6,4,METAR,METAR PAOT 230153Z 31013KT 10SM CLR M08/M10 A2987 RMK AO2 SLP116 T10781100,66.886,-162.607,3,"Kotzebue/Wien Mem, AK, US",CLR,[],VFR,,1011.6,,,,,,OTZ,Ralph Wien Memorial Airport,United States of America,Kotzebue,https://www.worlddata.info/america/usa/airports.php
1940,PAPB,2025-11-23 02:02:53.588000+00:00,1763862780,2025-11-23T02:00:00.000Z,0.0,-5.6,10,9.0,10+,1020.4,46,METAR,METAR PAPB 230153Z AUTO 01009KT 10SM OVC032 00/M06 A3013 RMK AO2 SLP191 T00001056 TSNO PNO $,56.576,-169.663,33,"St George Arpt, AK, US",OVC,"[{'cover': 'OVC', 'base': 3200}]",VFR,,1019.1,,,,,,STG,St George Airport,United States of America,St George,https://www.worlddata.info/america/usa/airports.php
1941,PAPG,2025-11-23 01:38:29.028000+00:00,1763861760,2025-11-23T01:36:00.000Z,1.0,1.0,0,0.0,10+,1012.6,4,SPECI,SPECI PAPG 230136Z 00000KT 10SM BR FEW002 FEW031 01/01 A2990 RMK AO2,56.805,-132.935,24,"Petersburg Arpt, AK, US",FEW,"[{'cover': 'FEW', 'base': 200}, {'cover': 'FEW', 'base': 3100}]",VFR,BR,,,,,,,PSG,Petersburg James A Johnson Airport,United States of America,Petersburg,https://www.worlddata.info/america/usa/airports.php
1942,PAQT,2025-11-23 02:02:49.741000+00:00,1763862780,2025-11-23T02:00:00.000Z,-9.4,-12.8,260,8.0,10+,1013.3,46,METAR,METAR PAQT 230153Z AUTO 26008KT 10SM UP BKN019 OVC034 M09/M13 A2992 RMK AO2 UPB0054SNE0054 SLP132 P0000 T10941128 TSNO $,70.213,-150.994,11,"Nuiqsut Arpt, AK, US",OVC,"[{'cover': 'BKN', 'base': 1900}, {'cover': 'OVC', 'base': 3400}]",MVFR,UP,1013.2,0.005,,,,,NUI,Nuiqsut Airport,United States of America,Nuiqsut,https://www.worlddata.info/america/usa/airports.php
1943,PASC,2025-11-23 02:02:49.883000+00:00,1763862780,2025-11-23T02:00:00.000Z,-10.6,-11.7,270,16.0,3,1011.6,12,METAR,METAR PASC 230153Z 27016KT 3SM -SN BR OVC019 M11/M12 A2987 RMK AO2 SLP115 T11061117 $,70.191,-148.48,17,"Deadhorse Arpt, AK, US",OVC,"[{'cover': 'OVC', 'base': 1900}]",MVFR,-SN BR,1011.5,,,,,,SCC,Deadhorse Airport,United States of America,Deadhorse,https://www.worlddata.info/america/usa/airports.php
1944,PASD,2025-11-23 01:48:06.768000+00:00,1763862360,2025-11-23T01:46:00.000Z,2.0,-2.0,350,15.0,10+,,12,SPECI,SPECI PASD 230146Z 35015G21KT 10SM FEW032 FEW050 02/M02 RMK AO2 SNB03E27 PNO $,55.318,-160.525,6,"Sand Point Arpt, AK, US",FEW,"[{'cover': 'FEW', 'base': 3200}, {'cover': 'FEW', 'base': 5000}]",VFR,,,,,,21.0,,SDP,Sand Point Airport,United States of America,Sand Point,https://www.worlddata.info/america/usa/airports.php
1945,PASO,2025-11-23 01:18:13.162000+00:00,1763860440,2025-11-23T01:14:00.000Z,-2.2,-2.8,0,0.0,10+,1005.5,46,SPECI,SPECI PASO 230114Z AUTO 00000KT 10SM FEW002 M02/M03 A2969 RMK AO2 T10221028 TSNO $,59.443,-151.702,20,"Seldovia Arpt, AK, US",FEW,"[{'cover': 'FEW', 'base': 200}]",VFR,,,,,,,,SOV,Seldovia Airport,United States of America,Seldovia,https://www.worlddata.info/america/usa/airports.php
1946,PASV,2025-11-23 01:58:03.666000+00:00,1763862900,2025-11-23T02:00:00.000Z,-7.4,-8.8,350,8.0,2.5,1006.5,6,METAR,METAR PASV 230155Z AUTO 35008KT 330V040 2 1/2SM -SN BR OVC007 M07/M09 A2972 RMK AO2 SNB0056 SLP102 P0000 T10741088,61.101,-155.577,462,"Sparrevohn Arpt, AK, US",OVC,"[{'cover': 'OVC', 'base': 700}]",IFR,-SN BR,1010.2,0.005,,,,,SVW,Sparrevohn LRRS Airport,United States of America,Sparrevohn,https://www.worlddata.info/america/usa/airports.php
1947,PATE,2025-11-23 01:16:05.357000+00:00,1763860380,2025-11-23T01:13:00.000Z,-9.0,-10.0,330,12.0,8,1018.4,70,SPECI,SPECI PATE 230113Z AUTO 33012KT 8SM -SN FEW008 OVC012 M09/M10 A3007 RMK AO2 P0000 FZRANO,65.242,-166.328,93,"Teller Arpt, AK, US",OVC,"[{'cover': 'FEW', 'base': 800}, {'cover': 'OVC', 'base': 1200}]",MVFR,-SN,,0.005,,,,,TLA,Teller Airport,United States of America,Teller,https://www.worlddata.info/america/usa/airports.php
1948,PATL,2025-11-23 02:00:12.482000+00:00,1763862900,2025-11-23T02:00:00.000Z,-5.9,-6.8,VRB,2.0,10+,1009.2,6,METAR,METAR PATL 230155Z AUTO VRB02KT 10SM OVC022 M06/M07 A2980 RMK AO2 SHSNB0051E0129 SLP115 T10591068,62.893,-155.977,261,"Tatalina Arpt, AK, US",OVC,"[{'cover': 'OVC', 'base': 2200}]",MVFR,,1011.5,,,,,,TLJ,Tatalina LRRS Airport,United States of America,Takotna,https://www.worlddata.info/america/usa/airports.php
1949,PATQ,2025-11-23 01:24:08.792000+00:00,1763860860,2025-11-23T01:21:00.000Z,-12.0,-13.0,250,6.0,9,1013.0,102,SPECI,SPECI PATQ 230121Z AUTO 25006KT 9SM FEW005 OVC016 M12/M13 A2991 RMK AO2 SNE16 P0000 FZRANO TSNO,70.469,-157.428,28,"Atqasuk/Burnell Mem, AK, US",OVC,"[{'cover': 'FEW', 'base': 500}, {'cover': 'OVC', 'base': 1600}]",MVFR,,,0.005,,,,,ATK,Atqasuk Edward Burnell Sr Memorial Airport,United States of America,Atqasuk,https://www.worlddata.info/america/usa/airports.php
1950,PAVA,2025-11-23 01:40:41.249000+00:00,1763861880,2025-11-23T01:38:00.000Z,-4.0,-7.0,340,16.0,10+,1018.7,70,SPECI,SPECI PAVA 230138Z AUTO 34016KT 10SM BKN026 OVC039 M04/M07 A3008 RMK AO2 SNE21 P0000 FZRANO,61.537,-165.604,14,"Chevak Arpt, AK, US",OVC,"[{'cover': 'BKN', 'base': 2600}, {'cover': 'OVC', 'base': 3900}]",MVFR,,,0.005,,,,,VAK,Chevak Airport,United States of America,Chevak,https://www.worlddata.info/america/usa/airports.php
1951,PAVC,2025-11-23 01:36:14.210000+00:00,1763861640,2025-11-23T01:34:00.000Z,1.0,-5.0,250,10.0,,1015.3,206,SPECI,SPECI PAVC 230134Z AUTO 25010G16KT FEW015 OVC032 01/M05 A2998 RMK AO2 PWINO FZRANO $,55.115,-162.271,48,"King Cove Arpt, AK, US",OVC,"[{'cover': 'FEW', 'base': 1500}, {'cover': 'OVC', 'base': 3200}]",,,,,,,16.0,,KVC,King Cove Airport,United States of America,King Cove,https://www.worlddata.info/america/usa/airports.php
1952,PAVL,2025-11-23 01:43:05.035000+00:00,1763861940,2025-11-23T01:39:00.000Z,-7.2,-9.4,,,10+,1015.0,238,SPECI,SPECI PAVL 230139Z AUTO 10SM OVC018 M07/M09 A2997 RMK AO2 T10721094 PWINO FZRANO TSNO $,67.731,-164.548,6,"Kivalina Arpt, AK, US",OVC,"[{'cover': 'OVC', 'base': 1800}]",MVFR,,,,,,,,KVL,Kivalina Airport,United States of America,Kivalina,https://www.worlddata.info/america/usa/airports.php
1953,PAYA,2025-11-23 01:44:11.002000+00:00,1763862060,2025-11-23T01:41:00.000Z,1.1,0.6,130,4.0,10+,1007.9,46,SPECI,SPECI PAYA 230141Z AUTO 13004KT 10SM SCT020 BKN029 01/01 A2976 RMK AO2 RAB02E11 P0000 T00110006 TSNO $,59.512,-139.671,9,"Yakutat Arpt, AK, US",BKN,"[{'cover': 'SCT', 'base': 2000}, {'cover': 'BKN', 'base': 2900}]",MVFR,,,0.005,,,,,YAK,Yakutat Airport,United States of America,Yakutat,https://www.worlddata.info/america/usa/airports.php
1954,PFCB,2025-11-23 01:50:15.499000+00:00,1763861400,2025-11-23T01:30:00.000Z,3.3,2.7,20,5.0,10+,1006.2,6,METAR,METAR PFCB 230130Z AUTO 02005KT 10SM BKN017 OVC021 03/03 A2971 RMK AO2 P0002 T00330027,60.0785,-147.9947,22,"Chenega Bay Arpt, AK, US",OVC,"[{'cover': 'BKN', 'base': 1700}, {'cover': 'OVC', 'base': 2100}]",MVFR,,,0.02,,,,,NCN,Chenega Bay Airport,United States of America,Chenega,https://www.worlddata.info/america/usa/airports.php
1955,PFKT,2025-11-23 01:23:10.990000+00:00,1763860860,2025-11-23T01:21:00.000Z,-8.0,-10.0,290,10.0,6,1019.4,70,SPECI,SPECI PFKT 230121Z AUTO 29010KT 6SM -SN BR BKN018 OVC024 M08/M10 A3010 RMK AO2 P0000 FZRANO,65.33,-166.479,8,"Brevig Mission Arpt, AK, US",OVC,"[{'cover': 'BKN', 'base': 1800}, {'cover': 'OVC', 'base': 2400}]",MVFR,-SN BR,,0.005,,,,,KTS,Brevig Mission Airport,United States of America,Brevig Mission,https://www.worlddata.info/america/usa/airports.php
1956,PFTO,2025-11-23 01:09:08.415000+00:00,1763860020,2025-11-23T01:07:00.000Z,-10.0,-12.0,0,0.0,6,1004.1,70,SPECI,SPECI PFTO 230107Z AUTO 00000KT 6SM -SN BR FEW029 OVC041 M10/M12 A2965 RMK AO2 P0000 FZRANO,63.329,-142.954,500,"Tok Junction Arpt, AK, US",OVC,"[{'cover': 'FEW', 'base': 2900}, {'cover': 'OVC', 'base': 4100}]",VFR,-SN BR,,0.005,,,,,TKJ,Tok Junction Airport,United States of America,Tok,https://www.worlddata.info/america/usa/airports.php
1957,PGRO,2025-11-23 01:50:49.920000+00:00,1763862600,2025-11-23T02:00:00.000Z,30.0,23.0,80,15.0,7,1010.2,0,METAR,METAR PGRO 230150Z 08015G19KT 7SM SCT014 BKN100 30/23 A2983,14.172,145.24,181,"Rota Intl, , MP",BKN,"[{'cover': 'SCT', 'base': 1400}, {'cover': 'BKN', 'base': 10000}]",VFR,,,,,,19.0,,ROP,Rota International Airport,Northern Mariana Islands,Rota Island,https://www.worlddata.info/oceania/northern-marianas/airports.php
1958,PGUA,2025-11-23 01:58:10.035000+00:00,1763862900,2025-11-23T02:00:00.000Z,29.6,23.7,80,18.0,9,1010.2,14,METAR,METAR PGUA 230155Z AUTO 08018G23KT 9SM SCT020 30/24 A2983 RMK AO2 SLP092 T02960237 $,13.583,144.918,159,"Guam/Andersen AFB, , GU",SCT,"[{'cover': 'SCT', 'base': 2000}]",VFR,,1009.2,,,,23.0,,UAM,Andersen Air Force Base,Guam,Yigo,https://www.worlddata.info/oceania/guam/airports.php
1959,PGUM,2025-11-23 01:58:13.038000+00:00,1763862840,2025-11-23T02:00:00.000Z,30.6,23.3,90,18.0,10+,1009.9,4,METAR,METAR PGUM 230154Z 09018KT 10SM FEW027 31/23 A2982 RMK AO2 PK WND 08029/0103 SLP091 T03060233,13.4796,144.7958,74,"Guam/Pat Intl, , GU",FEW,"[{'cover': 'FEW', 'base': 2700}]",VFR,,1009.1,,,,,,GUM,Antonio B. Won Pat International Airport,Guam,Hagåtña,https://www.worlddata.info/oceania/guam/airports.php
1960,PGWT,2025-11-23 02:02:54.372000+00:00,1763862900,2025-11-23T02:00:00.000Z,30.0,25.0,70,15.0,7,1010.2,0,METAR,METAR PGWT 230155Z 07015KT 7SM SCT017 SCT120 30/25 A2983,14.997,145.624,84,"Tinian/San Jose Arpt, , MP",SCT,"[{'cover': 'SCT', 'base': 1700}, {'cover': 'SCT', 'base': 12000}]",VFR,,,,,,,,TIQ,Tinian International Airport,Northern Mariana Islands,Tinian Island,https://www.worlddata.info/oceania/northern-marianas/airports.php
1961,PHBK,2025-11-23 01:58:10.062000+00:00,1763862660,2025-11-23T02:00:00.000Z,27.2,20.6,330,7.0,10+,1014.0,6,METAR,METAR PHBK 230151Z AUTO 33007KT 10SM FEW050 27/21 A2994 RMK AO2 SLP139 T02720206,22.034,-159.783,5,"Kekaha/Barking Sands Arpt, HI, US",FEW,"[{'cover': 'FEW', 'base': 5000}]",VFR,,1013.9,,,,,,BKH,Barking Sands Airport,United States of America,Kekaha,https://www.worlddata.info/america/usa/airports.php
1962,PHHI,2025-11-23 01:58:09.705000+00:00,1763862900,2025-11-23T02:00:00.000Z,26.3,18.9,90,9.0,10+,1015.3,14,METAR,METAR PHHI 230155Z AUTO 09009KT 10SM BKN029 BKN037 BKN049 26/19 A2998 RMK AO2 SLP142 T02630189 $,21.478,-158.044,246,"Wheeler, HI, US",BKN,"[{'cover': 'BKN', 'base': 2900}, {'cover': 'BKN', 'base': 3700}, {'cover': 'BKN', 'base': 4900}]",MVFR,,1014.2,,,,,,HHI,Wheeler Army Airfield,United States of America,Wahiawa,https://www.worlddata.info/america/usa/airports.php
1963,PHJR,2025-11-23 02:02:35.699000+00:00,1763862780,2025-11-23T02:00:00.000Z,27.8,20.6,120,7.0,10+,1014.3,4,METAR,METAR PHJR 230153Z 12007KT 10SM SCT065 28/21 A2995 RMK AO2 RAB11E20 SLP149 P0000 T02780206,21.312,-158.07,9,"Kalaeloa Arpt, HI, US",SCT,"[{'cover': 'SCT', 'base': 6500}]",VFR,,1014.9,0.005,,,,,JRF,Kalaeloa Airport,United States of America,Kapolei,https://www.worlddata.info/america/usa/airports.php
1964,PHKO,2025-11-23 02:02:35.506000+00:00,1763862780,2025-11-23T02:00:00.000Z,28.3,20.6,200,13.0,10+,1013.3,12,METAR,METAR PHKO 230153Z 20013KT 10SM CLR 28/21 A2992 RMK AO2 SLP130 T02830206 $,19.7378,-156.048,11,"Keahole Point/Kona Intl, HI, US",CLR,[],VFR,,1013.0,,,,,,KOA,Ellison Onizuka Kona International Airport at Keahole,United States of America,Kailua-Kona,https://www.worlddata.info/america/usa/airports.php
1965,PHLI,2025-11-23 02:02:35.608000+00:00,1763862780,2025-11-23T02:00:00.000Z,26.7,21.1,70,10.0,10+,1015.0,4,METAR,METAR PHLI 230153Z 07010KT 10SM SCT019 27/21 A2997 RMK AO2 SLP144 T02670211,21.9805,-159.3386,32,"Lihue Arpt, HI, US",SCT,"[{'cover': 'SCT', 'base': 1900}]",VFR,,1014.4,,,,,,LIH,Lihue Airport,United States of America,Lihue,https://www.worlddata.info/america/usa/airports.php
1966,PHMK,2025-11-23 01:56:15.893000+00:00,1763862840,2025-11-23T02:00:00.000Z,25.6,20.0,60,13.0,10+,1014.6,4,METAR,METAR PHMK 230154Z 06013G24KT 10SM CLR 26/20 A2996 RMK AO2 SLP145 T02560200 ,21.1545,-157.0961,135,"Molokai Arpt, HI, US",CLR,[],VFR,,1014.5,,,,24.0,,MKK,Molokai Airport,United States of America,Kaunakakai,https://www.worlddata.info/america/usa/airports.php
1967,PHNG,2025-11-23 02:01:03.843000+00:00,1763863020,2025-11-23T02:00:00.000Z,26.1,20.6,70,9.0,10+,1013.6,14,METAR,METAR PHNG 230157Z AUTO 07009KT 10SM BKN028 BKN038 26/21 A2993 RMK AO2 SLP131 T02610206 $ ,21.45,-157.763,1,"Kaneohe Bay , HI, US",BKN,"[{'cover': 'BKN', 'base': 2800}, {'cover': 'BKN', 'base': 3800}]",MVFR,,1013.1,,,,,,NGF,Kaneohe Bay MCAS (Marion E. Carl Field) Airport,United States of America,Kaneohe,https://www.worlddata.info/america/usa/airports.php
1968,PHNL,2025-11-23 02:02:53.606000+00:00,1763862780,2025-11-23T02:00:00.000Z,28.3,19.4,100,11.0,10+,1014.3,12,METAR,METAR PHNL 230153Z 10011KT 10SM FEW025 FEW040 SCT055 BKN200 28/19 A2995 RMK AO2 SLP143 T02830194 $,21.315,-157.924,2,"Honolulu Intl, HI, US",BKN,"[{'cover': 'FEW', 'base': 2500}, {'cover': 'FEW', 'base': 4000}, {'cover': 'SCT', 'base': 5500}, {'cover': 'BKN', 'base': 20000}]",VFR,,1014.3,,,,,,HNL,Daniel K Inouye International Airport,United States of America,Honolulu,https://www.worlddata.info/america/usa/airports.php
1969,PHOG,2025-11-23 01:58:07.348000+00:00,1763862840,2025-11-23T02:00:00.000Z,27.8,19.4,50,15.0,10+,1013.3,12,METAR,METAR PHOG 230154Z 05015G25KT 10SM FEW030 SCT050 28/19 A2992 RMK AO2 PK WND 05028/0119 SLP136 T02780194 $,20.8887,-156.4345,14,"Kahului Arpt, HI, US",SCT,"[{'cover': 'FEW', 'base': 3000}, {'cover': 'SCT', 'base': 5000}]",VFR,,1013.6,,,,25.0,,OGG,Kahului International Airport,United States of America,Kahului,https://www.worlddata.info/america/usa/airports.php
1970,PHTO,2025-11-23 02:02:35.395000+00:00,1763862780,2025-11-23T02:00:00.000Z,26.1,20.6,110,6.0,10+,1014.6,4,METAR,METAR PHTO 230153Z 11006KT 10SM FEW024 26/21 A2996 RMK AO2 SLP143 T02610206,19.7191,-155.049,9,"Hilo Intl, HI, US",FEW,"[{'cover': 'FEW', 'base': 2400}]",VFR,,1014.3,,,,,,ITO,Hilo International Airport,United States of America,Hilo,https://www.worlddata.info/america/usa/airports.php
1971,PKWA,2025-11-23 02:00:24.209000+00:00,1763863200,2025-11-23T02:00:00.000Z,28.1,24.9,50,15.0,10+,1005.8,6,METAR,METAR PKWA 230200Z AUTO 05015KT 10SM SCT020 SCT032 SCT100 28/25 A2970 RMK AO2 T02810249,8.72,167.724,6,"Kwajalein/Bucholz AA, L, MH",SCT,"[{'cover': 'SCT', 'base': 2000}, {'cover': 'SCT', 'base': 3200}, {'cover': 'SCT', 'base': 10000}]",VFR,,,,,,,,KWA,Bucholz Army Air Field,Marshall Islands,Kwajalein,https://www.worlddata.info/oceania/marshall-islands/airports.php
1972,PLCH,2025-11-23 02:01:24.867000+00:00,1763863200,2025-11-23T02:00:00.000Z,28.0,22.0,110,10.0,6+,1005.0,0,METAR,METAR PLCH 230200Z 11010KT 9999 FEW020 BKN300 28/22 Q1005,1.988,-157.349,5,"Christmas Isl/Cassidy Intl, L, KI",BKN,"[{'cover': 'FEW', 'base': 2000}, {'cover': 'BKN', 'base': 30000}]",VFR,,,,,,,,CXI,Cassidy International Airport,Kiribati,Kiritimati,https://www.worlddata.info/oceania/kiribati/airports.php
1973,PTKK,2025-11-23 01:58:13.055000+00:00,1763862660,2025-11-23T02:00:00.000Z,30.7,25.2,40,9.0,15,1005.8,0,METAR,METAR PTKK 230151Z 04009G17KT 15SM FEW014 SCT120 BKN280 31/25 A2970 RMK SLP059 T03070252,7.462,151.843,3,"Meno Isl/Chuuk Intl, TR, FM",BKN,"[{'cover': 'FEW', 'base': 1400}, {'cover': 'SCT', 'base': 12000}, {'cover': 'BKN', 'base': 28000}]",VFR,,1005.9,,,,17.0,,TKK,Chuuk International Airport,Federated States of Micronesia,Weno Island,https://www.worlddata.info/oceania/micronesia/airports.php
1974,PTPN,2025-11-23 01:55:59.814000+00:00,1763862840,2025-11-23T02:00:00.000Z,32.0,25.0,80,11.0,15,1004.8,0,METAR,METAR PTPN 220154Z 08011KT 15SM SCT018 SCT130 BKN300 32/25 A2967 ,6.986,158.21,3,"Pohnpeo Intl, PN, FM",BKN,"[{'cover': 'SCT', 'base': 1800}, {'cover': 'SCT', 'base': 13000}, {'cover': 'BKN', 'base': 30000}]",VFR,,,,,,,,PNI,Pohnpei International Airport,Federated States of Micronesia,Pohnpei Island,https://www.worlddata.info/oceania/micronesia/airports.php
1975,PTRO,2025-11-23 01:47:13.470000+00:00,1763862600,2025-11-23T02:00:00.000Z,28.0,25.0,270,7.0,13,1006.2,0,METAR,METAR PTRO 230150Z 27007KT 13SM BKN015CB BKN110 OVC290 28/25 A2971 RMK CB ALQDS,7.367,134.544,30,"Palau/Tmetochl Intl, KO, PW",OVC,"[{'cover': 'BKN', 'base': 1500}, {'cover': 'BKN', 'base': 11000}, {'cover': 'OVC', 'base': 29000}]",MVFR,,,,,,,,ROR,Babelthuap Airport,Palau,Babelthuap Island,https://www.worlddata.info/oceania/palau/airports.php
1976,PWAK,2025-11-23 01:58:09.756000+00:00,1763862900,2025-11-23T02:00:00.000Z,31.1,23.4,60,16.0,4,1012.3,6,METAR,METAR PWAK 230155Z AUTO 06016KT 4SM HZ CLR 31/23 A2989 RMK AO2 SLP124 T03110234,19.287,166.623,7,"Wake Island Arpt, WQ, UM",CLR,[],MVFR,HZ,1012.4,,,,,,AWK,Wake Island Airfield,United States Minor Outlying Islands,Wake Island,https://www.worlddata.info/oceania/us-minor-outlying-islands/airports.php
1977,RCFN,2025-11-23 01:36:18.578000+00:00,1763861400,2025-11-23T01:30:00.000Z,25.0,19.0,30,6.0,6+,1020.0,16,METAR,METAR RCFN 230130Z 03006KT 360V080 9999 FEW025 SCT050 25/19 Q1020 NOSIG RMK A3013,22.755,121.102,42,"Feng Nin Arpt, TT, TW",SCT,"[{'cover': 'FEW', 'base': 2500}, {'cover': 'SCT', 'base': 5000}]",VFR,,,,,,,,TTT,Taitung Airport,Taiwan,Taitung City,https://www.worlddata.info/asia/taiwan/airports.php
1978,RCKH,2025-11-23 01:44:06.588000+00:00,1763861400,2025-11-23T01:30:00.000Z,26.0,18.0,360,3.0,6+,1019.0,16,METAR,METAR RCKH 230130Z 36003KT 300V110 9999 FEW016 26/18 Q1019 NOSIG RMK A3009,22.577,120.35,6,"Kaohsiung Intl, KH, TW",FEW,"[{'cover': 'FEW', 'base': 1600}]",VFR,,,,,,,,KHH,Kaohsiung International Airport,Taiwan,Kaohsiung (Xiaogang),https://www.worlddata.info/asia/taiwan/airports.php
1979,RCMQ,2025-11-23 01:36:18.531000+00:00,1763861400,2025-11-23T01:30:00.000Z,25.0,20.0,20,7.0,6+,1020.0,16,METAR,METAR RCMQ 230130Z 02007KT 9999 FEW012 SCT100 25/20 Q1020 NOSIG RMK A3014,24.265,120.621,202,"Cingcyuangang Arpt, TX, TW",SCT,"[{'cover': 'FEW', 'base': 1200}, {'cover': 'SCT', 'base': 10000}]",VFR,,,,,,,,RMQ,Taichung International Airport / Ching Chuang Kang Air Base,Taiwan,Taichung (Qingshui),https://www.worlddata.info/asia/taiwan/airports.php
1980,RCNN,2025-11-23 01:36:18.560000+00:00,1763861400,2025-11-23T01:30:00.000Z,26.0,18.0,20,1.0,3.73,1020.0,16,METAR,METAR RCNN 230130Z 02001KT 6000 FEW012 SCT060 26/18 Q1020 NOSIG RMK A3013,22.95,120.206,15,"Tainan, TN, TW",SCT,"[{'cover': 'FEW', 'base': 1200}, {'cover': 'SCT', 'base': 6000}]",MVFR,,,,,,,,TNN,Tainan International Airport / Tainan Air Base,Taiwan,Tainan (Rende),https://www.worlddata.info/asia/taiwan/airports.php
1981,RCQC,2025-11-23 01:36:18.604000+00:00,1763861400,2025-11-23T01:30:00.000Z,23.0,19.0,10,12.0,6+,1019.0,20,METAR,METAR RCQC 230130Z 01012G22KT 9999 FEW010 SCT020 BKN080 23/19 Q1019 NOSIG RMK A3010 AWOS R02 WIND N/A,23.569,119.628,26,"Makung, PE, TW",BKN,"[{'cover': 'FEW', 'base': 1000}, {'cover': 'SCT', 'base': 2000}, {'cover': 'BKN', 'base': 8000}]",VFR,,,,,,22.0,,MZG,Penghu Magong Airport,Taiwan,Huxi,https://www.worlddata.info/asia/taiwan/airports.php
1982,RCSS,2025-11-23 01:36:18.507000+00:00,1763861400,2025-11-23T01:30:00.000Z,26.0,20.0,100,13.0,6+,1020.0,16,METAR,METAR RCSS 230130Z 10013KT 9999 FEW020 SCT045 26/20 Q1020 NOSIG RMK A3013,25.069,121.552,8,"Taipei/Songshan Arpt, TP, TW",SCT,"[{'cover': 'FEW', 'base': 2000}, {'cover': 'SCT', 'base': 4500}]",VFR,,,,,,,,TSA,Taipei Songshan Airport,Taiwan,Taipei City,https://www.worlddata.info/asia/taiwan/airports.php
1983,RCTP,2025-11-23 01:44:06.627000+00:00,1763861400,2025-11-23T01:30:00.000Z,24.0,20.0,40,13.0,6+,1020.0,16,METAR,METAR RCTP 230130Z 04013KT 9999 FEW010 24/20 Q1020 NOSIG RMK A3013,25.078,121.233,33,"Taipei/Taoyuan Arpt, TA, TW",FEW,"[{'cover': 'FEW', 'base': 1000}]",VFR,,,,,,,,TPE,Taiwan Taoyuan International Airport,Taiwan,Taoyuan,https://www.worlddata.info/asia/taiwan/airports.php
1984,RJAA,2025-11-23 01:38:12.942000+00:00,1763861400,2025-11-23T01:30:00.000Z,14.0,9.0,340,9.0,6+,1023.0,16,METAR,METAR RJAA 230130Z 34009KT 9999 FEW020 BKN050 14/09 Q1023 NOSIG RMK 1CU020 7SC050 A3023,35.765,140.386,36,"Narita Intl, 12, JP",BKN,"[{'cover': 'FEW', 'base': 2000}, {'cover': 'BKN', 'base': 5000}]",VFR,,,,,,,,NRT,Narita International Airport,Japan,Narita,https://www.worlddata.info/asia/japan/airports.php
1985,RJBB,2025-11-23 01:38:32.020000+00:00,1763861400,2025-11-23T01:30:00.000Z,14.0,8.0,360,3.0,6+,1025.0,16,METAR,METAR RJBB 230130Z 36003KT 330V030 9999 FEW020 14/08 Q1025 NOSIG,34.434,135.233,8,"Osaka/Kansai Intl, 28, JP",FEW,"[{'cover': 'FEW', 'base': 2000}]",VFR,,,,,,,,KIX,Kansai International Airport,Japan,Osaka,https://www.worlddata.info/asia/japan/airports.php
1986,RJCC,2025-11-23 01:38:12.967000+00:00,1763861400,2025-11-23T01:30:00.000Z,6.0,5.0,120,7.0,6+,1020.0,0,METAR,METAR RJCC 230130Z 12007KT 9999 FEW010 BKN025 BKN035 06/05 Q1020 RMK 1ST010 5CU025 7CU035 A3013,42.774,141.693,19,"Sapporo/Chitose Arpt, 1, JP",BKN,"[{'cover': 'FEW', 'base': 1000}, {'cover': 'BKN', 'base': 2500}, {'cover': 'BKN', 'base': 3500}]",MVFR,,,,,,,,CTS,New Chitose Airport,Japan,Sapporo,https://www.worlddata.info/asia/japan/airports.php
1987,RJFF,2025-11-23 01:37:11.658000+00:00,1763861400,2025-11-23T01:30:00.000Z,16.0,7.0,150,13.0,6+,1024.0,16,METAR,METAR RJFF 230130Z 15013KT 9999 FEW030 16/07 Q1024 NOSIG RMK 1CU030 A3026,33.584,130.452,7,"Fukuoka Arpt, 40, JP",FEW,"[{'cover': 'FEW', 'base': 3000}]",VFR,,,,,,,,FUK,Fukuoka Airport,Japan,Fukuoka,https://www.worlddata.info/asia/japan/airports.php
1988,RJGG,2025-11-23 01:40:33.865000+00:00,1763861400,2025-11-23T01:30:00.000Z,14.0,7.0,330,8.0,6+,1024.0,16,METAR,METAR RJGG 230130Z 33008KT 9999 FEW030 SCT/// 14/07 Q1024 NOSIG,34.858,136.805,5,"Nagoya/Chubu Intl, 23, JP",FEW,"[{'cover': 'FEW', 'base': 3000}]",VFR,,,,,,,,NGO,Chubu Centrair International Airport,Japan,Tokoname,https://www.worlddata.info/asia/japan/airports.php
1989,RJOI,2025-11-23 02:00:12.520000+00:00,1763862960,2025-11-23T02:00:00.000Z,13.3,7.8,30,5.0,6+,1025.1,0,METAR,METAR RJOI 230156Z E03005KT 9999 FEW030 FEW150 13/08 A3027 RMK WND ESTMD SLP248 T01330078,34.144,132.236,2,"Iwakuni Arpt, 35, JP",FEW,"[{'cover': 'FEW', 'base': 3000}, {'cover': 'FEW', 'base': 15000}]",VFR,,1024.8,,,,,,IWK,Iwakuni Kintaikyo Airport / Marine Corps Air Station Iwakuni,Japan,Iwakuni,https://www.worlddata.info/asia/japan/airports.php
1990,RJTT,2025-11-23 01:41:17.989000+00:00,1763861400,2025-11-23T01:30:00.000Z,13.0,7.0,340,9.0,6+,1024.0,16,METAR,METAR RJTT 230130Z 34009KT 9999 BKN028 BKN040 13/07 Q1024 NOSIG RMK 5SC028 7SC040 A3026,35.553,139.781,5,"Tokyo/Haneda Intl, 13, JP",BKN,"[{'cover': 'BKN', 'base': 2800}, {'cover': 'BKN', 'base': 4000}]",MVFR,,,,,,,,HND,Tokyo Haneda International Airport,Japan,Tokyo,https://www.worlddata.info/asia/japan/airports.php
1991,RJTY,2025-11-23 02:00:02.333000+00:00,1763862900,2025-11-23T02:00:00.000Z,14.0,5.6,30,6.0,10+,1025.8,12,METAR,METAR RJTY 230155Z 03006KT 10SM SCT036 BKN045 14/06 A3029 RMK AO2A SLP262 T01400056 $,35.749,139.349,136,"Yokota, 13, JP",BKN,"[{'cover': 'SCT', 'base': 3600}, {'cover': 'BKN', 'base': 4500}]",VFR,,1026.2,,,,,,OKO,Yokota Air Base,Japan,Fussa,https://www.worlddata.info/asia/japan/airports.php
1992,RKJK,2025-11-23 01:58:44.872000+00:00,1763862900,2025-11-23T02:00:00.000Z,13.0,6.6,170,9.0,7,1023.8,12,METAR,METAR RKJK 230155Z 17009KT 7SM SCT039 BKN200 13/07 A3023 RMK AO2A SLP241 T01300066 $,35.9,126.618,8,"Kunsan , 45, KR",BKN,"[{'cover': 'SCT', 'base': 3900}, {'cover': 'BKN', 'base': 20000}]",VFR,,1024.1,,,,,,KUV,Gunsan Airport / Gunsan Air Base,South Korea,Gunsan,https://www.worlddata.info/asia/south-korea/airports.php
1993,RKSI,2025-11-23 01:34:28.820000+00:00,1763861400,2025-11-23T01:30:00.000Z,14.0,8.0,170,10.0,6+,1022.0,16,METAR,METAR RKSI 230130Z 17010KT 9999 BKN030 14/08 Q1022 NOSIG,37.469,126.451,7,"Seoul/Incheon Intl, 28, KR",BKN,"[{'cover': 'BKN', 'base': 3000}]",MVFR,,,,,,,,ICN,Incheon International Airport,South Korea,Seoul,https://www.worlddata.info/asia/south-korea/airports.php
1994,RKSO,2025-11-23 01:56:42.976000+00:00,1763862900,2025-11-23T02:00:00.000Z,13.8,5.9,210,6.0,10+,1023.1,78,METAR,METAR RKSO 230155Z AUTO 21006KT 10SM CLR 14/06 A3021 RMK AO2 SLP234 T01380059 FZRANO $,37.091,127.03,10,"Osan Arpt, 41, KR",CLR,[],VFR,,1023.4,,,,,,OSN,Osan Air Base,South Korea,Pyeongtaek,https://www.worlddata.info/asia/south-korea/airports.php
1995,ROAH,2025-11-23 01:37:11.714000+00:00,1763861400,2025-11-23T01:30:00.000Z,24.0,16.0,70,8.0,6+,1021.0,0,METAR,METAR ROAH 230130Z 07008KT 050V110 9999 FEW030 24/16 Q1021 RMK 1CU030 A3016,26.196,127.646,6,"Naha Arpt, 47, JP",FEW,"[{'cover': 'FEW', 'base': 3000}]",VFR,,,,,,,,OKA,Naha Airport / JASDF Naha Air Base,Japan,Naha,https://www.worlddata.info/asia/japan/airports.php
1996,RODN,2025-11-23 02:00:02.366000+00:00,1763862900,2025-11-23T02:00:00.000Z,24.0,15.0,60,10.0,10+,1021.1,76,METAR,METAR RODN 230155Z 06010G15KT 10SM CLR 24/15 A3015 RMK AO2A SLPNO FZRANO $,26.356,127.768,38,"Kadena, 47, JP",CLR,[],VFR,,,,,,15.0,,DNA,Kadena Air Base,Japan,,https://www.worlddata.info/asia/japan/airports.php
1997,SBAR,2025-11-23 01:57:11.958000+00:00,1763863200,2025-11-23T02:00:00.000Z,26.0,23.0,70,7.0,6+,1013.0,0,METAR,METAR SBAR 230200Z 07007KT 9999 SCT018 26/23 Q1013,-10.984,-37.07,4,"Aracaju/Santa Maria Intl, SP, BR",SCT,"[{'cover': 'SCT', 'base': 1800}]",VFR,,,,,,,,AJU,Aracaju - Santa Maria International Airport,Brazil,Aracaju,https://www.worlddata.info/america/brazil/airports.php
1998,SBBE,2025-11-23 01:50:49.496000+00:00,1763863200,2025-11-23T02:00:00.000Z,27.0,23.0,60,6.0,6+,1011.0,0,METAR,METAR SBBE 230200Z 06006KT 9999 SCT045 SCT066 27/23 Q1011,-1.379,-48.476,16,"Belém/Val de Cans Arpt, PA, BR",SCT,"[{'cover': 'SCT', 'base': 4500}, {'cover': 'SCT', 'base': 6600}]",VFR,,,,,,,,BEL,Val de Cans/Júlio Cezar Ribeiro International Airport,Brazil,Belém,https://www.worlddata.info/america/brazil/airports.php
1999,SBBG,2025-11-23 02:01:40.730000+00:00,1763863200,2025-11-23T02:00:00.000Z,14.0,10.0,100,7.0,6+,1020.0,2,METAR,METAR SBBG 230200Z AUTO 10007KT CAVOK 14/10 Q1020,-31.391,-54.112,182,"Bage/Kraemer Arpt, RS, BR",CAVOK,[],VFR,,,,,,,,BGX,Comandante Gustavo Kraemer Airport,Brazil,Bagé,https://www.worlddata.info/america/brazil/airports.php
2000,SBBR,2025-11-23 01:50:53.552000+00:00,1763863200,2025-11-23T02:00:00.000Z,23.0,17.0,60,4.0,6+,1017.0,0,METAR,METAR SBBR 230200Z 06004KT 9999 FEW040 SCT070 23/17 Q1017,-15.867,-47.933,1051,"Brasília Intl, DF, BR",SCT,"[{'cover': 'FEW', 'base': 4000}, {'cover': 'SCT', 'base': 7000}]",VFR,,,,,,,,BSB,Presidente Juscelino Kubitschek International Airport,Brazil,Brasília,https://www.worlddata.info/america/brazil/airports.php
2001,SBBV,2025-11-23 01:55:59.323000+00:00,1763863200,2025-11-23T02:00:00.000Z,29.0,22.0,150,3.0,6+,1009.0,0,METAR,METAR SBBV 230200Z 15003KT 9999 FEW040 FEW045TCU BKN080 29/22 Q1009,2.846,-60.69,80,"Boa Vista Arpt, RR, BR",BKN,"[{'cover': 'FEW', 'base': 4000}, {'cover': 'FEW', 'base': 4500}, {'cover': 'BKN', 'base': 8000}]",VFR,,,,,,,,BVB,Atlas Brasil Cantanhede Airport,Brazil,Boa Vista,https://www.worlddata.info/america/brazil/airports.php
2002,SBCF,2025-11-23 01:52:48.761000+00:00,1763863200,2025-11-23T02:00:00.000Z,22.0,16.0,240,2.0,6+,1017.0,0,METAR,METAR SBCF 230200Z 24002KT 9999 FEW045 22/16 Q1017,-19.635,-43.966,825,"Belo Horizonte/Neves Intl, MG, BR",FEW,"[{'cover': 'FEW', 'base': 4500}]",VFR,,,,,,,,CNF,Tancredo Neves International Airport,Brazil,Belo Horizonte,https://www.worlddata.info/america/brazil/airports.php
2003,SBCG,2025-11-23 01:56:21.641000+00:00,1763863200,2025-11-23T02:00:00.000Z,24.0,19.0,200,4.0,6+,1013.0,0,METAR,METAR SBCG 230200Z 20004KT 120V240 CAVOK 24/19 Q1013,-20.469,-54.672,556,"Campo Grande Intl, MS, BR",CAVOK,[],VFR,,,,,,,,CGR,Campo Grande Airport,Brazil,Campo Grande,https://www.worlddata.info/america/brazil/airports.php
2004,SBCY,2025-11-23 01:59:16.322000+00:00,1763863200,2025-11-23T02:00:00.000Z,25.0,23.0,330,3.0,6+,1012.0,0,METAR,METAR SBCY 230200Z 33003KT 9999 FEW020 BKN100 25/23 Q1012,-15.653,-56.116,182,"Cuiabá/Rondon Arpt, MT, BR",BKN,"[{'cover': 'FEW', 'base': 2000}, {'cover': 'BKN', 'base': 10000}]",VFR,,,,,,,,CGB,Marechal Rondon Airport,Brazil,Cuiabá,https://www.worlddata.info/america/brazil/airports.php
2005,SBEG,2025-11-23 01:51:39.102000+00:00,1763863200,2025-11-23T02:00:00.000Z,27.0,25.0,110,5.0,6+,1010.0,0,METAR,METAR SBEG 230200Z 11005KT CAVOK 27/25 Q1010,-3.039,-60.05,69,"Manaus/Gomes Intl, AM, BR",CAVOK,[],VFR,,,,,,,,MAO,Eduardo Gomes International Airport,Brazil,Manaus,https://www.worlddata.info/america/brazil/airports.php
2006,SBFI,2025-11-23 01:56:52.390000+00:00,1763863200,2025-11-23T02:00:00.000Z,23.0,19.0,220,6.0,6+,1012.0,0,METAR,METAR SBFI 230200Z 22006KT CAVOK 23/19 Q1012,-25.595,-54.488,233,"Foz do Iguacu Arpt, PR, BR",CAVOK,[],VFR,,,,,,,,IGU,Cataratas International Airport,Brazil,Foz do Iguaçu,https://www.worlddata.info/america/brazil/airports.php
2007,SBFL,2025-11-23 01:59:34.412000+00:00,1763863200,2025-11-23T02:00:00.000Z,18.0,17.0,200,10.0,6+,1017.0,0,METAR,METAR SBFL 230200Z 20010KT 9999 FEW012 SCT040 BKN100 18/17 Q1017,-27.671,-48.547,5,"Florianopolis Intl, SC, BR",BKN,"[{'cover': 'FEW', 'base': 1200}, {'cover': 'SCT', 'base': 4000}, {'cover': 'BKN', 'base': 10000}]",VFR,,,,,,,,FLN,Hercílio Luz International Airport,Brazil,Florianópolis,https://www.worlddata.info/america/brazil/airports.php
2008,SBFZ,2025-11-23 01:51:51.642000+00:00,1763863200,2025-11-23T02:00:00.000Z,27.0,22.0,90,10.0,6+,1012.0,0,METAR,METAR SBFZ 230200Z 09010KT 9999 BKN020 27/22 Q1012,-3.776,-38.533,32,"Fortaleza/Martins Intl, GO, BR",BKN,"[{'cover': 'BKN', 'base': 2000}]",MVFR,,,,,,,,FOR,Pinto Martins International Airport,Brazil,Fortaleza,https://www.worlddata.info/america/brazil/airports.php
2009,SBGL,2025-11-23 01:55:00.365000+00:00,1763863200,2025-11-23T02:00:00.000Z,24.0,20.0,240,9.0,6+,1013.0,0,METAR,METAR SBGL 230200Z 24009KT 9999 FEW030 BKN100 24/20 Q1013,-22.815,-43.261,3,"Rio de Janeiro/Galeão Intl, RJ, BR",BKN,"[{'cover': 'FEW', 'base': 3000}, {'cover': 'BKN', 'base': 10000}]",VFR,,,,,,,,GIG,Rio Galeão – Tom Jobim International Airport,Brazil,Rio De Janeiro,https://www.worlddata.info/america/brazil/airports.php
2010,SBGO,2025-11-23 01:56:58.317000+00:00,1763863200,2025-11-23T02:00:00.000Z,21.0,18.0,350,4.0,6+,1015.0,0,METAR,METAR SBGO 230200Z 35004KT 9999 FEW007 SCT100 21/18 Q1015,-16.632,-49.221,740,"Goiania/Genoveva Arpt, GO, BR",SCT,"[{'cover': 'FEW', 'base': 700}, {'cover': 'SCT', 'base': 10000}]",VFR,,,,,,,,GYN,Santa Genoveva Airport,Brazil,Goiânia,https://www.worlddata.info/america/brazil/airports.php
2011,SBGR,2025-11-23 02:00:18.084000+00:00,1763863200,2025-11-23T02:00:00.000Z,19.0,16.0,140,4.0,6+,1018.0,0,METAR,METAR SBGR 230200Z 14004KT 9999 BKN013 19/16 Q1018,-23.432,-46.469,745,"Sao Paulo Intl, PR, BR",BKN,"[{'cover': 'BKN', 'base': 1300}]",MVFR,,,,,,,,GRU,Guarulhos - Governador André Franco Montoro International Airport,Brazil,São Paulo,https://www.worlddata.info/america/brazil/airports.php
2012,SBJP,2025-11-23 01:58:00.304000+00:00,1763863200,2025-11-23T02:00:00.000Z,25.0,22.0,80,6.0,6+,1013.0,0,METAR,METAR SBJP 230200Z 08006KT 9999 FEW020 25/22 Q1013,-7.148,-34.951,66,"Joao Pessoa/Pinto Arpt, PB, BR",FEW,"[{'cover': 'FEW', 'base': 2000}]",VFR,,,,,,,,JPA,Presidente Castro Pinto International Airport,Brazil,João Pessoa,https://www.worlddata.info/america/brazil/airports.php
2013,SBKP,2025-11-23 01:57:41.465000+00:00,1763863200,2025-11-23T02:00:00.000Z,21.0,17.0,120,6.0,6+,1016.0,0,METAR,METAR SBKP 230200Z 12006KT CAVOK 21/17 Q1016,-23.007,-47.135,659,"Campinas/Viracopos Arpt, SP, BR",CAVOK,[],VFR,,,,,,,,VCP,Viracopos International Airport,Brazil,Campinas,https://www.worlddata.info/america/brazil/airports.php
2014,SBLO,2025-11-23 01:57:39.662000+00:00,1763863200,2025-11-23T02:00:00.000Z,26.0,12.0,250,2.0,6+,1013.0,0,METAR,METAR SBLO 230200Z 25002KT CAVOK 26/12 Q1013,-23.334,-51.13,563,"Londrina Arpt, PR, BR",CAVOK,[],VFR,,,,,,,,LDB,Governador José Richa Airport,Brazil,Londrina,https://www.worlddata.info/america/brazil/airports.php
2015,SBMA,2025-11-23 01:55:26.777000+00:00,1763863200,2025-11-23T02:00:00.000Z,26.0,23.0,310,6.0,6+,1011.0,0,METAR,METAR SBMA 230200Z 31006KT 9999 TS FEW020 FEW025CB SCT080 26/23 Q1011,-5.368,-49.137,110,"Marabá Arpt, PA, BR",SCT,"[{'cover': 'FEW', 'base': 2000}, {'cover': 'FEW', 'base': 2500}, {'cover': 'SCT', 'base': 8000}]",VFR,TS,,,,,,,MAB,João Correa da Rocha Airport,Brazil,Marabá,https://www.worlddata.info/america/brazil/airports.php
2016,SBMN,2025-11-23 01:51:59.934000+00:00,1763863200,2025-11-23T02:00:00.000Z,25.0,24.0,80,1.0,6+,1010.0,0,METAR,METAR SBMN 230200Z 08001KT CAVOK 25/24 Q1010,-3.146,-59.986,71,"Manaus/Ponta Peleda, AM, BR",CAVOK,[],VFR,,,,,,,,PLL,Ponta Pelada Airport / Manaus Air Base,Brazil,Manaus,https://www.worlddata.info/america/brazil/airports.php
2017,SBMO,2025-11-23 01:51:11.194000+00:00,1763863200,2025-11-23T02:00:00.000Z,23.0,22.0,30,3.0,6+,1014.0,0,METAR,METAR SBMO 230200Z 03003KT 9999 FEW020 23/22 Q1014,-9.511,-35.792,116,"Maceió/Palmares Arpt, AL, BR",FEW,"[{'cover': 'FEW', 'base': 2000}]",VFR,,,,,,,,MCZ,Zumbi dos Palmares Airport,Brazil,Maceió,https://www.worlddata.info/america/brazil/airports.php
2018,SBMQ,2025-11-23 01:56:44.432000+00:00,1763863200,2025-11-23T02:00:00.000Z,29.0,25.0,40,8.0,6+,1010.0,0,METAR,METAR SBMQ 230200Z 04008KT 9999 SCT021 29/25 Q1010,0.051,-51.072,15,"Macapá Intl, AP, BR",SCT,"[{'cover': 'SCT', 'base': 2100}]",VFR,,,,,,,,MCP,Macapá - Alberto Alcolumbre International Airport,Brazil,Macapá,https://www.worlddata.info/america/brazil/airports.php
2019,SBNF,2025-11-23 01:58:54.021000+00:00,1763863200,2025-11-23T02:00:00.000Z,20.0,17.0,220,6.0,6+,1017.0,0,METAR,METAR SBNF 230200Z 22006KT 9999 SCT023 BKN030 20/17 Q1017,-26.88,-48.651,5,"Navegantes Intl, SC, BR",BKN,"[{'cover': 'SCT', 'base': 2300}, {'cover': 'BKN', 'base': 3000}]",MVFR,,,,,,,,NVT,Ministro Victor Konder International Airport,Brazil,Navegantes,https://www.worlddata.info/america/brazil/airports.php
2020,SBOI,2025-11-23 01:57:23.918000+00:00,1763863200,2025-11-23T02:00:00.000Z,25.0,24.0,0,0.0,6+,1011.0,2,METAR,METAR SBOI 230200Z AUTO 00000KT CAVOK 25/24 Q1011,3.861,-51.796,15,"Oiapoque Arpt, AP, BR",CAVOK,[],VFR,,,,,,,,OYK,Oiapoque Airport,Brazil,Oiapoque,https://www.worlddata.info/america/brazil/airports.php
2021,SBPA,2025-11-23 01:54:33.278000+00:00,1763863200,2025-11-23T02:00:00.000Z,19.0,13.0,120,10.0,6+,1019.0,0,METAR,METAR SBPA 230200Z 12010KT 9999 BKN045 19/13 Q1019,-29.994,-51.171,3,"Porto Alegre/Filho Intl, RS, BR",BKN,"[{'cover': 'BKN', 'base': 4500}]",VFR,,,,,,,,POA,Salgado Filho International Airport,Brazil,Porto Alegre,https://www.worlddata.info/america/brazil/airports.php
2022,SBPJ,2025-11-23 01:55:59.277000+00:00,1763863200,2025-11-23T02:00:00.000Z,25.0,23.0,120,3.0,6+,1013.0,0,METAR,METAR SBPJ 230200Z 12003KT 9999 FEW025 SCT100 25/23 Q1013,-10.291,-48.357,226,"Palmas/Rodrigues Arpt, TP, BR",SCT,"[{'cover': 'FEW', 'base': 2500}, {'cover': 'SCT', 'base': 10000}]",VFR,,,,,,,,PMW,Brigadeiro Lysias Rodrigues Airport,Brazil,Palmas,https://www.worlddata.info/america/brazil/airports.php
2023,SBPL,2025-11-23 01:56:15.980000+00:00,1763863200,2025-11-23T02:00:00.000Z,,,130,9.0,6+,1013.0,0,METAR,METAR SBPL 230200Z 13009KT CAVOK 28/// Q1013,-9.367,-40.565,386,"Petrolina Arpt, PE, BR",CAVOK,[],VFR,,,,,,,,PNZ,Senador Nilo Coelho Airport,Brazil,Petrolina,https://www.worlddata.info/america/brazil/airports.php
2024,SBPS,2025-11-23 01:53:03.705000+00:00,1763863200,2025-11-23T02:00:00.000Z,25.0,24.0,30,4.0,6+,1014.0,0,METAR,METAR SBPS 230200Z 03004KT 9999 SCT010 25/24 Q1014,-16.439,-39.081,44,"Porto Seguro Arpt, BA, BR",SCT,"[{'cover': 'SCT', 'base': 1000}]",VFR,,,,,,,,BPS,Porto Seguro Airport,Brazil,Porto Seguro,https://www.worlddata.info/america/brazil/airports.php
2025,SBPV,2025-11-23 01:55:00.544000+00:00,1763863200,2025-11-23T02:00:00.000Z,27.0,23.0,40,6.0,6+,1010.0,0,METAR,METAR SBPV 230200Z 04006KT 9999 SCT030 27/23 Q1010,-8.708,-63.901,89,"Porto Velho Intl, RO, BR",SCT,"[{'cover': 'SCT', 'base': 3000}]",VFR,,,,,,,,PVH,Governador Jorge Teixeira de Oliveira Airport,Brazil,Porto Velho,https://www.worlddata.info/america/brazil/airports.php
2026,SBRB,2025-11-23 01:55:00.599000+00:00,1763863200,2025-11-23T02:00:00.000Z,24.0,24.0,0,0.0,3.73,1011.0,0,METAR,METAR SBRB 230200Z 00000KT 6000 SCT010 FEW035TCU SCT100 24/24 Q1011,-9.867,-67.897,190,"Rio Branco Intl, AC, BR",SCT,"[{'cover': 'SCT', 'base': 1000}, {'cover': 'FEW', 'base': 3500}, {'cover': 'SCT', 'base': 10000}]",MVFR,,,,,,,,RBR,Rio Branco-Plácido de Castro International Airport,Brazil,Rio Branco,https://www.worlddata.info/america/brazil/airports.php
2027,SBRF,2025-11-23 01:55:28.265000+00:00,1763863200,2025-11-23T02:00:00.000Z,27.0,22.0,100,7.0,6+,1013.0,0,METAR,METAR SBRF 230200Z 10007KT 070V130 9999 SCT021 27/22 Q1013,-8.126,-34.923,10,"Recife Arpt, PE, BR",SCT,"[{'cover': 'SCT', 'base': 2100}]",VFR,,,,,,,,REC,Recife/Guararapes - Gilberto Freyre International Airport,Brazil,Recife,https://www.worlddata.info/america/brazil/airports.php
2028,SBRJ,2025-11-23 01:56:31.303000+00:00,1763863200,2025-11-23T02:00:00.000Z,24.0,22.0,70,3.0,6+,1013.0,0,METAR,METAR SBRJ 230200Z 07003KT 9999 FEW020 BKN100 24/22 Q1013,-22.91,-43.163,6,"Rio de Janeiro/Dumont Arpt, RJ, BR",BKN,"[{'cover': 'FEW', 'base': 2000}, {'cover': 'BKN', 'base': 10000}]",VFR,,,,,,,,SDU,Santos Dumont Airport,Brazil,Rio de Janeiro,https://www.worlddata.info/america/brazil/airports.php
2029,SBRP,2025-11-23 01:59:34.338000+00:00,1763863200,2025-11-23T02:00:00.000Z,22.0,18.0,130,9.0,6+,1014.0,0,METAR,METAR SBRP 230200Z 13009KT 9999 FEW040 BKN100 22/18 Q1014,-21.134,-47.774,550,"Ribeirão Preto/Lopes Arpt, SP, BR",BKN,"[{'cover': 'FEW', 'base': 4000}, {'cover': 'BKN', 'base': 10000}]",VFR,,,,,,,,RAO,Leite Lopes Airport,Brazil,Ribeirão Preto,https://www.worlddata.info/america/brazil/airports.php
2030,SBSG,2025-11-23 01:52:40.723000+00:00,1763863200,2025-11-23T02:00:00.000Z,25.0,22.0,100,8.0,6+,1013.0,0,METAR,METAR SBSG 230200Z 10008KT 9999 SCT020 25/22 Q1013,-5.768,-35.376,83,"Natal/Alves Intl, RN, BR",SCT,"[{'cover': 'SCT', 'base': 2000}]",VFR,,,,,,,,NAT,São Gonçalo do Amarante - Governador Aluízio Alves International Airport,Brazil,Natal,https://www.worlddata.info/america/brazil/airports.php
2031,SBSJ,2025-11-23 01:55:59.361000+00:00,1763863200,2025-11-23T02:00:00.000Z,19.0,17.0,220,3.0,4.35,1017.0,0,METAR,METAR SBSJ 230200Z 22003KT 7000 BKN020 19/17 Q1017,-23.229,-45.861,640,"Sao Jose dos Campos Arpt, SP, BR",BKN,"[{'cover': 'BKN', 'base': 2000}]",MVFR,,,,,,,,SJK,Professor Urbano Ernesto Stumpf Airport,Brazil,São José Dos Campos,https://www.worlddata.info/america/brazil/airports.php
2032,SBSL,2025-11-23 01:50:59.940000+00:00,1763863200,2025-11-23T02:00:00.000Z,27.0,23.0,90,8.0,6+,1010.0,0,METAR,METAR SBSL 230200Z 09008KT 060V120 9999 SCT023 27/23 Q1010,-2.585,-44.234,53,"São Luís/Machado Intl, MA, BR",SCT,"[{'cover': 'SCT', 'base': 2300}]",VFR,,,,,,,,SLZ,Marechal Cunha Machado International Airport,Brazil,São Luís,https://www.worlddata.info/america/brazil/airports.php
2033,SBSP,2025-11-23 01:56:40.631000+00:00,1763863200,2025-11-23T02:00:00.000Z,18.0,16.0,170,10.0,6+,1019.0,0,METAR,METAR SBSP 230200Z 17010KT 9999 OVC013 18/16 Q1019,-23.627,-46.655,802,"Sao Paulo/Congonhas, SP, BR",OVC,"[{'cover': 'OVC', 'base': 1300}]",MVFR,,,,,,,,CGH,Congonhas Airport,Brazil,São Paulo,https://www.worlddata.info/america/brazil/airports.php
2034,SBSV,2025-11-23 01:53:53.871000+00:00,1763863200,2025-11-23T02:00:00.000Z,25.0,23.0,50,8.0,6+,1013.0,0,METAR,METAR SBSV 230200Z 05008KT 9999 FEW019 SCT070 25/23 Q1013,-12.911,-38.331,9,"Salvador/Magalhães Intl, BA, BR",SCT,"[{'cover': 'FEW', 'base': 1900}, {'cover': 'SCT', 'base': 7000}]",VFR,,,,,,,,SSA,Deputado Luiz Eduardo Magalhães International Airport,Brazil,Salvador,https://www.worlddata.info/america/brazil/airports.php
2035,SBTE,2025-11-23 01:55:53.800000+00:00,1763863200,2025-11-23T02:00:00.000Z,29.0,22.0,350,3.0,6+,1009.0,0,METAR,METAR SBTE 230200Z 35003KT CAVOK 29/22 Q1009,-5.06,-42.824,60,"Teresina Arpt, PI, BR",CAVOK,[],VFR,,,,,,,,THE,Senador Petrônio Portela Airport,Brazil,Teresina,https://www.worlddata.info/america/brazil/airports.php
2036,SBVT,2025-11-23 01:57:14.103000+00:00,1763863200,2025-11-23T02:00:00.000Z,23.0,21.0,10,6.0,6+,1013.0,0,METAR,METAR SBVT 230200Z 01006KT 340V040 CAVOK 23/21 Q1013,-20.258,-40.286,4,"Vitória/Salles Arpt, ES, BR",CAVOK,[],VFR,,,,,,,,VIX,Eurico de Aguiar Salles Airport,Brazil,Vitória,https://www.worlddata.info/america/brazil/airports.php
2037,SBYS,2025-11-23 01:10:38.656000+00:00,1763860080,2025-11-23T01:08:00.000Z,21.0,17.0,VRB,3.0,6+,1016.0,0,SPECI,SPECI SBYS 230108Z VRB03KT 9999 TS VCSH FEW040 FEW050CB BKN090 21/17 Q1016,-21.982,-47.34,600,"Pirassununga/Fontenelle Arpt, SP, BR",BKN,"[{'cover': 'FEW', 'base': 4000}, {'cover': 'FEW', 'base': 5000}, {'cover': 'BKN', 'base': 9000}]",VFR,TS VCSH,,,,,,,QPS,Campo Fontenelle,Brazil,Pirassununga,https://www.worlddata.info/america/brazil/airports.php
2038,SCAR,2025-11-23 02:00:18.547000+00:00,1763863200,2025-11-23T02:00:00.000Z,19.0,13.0,180,5.0,6+,1015.0,0,METAR,METAR SCAR 230200Z 18005KT 9999 OVC034 19/13 Q1015,-18.351,-70.336,57,"Arica/Chacalluta Arpt, TA, CL",OVC,"[{'cover': 'OVC', 'base': 3400}]",VFR,,,,,,,,ARI,Chacalluta Airport,Chile,Arica,https://www.worlddata.info/america/chile/airports.php
2039,SCAT,2025-11-23 02:00:18.492000+00:00,1763863200,2025-11-23T02:00:00.000Z,15.0,12.0,230,4.0,1.24,1015.0,2,METAR,METAR SCAT 230200Z AUTO 23004KT //// R17/P2000N NCD 15/12 Q1015,-27.262,-70.774,209,"Desierto Atacama Arpt, AT, CL",CLR,[],IFR,,,,,,,,CPO,Desierto de Atacama Airport,Chile,Copiapo,https://www.worlddata.info/america/chile/airports.php
2040,SCBA,2025-11-23 02:00:42.998000+00:00,1763863140,2025-11-23T02:00:00.000Z,14.0,5.0,300,21.0,,1014.0,2,METAR,METAR SCBA 230159Z AUTO 30021KT //// // ///////// 14/05 Q1014,-45.913,-71.694,516,"Balmaceda/Vidal Arpt, AI, CL",,,,,,,,,,,BBA,Balmaceda Airport,Chile,Balmaceda,https://www.worlddata.info/america/chile/airports.php
2041,SCCF,2025-11-23 02:00:50.548000+00:00,1763863200,2025-11-23T02:00:00.000Z,14.0,-9.0,210,4.0,6+,1026.0,2,METAR,METAR SCCF 230200Z AUTO 21004KT 9999 NCD 14/M09 Q1026,-22.496,-68.905,2290,"Calama/El Loa Intl, AN, CL",CLR,[],VFR,,,,,,,,CJC,El Loa Airport,Chile,Calama,https://www.worlddata.info/america/chile/airports.php
2042,SCCH,2025-11-23 02:00:18.403000+00:00,1763863200,2025-11-23T02:00:00.000Z,17.0,10.0,70,4.0,6+,1012.0,2,METAR,METAR SCCH 230200Z AUTO 07004KT CAVOK 17/10 Q1012,-36.583,-72.031,148,"Chillan/OHiggins Arpt, BI, CL",CAVOK,[],VFR,,,,,,,,YAI,Gral. Bernardo O´Higgins Airport,Chile,Chillan,https://www.worlddata.info/america/chile/airports.php
2043,SCCI,2025-11-23 01:58:33.737000+00:00,1763863200,2025-11-23T02:00:00.000Z,9.0,7.0,270,15.0,6+,1000.0,16,METAR,METAR SCCI 230200Z 27015KT 9999 FEW040 SCT120 09/07 Q1000 NOSIG,-53.003,-70.855,37,"Punta Arenas Arpt, MA, CL",SCT,"[{'cover': 'FEW', 'base': 4000}, {'cover': 'SCT', 'base': 12000}]",VFR,,,,,,,,PUQ,President Carlos Ibañez del Campo International Airport,Chile,Punta Arenas,https://www.worlddata.info/america/chile/airports.php
2044,SCDA,2025-11-23 02:00:18.685000+00:00,1763863200,2025-11-23T02:00:00.000Z,20.0,12.0,200,8.0,6+,1015.0,0,METAR,METAR SCDA 230200Z 20008KT 9999 BKN036 20/12 Q1015,-20.535,-70.181,41,"Iquique/Diego Aracena Arpt, TA, CL",BKN,"[{'cover': 'BKN', 'base': 3600}]",VFR,,,,,,,,IQQ,Diego Aracena Airport,Chile,Iquique,https://www.worlddata.info/america/chile/airports.php
2045,SCEL,2025-11-23 01:51:54.400000+00:00,1763863200,2025-11-23T02:00:00.000Z,18.0,10.0,140,10.0,6+,1014.0,16,METAR,METAR SCEL 230200Z 14010KT CAVOK 18/10 Q1014 NOSIG,-33.393,-70.786,478,"Santiago/Benítez Intl, RM, CL",CAVOK,[],VFR,,,,,,,,SCL,Comodoro Arturo Merino Benítez International Airport,Chile,Santiago,https://www.worlddata.info/america/chile/airports.php
2046,SCFA,2025-11-23 02:00:18.764000+00:00,1763863200,2025-11-23T02:00:00.000Z,17.0,14.0,190,8.0,6+,1015.0,16,METAR,METAR SCFA 230200Z 19008KT 9999 SCT017 17/14 Q1015 NOSIG,-23.45,-70.441,113,"Antofagasta/Sabella Arpt, AN, CL",SCT,"[{'cover': 'SCT', 'base': 1700}]",VFR,,,,,,,,ANF,Andrés Sabella Gálvez International Airport,Chile,Antofagasta,https://www.worlddata.info/america/chile/airports.php
2047,SCFT,2025-11-23 02:00:18.864000+00:00,1763863200,2025-11-23T02:00:00.000Z,17.0,8.0,300,6.0,6+,1016.0,2,METAR,METAR SCFT 230200Z AUTO 30006KT CAVOK 17/08 Q1016,-43.189,-71.853,345,"Futaleufú Arpt, LL, CL",CAVOK,[],VFR,,,,,,,,FFU,Futaleufú Airport,Chile,Futaleufu,https://www.worlddata.info/america/chile/airports.php
2048,SCGZ,2025-11-23 02:00:38.374000+00:00,1763863200,2025-11-23T02:00:00.000Z,12.0,5.0,270,9.0,6+,993.0,2,METAR,METAR SCGZ 230200Z AUTO 27009KT 250V310 9999 FEW054/// BKN063/// 12/05 Q0993,-54.932,-67.631,21,"Guardiamarina/Zahart, MA, CL",BKN,"[{'cover': 'FEW', 'base': 5400}, {'cover': 'BKN', 'base': 6300}]",VFR,,,,,,,,WPU,Guardiamarina Zañartu Airport,Chile,Puerto Williams,https://www.worlddata.info/america/chile/airports.php
2049,SCIE,2025-11-23 02:00:18.225000+00:00,1763863200,2025-11-23T02:00:00.000Z,14.0,12.0,20,8.0,6+,1013.0,0,METAR,METAR SCIE 230200Z 02008KT CAVOK 14/12 Q1013,-36.773,-73.063,8,"Concepcion/Sur Intl, BI, CL",CAVOK,[],VFR,,,,,,,,CCP,Carriel Sur Airport,Chile,Concepcion,https://www.worlddata.info/america/chile/airports.php
2050,SCIP,2025-11-23 02:00:18.359000+00:00,1763863200,2025-11-23T02:00:00.000Z,20.0,18.0,20,5.0,6+,1018.0,16,METAR,METAR SCIP 230200Z 02005KT 320V110 9999 SCT013 BKN040 20/18 Q1018 RESHRA NOSIG,-27.161,-109.427,48,"Pascua Island Arpt, VS, CL",BKN,"[{'cover': 'SCT', 'base': 1300}, {'cover': 'BKN', 'base': 4000}]",VFR,,,,,,,,IPC,Mataveri Airport,Chile,Isla De Pascua,https://www.worlddata.info/america/chile/airports.php
2051,SCJO,2025-11-23 02:00:18.795000+00:00,1763863200,2025-11-23T02:00:00.000Z,14.0,9.0,VRB,2.0,6+,1017.0,2,METAR,METAR SCJO 230200Z AUTO VRB02KT CAVOK 14/09 Q1017,-40.605,-73.061,61,"Osorno/Siebert Arpt, LL, CL",CAVOK,[],VFR,,,,,,,,ZOS,Cañal Bajo Carlos - Hott Siebert Airport,Chile,Osorno,https://www.worlddata.info/america/chile/airports.php
2052,SCPQ,2025-11-23 02:00:18.823000+00:00,1763863200,2025-11-23T02:00:00.000Z,13.0,9.0,200,11.0,6+,1018.0,2,METAR,METAR SCPQ 230200Z AUTO 20011KT CAVOK 13/09 Q1018,-42.347,-73.718,166,"Monopulli Arpt, LL, CL",CAVOK,[],VFR,,,,,,,,MHC,Mocopulli Airport,Chile,Dalcahue,https://www.worlddata.info/america/chile/airports.php
2053,SCQP,2025-11-23 02:00:18.189000+00:00,1763863200,2025-11-23T02:00:00.000Z,12.0,10.0,320,4.0,6+,1015.0,0,METAR,METAR SCQP 230200Z 32004KT CAVOK 12/10 Q1015,-38.925,-72.648,97,"Temuco Arpt, LL, CL",CAVOK,[],VFR,,,,,,,,ZCO,La Araucanía Airport,Chile,Temuco,https://www.worlddata.info/america/chile/airports.php
2054,SCSE,2025-11-23 02:00:18.165000+00:00,1763863200,2025-11-23T02:00:00.000Z,16.0,12.0,260,6.0,6+,1015.0,2,METAR,METAR SCSE 230200Z AUTO 26006KT 9999 OVC016/// 16/12 Q1015,-29.918,-71.201,141,"La Serena/La Florida Arpt, CO, CL",OVC,"[{'cover': 'OVC', 'base': 1600}]",MVFR,,,,,,,,LSC,La Florida Airport,Chile,La Serena-Coquimbo,https://www.worlddata.info/america/chile/airports.php
2055,SCTE,2025-11-23 02:00:18.583000+00:00,1763863200,2025-11-23T02:00:00.000Z,12.0,8.0,180,6.0,6+,1017.0,16,METAR,METAR SCTE 230200Z 18006KT CAVOK 12/08 Q1017 NOSIG,-41.439,-73.094,85,"Puerto Montt/Tepua Arpt, AR, CL",CAVOK,[],VFR,,,,,,,,PMC,El Tepual Airport,Chile,Puerto Montt,https://www.worlddata.info/america/chile/airports.php
2056,SCVM,2025-11-23 02:00:18.432000+00:00,1763863200,2025-11-23T02:00:00.000Z,14.0,11.0,210,3.0,6+,1015.0,0,METAR,METAR SCVM 230200Z 21003KT 150V290 9999 OVC015 14/11 Q1015,-32.947,-71.479,136,"Concon/Vina Del Mar Arpt, VS, CL",OVC,"[{'cover': 'OVC', 'base': 1500}]",MVFR,,,,,,,,KNA,Viña del Mar Airport,Chile,Viña del Mar,https://www.worlddata.info/america/chile/airports.php
2057,SELT,2025-11-23 01:57:20.381000+00:00,1763863200,2025-11-23T02:00:00.000Z,11.0,9.0,200,7.0,6+,1029.0,0,METAR,METAR SELT 230200Z 20007KT 9999 BKN030 11/09 Q1029,-0.921,-78.619,2779,"Latacunga/Cotopaxi Intl, X, EC",BKN,"[{'cover': 'BKN', 'base': 3000}]",MVFR,,,,,,,,LTX,Cotopaxi International Airport,Ecuador,Latacunga,https://www.worlddata.info/america/ecuador/airports.php
2058,SEQM,2025-11-23 02:00:17.240000+00:00,1763863200,2025-11-23T02:00:00.000Z,14.0,13.0,20,5.0,6+,1026.0,16,METAR,METAR SEQM 230200Z 02005KT 9999 FEW005 SCT010 BKN026 14/13 Q1026 NOSIG RMK A3030,-0.124,-78.354,2386,"Quito/New Intl, P, EC",BKN,"[{'cover': 'FEW', 'base': 500}, {'cover': 'SCT', 'base': 1000}, {'cover': 'BKN', 'base': 2600}]",MVFR,,,,,,,,UIO,Mariscal Sucre International Airport,Ecuador,Quito,https://www.worlddata.info/america/ecuador/airports.php
2059,SESA,2025-11-23 01:57:54.578000+00:00,1763863200,2025-11-23T02:00:00.000Z,23.0,21.0,220,11.0,6+,1012.0,0,METAR,METAR SESA 230200Z 22011KT 9999 BKN015 23/21 Q1012 RMK A2989,-2.205,-80.989,6,"Salinas/Paez Arpt, M, EC",BKN,"[{'cover': 'BKN', 'base': 1500}]",MVFR,,,,,,,,SNC,General Ulpiano Paez Airport,Ecuador,Salinas,https://www.worlddata.info/america/ecuador/airports.php
2060,SGAS,2025-11-23 01:57:40.105000+00:00,1763863200,2025-11-23T02:00:00.000Z,22.0,15.0,190,9.0,6+,1013.0,1,METAR,METAR SGAS 230200Z COR 19009KT 160V250 CAVOK 22/15 Q1013,-25.248,-57.519,83,"Asunción/Pettriossi, 11, PY",CAVOK,[],VFR,,,,,,,,ASU,Silvio Pettirossi International Airport.,Paraguay,Asunción,https://www.worlddata.info/america/paraguay/airports.php
2061,SGEN,2025-11-23 01:51:51.132000+00:00,1763863200,2025-11-23T02:00:00.000Z,21.0,14.0,180,7.0,6+,1012.0,0,METAR,METAR SGEN 230200Z 18007KT CAVOK 21/14 Q1012,-27.221,-55.834,202,"Encarnacion/Gonzales, 7, PY",CAVOK,[],VFR,,,,,,,,ENO,Aeropuerto Internacional Tte. Amin Ayub González,Paraguay,Encarnación,https://www.worlddata.info/america/paraguay/airports.php
2062,SGES,2025-11-23 02:01:43.099000+00:00,1763863200,2025-11-23T02:00:00.000Z,23.0,17.0,200,9.0,6+,1012.0,0,METAR,METAR SGES 230200Z 20009KT CAVOK 23/17 Q1012,-25.461,-54.849,256,"Guarani Intl, 10, PY",CAVOK,[],VFR,,,,,,,,AGT,Aeropuerto Internacional Guaraní,Paraguay,Ciudad del Este,https://www.worlddata.info/america/paraguay/airports.php
2063,SKAR,2025-11-23 02:01:38.133000+00:00,1763863200,2025-11-23T02:00:00.000Z,21.0,19.0,VRB,1.0,6+,1015.0,0,METAR,METAR SKAR 230200Z VRB01KT 9999 SCT030CB SCT050 21/19 Q1015 RMK CB/NE,4.455,-75.766,1214,"Armenia/El Eden Arpt, QU, CO",SCT,"[{'cover': 'SCT', 'base': 3000}, {'cover': 'SCT', 'base': 5000}]",VFR,,,,,,,,AXM,El Eden Airport,Colombia,Armenia,https://www.worlddata.info/america/colombia/airports.php
2064,SKAS,2025-11-23 02:01:38.161000+00:00,1763863200,2025-11-23T02:00:00.000Z,25.0,22.0,VRB,2.0,,1009.0,2,METAR,METAR SKAS 230200Z AUTO VRB02KT //// ////// 25/22 Q1009,0.505,-76.501,251,"Puerto Asis, PU, CO",,,,,,,,,,,PUU,Tres De Mayo Airport,Colombia,Puerto Asís,https://www.worlddata.info/america/colombia/airports.php
2065,SKBG,2025-11-23 02:00:32.044000+00:00,1763863200,2025-11-23T02:00:00.000Z,20.0,20.0,300,5.0,6+,1014.0,0,METAR,METAR SKBG 230200Z 30005KT 270V340 9999 SCT020 20/20 Q1014,7.127,-73.185,1187,"Bucaramango/Palonegro Arpt, SA, CO",SCT,"[{'cover': 'SCT', 'base': 2000}]",VFR,,,,,,,,BGA,Palonegro Airport,Colombia,Bucaramanga,https://www.worlddata.info/america/colombia/airports.php
2066,SKBO,2025-11-23 02:00:32.067000+00:00,1763863200,2025-11-23T02:00:00.000Z,15.0,13.0,320,3.0,6+,1026.0,16,METAR,METAR SKBO 230200Z 32003KT 290V070 9999 FEW020 BKN035 15/13 Q1026 NOSIG,4.706,-74.151,2547,"Bogota/El Dorado Arpt, CA, CO",BKN,"[{'cover': 'FEW', 'base': 2000}, {'cover': 'BKN', 'base': 3500}]",VFR,,,,,,,,BOG,El Dorado International Airport,Colombia,Bogota,https://www.worlddata.info/america/colombia/airports.php
2067,SKBQ,2025-11-23 02:00:32.084000+00:00,1763863200,2025-11-23T02:00:00.000Z,28.0,25.0,30,12.0,6+,1008.0,0,METAR,METAR SKBQ 230200Z 03012KT CAVOK 28/25 Q1008,10.883,-74.78,23,"Barranquilla/Cortissoz Arpt, AT, CO",CAVOK,[],VFR,,,,,,,,BAQ,Ernesto Cortissoz International Airport,Colombia,Barranquilla,https://www.worlddata.info/america/colombia/airports.php
2068,SKBS,2025-11-23 02:01:38.189000+00:00,1763863200,2025-11-23T02:00:00.000Z,25.0,25.0,160,2.0,,1009.0,2,METAR,METAR SKBS 230200Z AUTO 16002KT //// FEW003/// SCT017/// OVC022/// 25/25 Q1009,6.203,-77.395,24,"Bahia Soland Arpt, CH, CO",OVC,"[{'cover': 'FEW', 'base': 300}, {'cover': 'SCT', 'base': 1700}, {'cover': 'OVC', 'base': 2200}]",,,,,,,,,BSC,José Celestino Mutis Airport,Colombia,Bahía Solano,https://www.worlddata.info/america/colombia/airports.php
2069,SKCC,2025-11-23 02:01:38.214000+00:00,1763863200,2025-11-23T02:00:00.000Z,26.0,23.0,10,3.0,6+,1013.0,0,METAR,METAR SKCC 230200Z 01003KT 330V060 9999 VCTS SCT020CB BKN060 26/23 Q1013 RMK VCTS/CB/N,7.93,-72.509,308,"Cucuta/Daza Intl, ND, CO",BKN,"[{'cover': 'SCT', 'base': 2000}, {'cover': 'BKN', 'base': 6000}]",VFR,VCTS,,,,,,,CUC,Camilo Daza International Airport,Colombia,Cúcuta,https://www.worlddata.info/america/colombia/airports.php
2070,SKCG,2025-11-23 02:00:32.121000+00:00,1763863200,2025-11-23T02:00:00.000Z,27.0,25.0,40,4.0,6+,1008.0,0,METAR,METAR SKCG 230200Z 04004KT 010V090 CAVOK 27/25 Q1008,10.447,-75.516,6,"Cartagena/Nuñez Intl, BO, CO",CAVOK,[],VFR,,,,,,,,CTG,Rafael Nuñez International Airport,Colombia,Cartagena,https://www.worlddata.info/america/colombia/airports.php
2071,SKCL,2025-11-23 02:00:32.139000+00:00,1763863200,2025-11-23T02:00:00.000Z,23.0,20.0,350,8.0,6+,1014.0,0,METAR,METAR SKCL 230200Z 35008KT 9999 FEW030 SCT050 23/20 Q1014,3.543,-76.382,967,"Cali/Aragon Arpt, VD, CO",SCT,"[{'cover': 'FEW', 'base': 3000}, {'cover': 'SCT', 'base': 5000}]",VFR,,,,,,,,CLO,Alfonso Bonilla Aragon International Airport,Colombia,Cali,https://www.worlddata.info/america/colombia/airports.php
2072,SKCO,2025-11-23 02:01:38.243000+00:00,1763863200,2025-11-23T02:00:00.000Z,25.0,23.0,240,4.0,,1011.0,2,METAR,METAR SKCO 230200Z AUTO 24004KT 190V260 //// ////// 25/23 Q1011,1.814,-78.749,6,"Tumaco/La Florida Arpt, NA, CO",,,,,,,,,,,TCO,La Florida Airport,Colombia,Tumaco,https://www.worlddata.info/america/colombia/airports.php
2073,SKCZ,2025-11-23 02:01:38.270000+00:00,1763863200,2025-11-23T02:00:00.000Z,27.0,24.0,70,4.0,6+,1008.0,2,METAR,METAR SKCZ 230200Z AUTO 07004KT 030V110 CAVOK 27/24 Q1008,9.334,-75.283,81,"Corozal/Las Brujas Arpt, SU, CO",CAVOK,[],VFR,,,,,,,,CZU,Las Brujas Airport,Colombia,Corozal,https://www.worlddata.info/america/colombia/airports.php
2074,SKEJ,2025-11-23 02:01:38.295000+00:00,1763863200,2025-11-23T02:00:00.000Z,27.0,24.0,VRB,1.0,6+,1008.0,2,METAR,METAR SKEJ 230200Z AUTO VRB01KT CAVOK 27/24 Q1008,7.026,-73.809,123,"Barrancabermeja/Yariguies Arpt, SA, CO",CAVOK,[],VFR,,,,,,,,EJA,Yariguíes Airport,Colombia,Barrancabermeja,https://www.worlddata.info/america/colombia/airports.php
2075,SKFL,2025-11-23 02:01:38.318000+00:00,1763863200,2025-11-23T02:00:00.000Z,26.0,22.0,20,4.0,6+,1009.0,2,METAR,METAR SKFL 230200Z AUTO 02004KT 310V060 9999 BKN058/// 26/22 Q1009,1.589,-75.564,244,"Florencia Arpt, CA, CO",BKN,"[{'cover': 'BKN', 'base': 5800}]",VFR,,,,,,,,FLA,Gustavo Artunduaga Paredes Airport,Colombia,Florencia,https://www.worlddata.info/america/colombia/airports.php
2076,SKGO,2025-11-23 02:01:38.361000+00:00,1763863200,2025-11-23T02:00:00.000Z,24.0,20.0,VRB,1.0,6+,1013.0,2,METAR,METAR SKGO 230200Z AUTO VRB01KT 9999 BKN061/// BKN094/// 24/20 Q1013,4.758,-75.956,908,"Cartago//Santa Ana Arpt, VD, CO",BKN,"[{'cover': 'BKN', 'base': 6100}, {'cover': 'BKN', 'base': 9400}]",VFR,,,,,,,,CRC,Santa Ana Airport,Colombia,Cartago,https://www.worlddata.info/america/colombia/airports.php
2077,SKIB,2025-11-23 02:01:38.423000+00:00,1763863200,2025-11-23T02:00:00.000Z,22.0,21.0,VRB,2.0,,1013.0,2,METAR,METAR SKIB 230200Z AUTO VRB02KT //// R32///// // ////// 22/21 Q1013,4.418,-75.13,899,"Ibague/Perales Arpt, TO, CO",,,,,,,,,,,IBE,Perales Airport,Colombia,Ibagué,https://www.worlddata.info/america/colombia/airports.php
2078,SKIP,2025-11-23 02:01:38.447000+00:00,1763863200,2025-11-23T02:00:00.000Z,11.0,11.0,70,6.0,6+,1029.0,2,METAR,METAR SKIP 230200Z AUTO 07006KT CAVOK 11/11 Q1029,0.858,-77.677,2964,"Ipiales/San Luis Arpt, NA, CO",CAVOK,[],VFR,,,,,,,,IPI,San Luis Airport,Colombia,Ipiales,https://www.worlddata.info/america/colombia/airports.php
2079,SKLC,2025-11-23 02:01:38.475000+00:00,1763863200,2025-11-23T02:00:00.000Z,28.0,26.0,320,3.0,6+,1008.0,2,METAR,METAR SKLC 230200Z AUTO 32003KT 290V350 9999 SCT015/// SCT019/// BKN036/// 28/26 Q1008,7.817,-76.718,20,"Apartado/Betencourt Arpt, AN, CO",BKN,"[{'cover': 'SCT', 'base': 1500}, {'cover': 'SCT', 'base': 1900}, {'cover': 'BKN', 'base': 3600}]",VFR,,,,,,,,APO,Antonio Roldán Betancur Airport,Colombia,Carepa,https://www.worlddata.info/america/colombia/airports.php
2080,SKLT,2025-11-23 02:00:32.157000+00:00,1763863200,2025-11-23T02:00:00.000Z,26.0,25.0,VRB,1.0,6+,1009.0,2,METAR,METAR SKLT 230200Z AUTO VRB01KT CAVOK 26/25 Q1009,-4.196,-69.943,78,"Leticia/Cobo Intl, AM, CO",CAVOK,[],VFR,,,,,,,,LET,Alfredo Vásquez Cobo International Airport,Colombia,Leticia,https://www.worlddata.info/america/colombia/airports.php
2081,SKMR,2025-11-23 02:01:38.502000+00:00,1763863200,2025-11-23T02:00:00.000Z,27.0,26.0,VRB,1.0,6+,1008.0,0,METAR,METAR SKMR 230200Z VRB01KT 9999 SCT035 27/26 Q1008,8.826,-75.825,12,"Monteria/Garzones Arpt, CO, CO",SCT,"[{'cover': 'SCT', 'base': 3500}]",VFR,,,,,,,,MTR,Los Garzones Airport,Colombia,Montería,https://www.worlddata.info/america/colombia/airports.php
2082,SKMU,2025-11-23 02:01:38.525000+00:00,1763863200,2025-11-23T02:00:00.000Z,24.0,23.0,VRB,1.0,,1010.0,2,METAR,METAR SKMU 230200Z AUTO VRB01KT //// ////// 24/23 Q1010,1.117,-70.083,207,"Mitu Arpt, VP, CO",,,,,,,,,,,MVP,Fabio Alberto Leon Bentley Airport,Colombia,Mitú,https://www.worlddata.info/america/colombia/airports.php
2083,SKMZ,2025-11-23 02:01:38.555000+00:00,1763863200,2025-11-23T02:00:00.000Z,17.0,17.0,100,4.0,,1025.0,2,METAR,METAR SKMZ 230200Z AUTO 10004KT 2300NDV -SHRA BR ////// 17/17 Q1025,5.03,-75.47,2075,"Manizales/La Nubia Arpt, CA, CO",,,,-SHRA BR,,,,,,,MZL,La Nubia Airport,Colombia,Manizales,https://www.worlddata.info/america/colombia/airports.php
2084,SKNV,2025-11-23 02:01:38.578000+00:00,1763863200,2025-11-23T02:00:00.000Z,28.0,22.0,330,4.0,,1010.0,2,METAR,METAR SKNV 230200Z AUTO 33004KT 9999NDV // OVC057/// 28/22 Q1010,2.949,-75.294,449,"Neiva/Salas Arpt, HU, CO",OVC,"[{'cover': 'OVC', 'base': 5700}]",,,,,,,,,NVA,Benito Salas Airport,Colombia,Neiva,https://www.worlddata.info/america/colombia/airports.php
2085,SKPC,2025-11-23 02:01:38.602000+00:00,1763863200,2025-11-23T02:00:00.000Z,28.0,24.0,20,5.0,6+,1008.0,2,METAR,METAR SKPC 230200Z AUTO 02005KT CAVOK 28/24 Q1008,6.184,-67.491,51,"Puerto Carreno Arpt, VI, CO",CAVOK,[],VFR,,,,,,,,PCR,German Olano Airport,Colombia,Puerto Carreño,https://www.worlddata.info/america/colombia/airports.php
2086,SKPD,2025-11-23 02:01:38.622000+00:00,1763863200,2025-11-23T02:00:00.000Z,24.0,24.0,VRB,2.0,6+,1009.0,2,METAR,METAR SKPD 230200Z AUTO VRB02KT CAVOK 24/24 Q1009,3.854,-67.906,140,"Puerto Inirida Arpt, GN, CO",CAVOK,[],VFR,,,,,,,,PDA,Obando Cesar Gaviria Trujillo Airport,Colombia,Puerto Inírida,https://www.worlddata.info/america/colombia/airports.php
2087,SKPE,2025-11-23 02:00:32.173000+00:00,1763863200,2025-11-23T02:00:00.000Z,22.0,18.0,80,5.0,6+,1016.0,0,METAR,METAR SKPE 230200Z 08005KT 030V090 9999 NSC 22/18 Q1016,4.814,-75.735,1341,"Pereira/Matecana Arpt, RI, CO",CLR,[],VFR,,,,,,,,PEI,Matecaña International Airport,Colombia,Pereira,https://www.worlddata.info/america/colombia/airports.php
2088,SKPP,2025-11-23 02:01:37.015000+00:00,1763863200,2025-11-23T02:00:00.000Z,18.0,17.0,VRB,2.0,6+,1019.0,2,METAR,METAR SKPP 230200Z AUTO VRB02KT 9999 FEW007/// SCT015/// 18/17 Q1019,2.453,-76.609,1726,"Popayan/Guillermo, CA, CO",SCT,"[{'cover': 'FEW', 'base': 700}, {'cover': 'SCT', 'base': 1500}]",VFR,,,,,,,,PPN,Guillermo León Valencia Airport,Colombia,Popayán,https://www.worlddata.info/america/colombia/airports.php
2089,SKPS,2025-11-23 02:01:37.038000+00:00,1763863200,2025-11-23T02:00:00.000Z,17.0,17.0,0,0.0,6+,1020.0,2,METAR,METAR SKPS 230200Z AUTO 00000KT 9999 FEW002/// BKN004/// BKN005/// 17/17 Q1020,1.394,-77.291,1798,"Pasto/Nariño Arpt, NA, CO",BKN,"[{'cover': 'FEW', 'base': 200}, {'cover': 'BKN', 'base': 400}, {'cover': 'BKN', 'base': 500}]",LIFR,,,,,,,,PSO,Antonio Nariño Airport,Colombia,Chachagüí,https://www.worlddata.info/america/colombia/airports.php
2090,SKPV,2025-11-23 02:01:37.059000+00:00,1763863200,2025-11-23T02:00:00.000Z,28.0,25.0,VRB,4.0,,1012.0,2,METAR,METAR SKPV 230200Z AUTO VRB04KT 9999NDV // FEW003/// BKN019/// OVC021/// 28/25 Q1012,13.358,-81.358,7,"Providencia Isl Arpt, SA, CO",OVC,"[{'cover': 'FEW', 'base': 300}, {'cover': 'BKN', 'base': 1900}, {'cover': 'OVC', 'base': 2100}]",,,,,,,,,PVA,El Embrujo Airport,Colombia,Providencia,https://www.worlddata.info/america/colombia/airports.php
2091,SKQU,2025-11-23 02:01:37.085000+00:00,1763863200,2025-11-23T02:00:00.000Z,24.0,22.0,200,1.0,6+,1010.0,2,METAR,METAR SKQU 230200Z AUTO 20001KT CAVOK 24/22 Q1010,5.213,-74.884,467,"Mariquita Arpt, TO, CO",CAVOK,[],VFR,,,,,,,,MQU,Mariquita Airport,Colombia,Mariquita,https://www.worlddata.info/america/colombia/airports.php
2092,SKRG,2025-11-23 02:00:32.189000+00:00,1763863200,2025-11-23T02:00:00.000Z,16.0,15.0,VRB,2.0,6+,1024.0,0,METAR,METAR SKRG 230200Z VRB02KT 9999 SCT020 16/15 Q1024,6.169,-75.426,2132,"Rionegro/Córdova Intl, AN, CO",SCT,"[{'cover': 'SCT', 'base': 2000}]",VFR,,,,,,,,MDE,Jose Maria Córdova International Airport,Colombia,Medellín,https://www.worlddata.info/america/colombia/airports.php
2093,SKRH,2025-11-23 02:01:37.106000+00:00,1763863200,2025-11-23T02:00:00.000Z,28.0,23.0,80,6.0,,1010.0,2,METAR,METAR SKRH 230200Z AUTO 08006KT 050V110 //// R10///// // ////// 28/23 Q1010,11.528,-72.918,11,"Riohacha/Padilla Arpt, GJ, CO",,,,,,,,,,,RCH,Almirante Padilla Airport,Colombia,Riohacha,https://www.worlddata.info/america/colombia/airports.php
2094,SKSA,2025-11-23 02:01:37.123000+00:00,1763863200,2025-11-23T02:00:00.000Z,23.0,23.0,VRB,1.0,,1010.0,2,METAR,METAR SKSA 230200Z AUTO VRB01KT //// ////// 23/23 Q1010,6.955,-71.86,207,"Saravena/Los Colonizadores Arpt, AR, CO",,,,,,,,,,,RVE,Los Colonizadores Airport,Colombia,Saravena,https://www.worlddata.info/america/colombia/airports.php
2095,SKSJ,2025-11-23 02:01:37.145000+00:00,1763863200,2025-11-23T02:00:00.000Z,25.0,25.0,VRB,1.0,6+,1010.0,2,METAR,METAR SKSJ 230200Z AUTO VRB01KT CAVOK 25/25 Q1010,2.574,-72.64,185,"San Jose del Guaviar, GV, CO",CAVOK,[],VFR,,,,,,,,SJE,Jorge E. Gonzalez Torres Airport,Colombia,San José Del Guaviare,https://www.worlddata.info/america/colombia/airports.php
2096,SKSM,2025-11-23 02:01:37.164000+00:00,1763863200,2025-11-23T02:00:00.000Z,29.0,22.0,40,4.0,6+,1008.0,0,METAR,METAR SKSM 230200Z 04004KT 360V090 9999 SCT020 29/22 Q1008,11.12,-74.231,5,"Santa Marta/Bolivar Arpt, MA, CO",SCT,"[{'cover': 'SCT', 'base': 2000}]",VFR,,,,,,,,SMR,Simón Bolívar International Airport,Colombia,Santa Marta,https://www.worlddata.info/america/colombia/airports.php
2097,SKSP,2025-11-23 02:00:32.207000+00:00,1763863200,2025-11-23T02:00:00.000Z,28.0,25.0,50,10.0,6+,1012.0,2,METAR,METAR SKSP 230200Z AUTO 05010KT CAVOK 28/25 Q1012,12.587,-81.704,6,"San Andres Island Arpt, SA, CO",CAVOK,[],VFR,,,,,,,,ADZ,Gustavo Rojas Pinilla International Airport,Colombia,San Andrés,https://www.worlddata.info/america/colombia/airports.php
2098,SKTM,2025-11-23 02:01:37.186000+00:00,1763863200,2025-11-23T02:00:00.000Z,25.0,21.0,20,3.0,6+,1012.0,2,METAR,METAR SKTM 230200Z AUTO 02003KT CAVOK 25/21 Q1012,6.451,-71.76,361,"Tame/Vargas Arpt, AR, CO",CAVOK,[],VFR,,,,,,,,TME,Gustavo Vargas Airport,Colombia,Tame,https://www.worlddata.info/america/colombia/airports.php
2099,SKUC,2025-11-23 02:01:37.207000+00:00,1763863200,2025-11-23T02:00:00.000Z,,,,,,,2,METAR,METAR SKUC 230200Z AUTO /////KT //// ////// ///// Q////,7.066,-70.735,127,"Arauca/Perez Arpt, AR, CO",,,,,,,,,,,AUC,Santiago Perez Airport,Colombia,Arauca,https://www.worlddata.info/america/colombia/airports.php
2100,SKUI,2025-11-23 02:01:37.225000+00:00,1763863200,2025-11-23T02:00:00.000Z,25.0,25.0,VRB,1.0,0.5,1009.0,2,METAR,METAR SKUI 230200Z AUTO VRB01KT 0250NDV R13/0800N // FEW023/// SCT027/// OVC031/// 25/25 Q1009,5.691,-76.644,55,"Quibdó/El Caraño Arpt, CH, CO",OVC,"[{'cover': 'FEW', 'base': 2300}, {'cover': 'SCT', 'base': 2700}, {'cover': 'OVC', 'base': 3100}]",LIFR,,,,,,,,UIB,El Caraño Airport,Colombia,Quibdó,https://www.worlddata.info/america/colombia/airports.php
2101,SKVP,2025-11-23 02:01:37.246000+00:00,1763863200,2025-11-23T02:00:00.000Z,29.0,20.0,70,12.0,6+,1011.0,0,METAR,METAR SKVP 230200Z 07012KT 9999 SCT050 29/20 Q1011,10.436,-73.248,137,"Valledupar/Pumerejo Arpt, CE, CO",SCT,"[{'cover': 'SCT', 'base': 5000}]",VFR,,,,,,,,VUP,Alfonso López Pumarejo Airport,Colombia,Valledupar,https://www.worlddata.info/america/colombia/airports.php
2102,SKVV,2025-11-23 02:01:37.269000+00:00,1763863200,2025-11-23T02:00:00.000Z,24.0,23.0,VRB,1.0,6+,1012.0,2,METAR,METAR SKVV 230200Z AUTO VRB01KT CAVOK 24/23 Q1012,4.162,-73.618,421,"Villavicencio/Vangardia Arpt, ME, CO",CAVOK,[],VFR,,,,,,,,VVC,Vanguardia Airport,Colombia,Villavicencio,https://www.worlddata.info/america/colombia/airports.php
2103,SKYP,2025-11-23 02:01:37.285000+00:00,1763863200,2025-11-23T02:00:00.000Z,26.0,23.0,30,7.0,6+,1010.0,0,METAR,METAR SKYP 230200Z 03007KT 9999 SCT020 26/23 Q1010,5.319,-72.384,312,"Yopal/El Alcaravan, CA, CO",SCT,"[{'cover': 'SCT', 'base': 2000}]",VFR,,,,,,,,EYP,El Yopal Airport,Colombia,El Yopal,https://www.worlddata.info/america/colombia/airports.php
2104,SLAL,2025-11-23 01:58:39.612000+00:00,1763863200,2025-11-23T02:00:00.000Z,13.0,9.0,60,11.0,6+,1030.0,0,METAR,METAR SLAL 230200Z 06011KT 9999 FEW017 SCT070 13/09 Q1030,-19.247,-65.15,3109,"Alcantarí Arpt, H, BO",SCT,"[{'cover': 'FEW', 'base': 1700}, {'cover': 'SCT', 'base': 7000}]",VFR,,,,,,,,SRE,Alcantarí Airport,Bolivia,Yamparaez,https://www.worlddata.info/america/bolivia/airports.php
2105,SLCB,2025-11-23 01:58:39.582000+00:00,1763863200,2025-11-23T02:00:00.000Z,17.0,12.0,100,6.0,6+,1026.0,16,METAR,METAR SLCB 230200Z 10006KT 080V220 9999 FEW030 FEW033CB BKN200 17/12 Q1026 NOSIG,-17.421,-66.179,2560,"Cochabamba/Wilstermann Intl, C, BO",BKN,"[{'cover': 'FEW', 'base': 3000}, {'cover': 'FEW', 'base': 3300}, {'cover': 'BKN', 'base': 20000}]",VFR,,,,,,,,CBB,Jorge Wilsterman International Airport,Bolivia,Cochabamba,https://www.worlddata.info/america/bolivia/airports.php
2106,SLLP,2025-11-23 01:58:39.548000+00:00,1763863200,2025-11-23T02:00:00.000Z,8.0,4.0,80,9.0,6+,1036.0,16,METAR,METAR SLLP 230200Z 08009KT 9999 FEW013 08/04 Q1036 NOSIG,-16.511,-68.182,4061,"La Paz/El Alto Intl, L, BO",FEW,"[{'cover': 'FEW', 'base': 1300}]",VFR,,,,,,,,LPB,El Alto International Airport,Bolivia,La Paz / El Alto,https://www.worlddata.info/america/bolivia/airports.php
2107,SLTJ,2025-11-23 01:58:39.598000+00:00,1763863200,2025-11-23T02:00:00.000Z,16.0,11.0,150,10.0,6+,1025.0,0,METAR,METAR SLTJ 230200Z 15010KT 9999 SCT025 BKN040 BKN070 16/11 Q1025,-21.556,-64.701,1850,"Tarija/Plaza Arpt, T, BO",BKN,"[{'cover': 'SCT', 'base': 2500}, {'cover': 'BKN', 'base': 4000}, {'cover': 'BKN', 'base': 7000}]",VFR,,,,,,,,TJA,Capitan Oriel Lea Plaza Airport,Bolivia,Tarija,https://www.worlddata.info/america/bolivia/airports.php
2108,SLVR,2025-11-23 01:58:39.564000+00:00,1763863200,2025-11-23T02:00:00.000Z,21.0,20.0,160,5.0,6+,1013.0,16,METAR,METAR SLVR 230200Z 16005KT 9999 FEW070 21/20 Q1013 NOSIG,-17.645,-63.135,377,"Santa Cruz/Viru Intl, S, BO",FEW,"[{'cover': 'FEW', 'base': 7000}]",VFR,,,,,,,,VVI,Viru Viru International Airport,Bolivia,Santa Cruz,https://www.worlddata.info/america/bolivia/airports.php
2109,SMJP,2025-11-23 01:56:21.567000+00:00,1763863200,2025-11-23T02:00:00.000Z,25.0,24.0,0,0.0,6+,1010.0,0,METAR,METAR SMJP 230200Z 00000KT 9999 FEW008 SCT020 25/24 Q1010,5.453,-55.188,14,"Paramaribo/Pengel Intl, PA, SR",SCT,"[{'cover': 'FEW', 'base': 800}, {'cover': 'SCT', 'base': 2000}]",VFR,,,,,,,,PBM,Johan Adolf Pengel International Airport,Suriname,Zandery,https://www.worlddata.info/america/suriname/airports.php
2110,SOCA,2025-11-23 02:01:43.499000+00:00,1763863200,2025-11-23T02:00:00.000Z,26.0,25.0,VRB,3.0,6+,1011.0,2,METAR,METAR SOCA 230200Z AUTO VRB03KT 9999 SCT018/// SCT028/// ///CB 26/25 Q1011 BECMG SCT018,4.822,-52.365,7,"Cayenne/Rochambeau Arpt, CA, GF",SCT,"[{'cover': 'SCT', 'base': 1800}, {'cover': 'SCT', 'base': 2800}]",VFR,,,,,,,,CAY,Cayenne – Félix Eboué Airport,French Guiana,Matoury,https://www.worlddata.info/america/french-guiana/airports.php
2111,SPCL,2025-11-23 02:00:20.246000+00:00,1763863200,2025-11-23T02:00:00.000Z,24.0,23.0,360,2.0,6+,1008.0,0,METAR,METAR SPCL 230200Z 36002KT 9999 SCT018 24/23 Q1008 RMK PP000,-8.378,-74.574,154,"Pucallpa/Rengifo Intl, UC, PE",SCT,"[{'cover': 'SCT', 'base': 1800}]",VFR,,,,,,,,PCL,Cap FAP David Abenzur Rengifo International Airport,Peru,Pucallpa,https://www.worlddata.info/america/peru/airports.php
2112,SPHI,2025-11-23 02:00:17.593000+00:00,1763863200,2025-11-23T02:00:00.000Z,20.0,16.0,180,12.0,6+,1012.0,0,METAR,METAR SPHI 230200Z 18012KT CAVOK 20/16 Q1012 RMK BIRD HAZARD RWY 19/01 PP000,-6.787,-79.828,33,"Chiclayo Arpt, LA, PE",CAVOK,[],VFR,,,,,,,,CIX,Air Force Captain Jose A Quinones Gonzales International Airport,Peru,Chiclayo,https://www.worlddata.info/america/peru/airports.php
2113,SPME,2025-11-23 02:00:20.266000+00:00,1763863200,2025-11-23T02:00:00.000Z,23.0,20.0,260,3.0,6+,1012.0,0,METAR,METAR SPME 230200Z 26003KT 9999 BKN020 23/20 Q1012 RMK BIRD HAZARD RWY 32/14 PP000,-3.551,-80.385,26,"Tumbes Arpt, TU, PE",BKN,"[{'cover': 'BKN', 'base': 2000}]",MVFR,,,,,,,,TBP,Captain Pedro Canga Rodríguez International Airport,Peru,Tumbes,https://www.worlddata.info/america/peru/airports.php
2114,SPQT,2025-11-23 02:00:17.669000+00:00,1763863200,2025-11-23T02:00:00.000Z,24.0,23.0,290,4.0,6+,1009.0,16,METAR,METAR SPQT 230200Z 29004KT 230V310 9999 SCT010 OVC100 24/23 Q1009 NOSIG RMK PP000,-3.786,-73.306,92,"Iquitos/Vignetta Arpt, LO, PE",OVC,"[{'cover': 'SCT', 'base': 1000}, {'cover': 'OVC', 'base': 10000}]",VFR,,,,,,,,IQT,Coronel FAP Francisco Secada Vignetta International Airport,Peru,Iquitos,https://www.worlddata.info/america/peru/airports.php
2115,SPQU,2025-11-23 02:00:17.695000+00:00,1763863200,2025-11-23T02:00:00.000Z,13.0,4.0,120,2.0,6+,1026.0,0,METAR,METAR SPQU 230200Z 12002KT CAVOK 13/04 Q1026 RMK PP000,-16.341,-71.583,2527,"Arequipa/Ballon Intl, AR, PE",CAVOK,[],VFR,,,,,,,,AQP,Rodríguez Ballón International Airport,Peru,Arequipa,https://www.worlddata.info/america/peru/airports.php
2116,SPRU,2025-11-23 02:00:17.732000+00:00,1763863200,2025-11-23T02:00:00.000Z,19.0,15.0,140,8.0,3.73,1013.0,0,METAR,METAR SPRU 230200Z 14008KT 6000 FEW130 19/15 Q1013 RMK PP000,-8.087,-79.109,23,"Trujillo Arpt, LA, PE",FEW,"[{'cover': 'FEW', 'base': 13000}]",MVFR,,,,,,,,TRU,Capitan FAP Carlos Martinez De Pinillos International Airport,Peru,Trujillo,https://www.worlddata.info/america/peru/airports.php
2117,SPSO,2025-11-23 02:00:17.783000+00:00,1763863200,2025-11-23T02:00:00.000Z,19.0,16.0,200,8.0,6+,1012.0,0,METAR,METAR SPSO 230200Z 20008KT CAVOK 19/16 Q1012 RMK PP000,-13.744,-76.221,8,"Pisco Intl, IC, PE",CAVOK,[],VFR,,,,,,,,PIO,Captain Renán Elías Olivera International Airport,Peru,Pisco,https://www.worlddata.info/america/peru/airports.php
2118,SPST,2025-11-23 02:00:20.294000+00:00,1763863200,2025-11-23T02:00:00.000Z,25.0,23.0,VRB,2.0,6+,1010.0,0,METAR,METAR SPST 230200Z VRB02KT 9999 FEW020 BKN080 25/23 Q1010 RMK PP000,-6.509,-76.373,282,"Tarapoto Arpt, SA, PE",BKN,"[{'cover': 'FEW', 'base': 2000}, {'cover': 'BKN', 'base': 8000}]",VFR,,,,,,,,TPP,Cadete FAP Guillermo Del Castillo Paredes Airport,Peru,Tarapoto,https://www.worlddata.info/america/peru/airports.php
2119,SPTN,2025-11-23 02:00:17.829000+00:00,1763863200,2025-11-23T02:00:00.000Z,17.0,11.0,150,6.0,6+,1016.0,0,METAR,METAR SPTN 230200Z 15006KT 9999 OVC040 17/11 Q1016 RMK PP000,-18.049,-70.277,459,"Tacna Arpt, TA, PE",OVC,"[{'cover': 'OVC', 'base': 4000}]",VFR,,,,,,,,TCQ,Coronel FAP Carlos Ciriani Santa Rosa International Airport,Peru,Tacna,https://www.worlddata.info/america/peru/airports.php
2120,SPUR,2025-11-23 02:00:17.888000+00:00,1763863200,2025-11-23T02:00:00.000Z,23.0,16.0,170,10.0,6+,1013.0,0,METAR,METAR SPUR 230200Z 17010KT CAVOK 23/16 Q1013 RMK BIRD HAZARD RWY 19/01 PP000,-5.206,-80.616,30,"Piura/Iberico Intl, PI, PE",CAVOK,[],VFR,,,,,,,,PIU,Capitán FAP Guillermo Concha Iberico International Airport,Peru,Piura,https://www.worlddata.info/america/peru/airports.php
2121,SPZO,2025-11-23 02:00:17.925000+00:00,1763863200,2025-11-23T02:00:00.000Z,15.0,5.0,150,5.0,6+,1030.0,16,METAR,METAR SPZO 230200Z 15005KT 090V260 9999 SCT050 SCT100 15/05 Q1030 NOSIG RMK BIRD HAZARD RWY 10/28 PP000,-13.536,-71.939,3249,"Cuzco/Astete Arpt, CU, PE",SCT,"[{'cover': 'SCT', 'base': 5000}, {'cover': 'SCT', 'base': 10000}]",VFR,,,,,,,,CUZ,Alejandro Velasco Astete International Airport,Peru,Cusco,https://www.worlddata.info/america/peru/airports.php
2122,SUDU,2025-11-23 01:56:15.937000+00:00,1763863200,2025-11-23T02:00:00.000Z,12.0,9.0,110,7.0,6+,1022.0,0,METAR,METAR SUDU 230200Z 11007KT CAVOK 12/09 Q1022,-33.359,-56.499,91,"Durazno/Santa Bernadina Arpt, DU, UY",CAVOK,[],VFR,,,,,,,,DZO,Santa Bernardina International Airport,Uruguay,Durazno,https://www.worlddata.info/america/uruguay/airports.php
2123,SULS,2025-11-23 01:54:22.620000+00:00,1763863200,2025-11-23T02:00:00.000Z,13.0,8.0,110,5.0,6+,1023.0,0,METAR,METAR SULS 230200Z 11005KT CAVOK 13/08 Q1023,-34.855,-55.094,22,"Maldonado Intl, MA, UY",CAVOK,[],VFR,,,,,,,,PDP,Capitan Corbeta CA Curbelo International Airport,Uruguay,Punta del Este,https://www.worlddata.info/america/uruguay/airports.php
2124,SUMO,2025-11-23 02:00:17.533000+00:00,1763863200,2025-11-23T02:00:00.000Z,14.0,11.0,150,6.0,,1021.0,2,METAR,METAR SUMO 230200Z AUTO 15006KT //// ////// 14/11 Q1021,-32.34,-54.224,113,"Melo/Cerro Largo Arpt, CL, UY",,,,,,,,,,,MLZ,Cerro Largo International Airport,Uruguay,Melo,https://www.worlddata.info/america/uruguay/airports.php
2125,SUMU,2025-11-23 01:57:41.491000+00:00,1763863200,2025-11-23T02:00:00.000Z,14.0,10.0,80,4.0,6+,1023.0,16,METAR,METAR SUMU 230200Z 08004KT 9999 FEW026 14/10 Q1023 NOSIG,-34.838,-56.031,32,"Carrasco Intl, CA, UY",FEW,"[{'cover': 'FEW', 'base': 2600}]",VFR,,,,,,,,MVD,Carrasco General Cesáreo L. Berisso International Airport,Uruguay,Ciudad de la Costa,https://www.worlddata.info/america/uruguay/airports.php
2126,SUPU,2025-11-23 02:00:18.123000+00:00,1763863200,2025-11-23T02:00:00.000Z,15.0,10.0,120,7.0,,1020.0,2,METAR,METAR SUPU 230200Z AUTO 12007KT //// ////// 15/10 Q1020,-32.362,-58.067,23,"Paysandu Arpt, PA, UY",,,,,,,,,,,PDU,Tydeo Larre Borges Airport,Uruguay,Paysandú,https://www.worlddata.info/america/uruguay/airports.php
2127,SURV,2025-11-23 01:51:54.238000+00:00,1763863200,2025-11-23T02:00:00.000Z,16.0,12.0,160,8.0,6+,1019.0,0,METAR,METAR SURV 230200Z 16008KT 120V210 9999 FEW030 BKN200 16/12 Q1019,-30.97,-55.474,201,"Rivera Intl, RV, UY",BKN,"[{'cover': 'FEW', 'base': 3000}, {'cover': 'BKN', 'base': 20000}]",VFR,,,,,,,,RVY,Presidente General Don Oscar D. Gestido International Airport,Uruguay,Rivera,https://www.worlddata.info/america/uruguay/airports.php
2128,SVMI,2025-11-23 01:55:46.042000+00:00,1763863200,2025-11-23T02:00:00.000Z,27.0,25.0,70,3.0,6+,1012.0,0,METAR,METAR SVMI 230200Z 07003KT 9999 FEW016 27/25 Q1012 ,10.603,-66.991,48,"Caracas/Bolívar Intl, A, VE",FEW,"[{'cover': 'FEW', 'base': 1600}]",VFR,,,,,,,,CCS,Simón Bolívar International Airport,Venezuela,Caracas,https://www.worlddata.info/america/venezuela/airports.php
2129,SYCJ,2025-11-23 01:59:33.276000+00:00,1763863200,2025-11-23T02:00:00.000Z,26.0,25.0,VRB,2.0,6+,1010.0,16,METAR,METAR SYCJ 230200Z VRB02KT 9999 SCT016 26/25 Q1010 NOSIG,6.499,-58.254,30,"Georgetown/Jagan Intl, DE, GY",SCT,"[{'cover': 'SCT', 'base': 1600}]",VFR,,,,,,,,GEO,Cheddi Jagan International Airport,Guyana,Georgetown,https://www.worlddata.info/america/guyana/airports.php
2130,TBPB,2025-11-23 02:01:02.430000+00:00,1763863200,2025-11-23T02:00:00.000Z,28.0,23.0,80,14.0,6+,1012.0,16,METAR,METAR TBPB 230200Z 08014KT 9999 SCT018 28/23 Q1012 NOSIG,13.075,-59.492,55,"Bridgetown/Adams Intl, 1, BB",SCT,"[{'cover': 'SCT', 'base': 1800}]",VFR,,,,,,,,BGI,Grantley Adams International Airport,Barbados,Bridgetown,https://www.worlddata.info/america/barbados/airports.php
2131,TFFF,2025-11-23 02:01:18.039000+00:00,1763863200,2025-11-23T02:00:00.000Z,27.0,23.0,50,7.0,6+,1012.0,18,METAR,METAR TFFF 230200Z AUTO 05007KT 9999 FEW024 27/23 Q1012 NOSIG,14.591,-61.003,3,"Le Lamentin/Cesaire Intl, FD, MQ",FEW,"[{'cover': 'FEW', 'base': 2400}]",VFR,,,,,,,,FDF,Martinique Aimé Césaire International Airport,Martinique,Fort-de-France,https://www.worlddata.info/america/martinique/airports.php
2132,TFFJ,2025-11-23 01:35:59.258000+00:00,1763861400,2025-11-23T01:30:00.000Z,27.0,21.0,70,9.0,6+,1014.0,2,METAR,METAR TFFJ 230130Z AUTO 07009KT CAVOK 27/21 Q1014,17.904,-62.844,13,"St Barthelemy/Gustav Arpt, , BL",CAVOK,[],VFR,,,,,,,,SBH,Saint Barthélemy - Rémy de Haenen Airport,Saint Barthelemy,Gustavia / Saint-Jean,https://www.worlddata.info/america/saint-barthelemy/airports.php
2133,TFFR,2025-11-23 02:01:16.211000+00:00,1763863200,2025-11-23T02:00:00.000Z,23.0,22.0,VRB,1.0,6+,1014.0,18,METAR,METAR TFFR 230200Z AUTO VRB01KT 9999 FEW024 SCT074 23/22 Q1014 NOSIG,16.265,-61.532,6,"Guadeloupe/Pitre Intl, , GP",SCT,"[{'cover': 'FEW', 'base': 2400}, {'cover': 'SCT', 'base': 7400}]",VFR,,,,,,,,PTP,Pointe-à-Pitre Le Raizet International Airport,Guadeloupe,Pointe-à-Pitre,https://www.worlddata.info/america/guadeloupe/airports.php
2134,TIST,2025-11-23 02:02:35.123000+00:00,1763862780,2025-11-23T02:00:00.000Z,27.8,21.7,70,6.0,10+,,12,METAR,METAR TIST 230153Z 07006KT 10SM CLR 28/22 RMK AO2 SLPNO T02780217 $,18.3362,-64.9799,5,"St Thomas/King Arpt, , VI",CLR,[],VFR,,,,,,,,STT,Cyril E. King Airport,Virgin Islands,Charlotte Amalie,https://www.worlddata.info/america/virgin-islands/airports.php
2135,TISX,2025-11-23 02:02:35.010000+00:00,1763862780,2025-11-23T02:00:00.000Z,23.3,21.1,40,5.0,10+,1015.0,14,METAR,METAR TISX 230153Z AUTO 04005KT 10SM FEW034 23/21 A2997 RMK AO2 SLP148 T02330211 $,17.6997,-64.8126,16,"St Croix/Rohlsen Arpt, , VI",FEW,"[{'cover': 'FEW', 'base': 3400}]",VFR,,1014.8,,,,,,STX,Henry E Rohlsen Airport,Virgin Islands,Christiansted,https://www.worlddata.info/america/virgin-islands/airports.php
2136,TJPS,2025-11-23 01:52:03.247000+00:00,1763861700,2025-11-23T01:35:00.000Z,24.0,22.0,0,0.0,10+,1014.6,6,METAR,METAR TJPS 230135Z AUTO 00000KT 10SM CLR 24/22 A2996 RMK AO2,18.011,-66.567,12,"Ponce/Mercedita Arpt, , PR",CLR,[],VFR,,,,,,,,PSE,Mercedita Airport,Puerto Rico,Ponce,https://www.worlddata.info/america/puerto-rico/airports.php
2137,TJRV,2025-11-23 01:36:07.020000+00:00,1763861160,2025-11-23T01:26:00.000Z,24.0,22.0,90,6.0,10+,,4,METAR,METAR TJRV 230126Z 09006KT 10SM FEW030 BKN050 24/22 2996 AO2A SLP146 SHRAB0047E0126 T024020221,18.25,-65.643,11,"Jose Alponte Arpt, , PR",BKN,"[{'cover': 'FEW', 'base': 3000}, {'cover': 'BKN', 'base': 5000}]",VFR,SHRA,1014.6,,,,,,NRR,José Aponte de la Torre Airport,Puerto Rico,Ceiba,https://www.worlddata.info/america/puerto-rico/airports.php
2138,TLPC,2025-11-23 02:01:39.833000+00:00,1763863200,2025-11-23T02:00:00.000Z,27.0,24.0,90,9.0,6+,1013.0,16,METAR,METAR TLPC 230200Z 09009KT 9999 BKN023 27/24 Q1013 NOSIG,14.021,-60.993,8,"St Lucia/Charles Arpt, CA, LC",BKN,"[{'cover': 'BKN', 'base': 2300}]",MVFR,,,,,,,,SLU,George F. L. Charles Airport,Saint Lucia,Castries,https://www.worlddata.info/america/saint-lucia/airports.php
2139,TNCA,2025-11-23 02:01:53.012000+00:00,1763863200,2025-11-23T02:00:00.000Z,28.0,23.0,70,12.0,6+,1012.0,16,METAR,METAR TNCA 230200Z 07012KT 9999 FEW018 28/23 Q1012 NOSIG,12.501,-70.015,7,"Aruba/Beatrix Intl, , AW",FEW,"[{'cover': 'FEW', 'base': 1800}]",VFR,,,,,,,,AUA,Queen Beatrix International Airport,Aruba,Oranjestad,https://www.worlddata.info/america/aruba/airports.php
2140,TNCM,2025-11-23 01:58:13.076000+00:00,1763863200,2025-11-23T02:00:00.000Z,27.0,24.0,50,7.0,6+,1015.0,0,METAR,METAR TNCM 230200Z 05007KT 9999 FEW019 27/24 Q1015 ,18.041,-63.109,9,"St Maarten Intl, , SX",FEW,"[{'cover': 'FEW', 'base': 1900}]",VFR,,,,,,,,SXM,Princess Juliana International Airport,Sint Maarten,Saint Martin,https://www.worlddata.info/america/sint-maarten/airports.php
2141,TTCP,2025-11-23 02:01:43.420000+00:00,1763863200,2025-11-23T02:00:00.000Z,27.0,23.0,60,4.0,6+,1011.0,16,METAR,METAR TTCP 230200Z 06004KT 9999 VCSH FEW016 27/23 Q1011 NOSIG RMK VCSH SE/SW,11.149,-60.836,13,"Tobago/Crown Pt Arpt, WT, TT",FEW,"[{'cover': 'FEW', 'base': 1600}]",VFR,VCSH,,,,,,,TAB,A.N.R. Robinson International Airport,Trinidad and Tobago,Scarborough,https://www.worlddata.info/america/trinidad-and-tobago/airports.php
2142,TTPP,2025-11-23 02:01:43.478000+00:00,1763863200,2025-11-23T02:00:00.000Z,25.0,24.0,0,0.0,6+,1011.0,16,METAR,METAR TTPP 230200Z 00000KT 9999 FEW016 25/24 Q1011 NOSIG,10.593,-61.348,11,"Port of Spain/Piarco Arpt, TU, TT",FEW,"[{'cover': 'FEW', 'base': 1600}]",VFR,,,,,,,,POS,Piarco International Airport,Trinidad and Tobago,Port of Spain,https://www.worlddata.info/america/trinidad-and-tobago/airports.php
2143,TXKF,2025-11-23 01:55:15.020000+00:00,1763862900,2025-11-23T02:00:00.000Z,21.0,17.0,260,9.0,6+,1016.0,0,METAR,METAR TXKF 230155Z 26009KT 9999 FEW025 21/17 Q1016 ,32.364,-64.679,4,"Bermuda/Wade Intl, SH, BM",FEW,"[{'cover': 'FEW', 'base': 2500}]",VFR,,,,,,,,BDA,L.F. Wade International Airport,Bermuda,Hamilton,https://www.worlddata.info/america/bermuda/airports.php
2144,UAAA,2025-11-23 02:00:19.338000+00:00,1763862900,2025-11-23T01:55:00.000Z,-2.0,-3.0,VRB,2.0,0.34,1030.0,16,SPECI,SPECI UAAA 230155Z VRB01MPS 0550 R05R/0900 FZFG BKN200 M02/M03 Q1030 NOSIG,43.35,77.027,673,"Almaty Intl, AL, KZ",BKN,"[{'cover': 'BKN', 'base': 20000}]",LIFR,FZFG,,,,,,,ALA,Almaty International Airport,Kazakhstan,Almaty,https://www.worlddata.info/asia/kazakhstan/airports.php
2145,UACC,2025-11-23 01:40:41.641000+00:00,1763861400,2025-11-23T01:30:00.000Z,1.0,1.0,220,14.0,5.59,1029.0,16,METAR,METAR UACC 230130Z 22007MPS 9000 OVC004 01/01 Q1029 NOSIG RMK QBB130 QFE740/0987,51.024,71.468,354,"Astana Intl, AK, KZ",OVC,"[{'cover': 'OVC', 'base': 400}]",LIFR,,,,,,,,NQZ,Nursultan Nazarbayev International Airport,Kazakhstan,Astana,https://www.worlddata.info/asia/kazakhstan/airports.php
2146,UADD,2025-11-23 01:36:08.617000+00:00,1763861400,2025-11-23T01:30:00.000Z,1.0,-2.0,210,6.0,3.73,1029.0,16,METAR,METAR UADD 230130Z 21003MPS 6000 NSC 01/M02 Q1029 NOSIG RMK QFE714/0952,42.854,71.304,663,"Taraz Arpt, ZH, KZ",CLR,[],MVFR,,,,,,,,DMB,Taraz Airport,Kazakhstan,Taraz,https://www.worlddata.info/asia/kazakhstan/airports.php
2147,UAII,2025-11-23 01:36:08.643000+00:00,1763861400,2025-11-23T01:30:00.000Z,3.0,-1.0,130,6.0,1.93,1028.0,16,METAR,METAR UAII 230130Z 13003MPS 3100 FU NSC 03/M01 Q1028 NOSIG RMK QFE735/0981,42.366,69.476,410,"Shymkent Intl, YU, KZ",CLR,[],IFR,FU,,,,,,,CIT,Shymkent Airport,Kazakhstan,Shymkent,https://www.worlddata.info/asia/kazakhstan/airports.php
2148,UAIT,2025-11-23 01:35:20.974000+00:00,1763861400,2025-11-23T01:30:00.000Z,2.0,-4.0,120,6.0,6+,1028.0,16,METAR,METAR UAIT 230130Z 12003MPS CAVOK 02/M04 Q1028 NOSIG RMK QFE746/0995,43.311,68.55,301,"Turkistan Arpt, YU, KZ",CAVOK,[],VFR,,,,,,,,HSA,Hazrat Sultan International Airport,Kazakhstan,Turkıstan,https://www.worlddata.info/asia/kazakhstan/airports.php
2149,UAKD,2025-11-23 01:36:08.662000+00:00,1763861400,2025-11-23T01:30:00.000Z,2.0,1.0,130,6.0,6+,1032.0,16,METAR,METAR UAKD 230130Z 13003MPS 9999 SCT006 OVC023 02/01 Q1032 NOSIG RMK QBB190 QFE740/0987,47.711,67.739,379,"Zhezkazgan Arpt, KA, KZ",OVC,"[{'cover': 'SCT', 'base': 600}, {'cover': 'OVC', 'base': 2300}]",MVFR,,,,,,,,DZN,Zhezkazgan National Airport,Kazakhstan,Zhezkazgan,https://www.worlddata.info/asia/kazakhstan/airports.php
2150,UAKK,2025-11-23 01:36:08.689000+00:00,1763861400,2025-11-23T01:30:00.000Z,-3.0,-7.0,180,12.0,6+,1032.0,16,METAR,METAR UAKK 230130Z 18006MPS 9999 BKN031 M03/M07 Q1032 NOSIG RMK QFE726/0968,49.672,73.333,532,"Karaganda Arpt, KA, KZ",BKN,"[{'cover': 'BKN', 'base': 3100}]",VFR,,,,,,,,KGF,Sary-Arka Airport,Kazakhstan,Karaganda,https://www.worlddata.info/asia/kazakhstan/airports.php
2151,UAOO,2025-11-23 01:36:11.664000+00:00,1763861400,2025-11-23T01:30:00.000Z,1.0,-2.0,40,8.0,6+,1030.0,16,METAR,METAR UAOO 230130Z 04004MPS CAVOK 01/M02 Q1030 NOSIG RMK QFE761/1015,44.707,65.593,130,"Kzylorda Arpt, KZ, KZ",CAVOK,[],VFR,,,,,,,,KZO,Kyzylorda Airport,Kazakhstan,Kyzylorda,https://www.worlddata.info/asia/kazakhstan/airports.php
2152,UARR,2025-11-23 01:36:11.704000+00:00,1763861400,2025-11-23T01:30:00.000Z,7.0,6.0,210,10.0,0.19,1024.0,16,METAR,METAR UARR 230130Z 21005MPS 0300 R22/1000U FG VV002 07/06 Q1024 NOSIG RMK QBB060 QFE764/1019,51.151,51.541,33,"Uralsk Arpt, ZA, KZ",OVX,"[{'cover': 'OVX', 'base': 200}]",LIFR,FG,,,2.0,,,,URA,Uralsk Airport,Kazakhstan,Uralsk,https://www.worlddata.info/asia/kazakhstan/airports.php
2153,UASK,2025-11-23 01:35:20.697000+00:00,1763861400,2025-11-23T01:30:00.000Z,-10.0,-12.0,110,4.0,6+,1039.0,16,METAR,METAR UASK 230130Z 11002MPS 9999 NSC M10/M12 Q1039 NOSIG RMK QFE753/1005,50.027,82.5,285,"Ust-Kamenogorsk Arpt, VO, KZ",CLR,[],VFR,,,,,,,,UKK,Ust-Kamenogorsk Airport,Kazakhstan,Ust-Kamenogorsk (Oskemen),https://www.worlddata.info/asia/kazakhstan/airports.php
2154,UASP,2025-11-23 01:36:08.772000+00:00,1763861400,2025-11-23T01:30:00.000Z,-2.0,-7.0,200,14.0,6+,1030.0,16,METAR,METAR UASP 230130Z 20007MPS 9999 SCT035 M02/M07 Q1030 NOSIG RMK QFE761/1014,52.202,77.078,122,"Pavlodar Arpt, PA, KZ",SCT,"[{'cover': 'SCT', 'base': 3500}]",VFR,,,,,,,,PWQ,Pavlodar Airport,Kazakhstan,Pavlodar,https://www.worlddata.info/asia/kazakhstan/airports.php
2155,UASS,2025-11-23 01:36:08.796000+00:00,1763861400,2025-11-23T01:30:00.000Z,-9.0,-10.0,110,8.0,6+,1037.0,16,METAR,METAR UASS 230130Z 11004MPS CAVOK M09/M10 Q1037 NOSIG RMK QFE759/1013,50.352,80.228,215,"Semey Arpt, VO, KZ",CAVOK,[],VFR,,,,,,,,PLX,Semey Airport,Kazakhstan,Semey,https://www.worlddata.info/asia/kazakhstan/airports.php
2156,UATE,2025-11-23 01:40:41.669000+00:00,1763861400,2025-11-23T01:30:00.000Z,2.0,0.0,80,12.0,6+,1025.0,16,METAR,METAR UATE 230130Z 08006MPS CAVOK 02/M00 Q1025 NOSIG RMK QFE767/1022,43.86,51.092,21,"Aktau Arpt, MA, KZ",CAVOK,[],VFR,,,,,,,,SCO,Aktau Airport,Kazakhstan,Aktau,https://www.worlddata.info/asia/kazakhstan/airports.php
2157,UATG,2025-11-23 01:36:11.806000+00:00,1763861400,2025-11-23T01:30:00.000Z,2.0,0.0,80,6.0,3.11,1026.0,16,METAR,METAR UATG 230130Z 08003MPS 5000 BR NSC 02/00 Q1026 NOSIG RMK QFE772/1029,47.122,51.829,-23,"Atyrau Arpt, AT, KZ",CLR,[],MVFR,BR,,,,,,,GUW,Atyrau International Airport,Kazakhstan,Atyrau,https://www.worlddata.info/asia/kazakhstan/airports.php
2158,UATT,2025-11-23 01:40:41.702000+00:00,1763861400,2025-11-23T01:30:00.000Z,3.0,0.0,170,8.0,6+,1027.0,16,METAR,METAR UATT 230130Z 17004MPS CAVOK 03/00 Q1027 NOSIG RMK QFE750/1000,50.248,57.203,217,"Aktjubinsk/Atkobe Arpt, AK, KZ",CAVOK,[],VFR,,,,,,,,AKX,Aktobe Airport,Kazakhstan,Aktobe,https://www.worlddata.info/asia/kazakhstan/airports.php
2159,UBBB,2025-11-23 01:32:32.335000+00:00,1763861400,2025-11-23T01:30:00.000Z,14.0,11.0,190,12.0,6+,1023.0,16,METAR,METAR UBBB 230130Z 19012KT CAVOK 14/11 Q1023 NOSIG,40.469,50.061,94,"Baku/Aliyev Intl, BA, AZ",CAVOK,[],VFR,,,,,,,,GYD,Heydar Aliyev International Airport,Azerbaijan,Baku,https://www.worlddata.info/asia/azerbaijan/airports.php
2160,UBBG,2025-11-23 02:01:23.931000+00:00,1763863200,2025-11-23T02:00:00.000Z,4.0,-2.0,230,6.0,4.35,1025.0,16,METAR,METAR UBBG 230200Z 23006KT 7000 SCT100 04/M02 Q1025 NOSIG,40.738,46.318,333,"Gyanca Intl, GY, AZ",SCT,"[{'cover': 'SCT', 'base': 10000}]",MVFR,,,,,,,,GNJ,Ganja International Airport,Azerbaijan,Ganja,https://www.worlddata.info/asia/azerbaijan/airports.php
2161,UBBL,2025-11-23 01:57:14.592000+00:00,1763863200,2025-11-23T02:00:00.000Z,4.0,4.0,0,0.0,1.24,1026.0,16,METAR,METAR UBBL 230200Z 00000KT 2000 NSC 04/04 Q1026 NOSIG,38.746,48.818,-11,"Lenkoran Intl, LA, AZ",CLR,[],IFR,,,,,,,,LLK,Lankaran International Airport,Azerbaijan,Lankaran,https://www.worlddata.info/asia/azerbaijan/airports.php
2162,UBBN,2025-11-23 02:00:02.433000+00:00,1763863200,2025-11-23T02:00:00.000Z,-1.0,-3.0,10,6.0,3.73,1030.0,16,METAR,METAR UBBN 230200Z 01006KT 6000 NSC M01/M03 Q1030 NOSIG RMK MT OBSC QFE697,39.189,45.458,857,"Nakhchivan Arpt, NX, AZ",CLR,[],MVFR,,,,,,,,NAJ,Nakhchivan Airport,Azerbaijan,Nakhchivan,https://www.worlddata.info/asia/azerbaijan/airports.php
2163,UBBQ,2025-11-23 02:01:00.899000+00:00,1763863200,2025-11-23T02:00:00.000Z,0.0,-2.0,120,3.0,1.24,1025.0,16,METAR,METAR UBBQ 230200Z 12003KT 2000 BR NSC M00/M02 Q1025 NOSIG,40.809,47.729,339,"Qabala Intl, QA, AZ",CLR,[],IFR,BR,,,,,,,GBB,Gabala International Airport,Azerbaijan,Gabala,https://www.worlddata.info/asia/azerbaijan/airports.php
2164,UBBY,2025-11-23 02:01:54.106000+00:00,1763863200,2025-11-23T02:00:00.000Z,3.0,1.0,60,2.0,6+,1028.0,16,METAR,METAR UBBY 230200Z 06002KT 9999 NSC 03/01 Q1028 NOSIG,41.561,46.667,383,"Zakataly Intl, BA, AZ",CLR,[],VFR,,,,,,,,ZTU,Zaqatala International Airport,Azerbaijan,Zaqatala,https://www.worlddata.info/asia/azerbaijan/airports.php
2165,UDSG,2025-11-23 01:35:28.603000+00:00,1763861400,2025-11-23T01:30:00.000Z,-8.0,-9.0,60,2.0,6+,1032.0,16,METAR,METAR UDSG 230130Z 06002KT 9999 NSC M08/M09 Q1032 NOSIG,40.75,43.859,1515,"Gyumri/Shirak Intl, SH, AM",CLR,[],VFR,,,,,,,,LWN,Shirak International Airport,Armenia,Gyumri,https://www.worlddata.info/asia/armenia/airports.php
2166,UDYZ,2025-11-23 01:35:28.572000+00:00,1763861400,2025-11-23T01:30:00.000Z,-2.0,-5.0,0,0.0,2.05,1031.0,16,METAR,METAR UDYZ 230130Z 00000KT 3300 BR FEW031 M02/M05 Q1031 NOSIG,40.147,44.396,851,"Yerevan/Zvartnots Intl, ER, AM",FEW,"[{'cover': 'FEW', 'base': 3100}]",IFR,BR,,,,,,,EVN,Zvartnots International Airport,Armenia,Yerevan,https://www.worlddata.info/asia/armenia/airports.php
2167,UEEE,2025-11-23 01:34:34.740000+00:00,1763861400,2025-11-23T01:30:00.000Z,-33.0,-36.0,280,4.0,6+,1012.0,16,METAR,METAR UEEE 230130Z 28002MPS CAVOK M33/M36 Q1012 R23/450158 NOSIG RMK QFE751,62.093,129.774,106,"Yakutsk Arpt, SA, RU",CAVOK,[],VFR,,,,,,,,YKS,Yakutsk Airport,Russia,Yakutsk,https://www.worlddata.info/europe/russia/airports.php
2168,UGKO,2025-11-23 01:34:41.710000+00:00,1763861400,2025-11-23T01:30:00.000Z,7.0,1.0,80,5.0,6+,1021.0,16,METAR,METAR UGKO 230130Z 08005KT CAVOK 07/01 Q1021 NOSIG,42.177,42.483,44,"Kutaisi/Kopitnarii Intl, IM, GE",CAVOK,[],VFR,,,,,,,,KUT,David the Builder Kutaisi International Airport,Georgia,Kopitnari,https://www.worlddata.info/asia/georgia/airports.php
2169,UGSB,2025-11-23 01:40:41.510000+00:00,1763861400,2025-11-23T01:30:00.000Z,14.0,1.0,140,22.0,6+,1021.0,16,METAR,METAR UGSB 230130Z 14022KT CAVOK 14/01 Q1021 WS R12 NOSIG,41.61,41.6,32,"Batumi Intl, AJ, GE",CAVOK,[],VFR,,,,,,,,BUS,Batumi International Airport,Georgia,Batumi,https://www.worlddata.info/asia/georgia/airports.php
2170,UGTB,2025-11-23 01:34:41.824000+00:00,1763861400,2025-11-23T01:30:00.000Z,4.0,0.0,330,8.0,6+,1026.0,16,METAR,METAR UGTB 230130Z 33008KT CAVOK 04/M00 Q1026 NOSIG,41.669,44.955,468,"Tbilisi Intl, TB, GE",CAVOK,[],VFR,,,,,,,,TBS,Tbilisi International Airport,Georgia,Tbilisi,https://www.worlddata.info/asia/georgia/airports.php
2171,UHBB,2025-11-23 01:34:26.510000+00:00,1763861400,2025-11-23T01:30:00.000Z,-8.0,-9.0,210,2.0,5.59,1008.0,16,METAR,METAR UHBB 230130Z 21001MPS 9000 FEW033 M08/M09 Q1008 R36/810158 NOSIG RMK QFE739/0985,50.425,127.412,185,"Blagoveshchensk Arpt, AM, RU",FEW,"[{'cover': 'FEW', 'base': 3300}]",VFR,,,,,,,,BQS,Ignatyevo Airport,Russia,Blagoveschensk,https://www.worlddata.info/europe/russia/airports.php
2172,UHHH,2025-11-23 01:40:41.728000+00:00,1763861400,2025-11-23T01:30:00.000Z,-1.0,-6.0,VRB,2.0,6+,1010.0,16,METAR,METAR UHHH 230130Z VRB01MPS 9999 FEW039 M01/M06 Q1010 R88/820250 NOSIG RMK QFE752/1002,48.527,135.184,74,"Khabarovsk/Novy Arpt, KH, RU",FEW,"[{'cover': 'FEW', 'base': 3900}]",VFR,,,,,,,,KHV,Khabarovsk Novy Airport,Russia,Khabarovsk,https://www.worlddata.info/europe/russia/airports.php
2173,UHMA,2025-11-23 01:40:41.785000+00:00,1763861400,2025-11-23T01:30:00.000Z,0.0,-2.0,130,19.0,6+,1011.0,16,METAR,METAR UHMA 230130Z 13010MPS 9999 SCT058 M00/M02 Q1011 R02/////// NOSIG RMK MID 13012MPS END R02/13014MPS MT OBSC QFE755/1006,64.733,177.739,53,"Anadyr Arpt, CH, RU",SCT,"[{'cover': 'SCT', 'base': 5800}]",VFR,,,,,,,,DYR,Ugolny Yuri Ryktheu Airport,Russia,Anadyr,https://www.worlddata.info/europe/russia/airports.php
2174,UHMM,2025-11-23 01:35:49.835000+00:00,1763861400,2025-11-23T01:30:00.000Z,-23.0,-27.0,90,2.0,6+,1002.0,16,METAR,METAR UHMM 230130Z 09001MPS 9999 NSC M23/M27 Q1002 R10/82//55 NOSIG RMK QFE737 R28/00000MPS,59.911,150.725,175,"Magadan/Sokol Arpt, MA, RU",CLR,[],VFR,,,,,,,,GDX,Sokol Airport,Russia,Magadan,https://www.worlddata.info/europe/russia/airports.php
2175,UHPP,2025-11-23 01:57:04.820000+00:00,1763862900,2025-11-23T01:55:00.000Z,0.0,-14.0,300,16.0,6+,1001.0,16,SPECI,SPECI UHPP 230155Z 30008G13MPS CAVOK M00/M14 Q1001 R34L/190060 NOSIG RMK QFE747/0996,53.175,158.444,33,"Petropavlovsk-Kamchatsky Arpt, KA, RU",CAVOK,[],VFR,,,,,,25.0,,PKC,Yelizovo Airport,Russia,Petropavlovsk-Kamchatsky,https://www.worlddata.info/europe/russia/airports.php
2176,UHSS,2025-11-23 01:40:41.814000+00:00,1763861400,2025-11-23T01:30:00.000Z,5.0,0.0,180,8.0,6+,1014.0,16,METAR,METAR UHSS 230130Z 18004MPS 9999 NSC 05/00 Q1014 R19/290060 NOSIG RMK QFE759/1012,46.887,142.719,14,"Yuzhno-Sakhalinsk Arpt, SA, RU",CLR,[],VFR,,,,,,,,UUS,Yuzhno-Sakhalinsk Airport,Russia,Yuzhno-Sakhalinsk,https://www.worlddata.info/europe/russia/airports.php
2177,UHWW,2025-11-23 01:40:41.837000+00:00,1763861400,2025-11-23T01:30:00.000Z,3.0,2.0,VRB,2.0,5.59,1017.0,16,METAR,METAR UHWW 230130Z VRB01MPS 9000 0200W BCFG SCT002 03/02 Q1017 R25L/0///70 NOSIG RMK QFE762,43.399,132.146,11,"Vladivostok Intl, PR, RU",SCT,"[{'cover': 'SCT', 'base': 200}]",VFR,BCFG,,,,,,,VVO,Vladivostok International Airport,Russia,Artyom,https://www.worlddata.info/europe/russia/airports.php
2178,UIAA,2025-11-23 01:40:41.863000+00:00,1763861400,2025-11-23T01:30:00.000Z,-9.0,-16.0,240,10.0,6+,1018.0,16,METAR,METAR UIAA 230130Z 24005MPS 9999 NSC M09/M16 Q1018 R29/62D NOSIG RMK QFE705/0940,52.026,113.31,650,"Chita/Kadala Arpt, CH, RU",CLR,[],VFR,,,,,,,,HTA,Chita-Kadala International Airport,Russia,Chita,https://www.worlddata.info/europe/russia/airports.php
2179,UIBB,2025-11-23 01:40:41.890000+00:00,1763861400,2025-11-23T01:30:00.000Z,-11.0,-15.0,260,14.0,4.97,1023.0,16,METAR,METAR UIBB 230130Z 26007G12MPS 230V300 8000 -SHSN DRSN BKN043CB M11/M15 Q1023 RESHSN R30/490140 NOSIG RMK QFE724/0966,56.365,101.716,485,"Bratsk Arpt, IR, RU",BKN,"[{'cover': 'BKN', 'base': 4300}]",MVFR,-SHSN DRSN,,,,,23.0,,BTK,Bratsk Airport,Russia,Bratsk,https://www.worlddata.info/europe/russia/airports.php
2180,UIII,2025-11-23 01:40:41.925000+00:00,1763861400,2025-11-23T01:30:00.000Z,-7.0,-14.0,300,10.0,6+,1029.0,16,METAR,METAR UIII 230130Z 30005MPS 9999 SCT050CB M07/M14 Q1029 R30/810350 NOSIG RMK QFE727/0969,52.273,104.38,480,"Irkutsk Intl, IR, RU",SCT,"[{'cover': 'SCT', 'base': 5000}]",VFR,,,,,,,,IKT,Irkutsk International Airport,Russia,Irkutsk,https://www.worlddata.info/europe/russia/airports.php
2181,UIUU,2025-11-23 01:56:49.953000+00:00,1763862900,2025-11-23T01:55:00.000Z,-6.0,-15.0,320,14.0,6+,1026.0,16,SPECI,SPECI UIUU 230155Z 32007MPS 9999 FEW040CB M06/M15 Q1026 R26/810550 NOSIG RMK QFE725/0966,51.808,107.443,508,"Ulan-Ude Arpt, BU, RU",FEW,"[{'cover': 'FEW', 'base': 4000}]",VFR,,,,,,,,UUD,Baikal International Airport,Russia,Ulan Ude,https://www.worlddata.info/europe/russia/airports.php
2182,ULAA,2025-11-23 01:36:11.959000+00:00,1763861400,2025-11-23T01:30:00.000Z,-9.0,-10.0,180,8.0,6+,1009.0,16,METAR,METAR ULAA 230130Z 18004MPS 130V230 9999 -SN OVC009 M09/M10 Q1009 R26/590335 NOSIG RMK QFE756/1008,64.599,40.712,10,"Arhangelsk/Talagi Arpt, AR, RU",OVC,"[{'cover': 'OVC', 'base': 900}]",IFR,-SN,,,,,,,ARH,Talagi Airport,Russia,Archangelsk,https://www.worlddata.info/europe/russia/airports.php
2183,ULLI,2025-11-23 01:36:11.411000+00:00,1763861400,2025-11-23T01:30:00.000Z,-2.0,-4.0,210,6.0,6+,1015.0,16,METAR,METAR ULLI 230130Z 21003MPS 130V270 CAVOK M02/M04 Q1015 R28L/290045 NOSIG,59.798,30.267,25,"St Petersburg/Pulkovo Arpt, LE, RU",CAVOK,[],VFR,,,,,,,,LED,Pulkovo Airport,Russia,St. Petersburg,https://www.worlddata.info/europe/russia/airports.php
2184,ULMM,2025-11-23 01:36:11.440000+00:00,1763861400,2025-11-23T01:30:00.000Z,-23.0,-26.0,140,2.0,6+,1003.0,16,METAR,METAR ULMM 230130Z 14001MPS 9999 BCFG BKN002 M23/M26 Q1003 R31/490242 NOSIG RMK QBB060 OBST OBSC QFE745,68.781,32.749,79,"Murmansk Arpt, MU, RU",BKN,"[{'cover': 'BKN', 'base': 200}]",LIFR,BCFG,,,,,,,MMK,Murmansk Airport,Russia,Murmansk,https://www.worlddata.info/europe/russia/airports.php
2185,UMKK,2025-11-23 01:36:12.418000+00:00,1763861400,2025-11-23T01:30:00.000Z,-4.0,-5.0,190,6.0,6+,1023.0,16,METAR,METAR UMKK 230130Z 19003MPS CAVOK M04/M05 Q1023 R06/19//95 NOSIG RMK QFE766/1021,54.885,20.583,6,"Kaliningrad/Khrabrovo Arpt, KG, RU",CAVOK,[],VFR,,,,,,,,KGD,Khrabrovo Airport,Russia,Kaliningrad,https://www.worlddata.info/europe/russia/airports.php
2186,UMMS,2025-11-23 01:32:59.048000+00:00,1763861400,2025-11-23T01:30:00.000Z,-5.0,-7.0,250,2.0,6+,1023.0,16,METAR,METAR UMMS 230130Z 25001MPS CAVOK M05/M07 Q1023 NOSIG,53.883,28.031,196,"Minsk Arpt, MI, BY",CAVOK,[],VFR,,,,,,,,MSQ,Minsk National Airport,Belarus,Minsk,https://www.worlddata.info/europe/belarus/airports.php
2187,UNAA,2025-11-23 01:36:11.986000+00:00,1763861400,2025-11-23T01:30:00.000Z,-9.0,-14.0,180,8.0,6+,1038.0,16,METAR,METAR UNAA 230130Z 18004MPS CAVOK M09/M14 Q1038 R20/190048 NOSIG RMK QFE755,53.74,91.385,249,"Abakan Intl, KK, RU",CAVOK,[],VFR,,,,,,,,ABA,Abakan International Airport,Russia,Abakan,https://www.worlddata.info/europe/russia/airports.php
2188,UNBB,2025-11-23 01:36:12.440000+00:00,1763861400,2025-11-23T01:30:00.000Z,-8.0,-10.0,170,10.0,6+,1034.0,16,METAR,METAR UNBB 230130Z 17005MPS 9999 SCT046 M08/M10 Q1034 R24/190050 NOSIG RMK QFE753,53.362,83.54,249,"Barnaul Arpt, AL, RU",SCT,"[{'cover': 'SCT', 'base': 4600}]",VFR,,,,,,,,BAX,Barnaul Airport,Russia,Barnaul,https://www.worlddata.info/europe/russia/airports.php
2189,UNEE,2025-11-23 01:36:12.463000+00:00,1763861400,2025-11-23T01:30:00.000Z,-10.0,-12.0,160,12.0,6+,1032.0,16,METAR,METAR UNEE 230130Z 16006MPS CAVOK M10/M12 Q1032 R23/820250 NOSIG RMK QFE751,55.27,86.107,261,"Kemerovo Intl, KE, RU",CAVOK,[],VFR,,,,,,,,KEJ,Kemerovo Airport,Russia,Kemerovo,https://www.worlddata.info/europe/russia/airports.php
2190,UNKL,2025-11-23 01:36:12.485000+00:00,1763861400,2025-11-23T01:30:00.000Z,-9.0,-13.0,210,6.0,6+,1032.0,16,METAR,METAR UNKL 230130Z 21003MPS CAVOK M09/M13 Q1032 R29/420137 NOSIG RMK QFE748,56.173,92.493,278,"Krasnoyarsk Arpt, KY, RU",CAVOK,[],VFR,,,,,,,,KJA,Krasnoyarsk International Airport,Russia,Krasnoyarsk,https://www.worlddata.info/europe/russia/airports.php
2191,UNNT,2025-11-23 01:36:12.012000+00:00,1763861400,2025-11-23T01:30:00.000Z,-7.0,-10.0,180,14.0,6+,1029.0,16,METAR,METAR UNNT 230130Z 18007MPS 9999 DRSN NSC M07/M10 Q1029 R25/190050 R16/////// NOSIG RMK QFE761/1015,55.013,82.651,106,"Novosibirsk/Tolmachevo Arpt, NV, RU",CLR,[],VFR,DRSN,,,,,,,OVB,Novosibirsk Tolmachevo Airport,Russia,Novosibirsk,https://www.worlddata.info/europe/russia/airports.php
2192,UNOO,2025-11-23 01:36:12.509000+00:00,1763861400,2025-11-23T01:30:00.000Z,1.0,0.0,210,16.0,6+,1017.0,16,METAR,METAR UNOO 230130Z 21008MPS 9999 BKN010 BKN021CB 01/00 Q1017 R25/690545 NOSIG RMK QFE755,54.964,73.32,85,"Omsk Arpt, OM, RU",BKN,"[{'cover': 'BKN', 'base': 1000}, {'cover': 'BKN', 'base': 2100}]",MVFR,,,,,,,,OMS,Omsk Central Airport,Russia,Omsk,https://www.worlddata.info/europe/russia/airports.php
2193,UNTT,2025-11-23 01:34:26.052000+00:00,1763861400,2025-11-23T01:30:00.000Z,-8.0,-12.0,200,19.0,6+,1026.0,16,METAR,METAR UNTT 230130Z 20010MPS 9999 DRSN NSC M08/M12 Q1026 R21/490140 NOSIG RMK QFE754,56.381,85.207,179,"Tomsk/Bogashevo Arpt, TO, RU",CLR,[],VFR,DRSN,,,,,,,TOF,Bogashevo Airport,Russia,Tomsk,https://www.worlddata.info/europe/russia/airports.php
2194,UNWW,2025-11-23 01:36:12.529000+00:00,1763861400,2025-11-23T01:30:00.000Z,-9.0,-11.0,160,8.0,6+,1037.0,16,METAR,METAR UNWW 230130Z 16004MPS 9999 BKN016CB M09/M11 Q1037 R01/920241 NOSIG RMK QFE750,53.811,86.878,307,"Novokuznetsk Arpt, KE, RU",BKN,"[{'cover': 'BKN', 'base': 1600}]",MVFR,,,,,,,,NOZ,Spichenkovo Airport,Russia,Novokuznetsk,https://www.worlddata.info/europe/russia/airports.php
2195,UOOO,2025-11-23 01:36:11.468000+00:00,1763861400,2025-11-23T01:30:00.000Z,-32.0,-35.0,50,6.0,6+,1014.0,16,METAR,METAR UOOO 230130Z 05003MPS 9999 FEW009 M32/M35 Q1014 R01/490360 NOSIG RMK QFE746/0995,69.308,87.322,177,"Norilsk/Alykel Arpt, TA, RU",FEW,"[{'cover': 'FEW', 'base': 900}]",VFR,,,,,,,,NSK,Norilsk-Alykel Airport,Russia,Norilsk,https://www.worlddata.info/europe/russia/airports.php
2196,URKA,2025-11-23 01:40:41.958000+00:00,1763861400,2025-11-23T01:30:00.000Z,15.0,9.0,140,8.0,6+,1020.0,16,METAR,METAR URKA 230130Z 14004MPS CAVOK 15/09 Q1020 R03/010065 NOSIG RMK QFE761/1015,44.995,37.341,41,"Anapa Arpt, KD, RU",CAVOK,[],VFR,,,,,,,,AAQ,Anapa Vityazevo Airport,Russia,Krasnyi Kurgan,https://www.worlddata.info/europe/russia/airports.php
2197,URKK,2025-11-23 01:36:11.241000+00:00,1763861400,2025-11-23T01:30:00.000Z,7.0,4.0,210,4.0,6+,1021.0,16,METAR,METAR URKK 230130Z 21002MPS CAVOK 07/04 Q1021 R23L/CLRD70 NOSIG RMK QFE762,45.033,39.15,29,"Krasnodar Arpt, KD, RU",CAVOK,[],VFR,,,,,,,,KRR,Krasnodar Pashkovsky International Airport,Russia,Krasnodar,https://www.worlddata.info/europe/russia/airports.php
2198,URML,2025-11-23 01:36:12.549000+00:00,1763861400,2025-11-23T01:30:00.000Z,10.0,9.0,220,6.0,3.11,1022.0,16,METAR,METAR URML 230130Z 22003MPS 170V240 5000 BR SCT007 10/09 Q1022 R14/01//70 NOSIG RMK MT OBSC QFE766/1022,42.817,47.652,4,"Makhachkala/Uytash Arpt, DA, RU",SCT,"[{'cover': 'SCT', 'base': 700}]",MVFR,BR,,,,,,,MCX,Makhachkala Uytash International Airport,Russia,Makhachkala,https://www.worlddata.info/europe/russia/airports.php
2199,URMM,2025-11-23 01:36:11.266000+00:00,1763861400,2025-11-23T01:30:00.000Z,0.0,0.0,270,6.0,0.12,1023.0,16,METAR,METAR URMM 230130Z 27003MPS 0200 0150SE R11/0650N FG VV001 00/00 Q1023 R11/190060 NOSIG RMK QBB050 MT OBSC OBST OBSC QFE739/0985,44.225,43.082,318,"Mineralyne Vody Arpt, ST, RU",OVX,"[{'cover': 'OVX', 'base': 100}]",LIFR,FG,,,1.0,,,,MRV,Mineralnyye Vody Airport,Russia,Mineralnyye Vody,https://www.worlddata.info/europe/russia/airports.php
2200,URMO,2025-11-23 01:34:33.527000+00:00,1763861400,2025-11-23T01:30:00.000Z,-2.0,-4.0,0,0.0,6+,1023.0,16,METAR,METAR URMO 230130Z 00000MPS 9999 NSC M02/M04 Q1023 R09/010070 NOSIG RMK QFE723/0964,43.204,44.608,505,"Vladikavkaz Arpt, SE, RU",CLR,[],VFR,,,,,,,,OGZ,Vladikavkaz Beslan International Airport,Russia,Beslan,https://www.worlddata.info/europe/russia/airports.php
2201,URMT,2025-11-23 01:36:11.288000+00:00,1763861400,2025-11-23T01:30:00.000Z,14.0,-2.0,320,6.0,6+,1022.0,16,METAR,METAR URMT 230130Z 32003MPS CAVOK 14/M02 Q1022 R07/010070 NOSIG RMK QFE726,45.108,42.1,448,"Stavropol/Shpakovskoye Intl, ST, RU",CAVOK,[],VFR,,,,,,,,STW,Stavropol Shpakovskoye Airport,Russia,Stavropol,https://www.worlddata.info/europe/russia/airports.php
2202,URRP,2025-11-23 01:57:40.057000+00:00,1763863020,2025-11-23T01:57:00.000Z,3.0,3.0,330,4.0,0.99,1020.0,16,SPECI,SPECI URRP 230157Z 33002MPS 1600 0300SW R05/0750U PRFG FEW001 03/03 Q1020 R05/CLRD70 NOSIG RMK QBB040 OBST OBSC QFE760/1014,47.494,39.925,73,"Platov Intl, RO, RU",FEW,"[{'cover': 'FEW', 'base': 100}]",LIFR,PRFG,,,,,,,ROV,Platov International Airport,Russia,Rostov-on-Don,https://www.worlddata.info/europe/russia/airports.php
2203,URSS,2025-11-23 01:36:11.308000+00:00,1763861400,2025-11-23T01:30:00.000Z,10.0,1.0,50,8.0,6+,1022.0,16,METAR,METAR URSS 230130Z 05004MPS 9999 NSC 10/01 Q1022 R02/010070 R06/010070 NOSIG RMK R06/08004MPS QFE765,43.438,39.926,4,"Sochi Intl, KD, RU",CLR,[],VFR,,,,,,,,AER,Sochi International Airport,Russia,Sochi,https://www.worlddata.info/europe/russia/airports.php
2204,URWA,2025-11-23 01:36:11.332000+00:00,1763861400,2025-11-23T01:30:00.000Z,10.0,10.0,140,4.0,4.97,1025.0,0,METAR,METAR URWA 230130Z 14002MPS 8000 OVC014 10/10 Q1025 R09/010070 TEMPO 0500 FG BKN002 RMK QFE770/1027,46.286,47.995,-19,"Astrakhan Arpt, AS, RU",OVC,"[{'cover': 'OVC', 'base': 1400}]",MVFR,,,,,,,,ASF,Astrakhan Narimanovo Boris M. Kustodiev International Airport,Russia,Astrakhan,https://www.worlddata.info/europe/russia/airports.php
2205,URWI,2025-11-23 01:36:11.354000+00:00,1763861400,2025-11-23T01:30:00.000Z,4.0,4.0,180,6.0,0.03,1023.0,2,METAR,METAR URWI 230130Z AUTO 18003MPS 0050 // ///002/// 04/04 Q1023 RMK QBB060,46.374,44.331,145,"Elista Arpt, KL, RU",,,,,,,,,,,ESL,Elista Airport,Russia,Elista,https://www.worlddata.info/europe/russia/airports.php
2206,URWW,2025-11-23 01:36:11.380000+00:00,1763861400,2025-11-23T01:30:00.000Z,8.0,8.0,150,10.0,0.09,1022.0,16,METAR,METAR URWW 230130Z 15005MPS 0150 R05/0550D FG VV001 08/08 Q1022 R05/250060 NOSIG RMK QBB050 OBST OBSC,48.788,44.336,131,"Volgograd Intl, VG, RU",OVX,"[{'cover': 'OVX', 'base': 100}]",LIFR,FG,,,1.0,,,,VOG,Volgograd International Airport,Russia,Volgograd,https://www.worlddata.info/europe/russia/airports.php
2207,USCC,2025-11-23 01:36:11.035000+00:00,1763861400,2025-11-23T01:30:00.000Z,7.0,4.0,240,10.0,6+,1016.0,16,METAR,METAR USCC 230130Z 24005MPS 9999 SCT023 07/04 Q1016 R27/290050 NOSIG RMK QFE742,55.306,61.503,227,"Cheljabinsk Arpt, CH, RU",SCT,"[{'cover': 'SCT', 'base': 2300}]",VFR,,,,,,,,CEK,Chelyabinsk Balandino Airport,Russia,Chelyabinsk,https://www.worlddata.info/europe/russia/airports.php
2208,USCM,2025-11-23 01:34:28.915000+00:00,1763861400,2025-11-23T01:30:00.000Z,5.0,5.0,210,8.0,6+,1020.0,0,METAR,METAR USCM 230130Z 21004MPS 9999 BKN011 OVC017 05/05 Q1020 R18/290155 TEMPO 1000 BR VV002 RMK QFE727,53.393,58.756,425,"Magnitogorsk Intl, BA, RU",OVC,"[{'cover': 'BKN', 'base': 1100}, {'cover': 'OVC', 'base': 1700}]",MVFR,,,,,,,,MQF,Magnitogorsk International Airport,Russia,Magnitogorsk,https://www.worlddata.info/europe/russia/airports.php
2209,USDA,2025-11-23 01:34:34.822000+00:00,1763861400,2025-11-23T01:30:00.000Z,-21.0,-24.0,120,12.0,6+,1014.0,16,METAR,METAR USDA 230130Z 12006MPS CAVOK M21/M24 Q1014 R04/420255 NOSIG RMK QFE759/1013,71.216,72.05,5,"Sabette Arpt, YA, RU",CAVOK,[],VFR,,,,,,,,SBT,Sabetta International Airport,Russia,Sabetta,https://www.worlddata.info/europe/russia/airports.php
2210,USDD,2025-11-23 01:50:59.002000+00:00,1763862600,2025-11-23T01:50:00.000Z,-16.0,-17.0,40,16.0,3.11,1003.0,16,SPECI,SPECI USDD 230150Z 04008MPS 5000 -SN DRSN BKN013 M16/M17 Q1003 R04/451553 NOSIG RMK QFE746/0995,66.591,66.611,53,"Salekhard Arpt, YA, RU",BKN,"[{'cover': 'BKN', 'base': 1300}]",MVFR,-SN DRSN,,,,,,,SLY,Salekhard Airport,Russia,Salekhard,https://www.worlddata.info/europe/russia/airports.php
2211,USHH,2025-11-23 01:34:26.316000+00:00,1763861400,2025-11-23T01:30:00.000Z,-4.0,-6.0,280,8.0,6+,1004.0,0,METAR,METAR USHH 230130Z 28004MPS 9999 -SN BKN011 M04/M06 Q1004 R24/390035 TEMPO 1000 SN BKN004,61.029,69.086,46,"Khanty-Mansijsk Arpt, KH, RU",BKN,"[{'cover': 'BKN', 'base': 1100}]",MVFR,-SN,,,,,,,HMA,Khanty Mansiysk Airport,Russia,Khanty-Mansiysk,https://www.worlddata.info/europe/russia/airports.php
2212,USNN,2025-11-23 01:36:12.036000+00:00,1763861400,2025-11-23T01:30:00.000Z,-4.0,-6.0,200,10.0,6+,1000.0,16,METAR,METAR USNN 230130Z 20005MPS 9999 OVC012 M04/M06 Q1000 R21/452048 NOSIG RMK QFE745,60.959,76.497,52,"Nizhnevartovsk Arpt, KH, RU",OVC,"[{'cover': 'OVC', 'base': 1200}]",MVFR,,,,,,,,NJC,Nizhnevartovsk Airport,Russia,Nizhnevartovsk,https://www.worlddata.info/europe/russia/airports.php
2213,USPP,2025-11-23 01:36:11.109000+00:00,1763861400,2025-11-23T01:30:00.000Z,0.0,-1.0,320,4.0,6+,1016.0,0,METAR,METAR USPP 230130Z 32002MPS 290V350 9999 -SN SCT008 OVC018 00/M01 Q1016 R21/690245 TEMPO 0300 FZRA SN FG RMK QFE751,57.914,56.021,120,"Perm/Savino Arpt, PE, RU",OVC,"[{'cover': 'SCT', 'base': 800}, {'cover': 'OVC', 'base': 1800}]",MVFR,-SN,,,,,,,PEE,Perm International Airport,Russia,Perm,https://www.worlddata.info/europe/russia/airports.php
2214,USRR,2025-11-23 01:36:11.134000+00:00,1763861400,2025-11-23T01:30:00.000Z,-4.0,-4.0,240,8.0,2.61,999.0,0,METAR,METAR USRR 230130Z 24004MPS 4200 -SHSN SCT009 BKN026CB M04/M04 Q0999 R25/490533 RMK OBST OBSC QFE744,61.342,73.422,52,"Surgut Intl, KH, RU",BKN,"[{'cover': 'SCT', 'base': 900}, {'cover': 'BKN', 'base': 2600}]",IFR,-SHSN,,,,,,,SGC,Surgut Airport,Russia,Surgut,https://www.worlddata.info/europe/russia/airports.php
2215,USSS,2025-11-23 01:53:08.778000+00:00,1763862660,2025-11-23T01:51:00.000Z,4.0,4.0,VRB,2.0,1.8,1015.0,16,SPECI,SPECI USSS 230151Z VRB01MPS 2900 -DZ SCT005 OVC011 04/04 Q1015 R26L/290350 NOSIG RMK QFE740/0987,56.745,60.792,222,"Yekaterinburg/Koltsovo Arpt, SV, RU",OVC,"[{'cover': 'SCT', 'base': 500}, {'cover': 'OVC', 'base': 1100}]",IFR,-DZ,,,,,,,SVX,Koltsovo Airport,Russia,Yekaterinburg,https://www.worlddata.info/europe/russia/airports.php
2216,USTR,2025-11-23 01:54:33.212000+00:00,1763862840,2025-11-23T01:54:00.000Z,4.0,4.0,270,10.0,6+,1013.0,0,SPECI,SPECI USTR 230154Z 27005MPS 9999 OVC022CB 04/04 Q1013 R21/290045 R30/////99 TEMPO 2100 -SHSNRA BKN005 BKN016CB,57.19,65.324,93,"Tyumen/Roschino Intl, TY, RU",OVC,"[{'cover': 'OVC', 'base': 2200}]",MVFR,,,,,,,,TJM,Roshchino International Airport,Russia,Tyumen,https://www.worlddata.info/europe/russia/airports.php
2217,UTDD,2025-11-23 01:40:41.985000+00:00,1763861400,2025-11-23T01:30:00.000Z,2.0,-2.0,0,0.0,2.92,1028.0,16,METAR,METAR UTDD 230130Z 00000MPS 4700 BR FU NSC 02/M02 Q1028 R09/D NOSIG RMK QFE702/0936,38.543,68.825,785,"Dushanbe Arpt, DU, TJ",CLR,[],IFR,BR FU,,,,,,,DYU,Dushanbe Airport,Tajikistan,Dushanbe,https://www.worlddata.info/asia/tajikistan/airports.php
2218,UTDK,2025-11-23 01:35:16.464000+00:00,1763861400,2025-11-23T01:30:00.000Z,6.0,-3.0,30,4.0,6+,1028.0,0,METAR,METAR UTDK 230130Z 03002MPS 9999 NSC 06/M03 Q1028 R01/09//70 RMK QFE713/0951,37.988,69.805,675,"Kulob Arpt, KT, TJ",CLR,[],VFR,,,,,,,,TJU,Kulob Airport,Tajikistan,Kulyab,https://www.worlddata.info/asia/tajikistan/airports.php
2219,UTDL,2025-11-23 01:36:12.086000+00:00,1763861400,2025-11-23T01:30:00.000Z,2.0,2.0,VRB,2.0,1.06,1028.0,16,METAR,METAR UTDL 230130Z VRB01MPS 1700 1000W R08/1200N BR BKN003 02/02 Q1028 R08/CLRD70 NOSIG RMK QBB090 QFE731/0975,40.215,69.695,436,"Khujand Arpt, GB, TJ",BKN,"[{'cover': 'BKN', 'base': 300}]",LIFR,BR,,,,,,,LBD,Khujand Airport,Tajikistan,Khujand,https://www.worlddata.info/asia/tajikistan/airports.php
2220,UTDT,2025-11-23 01:35:16.549000+00:00,1763861400,2025-11-23T01:30:00.000Z,2.0,1.0,0,0.0,1.62,1027.0,0,METAR,METAR UTDT 230130Z 00000MPS 2600 BR FEW036 02/01 Q1027 R35/CLRD70 RMK QFE730/0974,37.866,68.865,443,"Qurghonteppa Intl, KT, TJ",FEW,"[{'cover': 'FEW', 'base': 3600}]",IFR,BR,,,,,,,KQT,Qurghonteppa International Airport,Tajikistan,Kurgan-Tyube,https://www.worlddata.info/asia/tajikistan/airports.php
2221,UUBC,2025-11-23 01:59:34.175000+00:00,1763863140,2025-11-23T01:59:00.000Z,1.0,0.0,340,4.0,6+,1021.0,16,SPECI,SPECI UUBC 230159Z 34002MPS 9999 OVC014 01/M00 Q1021 R31/290150 NOSIG RMK QFE749/0999,54.552,36.37,198,"Kaluga Intl, KL, RU",OVC,"[{'cover': 'OVC', 'base': 1400}]",MVFR,,,,,,,,KLF,Grabtsevo Airport,Russia,Kaluga,https://www.worlddata.info/europe/russia/airports.php
2222,UUBW,2025-11-23 01:34:29.020000+00:00,1763861400,2025-11-23T01:30:00.000Z,0.0,0.0,310,4.0,4.35,1021.0,16,METAR,METAR UUBW 230130Z 31002MPS 7000 SCT007 OVC019 00/M00 Q1021 R30/290050 NOSIG RMK QFE755,55.553,38.15,111,"Moscow/Ramenskoye Arpt, MO, RU",OVC,"[{'cover': 'SCT', 'base': 700}, {'cover': 'OVC', 'base': 1900}]",MVFR,,,,,,,,ZIA,Zhukovsky International Airport,Russia,Moscow,https://www.worlddata.info/europe/russia/airports.php
2223,UUDD,2025-11-23 01:36:11.490000+00:00,1763861400,2025-11-23T01:30:00.000Z,0.0,0.0,340,4.0,4.97,1020.0,16,METAR,METAR UUDD 230130Z 34002MPS 8000 OVC014 00/M00 Q1020 R31L/520242 NOSIG,55.409,37.906,165,"Moscow/Domodedovo Arpt, MO, RU",OVC,"[{'cover': 'OVC', 'base': 1400}]",MVFR,,,,,,,,DME,Domodedovo International Airport,Russia,Moscow,https://www.worlddata.info/europe/russia/airports.php
2224,UUDL,2025-11-23 01:34:25.055000+00:00,1763861400,2025-11-23T01:30:00.000Z,0.0,-1.0,290,4.0,6+,1019.0,16,METAR,METAR UUDL 230130Z 29002MPS 9999 OVC040 00/M01 Q1019 R23/////// NOSIG RMK QFE756,57.561,40.157,88,"Yaroslav/Tunoshna Arpt, YA, RU",OVC,"[{'cover': 'OVC', 'base': 4000}]",VFR,,,,,,,,IAR,Tunoshna Airport,Russia,Tunoshna,https://www.worlddata.info/europe/russia/airports.php
2225,UUEE,2025-11-23 01:36:12.282000+00:00,1763861400,2025-11-23T01:30:00.000Z,0.0,-1.0,300,4.0,5.59,1020.0,16,METAR,METAR UUEE 230130Z 30002MPS 270V330 9000 BKN006 OVC031 M00/M01 Q1020 R24L/590140 R24C/590140 NOSIG,55.973,37.415,186,"Moscow/Sheremetyevo Intl, MO, RU",OVC,"[{'cover': 'BKN', 'base': 600}, {'cover': 'OVC', 'base': 3100}]",IFR,,,,,,,,SVO,Sheremetyevo International Airport,Russia,Moscow,https://www.worlddata.info/europe/russia/airports.php
2226,UUOB,2025-11-23 01:34:31.719000+00:00,1763861400,2025-11-23T01:30:00.000Z,9.0,9.0,0,0.0,3.73,1018.0,16,METAR,METAR UUOB 230130Z 00000MPS 6000 BKN003 09/09 Q1018 R11/010070 NOSIG RMK QBB110,50.644,36.59,218,"Belgorod Intl, BE, RU",BKN,"[{'cover': 'BKN', 'base': 300}]",LIFR,,,,,,,,EGO,Belgorod International Airport,Russia,Belgorod,https://www.worlddata.info/europe/russia/airports.php
2227,UUOK,2025-11-23 01:56:21.528000+00:00,1763862960,2025-11-23T01:56:00.000Z,4.0,4.0,10,8.0,6+,1019.0,16,SPECI,SPECI UUOK 230156Z 01004MPS 9999 OVC003 04/04 Q1019 R12/////// NOSIG RMK QBB100 QFE746/0995,51.751,36.297,203,"Kursk/Vostochmy Arpt, KR, RU",OVC,"[{'cover': 'OVC', 'base': 300}]",LIFR,,,,,,,,URS,Kursk East Airport,Russia,Kursk,https://www.worlddata.info/europe/russia/airports.php
2228,UUOL,2025-11-23 01:34:29.108000+00:00,1763861400,2025-11-23T01:30:00.000Z,6.0,6.0,330,10.0,6+,1017.0,2,METAR,METAR UUOL 230130Z AUTO 33005MPS 9999 ///003 06/06 Q1017 RMK QBB100,52.702,39.534,176,"Lipetsk Arpt, LI, RU",,,,,,,,,,,LPK,Lipetsk Airport,Russia,Lipetsk,https://www.worlddata.info/europe/russia/airports.php
2229,UUOO,2025-11-23 01:36:10.768000+00:00,1763861400,2025-11-23T01:30:00.000Z,9.0,9.0,250,6.0,4.97,1017.0,16,METAR,METAR UUOO 230130Z 25003MPS 8000 SCT006 09/09 Q1017 R12/290155 NOSIG RMK QFE749,51.814,39.228,154,"Voronez Intl, VO, RU",SCT,"[{'cover': 'SCT', 'base': 600}]",MVFR,,,,,,,,VOZ,Voronezh International Airport,Russia,Voronezh,https://www.worlddata.info/europe/russia/airports.php
2230,UUWW,2025-11-23 01:36:11.567000+00:00,1763861400,2025-11-23T01:30:00.000Z,-1.0,-1.0,320,6.0,6+,1020.0,16,METAR,METAR UUWW 230130Z 32003MPS 9999 BKN008 M01/M01 Q1020 R01/510542 NOSIG,55.592,37.261,195,"Moscow/Vnukovo Arpt, MO, RU",BKN,"[{'cover': 'BKN', 'base': 800}]",IFR,,,,,,,,VKO,Vnukovo International Airport,Russia,Moscow,https://www.worlddata.info/europe/russia/airports.php
2231,UUYY,2025-11-23 01:40:41.569000+00:00,1763861400,2025-11-23T01:30:00.000Z,-2.0,-3.0,250,6.0,6+,1014.0,16,METAR,METAR UUYY 230130Z 25003MPS 9999 FEW012 M02/M03 Q1014 R18/690339 NOSIG RMK QFE752/1002,61.647,50.845,107,"Syktyvkar Arpt, KO, RU",FEW,"[{'cover': 'FEW', 'base': 1200}]",VFR,,,,,,,,SCW,Syktyvkar Airport,Russia,Syktyvkar,https://www.worlddata.info/europe/russia/airports.php
2232,UWGG,2025-11-23 01:41:03.089000+00:00,1763861880,2025-11-23T01:38:00.000Z,0.0,0.0,20,4.0,4.97,1018.0,16,SPECI,SPECI UWGG 230138Z 02002MPS 8000 -SN OVC004 00/00 Q1018 R18L/590232 NOSIG,56.225,43.786,73,"Nizhny Novgorod Intl, NI, RU",OVC,"[{'cover': 'OVC', 'base': 400}]",LIFR,-SN,,,,,,,GOJ,Nizhny Novgorod Strigino International Airport,Russia,Nizhny Novgorod,https://www.worlddata.info/europe/russia/airports.php
2233,UWKD,2025-11-23 02:01:03.959000+00:00,1763863020,2025-11-23T01:57:00.000Z,5.0,4.0,30,12.0,6+,1015.0,16,SPECI,SPECI UWKD 230157Z 03006MPS 9999 -RA OVC005 05/04 Q1015 R29/2/0050 NOSIG RMK QFE750/1000,55.61,49.275,114,"Kazan Intl, TA, RU",OVC,"[{'cover': 'OVC', 'base': 500}]",IFR,-RA,,,,,,,KZN,Kazan International Airport,Russia,Kazan,https://www.worlddata.info/europe/russia/airports.php
2234,UWKE,2025-11-23 01:36:10.927000+00:00,1763861400,2025-11-23T01:30:00.000Z,7.0,7.0,210,8.0,3.11,1015.0,16,METAR,METAR UWKE 230130Z 21004MPS 5000 -RA BR OVC007 07/07 Q1015 R21/210350 NOSIG RMK OBST OBSC QFE745/0993,55.566,52.1,193,"Begishevo Arpt, TA, RU",OVC,"[{'cover': 'OVC', 'base': 700}]",IFR,-RA BR,,,,,,,NBC,Begishevo Airport,Russia,Nizhnekamsk,https://www.worlddata.info/europe/russia/airports.php
2235,UWKS,2025-11-23 01:34:34.391000+00:00,1763861400,2025-11-23T01:30:00.000Z,0.0,0.0,20,6.0,3.73,1016.0,16,METAR,METAR UWKS 230130Z 02003MPS 6000 -SNRA OVC003 00/00 Q1016 R24/290150 NOSIG RMK QFE748,56.09,47.347,165,"Cheboksary Arpt, CU, RU",OVC,"[{'cover': 'OVC', 'base': 300}]",LIFR,-SN -RA,,,,,,,CSY,Cheboksary Airport,Russia,Cheboksary,https://www.worlddata.info/europe/russia/airports.php
2236,UWLL,2025-11-23 01:36:12.569000+00:00,1763861400,2025-11-23T01:30:00.000Z,9.0,8.0,210,10.0,6+,1015.0,16,METAR,METAR UWLL 230130Z 21005MPS 9999 OVC006 09/08 Q1015 R20/290250 NOSIG RMK QFE751/1002,54.274,48.236,119,"Ulyanovsk/Barataevka, UL, RU",OVC,"[{'cover': 'OVC', 'base': 600}]",IFR,,,,,,,,ULV,Ulyanovsk Baratayevka Airport,Russia,Ulyanovsk,https://www.worlddata.info/europe/russia/airports.php
2237,UWOO,2025-11-23 01:36:10.953000+00:00,1763861400,2025-11-23T01:30:00.000Z,7.0,6.0,230,12.0,3.73,1024.0,16,METAR,METAR UWOO 230130Z 23006MPS 6000 OVC005 07/06 Q1024 R26/150055 NOSIG RMK QBB150 QFE757/1010,51.795,55.457,90,"Orenburg Arpt, OR, RU",OVC,"[{'cover': 'OVC', 'base': 500}]",IFR,,,,,,,,REN,Orenburg Central Airport,Russia,Orenburg,https://www.worlddata.info/europe/russia/airports.php
2238,UWPS,2025-11-23 01:34:32.062000+00:00,1763861400,2025-11-23T01:30:00.000Z,9.0,8.0,220,12.0,6+,1015.0,16,METAR,METAR UWPS 230130Z 22006MPS 9999 OVC011 09/08 Q1015 R20/////// NOSIG RMK QFE743,54.116,45.203,206,"Saransk Arpt, MR, RU",OVC,"[{'cover': 'OVC', 'base': 1100}]",MVFR,,,,,,,,SKX,Saransk Airport,Russia,Saransk,https://www.worlddata.info/europe/russia/airports.php
2239,UWSG,2025-11-23 01:45:29.892000+00:00,1763862300,2025-11-23T01:45:00.000Z,6.0,6.0,170,4.0,0.75,1021.0,16,SPECI,SPECI UWSG 230145Z 17002MPS 1200 0600SE R08/P2000D PRFG VV001 06/06 Q1021 R08/210068 NOSIG RMK QBB050 QFE763/1017,51.713,46.171,31,"Saratov/Gagarin Arpt, SA, RU",OVX,"[{'cover': 'OVX', 'base': 100}]",LIFR,PRFG,,,1.0,,,,GSV,Gagarin International Airport,Russia,Saratov,https://www.worlddata.info/europe/russia/airports.php
2240,UWUU,2025-11-23 01:36:10.983000+00:00,1763861400,2025-11-23T01:30:00.000Z,7.0,6.0,200,10.0,3.11,1018.0,0,METAR,METAR UWUU 230130Z 20005MPS 5000 BR OVC007 07/06 Q1018 R14R/290242 TEMPO 0500 DZ FG BKN002 RMK QBB210,54.57,55.87,137,"Ufa Intl, BA, RU",OVC,"[{'cover': 'OVC', 'base': 700}]",IFR,BR,,,,,,,UFA,Ufa International Airport,Russia,Ufa,https://www.worlddata.info/europe/russia/airports.php
2241,UWWW,2025-11-23 01:36:11.006000+00:00,1763861400,2025-11-23T01:30:00.000Z,8.0,7.0,210,12.0,3.73,1017.0,16,METAR,METAR UWWW 230130Z 21006MPS 6000 OVC003 08/07 Q1017 R15/290150 NOSIG RMK QFE751/1002,53.509,50.163,124,"Samara/Kurumoch Intl, SA, RU",OVC,"[{'cover': 'OVC', 'base': 300}]",LIFR,,,,,,,,KUF,Kurumoch International Airport,Russia,Samara,https://www.worlddata.info/europe/russia/airports.php
2242,VAAH,2025-11-23 01:45:19.282000+00:00,1763861400,2025-11-23T01:30:00.000Z,15.0,12.0,10,3.0,0.75,1015.0,16,METAR,METAR VAAH 230130Z 01003KT 1200 R05/1900 R23/1800 BR NSC 15/12 Q1015 NOSIG,23.077,72.635,52,"Ahmadabad/Patel Intl, GJ, IN",CLR,[],LIFR,BR,,,,,,,AMD,Sardar Vallabh Bhai Patel International Airport,India,Ahmedabad,https://www.worlddata.info/asia/india/airports.php
2243,VAAU,2025-11-23 01:34:37.738000+00:00,1763861400,2025-11-23T01:30:00.000Z,17.0,15.0,0,0.0,1.55,1017.0,16,METAR,METAR VAAU 230130Z 00000KT 2500 BR NSC 17/15 Q1017 NOSIG,19.863,75.398,578,"Aurangabad Arpt, MM, IN",CLR,[],IFR,BR,,,,,,,IXU,Aurangabad Airport,India,Aurangabad,https://www.worlddata.info/asia/india/airports.php
2244,VABB,2025-11-23 01:45:19.364000+00:00,1763861400,2025-11-23T01:30:00.000Z,25.0,20.0,140,6.0,0.93,1013.0,16,METAR,METAR VABB 230130Z 14006KT 1500 R27/P2000 BR FEW100 25/20 Q1013 NOSIG,19.1,72.859,14,"Mumbai/Shivaji Intl, MM, IN",FEW,"[{'cover': 'FEW', 'base': 10000}]",LIFR,BR,,,,,,,BOM,Chhatrapati Shivaji International Airport,India,Mumbai,https://www.worlddata.info/asia/india/airports.php
2245,VABO,2025-11-23 01:36:14.782000+00:00,1763861400,2025-11-23T01:30:00.000Z,17.0,15.0,0,0.0,0.62,1014.0,16,METAR,METAR VABO 230130Z 00000KT 1000 R22/1200 BR NSC 17/15 Q1014 NOSIG,22.333,73.225,36,"Vadodara Arpt, GJ, IN",CLR,[],LIFR,BR,,,,,,,BDQ,Vadodara Airport,India,Vadodara,https://www.worlddata.info/asia/india/airports.php
2246,VABP,2025-11-23 02:00:29.572000+00:00,1763863200,2025-11-23T02:00:00.000Z,12.0,12.0,10,2.0,0.75,1019.0,16,METAR,METAR VABP 230200Z 01002KT 1200 R30/1500 R12/1600 BR NSC 12/12 Q1019 NOSIG,23.288,77.337,520,"Bhopal/Raja Bhoj Arpt, MP, IN",CLR,[],LIFR,BR,,,,,,,BHO,Raja Bhoj International Airport,India,Bhopal,https://www.worlddata.info/asia/india/airports.php
2247,VAID,2025-11-23 01:32:36.251000+00:00,1763861400,2025-11-23T01:30:00.000Z,16.0,12.0,50,4.0,0.93,1019.0,16,METAR,METAR VAID 230130Z 05004KT 1500 BR FEW100 16/12 Q1019 NOSIG,22.722,75.801,564,"Indore Arpt, MP, IN",FEW,"[{'cover': 'FEW', 'base': 10000}]",LIFR,BR,,,,,,,IDR,Devi Ahilyabai Holkar Airport,India,Indore,https://www.worlddata.info/asia/india/airports.php
2248,VAJB,2025-11-23 02:00:29.687000+00:00,1763863200,2025-11-23T02:00:00.000Z,14.0,13.0,110,5.0,1.24,1019.0,0,METAR,METAR VAJB 230200Z 11005KT 2000 BR NSC 14/13 Q1019 BECMG 3000 HZ,23.178,80.05,489,"Jabalpur Arpt, MP, IN",CLR,[],IFR,BR,,,,,,,JLR,Jabalpur Airport,India,Jabalpur,https://www.worlddata.info/asia/india/airports.php
2249,VANP,2025-11-23 01:32:35.668000+00:00,1763861400,2025-11-23T01:30:00.000Z,15.0,13.0,0,0.0,0.81,1018.0,16,METAR,METAR VANP 230130Z 00000KT 1300 BR NSC 15/13 Q1018 NOSIG,21.089,79.055,309,"Nagpur/Ambedkar Intl, MM, IN",CLR,[],LIFR,BR,,,,,,,NAG,Dr. Babasaheb Ambedkar International Airport,India,Nagpur,https://www.worlddata.info/asia/india/airports.php
2250,VASU,2025-11-23 01:34:37.813000+00:00,1763861400,2025-11-23T01:30:00.000Z,18.0,16.0,350,4.0,0.75,1014.0,16,METAR,METAR VASU 230130Z 35004KT 1200 R22/1800 BR NSC 18/16 Q1014 NOSIG,21.114,72.742,6,"Surat Arpt, GJ, IN",CLR,[],LIFR,BR,,,,,,,STV,Surat Airport,India,Surat,https://www.worlddata.info/asia/india/airports.php
2251,VAUD,2025-11-23 01:34:37.141000+00:00,1763861400,2025-11-23T01:30:00.000Z,11.0,9.0,240,2.0,0.93,1018.0,16,METAR,METAR VAUD 230130Z 24002KT 1500 BR NSC 11/09 Q1018 NOSIG,24.618,73.896,506,"Udaipur/Pratap Arpt, RJ, IN",CLR,[],LIFR,BR,,,,,,,UDR,Maharana Pratap Airport,India,Udaipur,https://www.worlddata.info/asia/india/airports.php
2252,VCBI,2025-11-23 01:21:17.262000+00:00,1763860200,2025-11-23T01:10:00.000Z,23.0,23.0,10,2.0,6+,1009.0,16,METAR,METAR VCBI 230110Z 01002KT 9999 FEW018 SCT030 23/23 Q1009 NOSIG,7.181,79.884,10,"Katunayake/Bandaranaike Intl, WE, LK",SCT,"[{'cover': 'FEW', 'base': 1800}, {'cover': 'SCT', 'base': 3000}]",VFR,,,,,,,,CMB,Bandaranaike International Colombo Airport,Sri Lanka,Colombo,https://www.worlddata.info/asia/sri-lanka/airports.php
2253,VCRI,2025-11-23 01:21:17.301000+00:00,1763860200,2025-11-23T01:10:00.000Z,25.0,25.0,30,4.0,6+,1010.0,0,METAR,METAR VCRI 230110Z 03004KT 9999 BKN080 25/25 Q1010,6.287,81.125,50,"Mattala/Rajapaksa Intl, SO, LK",BKN,"[{'cover': 'BKN', 'base': 8000}]",VFR,,,,,,,,HRI,Mattala Rajapaksa International Airport,Sri Lanka,Mattala,https://www.worlddata.info/asia/sri-lanka/airports.php
2254,VDSA,2025-11-23 01:35:29.517000+00:00,1763861400,2025-11-23T01:30:00.000Z,25.0,18.0,30,11.0,6+,1014.0,0,METAR,METAR VDSA 230130Z 03011KT 9999 FEW017 25/18 Q1014,13.371,104.225,59,"Siem Reap-Ankr Intl, 17, KH",FEW,"[{'cover': 'FEW', 'base': 1700}]",VFR,,,,,,,,SAI,Siem Reap-Angkor International Airport,Cambodia,Siem Reap,https://www.worlddata.info/asia/cambodia/airports.php
2255,VDSV,2025-11-23 01:35:29.480000+00:00,1763861400,2025-11-23T01:30:00.000Z,27.0,21.0,60,4.0,6+,1011.0,0,METAR,METAR VDSV 230130Z 06004KT 9999 SCT015 SCT040 27/21 Q1011,10.582,103.637,1,"Sihanoukville Intl, , KH",SCT,"[{'cover': 'SCT', 'base': 1500}, {'cover': 'SCT', 'base': 4000}]",VFR,,,,,,,,KOS,Sihanoukville International Airport,Cambodia,Preah Sihanouk,https://www.worlddata.info/asia/cambodia/airports.php
2256,VEAT,2025-11-23 01:34:37.375000+00:00,1763861400,2025-11-23T01:30:00.000Z,18.0,16.0,0,0.0,1.86,1017.0,16,METAR,METAR VEAT 230130Z 00000KT 3000 BR FEW100 18/16 Q1017 NOSIG,23.887,91.24,20,"Agartala Arpt, TR, IN",FEW,"[{'cover': 'FEW', 'base': 10000}]",IFR,BR,,,,,,,IXA,Agartala - Maharaja Bir Bikram Airport,India,Agartala,https://www.worlddata.info/asia/india/airports.php
2257,VEBS,2025-11-23 01:36:14.764000+00:00,1763861400,2025-11-23T01:30:00.000Z,20.0,20.0,300,3.0,0.37,1016.0,0,METAR,METAR VEBS 230130Z 30003KT 0600 R14/1100 FG FEW020 20/20 Q1016 BECMG 0800 FG,20.244,85.818,42,"Bhubaneswar Intl, OR, IN",FEW,"[{'cover': 'FEW', 'base': 2000}]",LIFR,FG,,,,,,,BBI,Biju Patnaik Airport,India,Bhubaneswar,https://www.worlddata.info/asia/india/airports.php
2258,VECC,2025-11-23 01:37:35.020000+00:00,1763861400,2025-11-23T01:30:00.000Z,20.0,18.0,360,4.0,0.31,1017.0,16,METAR,METAR VECC 230130Z 36004KT 0500 R01R/1000 MIFG NSC 20/18 Q1017 NOSIG,22.651,88.445,11,"Kolkata/Bose Intl, WB, IN",CLR,[],LIFR,MIFG,,,,,,,CCU,Netaji Subhash Chandra Bose International Airport,India,Kolkata,https://www.worlddata.info/asia/india/airports.php
2259,VEDG,2025-11-23 01:34:38.440000+00:00,1763861400,2025-11-23T01:30:00.000Z,16.0,16.0,0,0.0,0.68,1017.0,16,METAR,METAR VEDG 230130Z 00000KT 1100 R16/1400 BR FEW100 16/16 Q1017 NOSIG,23.623,87.243,88,"Durgapur/Kazi Nazrul Arpt, WB, IN",FEW,"[{'cover': 'FEW', 'base': 10000}]",LIFR,BR,,,,,,,RDP,Kazi Nazrul Islam Airport,India,Durgapur,https://www.worlddata.info/asia/india/airports.php
2260,VEGT,2025-11-23 01:34:36.945000+00:00,1763861400,2025-11-23T01:30:00.000Z,19.0,18.0,0,0.0,1.55,1017.0,16,METAR,METAR VEGT 230130Z 00000KT 2500 BR FEW020 SCT100 19/18 Q1017 NOSIG,26.107,91.587,50,"Guwahati/Bordoloi Intl, AS, IN",SCT,"[{'cover': 'FEW', 'base': 2000}, {'cover': 'SCT', 'base': 10000}]",IFR,BR,,,,,,,GAU,Lokpriya Gopinath Bordoloi International Airport,India,Guwahati,https://www.worlddata.info/asia/india/airports.php
2261,VEIM,2025-11-23 01:32:37.144000+00:00,1763861400,2025-11-23T01:30:00.000Z,14.0,13.0,0,0.0,0.5,1020.0,0,METAR,METAR VEIM 230130Z 00000KT 0800 FG SCT018 14/13 Q1020 TEMPO 0500 FG,24.76,93.897,777,"Imphal Arpt, MN, IN",SCT,"[{'cover': 'SCT', 'base': 1800}]",LIFR,FG,,,,,,,IMF,Imphal Airport,India,Imphal,https://www.worlddata.info/asia/india/airports.php
2262,VELR,2025-11-23 01:34:37.988000+00:00,1763861400,2025-11-23T01:30:00.000Z,17.0,16.0,220,1.0,2.8,1018.0,0,METAR,METAR VELR 230130Z 22001KT 4500 BR SCT020 BKN090 17/16 Q1018,27.296,94.098,101,"N Lakhimpur/Lilabari Arpt, AS, IN",BKN,"[{'cover': 'SCT', 'base': 2000}, {'cover': 'BKN', 'base': 9000}]",IFR,BR,,,,,,,IXI,Lilabari North Lakhimpur Airport,India,Lilabari,https://www.worlddata.info/asia/india/airports.php
2263,VEMN,2025-11-23 01:34:37.025000+00:00,1763861400,2025-11-23T01:30:00.000Z,18.0,16.0,0,0.0,2.49,1017.0,16,METAR,METAR VEMN 230130Z 00000KT 4000 BR FEW020 SCT100 18/16 Q1017 NOSIG,27.481,95.014,111,"Dibrugarh Arpt, AS, IN",SCT,"[{'cover': 'FEW', 'base': 2000}, {'cover': 'SCT', 'base': 10000}]",IFR,BR,,,,,,,DIB,Dibrugarh Airport,India,Dibrugarh,https://www.worlddata.info/asia/india/airports.php
2264,VEPT,2025-11-23 01:37:35.045000+00:00,1763861400,2025-11-23T01:30:00.000Z,17.0,15.0,260,4.0,0.62,1017.0,16,METAR,METAR VEPT 230130Z 26004KT 1000 R25/1800 R07/1700 MIFG NSC 17/15 Q1017 NOSIG,25.591,85.088,53,"Patna/Narayan Intl, BR, IN",CLR,[],LIFR,MIFG,,,,,,,PAT,Jay Prakash Narayan Airport,India,Patna,https://www.worlddata.info/asia/india/airports.php
2265,VERC,2025-11-23 02:00:25.961000+00:00,1763863200,2025-11-23T02:00:00.000Z,15.0,13.0,0,0.0,0.75,1021.0,16,METAR,METAR VERC 230200Z 00000KT 1200 R31/1300 R13/1400 BR NSC 15/13 Q1021 NOSIG,23.314,85.322,646,"Ranchi/Bursa Munda Arpt, BR, IN",CLR,[],LIFR,BR,,,,,,,IXR,Birsa Munda Airport,India,Ranchi,https://www.worlddata.info/asia/india/airports.php
2266,VHHH,2025-11-23 02:01:44.246000+00:00,1763863200,2025-11-23T02:00:00.000Z,23.0,14.0,30,3.0,6+,1021.0,0,METAR,METAR VHHH 230200Z 03003KT 360V080 9999 FEW040 23/14 Q1021 BECMG 28010KT,22.309,113.922,9,"Hong Kong Intl, HK, HK",FEW,"[{'cover': 'FEW', 'base': 4000}]",VFR,,,,,,,,HKG,Hong Kong International Airport,Hong Kong,Hong Kong,https://www.worlddata.info/asia/hong-kong/airports.php
2267,VIAR,2025-11-23 01:36:08.354000+00:00,1763861400,2025-11-23T01:30:00.000Z,10.0,9.0,VRB,2.0,0.37,1018.0,16,METAR,METAR VIAR 230130Z VRB02KT 0600 R34/1300 R16/0900 BCFG NSC 10/09 Q1018 NOSIG,31.707,74.801,226,"Amritsar/Jee Intl, PB, IN",CLR,[],LIFR,BCFG,,,,,,,ATQ,Sri Guru Ram Dass Jee International Airport,India,Amritsar,https://www.worlddata.info/asia/india/airports.php
2268,VIBR,2025-11-23 01:34:36.966000+00:00,1763861400,2025-11-23T01:30:00.000Z,4.0,3.0,0,0.0,3.73,1022.0,0,METAR,METAR VIBR 230130Z 00000KT 6000 NSC 04/03 Q1022,31.876,77.154,1089,"Bhuntar Arpt, HP, IN",CLR,[],MVFR,,,,,,,,KUU,Kullu Manali Airport,India,Bhuntar,https://www.worlddata.info/asia/india/airports.php
2269,VIDP,2025-11-23 01:36:08.376000+00:00,1763861400,2025-11-23T01:30:00.000Z,12.0,10.0,0,0.0,0.62,1017.0,16,METAR,METAR VIDP 230130Z 00000KT 1000 R28/1800 R27/1900 R29R/2000 R29L/2000 BR NSC 12/10 Q1017 NOSIG,28.567,77.117,236,"New Delhi/Gandhi Intl, DL, IN",CLR,[],LIFR,BR,,,,,,,DEL,Indira Gandhi International Airport,India,New Delhi,https://www.worlddata.info/asia/india/airports.php
2270,VIJP,2025-11-23 01:36:12.587000+00:00,1763861400,2025-11-23T01:30:00.000Z,14.0,10.0,VRB,2.0,0.99,1019.0,0,METAR,METAR VIJP 230130Z VRB02KT 1600 BR NSC 14/10 Q1019 BECMG 1500 BR,26.824,75.812,383,"Jaipur Intl, RJ, IN",CLR,[],LIFR,BR,,,,,,,JAI,Jaipur International Airport,India,Jaipur,https://www.worlddata.info/asia/india/airports.php
2271,VILK,2025-11-23 01:36:12.609000+00:00,1763861400,2025-11-23T01:30:00.000Z,13.0,13.0,VRB,2.0,0.5,1018.0,16,METAR,METAR VILK 230130Z VRB02KT 0800 R27/1600 MIFG NSC 13/13 Q1018 NOSIG,26.761,80.889,121,"Lucknow/Singh Arpt, JK, IN",CLR,[],LIFR,MIFG,,,,,,,LKO,Chaudhary Charan Singh International Airport,India,Lucknow,https://www.worlddata.info/asia/india/airports.php
2272,VISM,2025-11-23 02:00:26.584000+00:00,1763863200,2025-11-23T02:00:00.000Z,9.0,-1.0,0,0.0,3.11,1021.0,0,METAR,METAR VISM 230200Z 00000KT 5000 HZ NSC 09/M01 Q1021,31.082,77.068,1537,"Shimla Arpt, HP, IN",CLR,[],MVFR,HZ,,,,,,,SLV,Shimla Airport,India,Jubbarhatti,https://www.worlddata.info/asia/india/airports.php
2273,VLVT,2025-11-23 01:35:29.389000+00:00,1763861400,2025-11-23T01:30:00.000Z,23.0,19.0,60,2.0,4.35,1018.0,16,METAR,METAR VLVT 230130Z 06002KT 7000 NSC 23/19 Q1018 NOSIG,17.987,102.564,171,"Vientiane/Wattay Arpt, VT, LA",CLR,[],MVFR,,,,,,,,VTE,Wattay International Airport,Laos,Vientiane,https://www.worlddata.info/asia/laos/airports.php
2274,VMMC,2025-11-23 01:36:18.300000+00:00,1763861400,2025-11-23T01:30:00.000Z,21.0,13.0,360,11.0,5.59,1021.0,16,METAR,METAR VMMC 230130Z 36011KT 9000 FEW045 21/13 Q1021 NOSIG,22.141,113.596,1,"Macao Intl, MO, MO",FEW,"[{'cover': 'FEW', 'base': 4500}]",VFR,,,,,,,,MFM,Macau International Airport,Macao,Taipa,https://www.worlddata.info/asia/macao/airports.php
2275,VNKT,2025-11-23 01:58:33.012000+00:00,1763863200,2025-11-23T02:00:00.000Z,11.0,11.0,VRB,2.0,3.73,1022.0,16,METAR,METAR VNKT 230200Z VRB02KT 6000 FEW015 11/11 Q1022 NOSIG,27.697,85.359,1334,"Kathmandu/Tribhuvan Intl, BA, NP",FEW,"[{'cover': 'FEW', 'base': 1500}]",MVFR,,,,,,,,KTM,Tribhuvan International Airport,Nepal,Kathmandu,https://www.worlddata.info/asia/nepal/airports.php
2276,VOAT,2025-11-23 01:36:17.816000+00:00,1763861400,2025-11-23T01:30:00.000Z,28.0,25.0,VRB,3.0,3.11,1012.0,0,METAR,METAR VOAT 230130Z VRB03KT 5000 BR SCT015 FEW025CB BKN080 28/25 Q1012,10.824,72.176,5,"Agatti Arpt, LD, IN",BKN,"[{'cover': 'SCT', 'base': 1500}, {'cover': 'FEW', 'base': 2500}, {'cover': 'BKN', 'base': 8000}]",MVFR,BR,,,,,,,AGX,Agatti Airport,India,Agatti,https://www.worlddata.info/asia/india/airports.php
2277,VOBL,2025-11-23 01:34:37.321000+00:00,1763861400,2025-11-23T01:30:00.000Z,19.0,18.0,70,5.0,3.11,1019.0,16,METAR,METAR VOBL 230130Z 07005KT 5000 BR SCT008 BKN080 19/18 Q1019 NOSIG,13.205,77.704,908,"Bangaluru Intl, KA, IN",BKN,"[{'cover': 'SCT', 'base': 800}, {'cover': 'BKN', 'base': 8000}]",MVFR,BR,,,,,,,BLR,Kempegowda International Airport,India,Bangalore,https://www.worlddata.info/asia/india/airports.php
2278,VOCB,2025-11-23 02:01:40.676000+00:00,1763863200,2025-11-23T02:00:00.000Z,25.0,22.0,30,5.0,2.49,1016.0,16,METAR,METAR VOCB 230200Z 03005KT 4000 BR FEW012 SCT080 25/22 Q1016 NOSIG,11.03,77.043,394,"Coimbatore Arpt, TN, IN",SCT,"[{'cover': 'FEW', 'base': 1200}, {'cover': 'SCT', 'base': 8000}]",IFR,BR,,,,,,,CJB,Coimbatore International Airport,India,Coimbatore,https://www.worlddata.info/asia/india/airports.php
2279,VOCI,2025-11-23 01:36:17.802000+00:00,1763861400,2025-11-23T01:30:00.000Z,25.0,24.0,260,2.0,1.86,1011.0,16,METAR,METAR VOCI 230130Z 26002KT 3000 BR FEW020 SCT080 25/24 Q1011 NOSIG,10.152,76.402,8,"Cochin Intl, KL, IN",SCT,"[{'cover': 'FEW', 'base': 2000}, {'cover': 'SCT', 'base': 8000}]",IFR,BR,,,,,,,COK,Cochin International Airport,India,Kochi,https://www.worlddata.info/asia/india/airports.php
2280,VOCL,2025-11-23 01:32:36.948000+00:00,1763861400,2025-11-23T01:30:00.000Z,23.0,20.0,340,2.0,3.11,1012.0,16,METAR,METAR VOCL 230130Z 34002KT 5000 BR FEW012 SCT080 23/20 Q1012 NOSIG,11.137,75.955,104,"Calicut Intl, KL, IN",SCT,"[{'cover': 'FEW', 'base': 1200}, {'cover': 'SCT', 'base': 8000}]",MVFR,BR,,,,,,,CCJ,Calicut International Airport,India,Calicut,https://www.worlddata.info/asia/india/airports.php
2281,VOHS,2025-11-23 01:36:14.837000+00:00,1763861400,2025-11-23T01:30:00.000Z,19.0,19.0,100,3.0,1.24,1019.0,16,METAR,METAR VOHS 230130Z 10003KT 2000 BR SCT008 19/19 Q1019 NOSIG,17.233,78.429,607,"Hyderabad/Gandhi Intl, AP, IN",SCT,"[{'cover': 'SCT', 'base': 800}]",IFR,BR,,,,,,,HYD,Rajiv Gandhi International Airport,India,Hyderabad,https://www.worlddata.info/asia/india/airports.php
2282,VOHY,2025-11-23 01:36:14.707000+00:00,1763861400,2025-11-23T01:30:00.000Z,19.0,18.0,VRB,2.0,1.86,1019.0,16,METAR,METAR VOHY 230130Z VRB02KT 3000 BR FEW015 SCT100 19/18 Q1019 NOSIG,17.453,78.468,540,"Hyderabad/Begumpet Arpt, AP, IN",SCT,"[{'cover': 'FEW', 'base': 1500}, {'cover': 'SCT', 'base': 10000}]",IFR,BR,,,,,,,BPM,Begumpet Airport,India,Hyderabad,https://www.worlddata.info/asia/india/airports.php
2283,VOKN,2025-11-23 01:34:37.498000+00:00,1763861400,2025-11-23T01:30:00.000Z,24.0,22.0,10,4.0,3.11,1012.0,16,METAR,METAR VOKN 230130Z 01004KT 5000 BR FEW012 SCT080 24/22 Q1012 NOSIG,11.917,75.547,105,"Kannur Intl, KL, IN",SCT,"[{'cover': 'FEW', 'base': 1200}, {'cover': 'SCT', 'base': 8000}]",MVFR,BR,,,,,,,CNN,Kannur International Airport,India,Kannur,https://www.worlddata.info/asia/india/airports.php
2284,VOMD,2025-11-23 01:34:36.866000+00:00,1763861400,2025-11-23T01:30:00.000Z,25.0,24.0,30,8.0,2.49,1012.0,0,METAR,METAR VOMD 230130Z 03008KT 4000 BR SCT020 SCT100 25/24 Q1012 BECMG 5000 BR,9.835,78.093,135,"Madurai Intl, TN, IN",SCT,"[{'cover': 'SCT', 'base': 2000}, {'cover': 'SCT', 'base': 10000}]",IFR,BR,,,,,,,IXM,Madurai Airport,India,Madurai,https://www.worlddata.info/asia/india/airports.php
2285,VOML,2025-11-23 02:01:43.248000+00:00,1763863200,2025-11-23T02:00:00.000Z,23.0,22.0,60,3.0,2.49,1013.0,0,METAR,METAR VOML 230200Z 06003KT 4000 BR FEW001 SCT012 FEW025CB BKN080 23/22 Q1013 BECMG 5000 BR,12.961,74.89,100,"Mangaluru Arpt, KA, IN",BKN,"[{'cover': 'FEW', 'base': 100}, {'cover': 'SCT', 'base': 1200}, {'cover': 'FEW', 'base': 2500}, {'cover': 'BKN', 'base': 8000}]",IFR,BR,,,,,,,IXE,Mangalore International Airport,India,Mangalore,https://www.worlddata.info/asia/india/airports.php
2286,VOMM,2025-11-23 01:45:19.448000+00:00,1763861400,2025-11-23T01:30:00.000Z,26.0,25.0,340,3.0,2.49,1013.0,0,METAR,METAR VOMM 230130Z 34003KT 4000 BR SCT018 SCT080 26/25 Q1013 TEMPO 3000 BR,12.994,80.18,7,"Chennai Intl, TN, IN",SCT,"[{'cover': 'SCT', 'base': 1800}, {'cover': 'SCT', 'base': 8000}]",IFR,BR,,,,,,,MAA,Chennai International Airport,India,Chennai,https://www.worlddata.info/asia/india/airports.php
2287,VOPB,2025-11-23 01:40:47.999000+00:00,1763861400,2025-11-23T01:30:00.000Z,28.0,22.0,60,9.0,3.73,1013.0,16,METAR,METAR VOPB 230130Z 06009KT 6000 SCT014 SCT080 28/22 Q1013 NOSIG,11.641,92.73,1,"Port Blair/Veer Savarkar Intl, AN, IN",SCT,"[{'cover': 'SCT', 'base': 1400}, {'cover': 'SCT', 'base': 8000}]",MVFR,,,,,,,,IXZ,Veer Savarkar International Airport / INS Utkrosh,India,Port Blair,https://www.worlddata.info/asia/india/airports.php
2288,VORY,2025-11-23 01:32:37.050000+00:00,1763861400,2025-11-23T01:30:00.000Z,23.0,20.0,20,7.0,1.24,1015.0,16,METAR,METAR VORY 230130Z 02007KT 2000 BR FEW020 23/20 Q1015 NOSIG,17.11,81.818,47,"Rajahmundry Arpt, AP, IN",FEW,"[{'cover': 'FEW', 'base': 2000}]",IFR,BR,,,,,,,RJA,Rajahmundry Airport,India,Madhurapudi,https://www.worlddata.info/asia/india/airports.php
2289,VOTP,2025-11-23 01:34:37.687000+00:00,1763861400,2025-11-23T01:30:00.000Z,24.0,23.0,350,4.0,2.49,1015.0,0,METAR,METAR VOTP 230130Z 35004KT 4000 BR FEW010 SCT015 BKN090 24/23 Q1015 BECMG 5000 BR,13.633,79.543,103,"Tirupati Arpt, AP, IN",BKN,"[{'cover': 'FEW', 'base': 1000}, {'cover': 'SCT', 'base': 1500}, {'cover': 'BKN', 'base': 9000}]",IFR,BR,,,,,,,TIR,Tirupati Airport,India,Tirupati,https://www.worlddata.info/asia/india/airports.php
2290,VOTR,2025-11-23 01:34:38.392000+00:00,1763861400,2025-11-23T01:30:00.000Z,24.0,23.0,340,3.0,2.49,1012.0,16,METAR,METAR VOTR 230130Z 34003KT 4000 BR SCT016 BKN100 24/23 Q1012 NOSIG,10.765,78.71,90,"Tiruchchirapalli Arpt, TN, IN",BKN,"[{'cover': 'SCT', 'base': 1600}, {'cover': 'BKN', 'base': 10000}]",IFR,BR,,,,,,,TRZ,Tiruchirappalli International Airport,India,Tiruchirappalli,https://www.worlddata.info/asia/india/airports.php
2291,VOTV,2025-11-23 01:34:35.438000+00:00,1763861400,2025-11-23T01:30:00.000Z,25.0,23.0,VRB,2.0,2.49,1011.0,16,METAR,METAR VOTV 230130Z VRB02KT 4000 BR SCT012 SCT080 25/23 Q1011 NOSIG,8.484,76.919,9,"Thiruvananthapuram Intl, KL, IN",SCT,"[{'cover': 'SCT', 'base': 1200}, {'cover': 'SCT', 'base': 8000}]",IFR,BR,,,,,,,TRV,Thiruvananthapuram International Airport,India,Thiruvananthapuram,https://www.worlddata.info/asia/india/airports.php
2292,VQPR,2025-11-23 01:58:15.685000+00:00,1763863200,2025-11-23T02:00:00.000Z,8.0,5.0,150,4.0,4.35,1025.0,0,METAR,METAR VQPR 230200Z 15004KT 7000 FEW025 SCT055 08/05 Q1025,27.403,89.425,2227,"Paro Intl, PA, BT",SCT,"[{'cover': 'FEW', 'base': 2500}, {'cover': 'SCT', 'base': 5500}]",MVFR,,,,,,,,PBH,Paro International Airport,Bhutan,Paro,https://www.worlddata.info/asia/bhutan/airports.php
2293,VTBD,2025-11-23 01:35:21.068000+00:00,1763861400,2025-11-23T01:30:00.000Z,25.0,18.0,360,9.0,6+,1015.0,16,METAR,METAR VTBD 230130Z 36009KT 9999 FEW030 25/18 Q1015 NOSIG,13.913,100.607,6,"Bangkok Intl, 10, TH",FEW,"[{'cover': 'FEW', 'base': 3000}]",VFR,,,,,,,,DMK,Don Mueang International Airport,Thailand,Bangkok,https://www.worlddata.info/asia/thailand/airports.php
2294,VTBS,2025-11-23 01:35:21.098000+00:00,1763861400,2025-11-23T01:30:00.000Z,25.0,17.0,340,7.0,6+,1015.0,16,METAR,METAR VTBS 230130Z 34007KT 9999 FEW030 25/17 Q1015 NOSIG,13.686,100.767,1,"Bangkok/Suvarnabhumi Arpt, 20, TH",FEW,"[{'cover': 'FEW', 'base': 3000}]",VFR,,,,,,,,BKK,Suvarnabhumi Airport,Thailand,Bangkok,https://www.worlddata.info/asia/thailand/airports.php
2295,VTBU,2025-11-23 01:35:21.226000+00:00,1763861400,2025-11-23T01:30:00.000Z,26.0,19.0,10,13.0,5.59,1013.0,16,METAR,METAR VTBU 230130Z 01013KT 9000 NSC 26/19 Q1013 NOSIG,12.68,101.001,12,"Rayong/U-Tapao Intl, 21, TH",CLR,[],VFR,,,,,,,,UTP,U-Tapao International Airport,Thailand,Rayong,https://www.worlddata.info/asia/thailand/airports.php
2296,VTCC,2025-11-23 01:35:21.125000+00:00,1763861400,2025-11-23T01:30:00.000Z,21.0,18.0,VRB,2.0,6+,1020.0,16,METAR,METAR VTCC 230130Z VRB02KT 9999 FEW030 21/18 Q1020 NOSIG,18.771,98.963,308,"Chiang Mai Intl, 50, TH",FEW,"[{'cover': 'FEW', 'base': 3000}]",VFR,,,,,,,,CNX,Chiang Mai International Airport,Thailand,Chiang Mai,https://www.worlddata.info/asia/thailand/airports.php
2297,VTSP,2025-11-23 01:35:21.153000+00:00,1763861400,2025-11-23T01:30:00.000Z,26.0,24.0,VRB,1.0,6+,1011.0,16,METAR,METAR VTSP 230130Z VRB01KT 9999 FEW020 SCT080 26/24 Q1011 NOSIG,8.105,98.308,12,"Phuket Intl, 83, TH",SCT,"[{'cover': 'FEW', 'base': 2000}, {'cover': 'SCT', 'base': 8000}]",VFR,,,,,,,,HKT,Phuket International Airport,Thailand,Phuket,https://www.worlddata.info/asia/thailand/airports.php
2298,VTSS,2025-11-23 01:35:21.194000+00:00,1763861400,2025-11-23T01:30:00.000Z,25.0,24.0,350,5.0,6+,1009.0,16,METAR,METAR VTSS 230130Z 35005KT 9999 -RA SCT008 SCT018 BKN025 25/24 Q1009 NOSIG,6.933,100.393,28,"Hat Yai Intl, 90, TH",BKN,"[{'cover': 'SCT', 'base': 800}, {'cover': 'SCT', 'base': 1800}, {'cover': 'BKN', 'base': 2500}]",MVFR,-RA,,,,,,,HDY,Hat Yai International Airport,Thailand,Hat Yai,https://www.worlddata.info/asia/thailand/airports.php
2299,VVCI,2025-11-23 01:35:31.881000+00:00,1763861400,2025-11-23T01:30:00.000Z,22.0,13.0,VRB,1.0,6+,1021.0,16,METAR,METAR VVCI 230130Z VRB01KT CAVOK 22/13 Q1021 NOSIG,20.823,106.727,6,"Haiphong/Cat Bi Intl, HP, VN",CAVOK,[],VFR,,,,,,,,HPH,Cat Bi International Airport,Vietnam,Haiphong (Hai An),https://www.worlddata.info/asia/vietnam/airports.php
2300,VVCR,2025-11-23 01:35:31.916000+00:00,1763861400,2025-11-23T01:30:00.000Z,28.0,25.0,10,13.0,4.97,1013.0,16,METAR,METAR VVCR 230130Z 01013KT 8000 SCT015 SCT050 28/25 Q1013 NOSIG,11.998,109.219,12,"Cam Ranh Intl, BR, VN",SCT,"[{'cover': 'SCT', 'base': 1500}, {'cover': 'SCT', 'base': 5000}]",MVFR,,,,,,,,CXR,Cam Ranh International Airport / Cam Ranh Air Base,Vietnam,Cam Ranh,https://www.worlddata.info/asia/vietnam/airports.php
2301,VVCT,2025-11-23 01:35:31.953000+00:00,1763861400,2025-11-23T01:30:00.000Z,27.0,24.0,10,4.0,6+,1012.0,16,METAR,METAR VVCT 230130Z 01004KT 9999 FEW015 SCT050 27/24 Q1012 NOSIG,10.085,105.712,6,"Can Tho Intl, 2, VN",SCT,"[{'cover': 'FEW', 'base': 1500}, {'cover': 'SCT', 'base': 5000}]",VFR,,,,,,,,VCA,Can Tho International Airport,Vietnam,Can Tho,https://www.worlddata.info/asia/vietnam/airports.php
2302,VVDN,2025-11-23 01:35:31.984000+00:00,1763861400,2025-11-23T01:30:00.000Z,22.0,21.0,310,3.0,4.35,1018.0,16,METAR,METAR VVDN 230130Z 31003KT 260V350 7000 -RA SCT015 BKN032 22/21 Q1018 NOSIG,16.044,108.199,7,"Da Nang Intl, DN, VN",BKN,"[{'cover': 'SCT', 'base': 1500}, {'cover': 'BKN', 'base': 3200}]",MVFR,-RA,,,,,,,DAD,Da Nang International Airport,Vietnam,Da Nang,https://www.worlddata.info/asia/vietnam/airports.php
2303,VVNB,2025-11-23 01:35:32.016000+00:00,1763861400,2025-11-23T01:30:00.000Z,20.0,14.0,310,4.0,6+,1022.0,16,METAR,METAR VVNB 230130Z 31004KT CAVOK 20/14 Q1022 NOSIG,21.218,105.805,6,"Hanoi/Noi Bai Intl, HI, VN",CAVOK,[],VFR,,,,,,,,HAN,Noi Bai International Airport,Vietnam,Hanoi (Soc Son),https://www.worlddata.info/asia/vietnam/airports.php
2304,VVPB,2025-11-23 01:35:32.057000+00:00,1763861400,2025-11-23T01:30:00.000Z,19.0,19.0,280,7.0,0.99,1019.0,16,METAR,METAR VVPB 230130Z 28007KT 1600 -RA BR SCT006 BKN007 BKN030 19/19 Q1019 NOSIG,16.399,107.699,15,"Huế/Phu Bai Arpt, BC, VN",BKN,"[{'cover': 'SCT', 'base': 600}, {'cover': 'BKN', 'base': 700}, {'cover': 'BKN', 'base': 3000}]",LIFR,-RA BR,,,,,,,HUI,Phu Bai International Airport,Vietnam,Huế,https://www.worlddata.info/asia/vietnam/airports.php
2305,VVPQ,2025-11-23 01:35:32.089000+00:00,1763861400,2025-11-23T01:30:00.000Z,29.0,21.0,30,13.0,6+,1011.0,16,METAR,METAR VVPQ 230130Z 03013KT 9999 FEW015 SCT040 29/21 Q1011 NOSIG,10.169,103.995,8,"Phu Quoc Arpt, 40, VN",SCT,"[{'cover': 'FEW', 'base': 1500}, {'cover': 'SCT', 'base': 4000}]",VFR,,,,,,,,PQC,Phu Quoc International Airport,Vietnam,Phu Quoc Island,https://www.worlddata.info/asia/vietnam/airports.php
2306,VVTS,2025-11-23 01:35:32.120000+00:00,1763861400,2025-11-23T01:30:00.000Z,27.0,23.0,350,3.0,6+,1011.0,16,METAR,METAR VVTS 230130Z 35003KT 310V020 CAVOK 27/23 Q1011 NOSIG,10.817,106.667,10,"Ho Chi Minh/Nhat Intl, 23, VN",CAVOK,[],VFR,,,,,,,,SGN,Tan Son Nhat International Airport,Vietnam,Ho Chi Minh City,https://www.worlddata.info/asia/vietnam/airports.php
2307,VVVD,2025-11-23 01:35:32.150000+00:00,1763861400,2025-11-23T01:30:00.000Z,20.0,16.0,VRB,2.0,6+,1022.0,2,METAR,METAR VVVD 230130Z AUTO VRB02KT 9999 OVC093/// 20/16 Q1022,21.118,107.414,8,"Van Don Intl, 21, VN",OVC,"[{'cover': 'OVC', 'base': 9300}]",VFR,,,,,,,,VDO,Van Don International Airport,Vietnam,Van Don,https://www.worlddata.info/asia/vietnam/airports.php
2308,VYMD,2025-11-23 01:35:29.414000+00:00,1763861400,2025-11-23T01:30:00.000Z,20.0,18.0,0,0.0,3.73,1015.0,16,METAR,METAR VYMD 230130Z 00000KT 6000 SCT025 20/18 Q1015 NOSIG,21.702,95.978,87,"Mandalay Intl, 4, MM",SCT,"[{'cover': 'SCT', 'base': 2500}]",MVFR,,,,,,,,MDL,Mandalay International Airport,Myanmar,Mandalay,https://www.worlddata.info/asia/burma/airports.php
2309,VYYY,2025-11-23 01:35:29.444000+00:00,1763861400,2025-11-23T01:30:00.000Z,25.0,23.0,70,3.0,4.35,1015.0,16,METAR,METAR VYYY 230130Z 07003KT 7000 FEW020 25/23 Q1015 NOSIG,16.906,96.137,31,"Yangon Intl, 6, MM",FEW,"[{'cover': 'FEW', 'base': 2000}]",MVFR,,,,,,,,RGN,Yangon International Airport,Myanmar,Yangon,https://www.worlddata.info/asia/burma/airports.php
2310,WAAA,2025-11-23 01:36:09.016000+00:00,1763861400,2025-11-23T01:30:00.000Z,31.0,26.0,330,8.0,5.59,1010.0,16,METAR,METAR WAAA 230130Z 33008KT 290V010 9000 VCSH FEW017CB FEW018 31/26 Q1010 NOSIG RMK CB IN APCH,-5.062,119.554,13,"Makassar/Hasanuddin Intl, SN, ID",FEW,"[{'cover': 'FEW', 'base': 1700}, {'cover': 'FEW', 'base': 1800}]",VFR,VCSH,,,,,,,UPG,Hasanuddin International Airport,Indonesia,Ujung Pandang,https://www.worlddata.info/asia/indonesia/airports.php
2311,WABB,2025-11-23 01:35:20.368000+00:00,1763861400,2025-11-23T01:30:00.000Z,30.0,27.0,250,10.0,6+,1007.0,16,METAR,METAR WABB 230130Z 25010KT 9999 SCT015 30/27 Q1007 NOSIG,-1.19,136.108,12,"Biak/Kaisiepo Arpt, PA, ID",SCT,"[{'cover': 'SCT', 'base': 1500}]",VFR,,,,,,,,BIK,Frans Kaisiepo Airport,Indonesia,Biak,https://www.worlddata.info/asia/indonesia/airports.php
2312,WADD,2025-11-23 01:35:20.589000+00:00,1763861400,2025-11-23T01:30:00.000Z,30.0,25.0,250,6.0,6+,1009.0,16,METAR,METAR WADD 230130Z 25006KT 220V290 9999 FEW017 30/25 Q1009 NOSIG,-8.748,115.167,3,"Bali/Rai Intl, BA, ID",FEW,"[{'cover': 'FEW', 'base': 1700}]",VFR,,,,,,,,DPS,Ngurah Rai (Bali) International Airport,Indonesia,Denpasar,https://www.worlddata.info/asia/indonesia/airports.php
2313,WADL,2025-11-23 01:35:29.023000+00:00,1763861400,2025-11-23T01:30:00.000Z,30.0,24.0,300,5.0,4.97,1010.0,16,METAR,METAR WADL 230130Z 30005KT 260V350 8000 BKN016 30/24 Q1010 NOSIG,-8.757,116.277,97,"Lombok Intl, NB, ID",BKN,"[{'cover': 'BKN', 'base': 1600}]",MVFR,,,,,,,,LOP,Lombok International Airport,Indonesia,Mataram,https://www.worlddata.info/asia/indonesia/airports.php
2314,WAHI,2025-11-23 01:35:29.063000+00:00,1763861400,2025-11-23T01:30:00.000Z,29.0,24.0,190,3.0,6+,1009.0,16,METAR,METAR WAHI 230130Z 19003KT 110V250 9999 FEW020 29/24 Q1009 NOSIG,-7.9041,110.0575,7,"Yogyakarta Intl, YO, ID",FEW,"[{'cover': 'FEW', 'base': 2000}]",VFR,,,,,,,,YIA,Yogyakarta International Airport,Indonesia,Yogyakarta,https://www.worlddata.info/asia/indonesia/airports.php
2315,WAJJ,2025-11-23 01:35:29.093000+00:00,1763861400,2025-11-23T01:30:00.000Z,32.0,25.0,VRB,4.0,6+,1005.0,16,METAR,METAR WAJJ 230130Z VRB04KT 9999 FEW013 32/25 Q1005 NOSIG,-2.573,140.514,93,"Jayapura/Sentani Arpt, PA, ID",FEW,"[{'cover': 'FEW', 'base': 1300}]",VFR,,,,,,,,DJJ,Dortheys Hiyo Eluay International Airport,Indonesia,Sentani,https://www.worlddata.info/asia/indonesia/airports.php
2316,WALL,2025-11-23 01:38:29.077000+00:00,1763861400,2025-11-23T01:30:00.000Z,24.0,23.0,VRB,1.0,3.11,1009.0,0,METAR,METAR WALL 230130Z VRB01KT 5000 VCTS RA FEW016CB SCT017 24/23 Q1009 RMK CB TO SE,-1.268,116.894,3,"Sepinggan Intl, KI, ID",SCT,"[{'cover': 'FEW', 'base': 1600}, {'cover': 'SCT', 'base': 1700}]",MVFR,VCTS RA,,,,,,,BPN,Sultan Aji Muhammad Sulaiman Sepinggan International Airport,Indonesia,Balikpapan,https://www.worlddata.info/asia/indonesia/airports.php
2317,WAMM,2025-11-23 01:35:28.777000+00:00,1763861400,2025-11-23T01:30:00.000Z,31.0,25.0,VRB,5.0,6+,1011.0,16,METAR,METAR WAMM 230130Z VRB05KT 9999 SCT020 31/25 Q1011 NOSIG,1.541,124.926,86,"Manado/Ratulangi Intl, SA, ID",SCT,"[{'cover': 'SCT', 'base': 2000}]",VFR,,,,,,,,MDC,Sam Ratulangi Airport,Indonesia,Manado,https://www.worlddata.info/asia/indonesia/airports.php
2318,WAOO,2025-11-23 01:35:28.967000+00:00,1763861400,2025-11-23T01:30:00.000Z,29.0,25.0,40,7.0,6+,1009.0,16,METAR,METAR WAOO 230130Z 04007KT 9999 SCT016 29/25 Q1009 NOSIG,-3.44,114.759,23,"Banjarmasin/Syamsudin Noor Arpt, KS, ID",SCT,"[{'cover': 'SCT', 'base': 1600}]",VFR,,,,,,,,BDJ,Syamsudin Noor International Airport,Indonesia,Landasan Ulin,https://www.worlddata.info/asia/indonesia/airports.php
2319,WAPP,2025-11-23 01:35:29.124000+00:00,1763861400,2025-11-23T01:30:00.000Z,32.0,24.0,320,7.0,6+,1007.0,16,METAR,METAR WAPP 230130Z 32007KT 9999 SCT016 32/24 Q1007 NOSIG,-3.71,128.089,20,"Ambon/Pattimura Arpt, MA, ID",SCT,"[{'cover': 'SCT', 'base': 1600}]",VFR,,,,,,,,AMQ,Pattimura International Airport,Indonesia,Ambon,https://www.worlddata.info/asia/indonesia/airports.php
2320,WARR,2025-11-23 01:35:20.631000+00:00,1763861400,2025-11-23T01:30:00.000Z,29.0,27.0,120,3.0,6+,1009.0,16,METAR,METAR WARR 230130Z 12003KT 9999 FEW020 29/27 Q1009 NOSIG,-7.38,112.787,3,"Surabaya/Juanda Intl, JI, ID",FEW,"[{'cover': 'FEW', 'base': 2000}]",VFR,,,,,,,,SUB,Juanda International Airport,Indonesia,Surabaya,https://www.worlddata.info/asia/indonesia/airports.php
2321,WATT,2025-11-23 01:35:29.210000+00:00,1763861400,2025-11-23T01:30:00.000Z,31.0,24.0,260,5.0,6+,1008.0,16,METAR,METAR WATT 230130Z 26005KT 9999 BKN017 31/24 Q1008 NOSIG,-10.172,123.671,104,"Kupang/El Tari Arpt, NT, ID",BKN,"[{'cover': 'BKN', 'base': 1700}]",MVFR,,,,,,,,KOE,El Tari Airport,Indonesia,Kupang,https://www.worlddata.info/asia/indonesia/airports.php
2322,WBGG,2025-11-23 01:38:29.167000+00:00,1763861400,2025-11-23T01:30:00.000Z,27.0,24.0,110,3.0,6+,1011.0,16,METAR,METAR WBGG 230130Z 11003KT 060V200 9999 FEW012 27/24 Q1011 NOSIG,1.484,110.34,26,"Kuching Intl, SR, MY",FEW,"[{'cover': 'FEW', 'base': 1200}]",VFR,,,,,,,,KCH,Kuching International Airport,Malaysia,Kuching,https://www.worlddata.info/asia/malaysia/airports.php
2323,WBKK,2025-11-23 01:38:29.192000+00:00,1763861400,2025-11-23T01:30:00.000Z,30.0,25.0,VRB,3.0,6+,1010.0,16,METAR,METAR WBKK 230130Z VRB03KT 9999 FEW014 30/25 Q1010 NOSIG,5.937,116.051,9,"Kota Kinabalu Intl, SB, MY",FEW,"[{'cover': 'FEW', 'base': 1400}]",VFR,,,,,,,,BKI,Kota Kinabalu International Airport,Malaysia,Kota Kinabalu,https://www.worlddata.info/asia/malaysia/airports.php
2324,WBSB,2025-11-23 01:38:29.220000+00:00,1763861400,2025-11-23T01:30:00.000Z,28.0,24.0,50,2.0,6+,1011.0,16,METAR,METAR WBSB 230130Z 05002KT 9999 FEW014 SCT140 BKN300 28/24 Q1011 NOSIG,4.944,114.928,15,"Brunei Intl, BM, BN",BKN,"[{'cover': 'FEW', 'base': 1400}, {'cover': 'SCT', 'base': 14000}, {'cover': 'BKN', 'base': 30000}]",VFR,,,,,,,,BWN,Brunei International Airport,Brunei,Bandar Seri Begawan,https://www.worlddata.info/asia/brunei/airports.php
2325,WIBB,2025-11-23 01:35:28.804000+00:00,1763861400,2025-11-23T01:30:00.000Z,28.0,22.0,330,5.0,4.97,1008.0,16,METAR,METAR WIBB 230130Z 33005KT 8000 FEW012 28/22 Q1008 NOSIG,0.461,101.445,41,"Pakanbaru/Kasim Arpt, RI, ID",FEW,"[{'cover': 'FEW', 'base': 1200}]",MVFR,,,,,,,,PKU,Sultan Syarif Kasim II International Airport / Roesmin Nurjadin AFB,Indonesia,Pekanbaru,https://www.worlddata.info/asia/indonesia/airports.php
2326,WIDD,2025-11-23 01:35:20.514000+00:00,1763861400,2025-11-23T01:30:00.000Z,29.0,25.0,270,4.0,6+,1011.0,16,METAR,METAR WIDD 230130Z 27004KT 9999 FEW014 29/25 Q1011 NOSIG,1.121,104.119,26,"Batam/Hang Nadim, RI, ID",FEW,"[{'cover': 'FEW', 'base': 1400}]",VFR,,,,,,,,BTH,Hang Nadim International Airport,Indonesia,Batam,https://www.worlddata.info/asia/indonesia/airports.php
2327,WIDN,2025-11-23 01:35:28.836000+00:00,1763861400,2025-11-23T01:30:00.000Z,29.0,25.0,300,3.0,5.59,1009.0,16,METAR,METAR WIDN 230130Z 30003KT 9000 FEW017 29/25 Q1009 NOSIG,0.923,104.532,18,"Tanjung Pinang Arpt, RI, ID",FEW,"[{'cover': 'FEW', 'base': 1700}]",VFR,,,,,,,,TNJ,Raja Haji Fisabilillah International Airport,Indonesia,Tanjung Pinang-Bintan Island,https://www.worlddata.info/asia/indonesia/airports.php
2328,WIHH,2025-11-23 01:35:20.413000+00:00,1763861400,2025-11-23T01:30:00.000Z,27.0,24.0,270,6.0,3.73,1009.0,16,METAR,METAR WIHH 230130Z 27006KT 6000 SCT017 27/24 Q1009 NOSIG,-6.267,106.891,26,"Jakarta/Perdanakusum, JK, ID",SCT,"[{'cover': 'SCT', 'base': 1700}]",MVFR,,,,,,,,HLP,Halim Perdanakusuma International Airport,Indonesia,Jakarta,https://www.worlddata.info/asia/indonesia/airports.php
2329,WIII,2025-11-23 01:35:20.470000+00:00,1763861400,2025-11-23T01:30:00.000Z,29.0,24.0,230,7.0,4.35,1009.0,16,METAR,METAR WIII 230130Z 23007KT 7000 SCT020 29/24 Q1009 NOSIG,-6.125,106.659,9,"Jakarta/Hatta Intl, JB, ID",SCT,"[{'cover': 'SCT', 'base': 2000}]",MVFR,,,,,,,,CGK,Soekarno-Hatta International Airport,Indonesia,Jakarta,https://www.worlddata.info/asia/indonesia/airports.php
2330,WILL,2025-11-23 01:35:29.185000+00:00,1763861400,2025-11-23T01:30:00.000Z,28.0,24.0,230,3.0,6+,1009.0,16,METAR,METAR WILL 230130Z 23003KT 140V290 9999 SCT015 28/24 Q1009 NOSIG,-5.242,105.179,83,"Bandar Lampung Intl, SS, ID",SCT,"[{'cover': 'SCT', 'base': 1500}]",VFR,,,,,,,,TKG,Radin Inten II International Airport,Indonesia,Bandar Lampung,https://www.worlddata.info/asia/indonesia/airports.php
2331,WIMM,2025-11-23 01:35:20.551000+00:00,1763861400,2025-11-23T01:30:00.000Z,25.0,23.0,270,15.0,6+,1009.0,16,METAR,METAR WIMM 230130Z 27015KT 9999 SCT018 25/23 Q1009 NOSIG,3.636,98.874,7,"Medan/Kualanamu Intl, SU, ID",SCT,"[{'cover': 'SCT', 'base': 1800}]",VFR,,,,,,,,KNO,Kualanamu International Airport,Indonesia,Medan,https://www.worlddata.info/asia/indonesia/airports.php
2332,WIOO,2025-11-23 01:35:28.898000+00:00,1763861400,2025-11-23T01:30:00.000Z,28.0,26.0,60,3.0,6+,1010.0,16,METAR,METAR WIOO 230130Z 06003KT 9999 FEW011 28/26 Q1010 NOSIG,-0.151,109.404,4,"Pontianak/Supadio Arpt, KB, ID",FEW,"[{'cover': 'FEW', 'base': 1100}]",VFR,,,,,,,,PNK,Supadio Airport,Indonesia,Pontianak,https://www.worlddata.info/asia/indonesia/airports.php
2333,WIPP,2025-11-23 01:35:28.932000+00:00,1763861400,2025-11-23T01:30:00.000Z,26.0,24.0,VRB,2.0,6+,1010.0,16,METAR,METAR WIPP 230130Z VRB02KT 9999 SCT015 26/24 Q1010 NOSIG,-2.898,104.7,7,"Palembang/Badaruddin Arpt, SS, ID",SCT,"[{'cover': 'SCT', 'base': 1500}]",VFR,,,,,,,,PLM,Sultan Mahmud Badaruddin II Airport,Indonesia,Palembang,https://www.worlddata.info/asia/indonesia/airports.php
2334,WITT,2025-11-23 01:35:29.043000+00:00,1763861400,2025-11-23T01:30:00.000Z,24.0,24.0,140,2.0,6+,1012.0,16,METAR,METAR WITT 230130Z 14002KT 9999 BKN018 24/24 Q1012 NOSIG,5.524,95.42,21,"Banda Aceh, AC, ID",BKN,"[{'cover': 'BKN', 'base': 1800}]",MVFR,,,,,,,,BTJ,Sultan Iskandar Muda International Airport,Indonesia,Banda Aceh,https://www.worlddata.info/asia/indonesia/airports.php
2335,WMKK,2025-11-23 01:38:29.260000+00:00,1763861400,2025-11-23T01:30:00.000Z,28.0,25.0,VRB,2.0,5.59,1009.0,16,METAR,METAR WMKK 230130Z VRB02KT 9000 FEW017CB 28/25 Q1009 NOSIG,2.747,101.714,21,"Kuala Lumpur Intl, SL, MY",FEW,"[{'cover': 'FEW', 'base': 1700}]",VFR,,,,,,,,KUL,Kuala Lumpur International Airport,Malaysia,Sepang,https://www.worlddata.info/asia/malaysia/airports.php
2336,WMKP,2025-11-23 01:38:29.291000+00:00,1763861400,2025-11-23T01:30:00.000Z,27.0,22.0,30,10.0,5.59,1008.0,16,METAR,METAR WMKP 230130Z 03010KT 350V080 9000 FEW020 27/22 Q1008 NOSIG,5.297,100.277,4,"Penang Intl, 7, MY",FEW,"[{'cover': 'FEW', 'base': 2000}]",VFR,,,,,,,,PEN,Penang International Airport,Malaysia,Penang,https://www.worlddata.info/asia/malaysia/airports.php
2337,WSSS,2025-11-23 02:00:55.004000+00:00,1763863200,2025-11-23T02:00:00.000Z,30.0,24.0,260,4.0,6+,1010.0,16,METAR,METAR WSSS 230200Z 26004KT 210V320 9999 FEW018 BKN150 30/24 Q1010 NOSIG,1.368,103.982,17,"Singapore/Changi Intl, 4, SG",BKN,"[{'cover': 'FEW', 'base': 1800}, {'cover': 'BKN', 'base': 15000}]",VFR,,,,,,,,SIN,Singapore Changi Airport,Singapore,Singapore,https://www.worlddata.info/asia/singapore/airports.php
2338,YBAS,2025-11-23 01:36:10.288000+00:00,1763861400,2025-11-23T01:30:00.000Z,39.0,8.0,250,9.0,6+,1008.0,2,METAR,METAR YBAS 230130Z AUTO 25009KT 9999 // NCD 39/08 Q1008,-23.795,133.889,549,"Alice Springs Arpt, NT, AU",CLR,[],VFR,,,,,,,,ASP,Alice Springs Airport,Australia,Alice Springs,https://www.worlddata.info/oceania/australia/airports.php
2339,YBBN,2025-11-23 01:36:14.461000+00:00,1763861400,2025-11-23T01:30:00.000Z,25.0,22.0,330,3.0,6+,1010.0,0,METAR,METAR YBBN 230130Z 33003KT 9999 FEW020 BKN250 25/22 Q1010,-27.391,153.13,3,"Brisbane Intl, QL, AU",BKN,"[{'cover': 'FEW', 'base': 2000}, {'cover': 'BKN', 'base': 25000}]",VFR,,,,,,,,BNE,Brisbane International Airport,Australia,Brisbane,https://www.worlddata.info/oceania/australia/airports.php
2340,YBCG,2025-11-23 01:38:13.014000+00:00,1763861400,2025-11-23T01:30:00.000Z,25.0,21.0,350,10.0,6+,1009.0,2,METAR,METAR YBCG 230130Z AUTO 35010KT 9999 // NCD 25/21 Q1009,-28.168,153.505,5,"Coolangatta/Gold Coast Arpt, QL, AU",CLR,[],VFR,,,,,,,,OOL,Gold Coast Airport,Australia,Gold Coast,https://www.worlddata.info/oceania/australia/airports.php
2341,YBCS,2025-11-23 01:38:13.037000+00:00,1763861400,2025-11-23T01:30:00.000Z,32.0,23.0,60,12.0,6+,1009.0,2,METAR,METAR YBCS 230130Z AUTO 06012KT 9999 // NCD 32/23 Q1009,-16.874,145.745,2,"Cairns Intl, QL, AU",CLR,[],VFR,,,,,,,,CNS,Cairns International Airport,Australia,Cairns,https://www.worlddata.info/oceania/australia/airports.php
2342,YBHM,2025-11-23 01:36:12.653000+00:00,1763861400,2025-11-23T01:30:00.000Z,29.0,24.0,100,12.0,6+,1010.0,2,METAR,METAR YBHM 230130Z AUTO 10012KT 9999 // SCT030 29/24 Q1010,-20.357,148.949,4,"Hamilton Island Arpt, QL, AU",SCT,"[{'cover': 'SCT', 'base': 3000}]",VFR,,,,,,,,HTI,Hamilton Island Airport,Australia,Hamilton Island,https://www.worlddata.info/oceania/australia/airports.php
2343,YBLN,2025-11-23 01:35:13.289000+00:00,1763861400,2025-11-23T01:30:00.000Z,19.0,10.0,270,16.0,6+,1007.0,2,METAR,METAR YBLN 230130Z AUTO 27016G26KT 9999 // FEW035 SCT057 BKN071 19/10 Q1007,-33.688,115.402,17,"Busselton Rgnl, WA, AU",BKN,"[{'cover': 'FEW', 'base': 3500}, {'cover': 'SCT', 'base': 5700}, {'cover': 'BKN', 'base': 7100}]",VFR,,,,,,26.0,,BQB,Busselton Margaret River Regional Airport,Australia,Busselton,https://www.worlddata.info/oceania/australia/airports.php
2344,YBMA,2025-11-23 01:36:10.312000+00:00,1763861400,2025-11-23T01:30:00.000Z,39.0,17.0,250,9.0,6+,1009.0,2,METAR,METAR YBMA 230130Z AUTO 25009KT 210V270 9999 // NCD 39/17 Q1009,-20.678,139.488,346,"Mount Isa Arpt, QL, AU",CLR,[],VFR,,,,,,,,ISA,Mount Isa Airport,Australia,Mount Isa,https://www.worlddata.info/oceania/australia/airports.php
2345,YBRK,2025-11-23 01:36:10.341000+00:00,1763861400,2025-11-23T01:30:00.000Z,32.0,23.0,160,3.0,6+,1010.0,2,METAR,METAR YBRK 230130Z AUTO 16003KT 9999 // FEW037 SCT047 32/23 Q1010,-23.375,150.477,10,"Rockhampton Arpt, QL, AU",SCT,"[{'cover': 'FEW', 'base': 3700}, {'cover': 'SCT', 'base': 4700}]",VFR,,,,,,,,ROK,Rockhampton Airport,Australia,Rockhampton,https://www.worlddata.info/oceania/australia/airports.php
2346,YBRM,2025-11-23 01:36:10.365000+00:00,1763861400,2025-11-23T01:30:00.000Z,31.0,23.0,240,10.0,6+,1007.0,2,METAR,METAR YBRM 230130Z AUTO 24010KT 220V280 9999 // FEW020 31/23 Q1007,-17.948,122.235,11,"Broome Arpt, WA, AU",FEW,"[{'cover': 'FEW', 'base': 2000}]",VFR,,,,,,,,BME,Broome International Airport,Australia,Broome,https://www.worlddata.info/oceania/australia/airports.php
2347,YBSU,2025-11-23 01:35:14.035000+00:00,1763861400,2025-11-23T01:30:00.000Z,26.0,21.0,20,9.0,6+,1010.0,2,METAR,METAR YBSU 230130Z AUTO 02009KT 9999 // NCD 26/21 Q1010,-26.603,153.091,4,"Sunshine Coast Arpt, QL, AU",CLR,[],VFR,,,,,,,,MCY,Sunshine Coast Airport,Australia,Maroochydore,https://www.worlddata.info/oceania/australia/airports.php
2348,YBTL,2025-11-23 01:38:13.060000+00:00,1763861400,2025-11-23T01:30:00.000Z,33.0,24.0,50,13.0,6+,1010.0,2,METAR,METAR YBTL 230130Z AUTO 05013KT 9999 // NCD 33/24 Q1010,-19.248,146.766,4,"Townsville Arpt, QL, AU",CLR,[],VFR,,,,,,,,TSV,Townsville Airport / RAAF Base Townsville,Australia,Townsville,https://www.worlddata.info/oceania/australia/airports.php
2349,YBWW,2025-11-23 01:35:13.194000+00:00,1763861400,2025-11-23T01:30:00.000Z,28.0,18.0,300,12.0,6+,1012.0,2,METAR,METAR YBWW 230130Z AUTO 30012KT 9999 // NCD 28/18 Q1012,-27.558,151.793,460,"Toowoomba/Wellcamp Arpt, QL, AU",CLR,[],VFR,,,,,,,,WTB,Toowoomba Wellcamp Airport,Australia,Toowoomba,https://www.worlddata.info/oceania/australia/airports.php
2350,YCFS,2025-11-23 01:35:13.602000+00:00,1763861400,2025-11-23T01:30:00.000Z,27.0,21.0,40,16.0,6+,1007.0,2,METAR,METAR YCFS 230130Z AUTO 04016KT 9999 // ////// 27/21 Q1007,-30.317,153.119,2,"Coffs Harbour Arpt, NS, AU",,,,,,,,,,,CFS,Coffs Harbour Airport,Australia,Coffs Harbour,https://www.worlddata.info/oceania/australia/airports.php
2351,YCIN,2025-11-23 01:36:12.673000+00:00,1763861400,2025-11-23T01:30:00.000Z,34.0,20.0,260,7.0,6+,1006.0,2,METAR,METAR YCIN 230130Z AUTO 26007KT 230V290 9999 // NCD 34/20 Q1006,-17.574,123.831,83,"Curtin, WA, AU",CLR,[],VFR,,,,,,,,DCN,RAAF Base Curtin,Australia,Derby,https://www.worlddata.info/oceania/australia/airports.php
2352,YFRT,2025-11-23 01:48:05.507000+00:00,1763862420,2025-11-23T01:47:00.000Z,26.0,13.0,110,19.0,6+,1004.0,2,SPECI,SPECI YFRT 230147Z AUTO 11019KT 110V180 9999 // NCD 26/13 Q1004,-30.848,128.114,159,"Forrest Arpt, WA, AU",CLR,[],VFR,,,,,,,,FOS,Forrest Airport,Australia,,https://www.worlddata.info/oceania/australia/airports.php
2353,YGEL,2025-11-23 01:35:14.211000+00:00,1763861400,2025-11-23T01:30:00.000Z,19.0,15.0,210,17.0,6+,1012.0,2,METAR,METAR YGEL 230130Z AUTO 21017KT 9999 DZ FEW038 SCT054 BKN075 19/15 Q1012,-28.805,114.699,32,"Geraldton Arpt, WA, AU",BKN,"[{'cover': 'FEW', 'base': 3800}, {'cover': 'SCT', 'base': 5400}, {'cover': 'BKN', 'base': 7500}]",VFR,DZ,,,,,,,GET,Geraldton Airport,Australia,Geraldton,https://www.worlddata.info/oceania/australia/airports.php
2354,YGLA,2025-11-23 01:35:14.265000+00:00,1763861400,2025-11-23T01:30:00.000Z,30.0,22.0,70,9.0,6+,1011.0,2,METAR,METAR YGLA 230130Z AUTO 07009KT 9999 // NCD 30/22 Q1011,-23.87,151.221,17,"Gladstone Arpt, QL, AU",CLR,[],VFR,,,,,,,,GLT,Gladstone Airport,Australia,Gladstone,https://www.worlddata.info/oceania/australia/airports.php
2355,YHID,2025-11-23 01:35:14.336000+00:00,1763861400,2025-11-23T01:30:00.000Z,31.0,20.0,70,9.0,6+,1008.0,2,METAR,METAR YHID 230130Z AUTO 07009KT 9999 // NCD 31/20 Q1008,-10.584,142.29,5,"Horn Island Arpt, QL, AU",CLR,[],VFR,,,,,,,,HID,Horn Island Airport,Australia,Horn,https://www.worlddata.info/oceania/australia/airports.php
2356,YLHI,2025-11-23 01:35:13.792000+00:00,1763861400,2025-11-23T01:30:00.000Z,24.0,21.0,50,10.0,6+,1012.0,2,METAR,METAR YLHI 230130Z AUTO 05010KT 9999 // FEW014 24/21 Q1012,-31.538,159.077,2,"Lord Howe Island Arpt, NS, AU",FEW,"[{'cover': 'FEW', 'base': 1400}]",VFR,,,,,,,,LDH,Lord Howe Island Airport,Australia,Lord Howe Island,https://www.worlddata.info/oceania/australia/airports.php
2357,YMAV,2025-11-23 01:36:12.701000+00:00,1763861400,2025-11-23T01:30:00.000Z,16.0,14.0,190,14.0,6+,1011.0,2,METAR,METAR YMAV 230130Z AUTO 19014KT 9999 // OVC023 16/14 Q1011,-38.029,144.478,11,"Avalon Arpt, VI, AU",OVC,"[{'cover': 'OVC', 'base': 2300}]",MVFR,,,,,,,,AVV,Avalon Airport,Australia,Lara,https://www.worlddata.info/oceania/australia/airports.php
2358,YMHB,2025-11-23 01:38:13.087000+00:00,1763861400,2025-11-23T01:30:00.000Z,19.0,7.0,100,11.0,6+,1017.0,2,METAR,METAR YMHB 230130Z AUTO 10011KT 9999 // FEW045 19/07 Q1017,-42.834,147.503,2,"Hobart Intl, TA, AU",FEW,"[{'cover': 'FEW', 'base': 4500}]",VFR,,,,,,,,HBA,Hobart International Airport,Australia,Hobart,https://www.worlddata.info/oceania/australia/airports.php
2359,YMLT,2025-11-23 01:36:12.725000+00:00,1763861400,2025-11-23T01:30:00.000Z,19.0,9.0,130,16.0,6+,1015.0,2,METAR,METAR YMLT 230130Z AUTO 13016KT 9999 // OVC069 19/09 Q1015,-41.544,147.213,167,"Launceston Arpt, TA, AU",OVC,"[{'cover': 'OVC', 'base': 6900}]",VFR,,,,,,,,LST,Launceston Airport,Australia,Launceston,https://www.worlddata.info/oceania/australia/airports.php
2360,YMML,2025-11-23 01:33:03.751000+00:00,1763861400,2025-11-23T01:30:00.000Z,16.0,13.0,190,9.0,6+,1011.0,0,SPECI,SPECI YMML 230130Z 19009KT 9999 BKN014 16/13 Q1011,-37.666,144.832,115,"Melbourne Intl, VI, AU",BKN,"[{'cover': 'BKN', 'base': 1400}]",MVFR,,,,,,,,MEL,Melbourne International Airport,Australia,Melbourne,https://www.worlddata.info/oceania/australia/airports.php
2361,YPAD,2025-11-23 01:36:14.442000+00:00,1763861400,2025-11-23T01:30:00.000Z,26.0,16.0,240,8.0,6+,1005.0,0,METAR,METAR YPAD 230130Z 24008KT 9999 FEW040 BKN280 26/16 Q1005,-34.952,138.52,2,"Adelaide Intl, SA, AU",BKN,"[{'cover': 'FEW', 'base': 4000}, {'cover': 'BKN', 'base': 28000}]",VFR,,,,,,,,ADL,Adelaide International Airport,Australia,Adelaide,https://www.worlddata.info/oceania/australia/airports.php
2362,YPCC,2025-11-23 01:36:10.394000+00:00,1763861400,2025-11-23T01:30:00.000Z,27.0,22.0,140,10.0,6+,1012.0,2,METAR,METAR YPCC 230130Z AUTO 14010KT 9999 // BKN065 27/22 Q1012,-12.189,96.834,3,"Cocos Isl Intl, , CC",BKN,"[{'cover': 'BKN', 'base': 6500}]",VFR,,,,,,,,CCK,Cocos (Keeling) Islands Airport,Cocos (Keeling) Islands,West Island,https://www.worlddata.info/oceania/cocos-islands/airports.php
2363,YPDN,2025-11-23 01:38:12.914000+00:00,1763861580,2025-11-23T01:33:00.000Z,27.0,25.0,30,17.0,5.59,1004.0,0,SPECI,SPECI YPDN 230133Z 03017G28KT 9000 -SHRA FEW018 SCT023 BKN082 27/25 Q1004,-12.424,130.893,32,"Darwin Intl, NT, AU",BKN,"[{'cover': 'FEW', 'base': 1800}, {'cover': 'SCT', 'base': 2300}, {'cover': 'BKN', 'base': 8200}]",VFR,-SHRA,,,,,28.0,,DRW,Darwin International Airport / RAAF Darwin,Australia,Darwin,https://www.worlddata.info/oceania/australia/airports.php
2364,YPGV,2025-11-23 01:36:12.747000+00:00,1763861400,2025-11-23T01:30:00.000Z,31.0,22.0,30,8.0,6+,1009.0,2,METAR,METAR YPGV 230130Z AUTO 03008KT 9999 // SCT033 31/22 Q1009,-12.274,136.82,53,"Gove Arpt, NT, AU",SCT,"[{'cover': 'SCT', 'base': 3300}]",VFR,,,,,,,,GOV,Gove Airport,Australia,Nhulunbuy,https://www.worlddata.info/oceania/australia/airports.php
2365,YPJT,2025-11-23 01:36:12.819000+00:00,1763861700,2025-11-23T01:35:00.000Z,20.0,9.0,260,17.0,6+,1009.0,2,SPECI,SPECI YPJT 230135Z AUTO 26017G29KT 9999 // BKN042 BKN054 BKN066 20/09 Q1009,-32.101,115.879,29,"Perth/Jandakot Arpt, WA, AU",BKN,"[{'cover': 'BKN', 'base': 4200}, {'cover': 'BKN', 'base': 5400}, {'cover': 'BKN', 'base': 6600}]",VFR,,,,,,29.0,,JAD,Perth Jandakot Airport,Australia,Perth,https://www.worlddata.info/oceania/australia/airports.php
2366,YPKG,2025-11-23 01:36:12.770000+00:00,1763861400,2025-11-23T01:30:00.000Z,21.0,14.0,280,12.0,6+,1007.0,2,METAR,METAR YPKG 230130Z AUTO 28012KT 9999 // BKN032 21/14 Q1007,-30.785,121.453,372,"Kalgoorlie/Boulder Arpt, WA, AU",BKN,"[{'cover': 'BKN', 'base': 3200}]",VFR,,,,,,,,KGI,Kalgoorlie Boulder Airport,Australia,Broadwood,https://www.worlddata.info/oceania/australia/airports.php
2367,YPKU,2025-11-23 01:36:12.794000+00:00,1763861400,2025-11-23T01:30:00.000Z,36.0,20.0,120,10.0,6+,1006.0,2,METAR,METAR YPKU 230130Z AUTO 12010KT 9999 // NCD 36/20 Q1006,-15.781,128.71,42,"Kununurra Arpt, WA, AU",CLR,[],VFR,,,,,,,,KNX,East Kimberley Regional (Kununurra) Airport,Australia,Kununurra,https://www.worlddata.info/oceania/australia/airports.php
2368,YPLM,2025-11-23 01:36:10.418000+00:00,1763861400,2025-11-23T01:30:00.000Z,26.0,12.0,170,18.0,6+,1011.0,2,METAR,METAR YPLM 230130Z AUTO 17018KT 9999 // NCD 26/12 Q1011,-22.241,114.097,5,"Learmonth Arpt, WA, AU",CLR,[],VFR,,,,,,,,LEA,Learmonth Airport,Australia,Exmouth,https://www.worlddata.info/oceania/australia/airports.php
2369,YPPD,2025-11-23 01:36:10.442000+00:00,1763861400,2025-11-23T01:30:00.000Z,33.0,18.0,330,9.0,6+,1006.0,2,METAR,METAR YPPD 230130Z AUTO 33009KT 9999 // NCD 33/18 Q1006,-20.372,118.632,6,"Port Hedland Intl, WA, AU",CLR,[],VFR,,,,,,,,PHE,Port Hedland International Airport,Australia,Port Hedland,https://www.worlddata.info/oceania/australia/airports.php
2370,YPPH,2025-11-23 02:01:02.975000+00:00,1763862660,2025-11-23T01:51:00.000Z,21.0,8.0,250,17.0,6+,1010.0,2,SPECI,SPECI YPPH 230151Z AUTO 25017G27KT 9999 // FEW046 SCT054 21/08 Q1010,-31.927,115.976,16,"Perth Intl, WA, AU",SCT,"[{'cover': 'FEW', 'base': 4600}, {'cover': 'SCT', 'base': 5400}]",VFR,,,,,,27.0,,PER,Perth International Airport,Australia,Perth,https://www.worlddata.info/oceania/australia/airports.php
2371,YPTN,2025-11-23 01:38:13.150000+00:00,1763861400,2025-11-23T01:30:00.000Z,31.0,23.0,40,13.0,6+,1007.0,2,METAR,METAR YPTN 230130Z AUTO 04013KT 9999 // NCD 31/23 Q1007,-14.523,132.383,135,"Tindal Arpt, NT, AU",CLR,[],VFR,,,,,,,,KTR,Tindal Airport,Australia,,https://www.worlddata.info/oceania/australia/airports.php
2372,YPWR,2025-11-23 01:35:14.485000+00:00,1763861400,2025-11-23T01:30:00.000Z,31.0,13.0,350,5.0,6+,1005.0,2,METAR,METAR YPWR 230130Z AUTO 35005KT 9999 // NCD 31/13 Q1005,-31.156,136.805,169,"Woomera Arpt, SA, AU",CLR,[],VFR,,,,,,,,UMR,Woomera Airfield,Australia,Woomera,https://www.worlddata.info/oceania/australia/airports.php
2373,YPXM,2025-11-23 01:36:10.475000+00:00,1763861400,2025-11-23T01:30:00.000Z,27.0,23.0,160,5.0,6+,1011.0,2,METAR,METAR YPXM 230130Z AUTO 16005KT 130V240 9999 // NCD 27/23 Q1011,-10.453,105.688,262,"Christmas Isl Arpt, CX, CX",CLR,[],VFR,,,,,,,,XCH,Christmas Island Airport,Christmas Island,Flying Fish Cove,https://www.worlddata.info/oceania/christmas-island/airports.php
2374,YSCB,2025-11-23 01:38:13.179000+00:00,1763861400,2025-11-23T01:30:00.000Z,25.0,14.0,290,13.0,6+,1008.0,2,METAR,METAR YSCB 230130Z AUTO 29013KT 280V340 9999 // SCT035 BKN079 25/14 Q1008,-35.309,149.2,577,"Canberra Intl, AC, AU",BKN,"[{'cover': 'SCT', 'base': 3500}, {'cover': 'BKN', 'base': 7900}]",VFR,,,,,,,,CBR,Canberra International Airport,Australia,Canberra,https://www.worlddata.info/oceania/australia/airports.php
2375,YSDU,2025-11-23 01:36:10.511000+00:00,1763861400,2025-11-23T01:30:00.000Z,31.0,14.0,210,9.0,6+,1009.0,2,METAR,METAR YSDU 230130Z AUTO 21009KT 9999 // FEW066 31/14 Q1009,-32.221,148.575,285,"Dubbo Rgnl, NS, AU",FEW,"[{'cover': 'FEW', 'base': 6600}]",VFR,,,,,,,,DBO,Dubbo City Regional Airport,Australia,Dubbo,https://www.worlddata.info/oceania/australia/airports.php
2376,YSNF,2025-11-23 02:01:03.900000+00:00,1763863200,2025-11-23T02:00:00.000Z,24.0,20.0,80,13.0,6+,1012.0,2,SPECI,SPECI YSNF 230200Z AUTO 08013KT 070V130 9999 // OVC014 24/20 Q1012,-29.039,167.941,113,"Norfolk Island Arpt, NS, NF",OVC,"[{'cover': 'OVC', 'base': 1400}]",MVFR,,,,,,,,NLK,Norfolk Island International Airport,Norfolk Island,Burnt Pine,https://www.worlddata.info/oceania/norfolk-island/airports.php
2377,YSRI,2025-11-23 01:36:10.593000+00:00,1763861400,2025-11-23T01:30:00.000Z,27.0,19.0,90,7.0,6+,1005.0,2,METAR,METAR YSRI 230130Z AUTO 09007KT 070V130 9999 // NCD 27/19 Q1005,-33.601,150.777,19,"Richmond, NS, AU",CLR,[],VFR,,,,,,,,XRH,RAAF Base Richmond,Australia,Richmond,https://www.worlddata.info/oceania/australia/airports.php
2378,YSSY,2025-11-23 01:36:14.618000+00:00,1763861400,2025-11-23T01:30:00.000Z,24.0,19.0,130,9.0,6+,1006.0,0,METAR,METAR YSSY 230130Z 13009KT 9999 FEW020 SCT035 24/19 Q1006,-33.946,151.173,3,"Sydney Intl, NS, AU",SCT,"[{'cover': 'FEW', 'base': 2000}, {'cover': 'SCT', 'base': 3500}]",VFR,,,,,,,,SYD,Sydney Kingsford Smith International Airport,Australia,Sydney,https://www.worlddata.info/oceania/australia/airports.php
2379,YSTW,2025-11-23 01:32:11.281000+00:00,1763861460,2025-11-23T01:31:00.000Z,30.0,18.0,270,15.0,6+,1009.0,2,SPECI,SPECI YSTW 230131Z AUTO 27015G27KT 9999 // FEW043 30/18 Q1009,-31.084,150.847,404,"Tamworth Arpt, NS, AU",FEW,"[{'cover': 'FEW', 'base': 4300}]",VFR,,,,,,27.0,,TMW,Tamworth Airport,Australia,Tamworth,https://www.worlddata.info/oceania/australia/airports.php
2380,YWLM,2025-11-23 01:38:29.140000+00:00,1763861400,2025-11-23T01:30:00.000Z,30.0,20.0,280,13.0,6+,1005.0,2,METAR,METAR YWLM 230130Z AUTO 28013KT 9999 // SCT042 30/20 Q1005,-32.794,151.836,7,"Williamtown/New Castle Arpt, NS, AU",SCT,"[{'cover': 'SCT', 'base': 4200}]",VFR,,,,,,,,NTL,Newcastle Airport,Australia,Williamtown,https://www.worlddata.info/oceania/australia/airports.php
2381,ZBAA,2025-11-23 01:35:17.356000+00:00,1763861400,2025-11-23T01:30:00.000Z,10.0,-5.0,VRB,2.0,6+,1017.0,16,METAR,METAR ZBAA 230130Z VRB01MPS CAVOK 10/M05 Q1017 NOSIG,40.082,116.603,31,"Beijing Intl, BJ, CN",CAVOK,[],VFR,,,,,,,,PEK,Beijing Capital International Airport,China,Beijing,https://www.worlddata.info/asia/china/airports.php
2382,ZBAD,2025-11-23 01:35:17.397000+00:00,1763861400,2025-11-23T01:30:00.000Z,8.0,-1.0,190,6.0,4.35,1017.0,16,METAR,METAR ZBAD 230130Z 19003MPS 7000 NSC 08/M01 Q1017 NOSIG,39.501,116.412,25,"Beijing/Daxing Arpt, BJ, CN",CLR,[],MVFR,,,,,,,,PKX,Beijing Daxing International Airport,China,Beijing,https://www.worlddata.info/asia/china/airports.php
2383,ZBTJ,2025-11-23 01:35:17.437000+00:00,1763861400,2025-11-23T01:30:00.000Z,11.0,-2.0,VRB,2.0,2.8,1017.0,16,METAR,METAR ZBTJ 230130Z VRB01MPS 4500 HZ NSC 11/M02 Q1017 NOSIG,39.124,117.346,4,"Tianjin/Binhai Intl, TJ, CN",CLR,[],IFR,HZ,,,,,,,TSN,Tianjin Binhai International Airport,China,Tianjin,https://www.worlddata.info/asia/china/airports.php
2384,ZBYN,2025-11-23 01:35:17.477000+00:00,1763861400,2025-11-23T01:30:00.000Z,4.0,-7.0,90,4.0,4.35,1021.0,16,METAR,METAR ZBYN 230130Z 09002MPS 050V130 7000 NSC 04/M07 Q1021 NOSIG,37.747,112.628,778,"Taiyuan/Wusu Intl, SX, CN",CLR,[],MVFR,,,,,,,,TYN,Taiyuan Wusu Airport,China,Taiyuan,https://www.worlddata.info/asia/china/airports.php
2385,ZGGG,2025-11-23 01:35:17.515000+00:00,1763861400,2025-11-23T01:30:00.000Z,20.0,8.0,VRB,2.0,6+,1023.0,16,METAR,METAR ZGGG 230130Z VRB01MPS CAVOK 20/08 Q1023 NOSIG,23.392,113.307,11,"Guangzhou/Baiyun Intl, GD, CN",CAVOK,[],VFR,,,,,,,,CAN,Guangzhou Baiyun International Airport,China,Guangzhou (Huadu),https://www.worlddata.info/asia/china/airports.php
2386,ZMCK,2025-11-23 02:01:23.131000+00:00,1763863200,2025-11-23T02:00:00.000Z,-9.0,-11.0,VRB,2.0,1.18,1015.0,16,METAR,METAR ZMCK 230200Z VRB01MPS 1900 1200E R29/1400U SN BKN030 M09/M11 Q1015 NOSIG RMK QFE646.2 88 E W MO,47.651,106.822,1366,"Ulaanbaatar Intl, 1, MN",BKN,"[{'cover': 'BKN', 'base': 3000}]",IFR,SN,,,,,,,UBN,Ulaanbaatar Chinggis Khaan International Airport,Mongolia,Ulaanbaatar (Sergelen),https://www.worlddata.info/asia/mongolia/airports.php
2387,ZMUB,2025-11-23 01:55:30.119000+00:00,1763863200,2025-11-23T02:00:00.000Z,-9.0,-10.0,0,0.0,3.73,1016.0,16,METAR,METAR ZMUB 230200Z 00000MPS 6000 SN SCT030 SCT080 M09/M10 Q1016 NOSIG RMK QFE654.8 87 NW MO,47.843,106.766,1300,"Ulan-Bator/Khaan Arpt, 1, MN",SCT,"[{'cover': 'SCT', 'base': 3000}, {'cover': 'SCT', 'base': 8000}]",MVFR,SN,,,,,,,ULN,Buyant-Ukhaa International Airport,Mongolia,Ulaanbaatar,https://www.worlddata.info/asia/mongolia/airports.php
2388,ZSHC,2025-11-23 01:35:17.556000+00:00,1763861400,2025-11-23T01:30:00.000Z,13.0,5.0,230,4.0,3.11,1024.0,16,METAR,METAR ZSHC 230130Z 23002MPS 180V260 5000 HZ NSC 13/05 Q1024 NOSIG,30.229,120.434,8,"Hangzhou/Xiaoshan Intl, ZJ, CN",CLR,[],MVFR,HZ,,,,,,,HGH,Hangzhou Xiaoshan International Airport,China,Hangzhou,https://www.worlddata.info/asia/china/airports.php
2389,ZSPD,2025-11-23 01:35:17.613000+00:00,1763861400,2025-11-23T01:30:00.000Z,16.0,10.0,190,10.0,3.73,1024.0,16,METAR,METAR ZSPD 230130Z 19005MPS 6000 NSC 16/10 Q1024 NOSIG,31.146,121.8,4,"Shanghai/Pudong Intl, SH, CN",CLR,[],MVFR,,,,,,,,PVG,Shanghai Pudong International Airport,China,Shanghai (Pudong),https://www.worlddata.info/asia/china/airports.php
2390,ZSSS,2025-11-23 01:35:17.656000+00:00,1763861400,2025-11-23T01:30:00.000Z,16.0,6.0,180,4.0,4.97,1024.0,16,METAR,METAR ZSSS 230130Z 18002MPS 150V250 8000 NSC 16/06 Q1024 NOSIG,31.209,121.337,2,"Shanghai/Hongqiao Intl, SH, CN",CLR,[],MVFR,,,,,,,,SHA,Shanghai Hongqiao International Airport,China,Shanghai (Minhang),https://www.worlddata.info/asia/china/airports.php
2391,ZWWW,2025-11-23 01:35:17.695000+00:00,1763861400,2025-11-23T01:30:00.000Z,0.0,-5.0,160,6.0,6+,1039.0,16,METAR,METAR ZWWW 230130Z 16003MPS 130V200 CAVOK 00/M05 Q1039 NOSIG,43.907,87.474,654,"Ürümqi/Diwopu Arpt, XJ, CN",CAVOK,[],VFR,,,,,,,,URC,Ürümqi Diwopu International Airport,China,Ürümqi,https://www.worlddata.info/asia/china/airports.php
2392,ZYTL,2025-11-23 01:35:17.742000+00:00,1763861400,2025-11-23T01:30:00.000Z,13.0,6.0,VRB,2.0,1.86,1017.0,16,METAR,METAR ZYTL 230130Z VRB01MPS 3000 BR NSC 13/06 Q1017 NOSIG,38.961,121.556,33,"Dalian/Zhoushuizi Intl, LN, CN",CLR,[],IFR,BR,,,,,,,DLC,Dalian Zhoushuizi International Airport,China,Dalian (Ganjingzi),https://www.worlddata.info/asia/china/airports.php
2393,ZYTX,2025-11-23 01:35:17.783000+00:00,1763861400,2025-11-23T01:30:00.000Z,10.0,0.0,190,8.0,4.97,1016.0,16,METAR,METAR ZYTX 230130Z 19004MPS 8000 NSC 10/00 Q1016 NOSIG,41.639,123.485,56,"Shenyang/Taoxian Intl, LN, CN",CLR,[],MVFR,,,,,,,,SHE,Shenyang Taoxian International Airport,China,"Hunnan, Shenyang",https://www.worlddata.info/asia/china/airports.php
